{"type":"FeatureCollection","features":[{"type":"Feature","properties":{"survey":"bds","sheet":"001","dag":"13","label_bn":"13","area_sqm":874.9},"geometry":{"type":"Polygon","coordinates":[[[90.326623,23.824973],[90.326613,23.825029],[90.326275,23.824987],[90.326183,23.824973],[90.326183,23.824952],[90.326182,23.824917],[90.326274,23.824866],[90.326361,23.824824],[90.326483,23.824766],[90.326505,23.82481],[90.32665,23.824834],[90.326635,23.824911],[90.326623,23.824973]]]}},{"type":"Feature","properties":{"survey":"bds","sheet":"001","dag":"14","label_bn":"14","area_sqm":1285.3},"geometry":{"type":"Polygon","coordinates":[[[90.326578,23.825252],[90.326575,23.825287],[90.326154,23.825249],[90.326168,23.82517],[90.326169,23.825156],[90.326183,23.824973],[90.326275,23.824987],[90.326613,23.825029],[90.32659,23.825165],[90.326577,23.825238],[90.326578,23.825252]]]}},{"type":"Feature","properties":{"survey":"bds","sheet":"001","dag":"36","label_bn":"36","area_sqm":522.8},"geometry":{"type":"Polygon","coordinates":[[[90.327127,23.825302],[90.327103,23.825384],[90.326901,23.825329],[90.326578,23.825252],[90.326577,23.825238],[90.32659,23.825165],[90.327127,23.825302]]]}},{"type":"Feature","properties":{"survey":"bds","sheet":"001","dag":"37","label_bn":"37","area_sqm":406.6},"geometry":{"type":"Polygon","coordinates":[[[90.327522,23.825403],[90.327497,23.825491],[90.327296,23.825437],[90.327103,23.825384],[90.327127,23.825302],[90.327246,23.825333],[90.327312,23.825352],[90.327522,23.825403]]]}},{"type":"Feature","properties":{"survey":"bds","sheet":"001","dag":"39","label_bn":"39","area_sqm":3054.3},"geometry":{"type":"Polygon","coordinates":[[[90.327976,23.825315],[90.327889,23.825493],[90.327522,23.825403],[90.327312,23.825352],[90.327246,23.825333],[90.327127,23.825302],[90.32659,23.825165],[90.326613,23.825029],[90.326623,23.824973],[90.32721,23.825122],[90.327359,23.82516],[90.327443,23.825177],[90.327706,23.82524],[90.327942,23.825305],[90.327976,23.825315]]]}},{"type":"Feature","properties":{"survey":"bds","sheet":"001","dag":"12","label_bn":"12","area_sqm":6988.4},"geometry":{"type":"Polygon","coordinates":[[[90.325285,23.825433],[90.325165,23.825498],[90.325148,23.825347],[90.325087,23.824787],[90.325161,23.824771],[90.325289,23.824746],[90.325355,23.824723],[90.325493,23.824664],[90.325545,23.824639],[90.32564,23.824594],[90.3257,23.824606],[90.326484,23.824763],[90.326483,23.824766],[90.326361,23.824824],[90.326274,23.824866],[90.326182,23.824917],[90.326163,23.824928],[90.326051,23.824989],[90.325958,23.825048],[90.325865,23.825108],[90.325693,23.825216],[90.325566,23.825298],[90.325457,23.825346],[90.32535,23.825398],[90.325304,23.825423],[90.325285,23.825433]]]}},{"type":"Feature","properties":{"survey":"bds","sheet":"001","dag":"38","label_bn":"38","area_sqm":406.7},"geometry":{"type":"Polygon","coordinates":[[[90.327889,23.825493],[90.327855,23.825588],[90.327497,23.825491],[90.327522,23.825403],[90.327889,23.825493]]]}},{"type":"Feature","properties":{"survey":"bds","sheet":"001","dag":"15","label_bn":"15","area_sqm":1654.9},"geometry":{"type":"Polygon","coordinates":[[[90.326479,23.825647],[90.326477,23.82566],[90.326479,23.825646],[90.326096,23.825595],[90.326154,23.825249],[90.326575,23.825287],[90.326565,23.825358],[90.326515,23.825507],[90.326479,23.825647]]]}},{"type":"Feature","properties":{"survey":"bds","sheet":"001","dag":"35","label_bn":"35","area_sqm":1505.0},"geometry":{"type":"Polygon","coordinates":[[[90.327855,23.825588],[90.327821,23.825691],[90.327281,23.825534],[90.327168,23.825499],[90.326881,23.825428],[90.326565,23.825358],[90.326575,23.825287],[90.326578,23.825252],[90.326901,23.825329],[90.327103,23.825384],[90.327296,23.825437],[90.327497,23.825491],[90.327855,23.825588]]]}},{"type":"Feature","properties":{"survey":"bds","sheet":"001","dag":"34","label_bn":"34","area_sqm":2342.0},"geometry":{"type":"Polygon","coordinates":[[[90.327821,23.825691],[90.327744,23.825839],[90.327243,23.825689],[90.327146,23.825663],[90.327078,23.825643],[90.326977,23.825616],[90.326682,23.825545],[90.326515,23.825507],[90.326565,23.825358],[90.326881,23.825428],[90.327168,23.825499],[90.327281,23.825534],[90.327821,23.825691]]]}},{"type":"Feature","properties":{"survey":"bds","sheet":"001","dag":"33","label_bn":"33","area_sqm":2152.4},"geometry":{"type":"Polygon","coordinates":[[[90.327078,23.825643],[90.326986,23.825951],[90.326952,23.825945],[90.326859,23.825926],[90.326455,23.825848],[90.326458,23.825822],[90.326463,23.825735],[90.326477,23.82566],[90.326479,23.825647],[90.326515,23.825507],[90.326682,23.825545],[90.326977,23.825616],[90.327078,23.825643]]]}},{"type":"Feature","properties":{"survey":"bds","sheet":"001","dag":"20","label_bn":"20","area_sqm":325.3},"geometry":{"type":"Polygon","coordinates":[[[90.326859,23.825926],[90.326841,23.825993],[90.326443,23.825918],[90.326455,23.825848],[90.326859,23.825926]]]}},{"type":"Feature","properties":{"survey":"bds","sheet":"001","dag":"16","label_bn":"16","area_sqm":1590.2},"geometry":{"type":"Polygon","coordinates":[[[90.326443,23.825918],[90.326429,23.826007],[90.326048,23.825953],[90.326096,23.825595],[90.326479,23.825646],[90.326477,23.82566],[90.326463,23.825735],[90.326458,23.825822],[90.326455,23.825848],[90.326443,23.825918]]]}},{"type":"Feature","properties":{"survey":"bds","sheet":"001","dag":"32","label_bn":"32","area_sqm":2195.4},"geometry":{"type":"Polygon","coordinates":[[[90.32764,23.826016],[90.327613,23.826078],[90.327402,23.826032],[90.326986,23.825951],[90.327078,23.825643],[90.327146,23.825663],[90.327243,23.825689],[90.327744,23.825839],[90.32764,23.826016]]]}},{"type":"Feature","properties":{"survey":"bds","sheet":"001","dag":"31","label_bn":"31","area_sqm":894.5},"geometry":{"type":"Polygon","coordinates":[[[90.327542,23.826393],[90.327538,23.826432],[90.32732,23.826388],[90.327402,23.826032],[90.327613,23.826078],[90.327542,23.826393]]]}},{"type":"Feature","properties":{"survey":"bds","sheet":"001","dag":"17","label_bn":"17","area_sqm":1915.9},"geometry":{"type":"Polygon","coordinates":[[[90.326339,23.826367],[90.326307,23.826479],[90.325991,23.826424],[90.32603,23.826211],[90.326033,23.82605],[90.326048,23.825953],[90.326429,23.826007],[90.326393,23.826179],[90.326339,23.826367]]]}},{"type":"Feature","properties":{"survey":"bds","sheet":"001","dag":"19","label_bn":"19","area_sqm":2170.0},"geometry":{"type":"Polygon","coordinates":[[[90.32672,23.826471],[90.326715,23.826488],[90.326339,23.826367],[90.326393,23.826179],[90.326429,23.826007],[90.326443,23.825918],[90.326841,23.825993],[90.326841,23.825996],[90.326763,23.826301],[90.32672,23.826471]]]}},{"type":"Feature","properties":{"survey":"bds","sheet":"001","dag":"18","label_bn":"18","area_sqm":610.0},"geometry":{"type":"Polygon","coordinates":[[[90.326715,23.826488],[90.326676,23.826642],[90.32634,23.82649],[90.326307,23.826479],[90.326339,23.826367],[90.326715,23.826488]]]}},{"type":"Feature","properties":{"survey":"bds","sheet":"001","dag":"21","label_bn":"21","area_sqm":5218.4},"geometry":{"type":"Polygon","coordinates":[[[90.32732,23.826388],[90.327217,23.82684],[90.327072,23.826818],[90.326975,23.826812],[90.326853,23.826766],[90.326686,23.826653],[90.326676,23.826642],[90.326715,23.826488],[90.32672,23.826471],[90.326763,23.826301],[90.326841,23.825996],[90.326841,23.825993],[90.326859,23.825926],[90.326952,23.825945],[90.326986,23.825951],[90.327402,23.826032],[90.32732,23.826388]]]}},{"type":"Feature","properties":{"survey":"bds","sheet":"001","dag":"30","label_bn":"30","area_sqm":1225.0},"geometry":{"type":"Polygon","coordinates":[[[90.327483,23.826751],[90.327433,23.826885],[90.327217,23.82684],[90.32732,23.826388],[90.327538,23.826432],[90.327533,23.826475],[90.327515,23.826593],[90.327483,23.826751]]]}},{"type":"Feature","properties":{"survey":"bds","sheet":"001","dag":"8","label_bn":"8","area_sqm":60.5},"geometry":{"type":"Polygon","coordinates":[[[90.325124,23.827085],[90.325042,23.827175],[90.325011,23.82715],[90.325015,23.827145],[90.325061,23.827092],[90.32509,23.827049],[90.325124,23.827085]]]}},{"type":"Feature","properties":{"survey":"bds","sheet":"001","dag":"7","label_bn":"7","area_sqm":98.7},"geometry":{"type":"Polygon","coordinates":[[[90.325042,23.827175],[90.32497,23.827293],[90.324897,23.827227],[90.324905,23.827222],[90.32496,23.827193],[90.325004,23.827158],[90.325011,23.82715],[90.325042,23.827175]]]}},{"type":"Feature","properties":{"survey":"bds","sheet":"001","dag":"22","label_bn":"22","area_sqm":3109.8},"geometry":{"type":"Polygon","coordinates":[[[90.326554,23.827331],[90.326554,23.827331],[90.326538,23.827327],[90.326207,23.827328],[90.326207,23.827328],[90.326244,23.826985],[90.326308,23.826628],[90.32634,23.82649],[90.326676,23.826642],[90.326686,23.826653],[90.326579,23.827073],[90.326554,23.827331]]]}},{"type":"Feature","properties":{"survey":"bds","sheet":"001","dag":"23","label_bn":"23","area_sqm":2177.1},"geometry":{"type":"Polygon","coordinates":[[[90.32678,23.827368],[90.326773,23.827374],[90.326554,23.827331],[90.326554,23.827331],[90.326579,23.827073],[90.326686,23.826653],[90.326853,23.826766],[90.326975,23.826812],[90.32685,23.827265],[90.326832,23.827324],[90.32683,23.827324],[90.326805,23.827346],[90.32678,23.827368]]]}},{"type":"Feature","properties":{"survey":"bds","sheet":"001","dag":"11","label_bn":"11","area_sqm":22359.0},"geometry":{"type":"Polygon","coordinates":[[[90.325794,23.827353],[90.325684,23.827405],[90.325673,23.827392],[90.325257,23.826891],[90.325218,23.826834],[90.325222,23.826825],[90.325227,23.826811],[90.325235,23.826754],[90.325272,23.826641],[90.325311,23.826476],[90.325271,23.826465],[90.325253,23.826461],[90.325214,23.826512],[90.325132,23.826486],[90.325133,23.826425],[90.325137,23.826179],[90.325139,23.826044],[90.325077,23.825622],[90.32513,23.825513],[90.325165,23.825498],[90.325285,23.825433],[90.325304,23.825423],[90.32535,23.825398],[90.325457,23.825346],[90.325566,23.825298],[90.325693,23.825216],[90.325865,23.825108],[90.325958,23.825048],[90.326051,23.824989],[90.326163,23.824928],[90.326182,23.824917],[90.326183,23.824952],[90.326183,23.824973],[90.326169,23.825156],[90.326168,23.82517],[90.326154,23.825249],[90.326096,23.825595],[90.326048,23.825953],[90.326033,23.82605],[90.32603,23.826211],[90.325991,23.826424],[90.326307,23.826479],[90.32634,23.82649],[90.326308,23.826628],[90.326244,23.826985],[90.326207,23.827328],[90.326207,23.827328],[90.326206,23.827328],[90.325869,23.827327],[90.325794,23.827353]]]}},{"type":"Feature","properties":{"survey":"bds","sheet":"001","dag":"27","label_bn":"27","area_sqm":660.4},"geometry":{"type":"Polygon","coordinates":[[[90.326928,23.827396],[90.326922,23.827422],[90.326921,23.827422],[90.326898,23.827398],[90.326895,23.827392],[90.326889,23.827381],[90.326871,23.827345],[90.326854,23.827322],[90.326832,23.827324],[90.32685,23.827265],[90.326975,23.826812],[90.327072,23.826818],[90.326931,23.827383],[90.326928,23.827396]]]}},{"type":"Feature","properties":{"survey":"bds","sheet":"001","dag":"28","label_bn":"28","area_sqm":2279.1},"geometry":{"type":"Polygon","coordinates":[[[90.327263,23.82743],[90.327258,23.827451],[90.32693,23.827396],[90.326928,23.827396],[90.326931,23.827383],[90.327072,23.826818],[90.327217,23.82684],[90.327433,23.826885],[90.327389,23.826979],[90.327326,23.827163],[90.327263,23.82743]]]}},{"type":"Feature","properties":{"survey":"bds","sheet":"001","dag":"10","label_bn":"10","area_sqm":1346.1},"geometry":{"type":"Polygon","coordinates":[[[90.325678,23.827407],[90.325575,23.827453],[90.325558,23.827439],[90.325124,23.827085],[90.32509,23.827049],[90.325096,23.82704],[90.325114,23.827013],[90.325202,23.826875],[90.325218,23.826834],[90.325257,23.826891],[90.325673,23.827392],[90.325684,23.827405],[90.325678,23.827407]]]}},{"type":"Feature","properties":{"survey":"bds","sheet":"001","dag":"9","label_bn":"9","area_sqm":597.7},"geometry":{"type":"Polygon","coordinates":[[[90.325574,23.827453],[90.325514,23.827486],[90.325485,23.827467],[90.325042,23.827175],[90.325124,23.827085],[90.325558,23.827439],[90.325575,23.827453],[90.325574,23.827453]]]}},{"type":"Feature","properties":{"survey":"bds","sheet":"001","dag":"29","label_bn":"29","area_sqm":3529.6},"geometry":{"type":"Polygon","coordinates":[[[90.327506,23.827491],[90.327498,23.827502],[90.32726,23.827451],[90.327258,23.827451],[90.327263,23.82743],[90.327326,23.827163],[90.327389,23.826979],[90.327433,23.826885],[90.327483,23.826751],[90.327515,23.826593],[90.327533,23.826475],[90.327538,23.826432],[90.327542,23.826393],[90.327886,23.826483],[90.327833,23.826633],[90.327763,23.826824],[90.327752,23.826856],[90.327693,23.826999],[90.327672,23.827033],[90.327552,23.82729],[90.327506,23.827491]]]}},{"type":"Feature","properties":{"survey":"bds","sheet":"001","dag":"26","label_bn":"26","area_sqm":175.2},"geometry":{"type":"Polygon","coordinates":[[[90.327498,23.827502],[90.327484,23.827521],[90.327441,23.827511],[90.327258,23.827485],[90.327251,23.827483],[90.327059,23.827442],[90.326922,23.827422],[90.326928,23.827396],[90.32693,23.827396],[90.327258,23.827451],[90.32726,23.827451],[90.327498,23.827502]]]}},{"type":"Feature","properties":{"survey":"bds","sheet":"001","dag":"6","label_bn":"6","area_sqm":970.3},"geometry":{"type":"Polygon","coordinates":[[[90.32551,23.827488],[90.325416,23.827548],[90.325392,23.827539],[90.324928,23.827359],[90.32497,23.827293],[90.325042,23.827175],[90.325485,23.827467],[90.325514,23.827486],[90.32551,23.827488]]]}},{"type":"Feature","properties":{"survey":"bds","sheet":"001","dag":"5","label_bn":"5","area_sqm":4080.2},"geometry":{"type":"Polygon","coordinates":[[[90.325163,23.827889],[90.325142,23.828026],[90.325119,23.828022],[90.324889,23.827986],[90.324915,23.827856],[90.324778,23.827822],[90.324754,23.827816],[90.32455,23.827758],[90.324561,23.827715],[90.324607,23.827578],[90.324661,23.827427],[90.32471,23.82732],[90.324722,23.827305],[90.324749,23.82729],[90.324786,23.827274],[90.324879,23.827236],[90.324897,23.827227],[90.32497,23.827293],[90.324928,23.827359],[90.325392,23.827539],[90.325416,23.827548],[90.325407,23.827554],[90.325234,23.827736],[90.325163,23.827889]]]}},{"type":"Feature","properties":{"survey":"bds","sheet":"001","dag":"4","label_bn":"4","area_sqm":491.0},"geometry":{"type":"Polygon","coordinates":[[[90.325097,23.828192],[90.325097,23.828194],[90.32508,23.828192],[90.324855,23.828159],[90.324874,23.828083],[90.324889,23.827986],[90.325119,23.828022],[90.325142,23.828026],[90.325142,23.828028],[90.325097,23.828192]]]}},{"type":"Feature","properties":{"survey":"bds","sheet":"001","dag":"1","label_bn":"1","area_sqm":2316.6},"geometry":{"type":"Polygon","coordinates":[[[90.324424,23.828374],[90.32441,23.828457],[90.324368,23.828449],[90.324345,23.828444],[90.324298,23.828434],[90.324302,23.82842],[90.324337,23.828276],[90.324353,23.828203],[90.324377,23.828113],[90.324402,23.827982],[90.324418,23.827893],[90.32444,23.827817],[90.324456,23.827731],[90.324466,23.827672],[90.32449,23.827598],[90.324513,23.827548],[90.324515,23.827544],[90.324548,23.827472],[90.324589,23.827341],[90.324624,23.827291],[90.324639,23.827281],[90.324672,23.827258],[90.324714,23.827241],[90.324789,23.827223],[90.324868,23.8272],[90.324948,23.8271],[90.325006,23.827027],[90.325031,23.826986],[90.325097,23.826876],[90.325132,23.826807],[90.32514,23.826775],[90.325167,23.826661],[90.325214,23.826512],[90.325253,23.826461],[90.325271,23.826465],[90.325311,23.826476],[90.325272,23.826641],[90.325235,23.826754],[90.325227,23.826811],[90.325222,23.826825],[90.325218,23.826834],[90.325202,23.826875],[90.325114,23.827013],[90.325096,23.82704],[90.32509,23.827049],[90.325061,23.827092],[90.325015,23.827145],[90.325011,23.82715],[90.325004,23.827158],[90.32496,23.827193],[90.324905,23.827222],[90.324897,23.827227],[90.324879,23.827236],[90.324786,23.827274],[90.324749,23.82729],[90.324722,23.827305],[90.32471,23.82732],[90.324661,23.827427],[90.324607,23.827578],[90.324561,23.827715],[90.32455,23.827758],[90.324548,23.827764],[90.324542,23.827787],[90.324469,23.828172],[90.32445,23.828271],[90.324437,23.828322],[90.324424,23.828374]]]}},{"type":"Feature","properties":{"survey":"bds","sheet":"001","dag":"3","label_bn":"3","area_sqm":806.2},"geometry":{"type":"Polygon","coordinates":[[[90.325083,23.828348],[90.325031,23.828461],[90.325012,23.828458],[90.324768,23.828418],[90.32481,23.82831],[90.324849,23.82821],[90.324855,23.828159],[90.32508,23.828192],[90.325097,23.828194],[90.325083,23.828348]]]}},{"type":"Feature","properties":{"survey":"bds","sheet":"001","dag":"2","label_bn":"2","area_sqm":4048.4},"geometry":{"type":"Polygon","coordinates":[[[90.325031,23.828461],[90.325009,23.82875],[90.325003,23.828749],[90.324908,23.828733],[90.324696,23.828678],[90.324605,23.82865],[90.324611,23.828598],[90.324621,23.828506],[90.324412,23.828458],[90.32441,23.828457],[90.324424,23.828374],[90.324437,23.828322],[90.32445,23.828271],[90.324469,23.828172],[90.324542,23.827787],[90.324548,23.827764],[90.32455,23.827758],[90.324754,23.827816],[90.324778,23.827822],[90.324915,23.827856],[90.324889,23.827986],[90.324874,23.828083],[90.324855,23.828159],[90.324849,23.82821],[90.32481,23.82831],[90.324768,23.828418],[90.325012,23.828458],[90.325031,23.828461]]]}},{"type":"Feature","properties":{"survey":"bds","sheet":"001","dag":"24","label_bn":"24","area_sqm":1399.4},"geometry":{"type":"Polygon","coordinates":[[[90.325049,23.828618],[90.325024,23.828753],[90.325009,23.82875],[90.325031,23.828461],[90.325083,23.828348],[90.325097,23.828194],[90.325097,23.828192],[90.325142,23.828028],[90.325142,23.828026],[90.325163,23.827889],[90.325234,23.827736],[90.325407,23.827554],[90.325416,23.827548],[90.32551,23.827488],[90.325514,23.827486],[90.325574,23.827453],[90.325575,23.827453],[90.325678,23.827407],[90.325684,23.827405],[90.325794,23.827353],[90.325869,23.827327],[90.326206,23.827328],[90.326207,23.827328],[90.326538,23.827327],[90.326554,23.827331],[90.326773,23.827374],[90.326753,23.827392],[90.326668,23.827389],[90.326549,23.827379],[90.32654,23.827378],[90.326331,23.827376],[90.326201,23.827378],[90.326071,23.82738],[90.325871,23.827391],[90.325706,23.827401],[90.325692,23.827414],[90.325617,23.827487],[90.325603,23.8275],[90.325572,23.827524],[90.325504,23.827575],[90.325498,23.82758],[90.325395,23.827658],[90.325277,23.827827],[90.325204,23.827943],[90.325171,23.828024],[90.325169,23.82803],[90.32513,23.828199],[90.325119,23.828247],[90.325077,23.828468],[90.325049,23.828618]]]}},{"type":"Feature","properties":{"survey":"bds","sheet":"001","dag":"25","label_bn":"25","area_sqm":10167.6},"geometry":{"type":"Polygon","coordinates":[[[90.325323,23.828624],[90.325305,23.828787],[90.32521,23.828782],[90.325024,23.828753],[90.325049,23.828618],[90.325077,23.828468],[90.325119,23.828247],[90.32513,23.828199],[90.325169,23.82803],[90.325171,23.828024],[90.325204,23.827943],[90.325277,23.827827],[90.325395,23.827658],[90.325498,23.82758],[90.325504,23.827575],[90.325572,23.827524],[90.325603,23.8275],[90.325617,23.827487],[90.325692,23.827414],[90.325706,23.827401],[90.325871,23.827391],[90.326071,23.82738],[90.326201,23.827378],[90.326331,23.827376],[90.32654,23.827378],[90.326549,23.827379],[90.326668,23.827389],[90.326753,23.827392],[90.326773,23.827374],[90.32678,23.827368],[90.326805,23.827346],[90.32683,23.827324],[90.326832,23.827324],[90.326854,23.827322],[90.326871,23.827345],[90.326889,23.827381],[90.326895,23.827392],[90.326898,23.827398],[90.326921,23.827422],[90.326922,23.827422],[90.327059,23.827442],[90.327251,23.827483],[90.327258,23.827485],[90.327441,23.827511],[90.327484,23.827521],[90.327489,23.827817],[90.327114,23.827739],[90.32697,23.827714],[90.326911,23.827712],[90.326834,23.82771],[90.326718,23.827695],[90.32658,23.827685],[90.326464,23.827677],[90.326283,23.827664],[90.326165,23.827633],[90.326092,23.827654],[90.325898,23.827689],[90.325876,23.827693],[90.325843,23.827707],[90.325774,23.827735],[90.325687,23.827782],[90.325574,23.82786],[90.325517,23.827914],[90.325503,23.827972],[90.325485,23.82802],[90.325431,23.8281],[90.325408,23.828183],[90.325378,23.82829],[90.325339,23.828476],[90.325323,23.828624]]]}}]}