{"type":"FeatureCollection","features":[{"type":"Feature","properties":{"survey":"bds","sheet":"002","dag":"501","label_bn":"501","area_sqm":9651.1},"geometry":{"type":"Polygon","coordinates":[[[90.330347,23.828774],[90.330107,23.828996],[90.329962,23.828875],[90.329822,23.828725],[90.329744,23.828662],[90.329523,23.828514],[90.329439,23.828471],[90.329274,23.828386],[90.329121,23.828283],[90.328947,23.828189],[90.328686,23.828101],[90.328317,23.828009],[90.327986,23.827926],[90.327856,23.827884],[90.327489,23.827817],[90.327484,23.827521],[90.327527,23.827531],[90.327705,23.827586],[90.327809,23.827613],[90.327922,23.827631],[90.328,23.827639],[90.328049,23.827642],[90.328126,23.827638],[90.328181,23.827683],[90.328229,23.827715],[90.328316,23.827754],[90.328431,23.827794],[90.328566,23.827831],[90.328725,23.827875],[90.328826,23.827894],[90.328942,23.827929],[90.329055,23.827978],[90.329196,23.828031],[90.32928,23.828082],[90.329322,23.828117],[90.329368,23.828151],[90.329416,23.828171],[90.32957,23.828237],[90.329674,23.828276],[90.32981,23.828338],[90.329954,23.828427],[90.330065,23.828496],[90.330114,23.828527],[90.3303,23.828642],[90.330354,23.828675],[90.330378,23.82869],[90.330413,23.828712],[90.330412,23.828714],[90.330347,23.828774]]]}},{"type":"Feature","properties":{"survey":"bds","sheet":"002","dag":"502","label_bn":"502","area_sqm":2270.3},"geometry":{"type":"Polygon","coordinates":[[[90.329883,23.828317],[90.330065,23.828496],[90.329954,23.828427],[90.32981,23.828338],[90.329674,23.828276],[90.32957,23.828237],[90.329416,23.828171],[90.329368,23.828151],[90.329322,23.828117],[90.32928,23.828082],[90.329196,23.828031],[90.329055,23.827978],[90.328942,23.827929],[90.328826,23.827894],[90.328725,23.827875],[90.328566,23.827831],[90.328431,23.827794],[90.328316,23.827754],[90.328229,23.827715],[90.328181,23.827683],[90.328126,23.827638],[90.328049,23.827642],[90.328,23.827639],[90.327922,23.827631],[90.327809,23.827613],[90.327705,23.827586],[90.327527,23.827531],[90.327484,23.827521],[90.327506,23.827491],[90.327727,23.827551],[90.3279,23.827573],[90.328161,23.827633],[90.328495,23.827692],[90.328733,23.827766],[90.328939,23.827825],[90.32906,23.827878],[90.329164,23.827931],[90.329479,23.828084],[90.329704,23.828216],[90.329803,23.828267],[90.329883,23.828317]]]}},{"type":"Feature","properties":{"survey":"bds","sheet":"002","dag":"503","label_bn":"503","area_sqm":2463.1},"geometry":{"type":"Polygon","coordinates":[[[90.327934,23.827479],[90.3279,23.827573],[90.327727,23.827551],[90.327506,23.827491],[90.327552,23.82729],[90.327672,23.827033],[90.327693,23.826999],[90.327699,23.826984],[90.328072,23.827096],[90.328065,23.827113],[90.328033,23.827202],[90.328001,23.827293],[90.327968,23.827384],[90.327934,23.827479]]]}},{"type":"Feature","properties":{"survey":"bds","sheet":"002","dag":"504","label_bn":"504","area_sqm":286.3},"geometry":{"type":"Polygon","coordinates":[[[90.32819,23.827549],[90.328161,23.827633],[90.3279,23.827573],[90.327934,23.827479],[90.32819,23.827549]]]}},{"type":"Feature","properties":{"survey":"bds","sheet":"002","dag":"505","label_bn":"505","area_sqm":285.0},"geometry":{"type":"Polygon","coordinates":[[[90.32822,23.827464],[90.32819,23.827549],[90.327934,23.827479],[90.327968,23.827384],[90.32822,23.827464]]]}},{"type":"Feature","properties":{"survey":"bds","sheet":"002","dag":"506","label_bn":"506","area_sqm":286.6},"geometry":{"type":"Polygon","coordinates":[[[90.328251,23.827375],[90.32822,23.827464],[90.327968,23.827384],[90.328001,23.827293],[90.328251,23.827375]]]}},{"type":"Feature","properties":{"survey":"bds","sheet":"002","dag":"507","label_bn":"507","area_sqm":286.4},"geometry":{"type":"Polygon","coordinates":[[[90.328283,23.827285],[90.328251,23.827375],[90.328001,23.827293],[90.328033,23.827202],[90.328283,23.827285]]]}},{"type":"Feature","properties":{"survey":"bds","sheet":"002","dag":"508","label_bn":"508","area_sqm":280.6},"geometry":{"type":"Polygon","coordinates":[[[90.328314,23.827196],[90.328283,23.827285],[90.328033,23.827202],[90.328065,23.827113],[90.328314,23.827196]]]}},{"type":"Feature","properties":{"survey":"bds","sheet":"002","dag":"509","label_bn":"509","area_sqm":552.9},"geometry":{"type":"Polygon","coordinates":[[[90.32836,23.82699],[90.328314,23.827196],[90.328065,23.827113],[90.328072,23.827096],[90.328125,23.826961],[90.328134,23.826941],[90.32836,23.82699]]]}},{"type":"Feature","properties":{"survey":"bds","sheet":"002","dag":"510","label_bn":"510","area_sqm":844.2},"geometry":{"type":"Polygon","coordinates":[[[90.328125,23.826961],[90.328072,23.827096],[90.327699,23.826984],[90.327752,23.826856],[90.327763,23.826824],[90.327769,23.826808],[90.328142,23.826913],[90.328134,23.826941],[90.328125,23.826961]]]}},{"type":"Feature","properties":{"survey":"bds","sheet":"002","dag":"511","label_bn":"511","area_sqm":2014.2},"geometry":{"type":"Polygon","coordinates":[[[90.328197,23.826725],[90.328142,23.826913],[90.327769,23.826808],[90.327833,23.826633],[90.327886,23.826483],[90.327933,23.826366],[90.328293,23.826467],[90.328284,23.826491],[90.328197,23.826725]]]}},{"type":"Feature","properties":{"survey":"bds","sheet":"002","dag":"512","label_bn":"512","area_sqm":532.3},"geometry":{"type":"Polygon","coordinates":[[[90.328418,23.826829],[90.32836,23.82699],[90.328134,23.826941],[90.328142,23.826913],[90.328197,23.826725],[90.328418,23.826829]]]}},{"type":"Feature","properties":{"survey":"bds","sheet":"002","dag":"513","label_bn":"513","area_sqm":4109.5},"geometry":{"type":"Polygon","coordinates":[[[90.328585,23.827171],[90.328495,23.827692],[90.328161,23.827633],[90.32819,23.827549],[90.32822,23.827464],[90.328251,23.827375],[90.328283,23.827285],[90.328314,23.827196],[90.32836,23.82699],[90.328418,23.826829],[90.328197,23.826725],[90.328284,23.826491],[90.328711,23.826569],[90.328705,23.826593],[90.328676,23.826712],[90.328652,23.82681],[90.328618,23.826951],[90.328603,23.827039],[90.328585,23.827171]]]}},{"type":"Feature","properties":{"survey":"bds","sheet":"002","dag":"514","label_bn":"514","area_sqm":3170.8},"geometry":{"type":"Polygon","coordinates":[[[90.328879,23.825872],[90.328711,23.826569],[90.328284,23.826491],[90.328293,23.826467],[90.328477,23.825978],[90.328531,23.825834],[90.328538,23.825802],[90.328879,23.825872]]]}},{"type":"Feature","properties":{"survey":"bds","sheet":"002","dag":"515","label_bn":"515","area_sqm":2189.8},"geometry":{"type":"Polygon","coordinates":[[[90.328477,23.825978],[90.328293,23.826467],[90.327933,23.826366],[90.328035,23.826113],[90.328088,23.82596],[90.328115,23.825876],[90.328477,23.825978]]]}},{"type":"Feature","properties":{"survey":"bds","sheet":"002","dag":"516","label_bn":"516","area_sqm":1719.9},"geometry":{"type":"Polygon","coordinates":[[[90.327933,23.826366],[90.327886,23.826483],[90.327542,23.826393],[90.327613,23.826078],[90.32764,23.826016],[90.328035,23.826113],[90.327933,23.826366]]]}},{"type":"Feature","properties":{"survey":"bds","sheet":"002","dag":"517","label_bn":"517","area_sqm":4332.2},"geometry":{"type":"Polygon","coordinates":[[[90.328088,23.82596],[90.328035,23.826113],[90.32764,23.826016],[90.327744,23.825839],[90.327821,23.825691],[90.327855,23.825588],[90.327889,23.825493],[90.327976,23.825315],[90.328072,23.825081],[90.328153,23.824909],[90.328389,23.824948],[90.328298,23.825262],[90.328157,23.825745],[90.328115,23.825876],[90.328088,23.82596]]]}},{"type":"Feature","properties":{"survey":"bds","sheet":"002","dag":"518","label_bn":"518","area_sqm":4139.1},"geometry":{"type":"Polygon","coordinates":[[[90.328531,23.825834],[90.328477,23.825978],[90.328115,23.825876],[90.328157,23.825745],[90.328298,23.825262],[90.328389,23.824948],[90.328739,23.825006],[90.328538,23.825802],[90.328531,23.825834]]]}},{"type":"Feature","properties":{"survey":"bds","sheet":"002","dag":"519","label_bn":"519","area_sqm":3099.3},"geometry":{"type":"Polygon","coordinates":[[[90.328886,23.825847],[90.328879,23.825872],[90.328538,23.825802],[90.328739,23.825006],[90.32905,23.825078],[90.328936,23.825614],[90.328886,23.825847]]]}},{"type":"Feature","properties":{"survey":"bds","sheet":"002","dag":"520","label_bn":"520","area_sqm":1423.4},"geometry":{"type":"Polygon","coordinates":[[[90.329465,23.825115],[90.329305,23.825721],[90.329112,23.825681],[90.329269,23.825069],[90.329309,23.825078],[90.329465,23.825115]]]}},{"type":"Feature","properties":{"survey":"bds","sheet":"002","dag":"521","label_bn":"521","area_sqm":3815.1},"geometry":{"type":"Polygon","coordinates":[[[90.329111,23.825685],[90.328888,23.826721],[90.328676,23.826712],[90.328705,23.826593],[90.328711,23.826569],[90.328879,23.825872],[90.328886,23.825847],[90.328936,23.825614],[90.32905,23.825078],[90.329064,23.825028],[90.329237,23.825062],[90.329269,23.825069],[90.329112,23.825681],[90.329111,23.825685]]]}},{"type":"Feature","properties":{"survey":"bds","sheet":"002","dag":"522","label_bn":"522","area_sqm":1150.8},"geometry":{"type":"Polygon","coordinates":[[[90.328816,23.827024],[90.328798,23.827212],[90.328585,23.827171],[90.328603,23.827039],[90.328618,23.826951],[90.328652,23.82681],[90.328676,23.826712],[90.328888,23.826721],[90.328883,23.826744],[90.328844,23.826899],[90.328816,23.827024]]]}},{"type":"Feature","properties":{"survey":"bds","sheet":"002","dag":"523","label_bn":"523","area_sqm":1457.8},"geometry":{"type":"Polygon","coordinates":[[[90.328756,23.827652],[90.328733,23.827766],[90.328495,23.827692],[90.328585,23.827171],[90.328798,23.827212],[90.328791,23.827292],[90.328756,23.827652]]]}},{"type":"Feature","properties":{"survey":"bds","sheet":"002","dag":"524","label_bn":"524","area_sqm":1645.3},"geometry":{"type":"Polygon","coordinates":[[[90.3291,23.827265],[90.328939,23.827825],[90.328733,23.827766],[90.328756,23.827652],[90.328791,23.827292],[90.328798,23.827212],[90.3291,23.827265]]]}},{"type":"Feature","properties":{"survey":"bds","sheet":"002","dag":"525","label_bn":"525","area_sqm":9513.6},"geometry":{"type":"Polygon","coordinates":[[[90.329123,23.827198],[90.3291,23.827265],[90.328798,23.827212],[90.328816,23.827024],[90.328844,23.826899],[90.328883,23.826744],[90.328888,23.826721],[90.329111,23.825685],[90.329112,23.825681],[90.329305,23.825721],[90.329465,23.825115],[90.329515,23.825126],[90.32957,23.825136],[90.329799,23.825189],[90.329761,23.825302],[90.329741,23.82536],[90.329708,23.82546],[90.329582,23.825833],[90.32949,23.826106],[90.329377,23.826442],[90.329123,23.827198]]]}},{"type":"Feature","properties":{"survey":"bds","sheet":"002","dag":"526","label_bn":"526","area_sqm":696.5},"geometry":{"type":"Polygon","coordinates":[[[90.329522,23.826493],[90.329123,23.827198],[90.329377,23.826442],[90.329492,23.826482],[90.329522,23.826493]]]}},{"type":"Feature","properties":{"survey":"bds","sheet":"002","dag":"527","label_bn":"527","area_sqm":505.1},"geometry":{"type":"Polygon","coordinates":[[[90.329613,23.826141],[90.329492,23.826482],[90.329377,23.826442],[90.32949,23.826106],[90.329613,23.826141]]]}},{"type":"Feature","properties":{"survey":"bds","sheet":"002","dag":"528","label_bn":"528","area_sqm":475.6},"geometry":{"type":"Polygon","coordinates":[[[90.329739,23.825878],[90.329613,23.826141],[90.32949,23.826106],[90.329582,23.825833],[90.329739,23.825878]]]}},{"type":"Feature","properties":{"survey":"bds","sheet":"002","dag":"529","label_bn":"529","area_sqm":747.6},"geometry":{"type":"Polygon","coordinates":[[[90.329873,23.825507],[90.329739,23.825878],[90.329582,23.825833],[90.329708,23.82546],[90.329873,23.825507]]]}},{"type":"Feature","properties":{"survey":"bds","sheet":"002","dag":"530","label_bn":"530","area_sqm":206.1},"geometry":{"type":"Polygon","coordinates":[[[90.329908,23.825407],[90.329873,23.825507],[90.329708,23.82546],[90.329741,23.82536],[90.329908,23.825407]]]}},{"type":"Feature","properties":{"survey":"bds","sheet":"002","dag":"531","label_bn":"531","area_sqm":120.3},"geometry":{"type":"Polygon","coordinates":[[[90.329929,23.82535],[90.329908,23.825407],[90.329741,23.82536],[90.329761,23.825302],[90.329929,23.82535]]]}},{"type":"Feature","properties":{"survey":"bds","sheet":"002","dag":"532","label_bn":"532","area_sqm":512.8},"geometry":{"type":"Polygon","coordinates":[[[90.330013,23.825112],[90.329929,23.82535],[90.329761,23.825302],[90.329799,23.825189],[90.329832,23.825063],[90.329852,23.825064],[90.330013,23.825112]]]}},{"type":"Feature","properties":{"survey":"bds","sheet":"002","dag":"533","label_bn":"533","area_sqm":7066.6},"geometry":{"type":"Polygon","coordinates":[[[90.329941,23.825984],[90.329371,23.827315],[90.329123,23.827198],[90.329522,23.826493],[90.329492,23.826482],[90.329613,23.826141],[90.329739,23.825878],[90.329873,23.825507],[90.329908,23.825407],[90.329929,23.82535],[90.330013,23.825112],[90.330101,23.82491],[90.330115,23.824915],[90.330274,23.824967],[90.330356,23.825026],[90.330381,23.825061],[90.330395,23.825081],[90.330311,23.825232],[90.33027,23.825311],[90.330228,23.825379],[90.330219,23.825382],[90.330168,23.82547],[90.330152,23.825534],[90.33013,23.825571],[90.330108,23.825593],[90.330051,23.82574],[90.330007,23.825847],[90.329973,23.825901],[90.329941,23.825984]]]}},{"type":"Feature","properties":{"survey":"bds","sheet":"002","dag":"534","label_bn":"534","area_sqm":2682.7},"geometry":{"type":"Polygon","coordinates":[[[90.330212,23.825934],[90.33015,23.826076],[90.329941,23.825984],[90.329973,23.825901],[90.330007,23.825847],[90.330051,23.82574],[90.330108,23.825593],[90.33013,23.825571],[90.330152,23.825534],[90.330168,23.82547],[90.330219,23.825382],[90.330228,23.825379],[90.33027,23.825311],[90.330311,23.825232],[90.330395,23.825081],[90.330488,23.825056],[90.330544,23.825044],[90.330556,23.825081],[90.33055,23.825148],[90.330516,23.825241],[90.330554,23.82527],[90.330439,23.825473],[90.330354,23.825634],[90.330212,23.825934]]]}},{"type":"Feature","properties":{"survey":"bds","sheet":"002","dag":"535","label_bn":"535","area_sqm":2388.8},"geometry":{"type":"Polygon","coordinates":[[[90.330418,23.826036],[90.330355,23.826169],[90.33015,23.826076],[90.330212,23.825934],[90.330354,23.825634],[90.330439,23.825473],[90.330554,23.82527],[90.330667,23.825316],[90.33078,23.825373],[90.330664,23.82555],[90.330638,23.825606],[90.330562,23.825724],[90.330548,23.825777],[90.3305,23.825858],[90.330418,23.826036]]]}},{"type":"Feature","properties":{"survey":"bds","sheet":"002","dag":"536","label_bn":"536","area_sqm":2335.1},"geometry":{"type":"Polygon","coordinates":[[[90.330691,23.825972],[90.330506,23.826353],[90.330319,23.826274],[90.330355,23.826169],[90.330418,23.826036],[90.3305,23.825858],[90.330548,23.825777],[90.330562,23.825724],[90.330638,23.825606],[90.330664,23.82555],[90.33078,23.825373],[90.33088,23.825483],[90.330856,23.825608],[90.330877,23.825661],[90.330841,23.825697],[90.330748,23.82585],[90.330691,23.825972]]]}},{"type":"Feature","properties":{"survey":"bds","sheet":"002","dag":"537","label_bn":"537","area_sqm":7367.1},"geometry":{"type":"Polygon","coordinates":[[[90.330319,23.826274],[90.329809,23.82744],[90.329366,23.827327],[90.329371,23.827315],[90.329941,23.825984],[90.33015,23.826076],[90.330355,23.826169],[90.330319,23.826274]]]}},{"type":"Feature","properties":{"survey":"bds","sheet":"002","dag":"538","label_bn":"538","area_sqm":1893.0},"geometry":{"type":"Polygon","coordinates":[[[90.329224,23.827717],[90.329164,23.827931],[90.32906,23.827878],[90.328939,23.827825],[90.3291,23.827265],[90.329123,23.827198],[90.329371,23.827315],[90.329366,23.827327],[90.329277,23.827594],[90.329224,23.827717]]]}},{"type":"Feature","properties":{"survey":"bds","sheet":"002","dag":"539","label_bn":"539","area_sqm":3099.7},"geometry":{"type":"Polygon","coordinates":[[[90.329809,23.82744],[90.329479,23.828084],[90.329164,23.827931],[90.329224,23.827717],[90.329277,23.827594],[90.329366,23.827327],[90.329809,23.82744]]]}},{"type":"Feature","properties":{"survey":"bds","sheet":"002","dag":"540","label_bn":"540","area_sqm":2189.7},"geometry":{"type":"Polygon","coordinates":[[[90.329784,23.828099],[90.329704,23.828216],[90.329479,23.828084],[90.329809,23.82744],[90.330021,23.827515],[90.330016,23.827555],[90.329957,23.827665],[90.329919,23.827766],[90.329836,23.828006],[90.329784,23.828099]]]}},{"type":"Feature","properties":{"survey":"bds","sheet":"002","dag":"541","label_bn":"541","area_sqm":3059.5},"geometry":{"type":"Polygon","coordinates":[[[90.330506,23.826353],[90.330021,23.827515],[90.329809,23.82744],[90.330319,23.826274],[90.330506,23.826353]]]}},{"type":"Feature","properties":{"survey":"bds","sheet":"002","dag":"542","label_bn":"542","area_sqm":1617.7},"geometry":{"type":"Polygon","coordinates":[[[90.330607,23.826395],[90.330125,23.827565],[90.330021,23.827515],[90.330506,23.826353],[90.330565,23.826374],[90.330607,23.826395]]]}},{"type":"Feature","properties":{"survey":"bds","sheet":"002","dag":"543","label_bn":"543","area_sqm":929.1},"geometry":{"type":"Polygon","coordinates":[[[90.329932,23.828029],[90.329803,23.828267],[90.329704,23.828216],[90.329784,23.828099],[90.329836,23.828006],[90.329919,23.827766],[90.329957,23.827665],[90.330016,23.827555],[90.330021,23.827515],[90.330125,23.827565],[90.329932,23.828029]]]}},{"type":"Feature","properties":{"survey":"bds","sheet":"002","dag":"544","label_bn":"544","area_sqm":832.3},"geometry":{"type":"Polygon","coordinates":[[[90.330005,23.828073],[90.329883,23.828317],[90.329803,23.828267],[90.329932,23.828029],[90.330125,23.827565],[90.330219,23.827597],[90.330145,23.827762],[90.330116,23.827827],[90.330086,23.82793],[90.330005,23.828073]]]}},{"type":"Feature","properties":{"survey":"bds","sheet":"002","dag":"545","label_bn":"545","area_sqm":1426.9},"geometry":{"type":"Polygon","coordinates":[[[90.3303,23.827434],[90.330219,23.827597],[90.330125,23.827565],[90.330607,23.826395],[90.330683,23.826431],[90.330682,23.826441],[90.3303,23.827434]]]}},{"type":"Feature","properties":{"survey":"bds","sheet":"002","dag":"546","label_bn":"546","area_sqm":8663.3},"geometry":{"type":"Polygon","coordinates":[[[90.330529,23.828548],[90.330413,23.828712],[90.330378,23.82869],[90.330354,23.828675],[90.3303,23.828642],[90.330114,23.828527],[90.330065,23.828496],[90.329883,23.828317],[90.330005,23.828073],[90.330086,23.82793],[90.330116,23.827827],[90.330145,23.827762],[90.330219,23.827597],[90.3303,23.827434],[90.330461,23.827484],[90.330946,23.827606],[90.330906,23.827697],[90.330892,23.827747],[90.330824,23.82794],[90.330765,23.828076],[90.330703,23.828242],[90.330529,23.828548]]]}},{"type":"Feature","properties":{"survey":"bds","sheet":"002","dag":"547","label_bn":"547","area_sqm":5606.3},"geometry":{"type":"Polygon","coordinates":[[[90.331152,23.827101],[90.330946,23.827606],[90.330461,23.827484],[90.33081,23.826558],[90.330929,23.826607],[90.331117,23.826701],[90.331158,23.826603],[90.331325,23.826667],[90.331173,23.82699],[90.331152,23.827101]]]}},{"type":"Feature","properties":{"survey":"bds","sheet":"002","dag":"548","label_bn":"548","area_sqm":2752.7},"geometry":{"type":"Polygon","coordinates":[[[90.33081,23.826558],[90.330461,23.827484],[90.3303,23.827434],[90.330682,23.826441],[90.330683,23.826431],[90.330777,23.826206],[90.330842,23.826058],[90.330912,23.826103],[90.330988,23.82614],[90.330965,23.82621],[90.33081,23.826558]]]}},{"type":"Feature","properties":{"survey":"bds","sheet":"002","dag":"549","label_bn":"549","area_sqm":854.1},"geometry":{"type":"Polygon","coordinates":[[[90.330777,23.826206],[90.330683,23.826431],[90.330607,23.826395],[90.330565,23.826374],[90.330506,23.826353],[90.330691,23.825972],[90.330842,23.826058],[90.330777,23.826206]]]}},{"type":"Feature","properties":{"survey":"bds","sheet":"002","dag":"550","label_bn":"550","area_sqm":1322.7},"geometry":{"type":"Polygon","coordinates":[[[90.331136,23.825851],[90.330988,23.82614],[90.330912,23.826103],[90.330842,23.826058],[90.330691,23.825972],[90.330748,23.82585],[90.330841,23.825697],[90.330877,23.825661],[90.331047,23.82579],[90.331136,23.825851]]]}}]}