{"type":"FeatureCollection","features":[{"type":"Feature","properties":{"survey":"bds","sheet":"003","dag":"1030","label_bn":"1030","area_sqm":170.5},"geometry":{"type":"Polygon","coordinates":[[[90.332356,23.828584],[90.332353,23.82859],[90.332179,23.828507],[90.332212,23.828441],[90.332215,23.828437],[90.332387,23.82852],[90.332356,23.828584]]]}},{"type":"Feature","properties":{"survey":"bds","sheet":"003","dag":"1031","label_bn":"1031","area_sqm":247.8},"geometry":{"type":"Polygon","coordinates":[[[90.332607,23.828532],[90.33257,23.828607],[90.332387,23.82852],[90.332215,23.828437],[90.33223,23.828414],[90.332607,23.828532]]]}},{"type":"Feature","properties":{"survey":"bds","sheet":"003","dag":"1029","label_bn":"1029","area_sqm":166.2},"geometry":{"type":"Polygon","coordinates":[[[90.332353,23.82859],[90.332319,23.828659],[90.332146,23.828574],[90.332179,23.828507],[90.332353,23.82859]]]}},{"type":"Feature","properties":{"survey":"bds","sheet":"003","dag":"1032","label_bn":"1032","area_sqm":162.2},"geometry":{"type":"Polygon","coordinates":[[[90.332569,23.828608],[90.332535,23.828669],[90.332356,23.828584],[90.332387,23.82852],[90.33257,23.828607],[90.332569,23.828608]]]}},{"type":"Feature","properties":{"survey":"bds","sheet":"003","dag":"1028","label_bn":"1028","area_sqm":250.1},"geometry":{"type":"Polygon","coordinates":[[[90.332319,23.828659],[90.332269,23.828762],[90.332097,23.828678],[90.332103,23.828663],[90.332146,23.828574],[90.332319,23.828659]]]}},{"type":"Feature","properties":{"survey":"bds","sheet":"003","dag":"1027","label_bn":"1027","area_sqm":102.4},"geometry":{"type":"Polygon","coordinates":[[[90.332269,23.828762],[90.332248,23.828805],[90.332079,23.828722],[90.332097,23.828678],[90.332269,23.828762]]]}},{"type":"Feature","properties":{"survey":"bds","sheet":"003","dag":"1002","label_bn":"1002","area_sqm":355.9},"geometry":{"type":"Polygon","coordinates":[[[90.330537,23.828801],[90.330532,23.828809],[90.330412,23.828714],[90.330413,23.828712],[90.330529,23.828548],[90.330652,23.828628],[90.330537,23.828801]]]}},{"type":"Feature","properties":{"survey":"bds","sheet":"003","dag":"1024","label_bn":"1024","area_sqm":202.9},"geometry":{"type":"Polygon","coordinates":[[[90.332221,23.828862],[90.332206,23.828891],[90.332042,23.82881],[90.332053,23.828782],[90.332079,23.828722],[90.332248,23.828805],[90.332245,23.828811],[90.332221,23.828862]]]}},{"type":"Feature","properties":{"survey":"bds","sheet":"003","dag":"1026","label_bn":"1026","area_sqm":558.6},"geometry":{"type":"Polygon","coordinates":[[[90.332427,23.828883],[90.332421,23.828895],[90.332245,23.828811],[90.332248,23.828805],[90.332269,23.828762],[90.332319,23.828659],[90.332353,23.82859],[90.332356,23.828584],[90.332535,23.828669],[90.332519,23.828696],[90.332483,23.828765],[90.332471,23.828799],[90.332449,23.828832],[90.332427,23.828883]]]}},{"type":"Feature","properties":{"survey":"bds","sheet":"003","dag":"1003","label_bn":"1003","area_sqm":389.4},"geometry":{"type":"Polygon","coordinates":[[[90.330772,23.828688],[90.330649,23.828915],[90.330532,23.828809],[90.330537,23.828801],[90.330652,23.828628],[90.330772,23.828688]]]}},{"type":"Feature","properties":{"survey":"bds","sheet":"003","dag":"1025","label_bn":"1025","area_sqm":124.4},"geometry":{"type":"Polygon","coordinates":[[[90.332394,23.828945],[90.332394,23.828945],[90.332221,23.828862],[90.332245,23.828811],[90.332421,23.828895],[90.332409,23.828919],[90.332394,23.828945]]]}},{"type":"Feature","properties":{"survey":"bds","sheet":"003","dag":"1004","label_bn":"1004","area_sqm":389.7},"geometry":{"type":"Polygon","coordinates":[[[90.33081,23.828801],[90.330712,23.828973],[90.330712,23.828973],[90.330649,23.828915],[90.330772,23.828688],[90.330838,23.828568],[90.330917,23.828609],[90.330866,23.828685],[90.33081,23.828801]]]}},{"type":"Feature","properties":{"survey":"bds","sheet":"003","dag":"1023","label_bn":"1023","area_sqm":200.5},"geometry":{"type":"Polygon","coordinates":[[[90.332206,23.828891],[90.332163,23.82898],[90.332005,23.828901],[90.33201,23.828889],[90.332042,23.82881],[90.332206,23.828891]]]}},{"type":"Feature","properties":{"survey":"bds","sheet":"003","dag":"1022","label_bn":"1022","area_sqm":287.1},"geometry":{"type":"Polygon","coordinates":[[[90.332348,23.829027],[90.33233,23.829063],[90.332162,23.828982],[90.332163,23.82898],[90.332206,23.828891],[90.332221,23.828862],[90.332394,23.828945],[90.332359,23.829009],[90.332348,23.829027],[90.332348,23.829027]]]}},{"type":"Feature","properties":{"survey":"bds","sheet":"003","dag":"1037","label_bn":"1037","area_sqm":1087.6},"geometry":{"type":"Polygon","coordinates":[[[90.333142,23.828997],[90.333093,23.82907],[90.332997,23.829048],[90.332818,23.828917],[90.33284,23.828878],[90.332876,23.828812],[90.332904,23.828766],[90.332966,23.828688],[90.33325,23.828814],[90.333218,23.828886],[90.333192,23.828918],[90.333142,23.828997]]]}},{"type":"Feature","properties":{"survey":"bds","sheet":"003","dag":"1011","label_bn":"1011","area_sqm":1191.3},"geometry":{"type":"Polygon","coordinates":[[[90.331882,23.828715],[90.331707,23.829092],[90.331482,23.828966],[90.331645,23.828606],[90.331882,23.828715]]]}},{"type":"Feature","properties":{"survey":"bds","sheet":"003","dag":"1005","label_bn":"1005","area_sqm":1332.2},"geometry":{"type":"Polygon","coordinates":[[[90.330916,23.829094],[90.330881,23.829134],[90.330763,23.829022],[90.330712,23.828973],[90.33081,23.828801],[90.330866,23.828685],[90.330917,23.828609],[90.331146,23.828672],[90.331016,23.828959],[90.330916,23.829094]]]}},{"type":"Feature","properties":{"survey":"bds","sheet":"003","dag":"1021","label_bn":"1021","area_sqm":281.6},"geometry":{"type":"Polygon","coordinates":[[[90.33229,23.829142],[90.332268,23.829182],[90.332103,23.829103],[90.332162,23.828982],[90.33233,23.829063],[90.33229,23.829142]]]}},{"type":"Feature","properties":{"survey":"bds","sheet":"003","dag":"1078","label_bn":"1078","area_sqm":205.3},"geometry":{"type":"Polygon","coordinates":[[[90.334137,23.829111],[90.334097,23.829188],[90.333912,23.829092],[90.333952,23.829015],[90.334137,23.829111]]]}},{"type":"Feature","properties":{"survey":"bds","sheet":"003","dag":"1010","label_bn":"1010","area_sqm":384.4},"geometry":{"type":"Polygon","coordinates":[[[90.331707,23.829092],[90.331653,23.829208],[90.331428,23.829095],[90.331482,23.828966],[90.331707,23.829092]]]}},{"type":"Feature","properties":{"survey":"bds","sheet":"003","dag":"1038","label_bn":"1038","area_sqm":2557.8},"geometry":{"type":"Polygon","coordinates":[[[90.333412,23.82919],[90.33336,23.829249],[90.333213,23.829171],[90.333093,23.82907],[90.333142,23.828997],[90.333192,23.828918],[90.333218,23.828886],[90.33325,23.828814],[90.333382,23.8286],[90.333451,23.828461],[90.333706,23.828594],[90.33364,23.828729],[90.333604,23.82882],[90.333504,23.828993],[90.333501,23.829018],[90.333455,23.829114],[90.333425,23.829154],[90.333412,23.82919]]]}},{"type":"Feature","properties":{"survey":"bds","sheet":"003","dag":"1020","label_bn":"1020","area_sqm":611.5},"geometry":{"type":"Polygon","coordinates":[[[90.332059,23.829193],[90.332022,23.82927],[90.33188,23.829198],[90.332005,23.828901],[90.332163,23.82898],[90.332162,23.828982],[90.332103,23.829103],[90.332059,23.829193]]]}},{"type":"Feature","properties":{"survey":"bds","sheet":"003","dag":"1019","label_bn":"1019","area_sqm":207.1},"geometry":{"type":"Polygon","coordinates":[[[90.332268,23.829182],[90.332221,23.829271],[90.332059,23.829193],[90.332103,23.829103],[90.332268,23.829182]]]}},{"type":"Feature","properties":{"survey":"bds","sheet":"003","dag":"1079","label_bn":"1079","area_sqm":205.4},"geometry":{"type":"Polygon","coordinates":[[[90.334323,23.829208],[90.334281,23.829284],[90.334097,23.829188],[90.334137,23.829111],[90.334323,23.829208]]]}},{"type":"Feature","properties":{"survey":"bds","sheet":"003","dag":"1006","label_bn":"1006","area_sqm":1800.6},"geometry":{"type":"Polygon","coordinates":[[[90.33143,23.828763],[90.331189,23.829284],[90.330916,23.829094],[90.331016,23.828959],[90.331146,23.828672],[90.33143,23.828763]]]}},{"type":"Feature","properties":{"survey":"bds","sheet":"003","dag":"1077","label_bn":"1077","area_sqm":341.6},"geometry":{"type":"Polygon","coordinates":[[[90.334097,23.829188],[90.334029,23.829316],[90.333845,23.829222],[90.333912,23.829092],[90.334097,23.829188]]]}},{"type":"Feature","properties":{"survey":"bds","sheet":"003","dag":"1036","label_bn":"1036","area_sqm":1319.9},"geometry":{"type":"Polygon","coordinates":[[[90.333113,23.829315],[90.33308,23.829353],[90.332946,23.829275],[90.332663,23.829162],[90.332726,23.82905],[90.332741,23.829029],[90.332786,23.828961],[90.332818,23.828917],[90.332997,23.829048],[90.333093,23.82907],[90.333213,23.829171],[90.33312,23.829294],[90.333113,23.829315]]]}},{"type":"Feature","properties":{"survey":"bds","sheet":"003","dag":"1018","label_bn":"1018","area_sqm":205.0},"geometry":{"type":"Polygon","coordinates":[[[90.332221,23.829271],[90.332173,23.829361],[90.332015,23.829285],[90.332022,23.82927],[90.332059,23.829193],[90.332221,23.829271]]]}},{"type":"Feature","properties":{"survey":"bds","sheet":"003","dag":"1007","label_bn":"1007","area_sqm":1230.5},"geometry":{"type":"Polygon","coordinates":[[[90.331428,23.829095],[90.331292,23.829361],[90.331189,23.829284],[90.33143,23.828763],[90.331525,23.828551],[90.331645,23.828606],[90.331482,23.828966],[90.331428,23.829095]]]}},{"type":"Feature","properties":{"survey":"bds","sheet":"003","dag":"1017","label_bn":"1017","area_sqm":207.6},"geometry":{"type":"Polygon","coordinates":[[[90.332015,23.829285],[90.33197,23.829376],[90.331835,23.829306],[90.331841,23.82929],[90.33188,23.829198],[90.332022,23.82927],[90.332015,23.829285]]]}},{"type":"Feature","properties":{"survey":"bds","sheet":"003","dag":"1080","label_bn":"1080","area_sqm":337.9},"geometry":{"type":"Polygon","coordinates":[[[90.334237,23.829365],[90.334213,23.82941],[90.334029,23.829316],[90.334097,23.829188],[90.334281,23.829284],[90.334237,23.829365]]]}},{"type":"Feature","properties":{"survey":"bds","sheet":"003","dag":"1016","label_bn":"1016","area_sqm":124.1},"geometry":{"type":"Polygon","coordinates":[[[90.33197,23.829376],[90.331938,23.829442],[90.331808,23.829374],[90.331808,23.829373],[90.331835,23.829306],[90.33197,23.829376]]]}},{"type":"Feature","properties":{"survey":"bds","sheet":"003","dag":"1009","label_bn":"1009","area_sqm":915.2},"geometry":{"type":"Polygon","coordinates":[[[90.331653,23.829208],[90.3315,23.829512],[90.331292,23.829361],[90.331428,23.829095],[90.331653,23.829208]]]}},{"type":"Feature","properties":{"survey":"bds","sheet":"003","dag":"1076","label_bn":"1076","area_sqm":680.5},"geometry":{"type":"Polygon","coordinates":[[[90.334158,23.829512],[90.334147,23.829536],[90.333898,23.829413],[90.333779,23.829355],[90.333784,23.829339],[90.333845,23.829222],[90.334029,23.829316],[90.334213,23.82941],[90.334192,23.829448],[90.33416,23.829507],[90.334158,23.829512]]]}},{"type":"Feature","properties":{"survey":"bds","sheet":"003","dag":"1046","label_bn":"1046","area_sqm":846.2},"geometry":{"type":"Polygon","coordinates":[[[90.333531,23.829415],[90.333454,23.829577],[90.33325,23.829476],[90.333253,23.829464],[90.333286,23.829405],[90.333329,23.829328],[90.33336,23.829249],[90.333412,23.82919],[90.333601,23.829261],[90.333531,23.829415]]]}},{"type":"Feature","properties":{"survey":"bds","sheet":"003","dag":"1015","label_bn":"1015","area_sqm":236.0},"geometry":{"type":"Polygon","coordinates":[[[90.331938,23.829442],[90.331869,23.829583],[90.331754,23.829495],[90.33176,23.829484],[90.331773,23.829452],[90.331808,23.829374],[90.331938,23.829442]]]}},{"type":"Feature","properties":{"survey":"bds","sheet":"003","dag":"1035","label_bn":"1035","area_sqm":1561.8},"geometry":{"type":"Polygon","coordinates":[[[90.332964,23.829593],[90.332956,23.829604],[90.332527,23.829411],[90.332594,23.829275],[90.332663,23.829162],[90.332946,23.829275],[90.33308,23.829353],[90.333083,23.829399],[90.333048,23.829444],[90.332964,23.829593]]]}},{"type":"Feature","properties":{"survey":"bds","sheet":"003","dag":"1058","label_bn":"1058","area_sqm":325.4},"geometry":{"type":"Polygon","coordinates":[[[90.333898,23.829413],[90.333814,23.82962],[90.333697,23.829561],[90.333724,23.8295],[90.333741,23.82946],[90.333768,23.829394],[90.333779,23.829355],[90.333898,23.829413]]]}},{"type":"Feature","properties":{"survey":"bds","sheet":"003","dag":"1081","label_bn":"1081","area_sqm":621.2},"geometry":{"type":"Polygon","coordinates":[[[90.334461,23.829615],[90.334448,23.829641],[90.334158,23.829512],[90.33416,23.829507],[90.334192,23.829448],[90.334213,23.82941],[90.334237,23.829365],[90.334529,23.829478],[90.334461,23.829615]]]}},{"type":"Feature","properties":{"survey":"bds","sheet":"003","dag":"1012","label_bn":"1012","area_sqm":2981.8},"geometry":{"type":"Polygon","coordinates":[[[90.331754,23.829495],[90.331683,23.82964],[90.3315,23.829512],[90.331653,23.829208],[90.331707,23.829092],[90.331882,23.828715],[90.331971,23.828501],[90.332036,23.828335],[90.33223,23.828414],[90.332215,23.828437],[90.332212,23.828441],[90.332179,23.828507],[90.332146,23.828574],[90.332103,23.828663],[90.332097,23.828678],[90.332079,23.828722],[90.332053,23.828782],[90.332042,23.82881],[90.33201,23.828889],[90.332005,23.828901],[90.33188,23.829198],[90.331841,23.82929],[90.331835,23.829306],[90.331808,23.829373],[90.331808,23.829374],[90.331773,23.829452],[90.33176,23.829484],[90.331754,23.829495]]]}},{"type":"Feature","properties":{"survey":"bds","sheet":"003","dag":"1047","label_bn":"1047","area_sqm":829.8},"geometry":{"type":"Polygon","coordinates":[[[90.333646,23.829657],[90.333643,23.82966],[90.333454,23.829577],[90.333531,23.829415],[90.333601,23.829261],[90.333784,23.829339],[90.333779,23.829355],[90.333768,23.829394],[90.333741,23.82946],[90.333724,23.8295],[90.333697,23.829561],[90.333675,23.82961],[90.333646,23.829657]]]}},{"type":"Feature","properties":{"survey":"bds","sheet":"003","dag":"1034","label_bn":"1034","area_sqm":532.1},"geometry":{"type":"Polygon","coordinates":[[[90.332956,23.829604],[90.332912,23.829693],[90.332476,23.829497],[90.332527,23.829411],[90.332956,23.829604]]]}},{"type":"Feature","properties":{"survey":"bds","sheet":"003","dag":"1059","label_bn":"1059","area_sqm":677.3},"geometry":{"type":"Polygon","coordinates":[[[90.334061,23.829705],[90.334046,23.829736],[90.333831,23.829628],[90.333814,23.82962],[90.333898,23.829413],[90.334147,23.829536],[90.33413,23.829571],[90.334119,23.82959],[90.334097,23.829631],[90.334093,23.829639],[90.334061,23.829705]]]}},{"type":"Feature","properties":{"survey":"bds","sheet":"003","dag":"1013","label_bn":"1013","area_sqm":279.2},"geometry":{"type":"Polygon","coordinates":[[[90.331876,23.829588],[90.331808,23.829735],[90.331683,23.82964],[90.331754,23.829495],[90.331869,23.829583],[90.331876,23.829588]]]}},{"type":"Feature","properties":{"survey":"bds","sheet":"003","dag":"1057","label_bn":"1057","area_sqm":206.8},"geometry":{"type":"Polygon","coordinates":[[[90.333831,23.829628],[90.333787,23.829738],[90.33364,23.829666],[90.333643,23.82966],[90.333646,23.829657],[90.333675,23.82961],[90.333697,23.829561],[90.333814,23.82962],[90.333831,23.829628]]]}},{"type":"Feature","properties":{"survey":"bds","sheet":"003","dag":"1075","label_bn":"1075","area_sqm":510.7},"geometry":{"type":"Polygon","coordinates":[[[90.334412,23.829709],[90.334384,23.829768],[90.334222,23.829696],[90.334093,23.829639],[90.334097,23.829631],[90.334119,23.82959],[90.33413,23.829571],[90.334147,23.829536],[90.334158,23.829512],[90.334448,23.829641],[90.334412,23.829709]]]}},{"type":"Feature","properties":{"survey":"bds","sheet":"003","dag":"1014","label_bn":"1014","area_sqm":904.3},"geometry":{"type":"Polygon","coordinates":[[[90.332033,23.829607],[90.331915,23.829816],[90.331808,23.829735],[90.331876,23.829588],[90.331869,23.829583],[90.331938,23.829442],[90.33197,23.829376],[90.332015,23.829285],[90.332173,23.829361],[90.332126,23.829449],[90.332091,23.829508],[90.332033,23.829607]]]}},{"type":"Feature","properties":{"survey":"bds","sheet":"003","dag":"1060","label_bn":"1060","area_sqm":258.2},"geometry":{"type":"Polygon","coordinates":[[[90.334222,23.829696],[90.334145,23.829843],[90.334026,23.829791],[90.334044,23.82974],[90.334046,23.829736],[90.334061,23.829705],[90.334093,23.829639],[90.334222,23.829696]]]}},{"type":"Feature","properties":{"survey":"bds","sheet":"003","dag":"1056","label_bn":"1056","area_sqm":321.9},"geometry":{"type":"Polygon","coordinates":[[[90.334016,23.829816],[90.334002,23.829845],[90.333787,23.829738],[90.333831,23.829628],[90.334046,23.829736],[90.334044,23.82974],[90.334026,23.829791],[90.334016,23.829816]]]}},{"type":"Feature","properties":{"survey":"bds","sheet":"003","dag":"1039","label_bn":"1039","area_sqm":1684.4},"geometry":{"type":"Polygon","coordinates":[[[90.333124,23.829774],[90.333065,23.829899],[90.332849,23.829819],[90.332912,23.829693],[90.332956,23.829604],[90.332964,23.829593],[90.333048,23.829444],[90.333083,23.829399],[90.33308,23.829353],[90.333113,23.829315],[90.33312,23.829294],[90.333213,23.829171],[90.33336,23.829249],[90.333329,23.829328],[90.333286,23.829405],[90.333253,23.829464],[90.33325,23.829476],[90.333158,23.82967],[90.333124,23.829774]]]}},{"type":"Feature","properties":{"survey":"bds","sheet":"003","dag":"1074","label_bn":"1074","area_sqm":335.7},"geometry":{"type":"Polygon","coordinates":[[[90.334308,23.829913],[90.334307,23.829916],[90.33421,23.829872],[90.334145,23.829843],[90.334222,23.829696],[90.334384,23.829768],[90.33435,23.829837],[90.334308,23.829913]]]}},{"type":"Feature","properties":{"survey":"bds","sheet":"003","dag":"1055","label_bn":"1055","area_sqm":703.5},"geometry":{"type":"Polygon","coordinates":[[[90.333944,23.829963],[90.333931,23.82999],[90.333577,23.829796],[90.333604,23.829739],[90.33364,23.829666],[90.333787,23.829738],[90.334002,23.829845],[90.333944,23.829963]]]}},{"type":"Feature","properties":{"survey":"bds","sheet":"003","dag":"1033","label_bn":"1033","area_sqm":5604.0},"geometry":{"type":"Polygon","coordinates":[[[90.332426,23.829581],[90.332154,23.830022],[90.332032,23.829929],[90.332041,23.829916],[90.331915,23.829816],[90.332033,23.829607],[90.332091,23.829508],[90.332126,23.829449],[90.332173,23.829361],[90.332221,23.829271],[90.332268,23.829182],[90.33229,23.829142],[90.33233,23.829063],[90.332348,23.829027],[90.332348,23.829027],[90.332359,23.829009],[90.332394,23.828945],[90.332394,23.828945],[90.332409,23.828919],[90.332421,23.828895],[90.332427,23.828883],[90.332449,23.828832],[90.332471,23.828799],[90.332483,23.828765],[90.332519,23.828696],[90.332535,23.828669],[90.332569,23.828608],[90.332966,23.828688],[90.332904,23.828766],[90.332876,23.828812],[90.33284,23.828878],[90.332818,23.828917],[90.332786,23.828961],[90.332741,23.829029],[90.332726,23.82905],[90.332663,23.829162],[90.332594,23.829275],[90.332527,23.829411],[90.332476,23.829497],[90.332426,23.829581]]]}},{"type":"Feature","properties":{"survey":"bds","sheet":"003","dag":"1061","label_bn":"1061","area_sqm":662.1},"geometry":{"type":"Polygon","coordinates":[[[90.33421,23.829872],[90.334106,23.830132],[90.334097,23.830128],[90.333906,23.830043],[90.333916,23.830023],[90.333931,23.82999],[90.333944,23.829963],[90.334002,23.829845],[90.334016,23.829816],[90.334026,23.829791],[90.334145,23.829843],[90.33421,23.829872]]]}},{"type":"Feature","properties":{"survey":"bds","sheet":"003","dag":"1008","label_bn":"1008","area_sqm":3912.2},"geometry":{"type":"Polygon","coordinates":[[[90.331841,23.830128],[90.331794,23.830156],[90.331774,23.830138],[90.331701,23.830066],[90.331495,23.829863],[90.331103,23.829477],[90.330903,23.82928],[90.330818,23.829187],[90.330881,23.829134],[90.330916,23.829094],[90.331189,23.829284],[90.331292,23.829361],[90.3315,23.829512],[90.331683,23.82964],[90.331808,23.829735],[90.331915,23.829816],[90.332041,23.829916],[90.332032,23.829929],[90.331937,23.830024],[90.331841,23.830128]]]}},{"type":"Feature","properties":{"survey":"bds","sheet":"003","dag":"1073","label_bn":"1073","area_sqm":336.4},"geometry":{"type":"Polygon","coordinates":[[[90.334307,23.829916],[90.334203,23.830175],[90.334106,23.830132],[90.33421,23.829872],[90.334307,23.829916]]]}},{"type":"Feature","properties":{"survey":"bds","sheet":"003","dag":"1072","label_bn":"1072","area_sqm":760.2},"geometry":{"type":"Polygon","coordinates":[[[90.334366,23.830205],[90.334306,23.830351],[90.334157,23.830291],[90.334203,23.830175],[90.334307,23.829916],[90.334308,23.829913],[90.334467,23.829977],[90.334366,23.830205]]]}},{"type":"Feature","properties":{"survey":"bds","sheet":"003","dag":"1040","label_bn":"1040","area_sqm":5263.4},"geometry":{"type":"Polygon","coordinates":[[[90.332698,23.830231],[90.332573,23.830358],[90.332154,23.830022],[90.332426,23.829581],[90.332476,23.829497],[90.332912,23.829693],[90.332849,23.829819],[90.333065,23.829899],[90.333027,23.830026],[90.332991,23.830113],[90.332952,23.83022],[90.332922,23.830274],[90.332865,23.830331],[90.332698,23.830231]]]}},{"type":"Feature","properties":{"survey":"bds","sheet":"003","dag":"1054","label_bn":"1054","area_sqm":1920.5},"geometry":{"type":"Polygon","coordinates":[[[90.333778,23.830302],[90.333746,23.830365],[90.333399,23.830184],[90.333421,23.830134],[90.333463,23.830027],[90.333499,23.829953],[90.333552,23.829849],[90.333577,23.829796],[90.333931,23.82999],[90.333916,23.830023],[90.333906,23.830043],[90.333848,23.830157],[90.33382,23.830222],[90.333778,23.830302]]]}},{"type":"Feature","properties":{"survey":"bds","sheet":"003","dag":"1062","label_bn":"1062","area_sqm":694.0},"geometry":{"type":"Polygon","coordinates":[[[90.334097,23.830128],[90.333974,23.830389],[90.333778,23.830302],[90.33382,23.830222],[90.333848,23.830157],[90.333906,23.830043],[90.334097,23.830128]]]}},{"type":"Feature","properties":{"survey":"bds","sheet":"003","dag":"1071","label_bn":"1071","area_sqm":744.0},"geometry":{"type":"Polygon","coordinates":[[[90.33451,23.830262],[90.334448,23.830418],[90.334301,23.830361],[90.334306,23.830351],[90.334366,23.830205],[90.334467,23.829977],[90.334616,23.830037],[90.334575,23.830124],[90.33451,23.830262]]]}},{"type":"Feature","properties":{"survey":"bds","sheet":"003","dag":"1063","label_bn":"1063","area_sqm":400.7},"geometry":{"type":"Polygon","coordinates":[[[90.334146,23.830317],[90.334088,23.83044],[90.333974,23.830389],[90.334097,23.830128],[90.334106,23.830132],[90.334203,23.830175],[90.334157,23.830291],[90.334146,23.830317]]]}},{"type":"Feature","properties":{"survey":"bds","sheet":"003","dag":"1041","label_bn":"1041","area_sqm":426.5},"geometry":{"type":"Polygon","coordinates":[[[90.33279,23.83042],[90.332728,23.830484],[90.332573,23.830358],[90.332698,23.830231],[90.332865,23.830331],[90.33279,23.83042]]]}},{"type":"Feature","properties":{"survey":"bds","sheet":"003","dag":"1053","label_bn":"1053","area_sqm":819.9},"geometry":{"type":"Polygon","coordinates":[[[90.333726,23.830403],[90.333663,23.830531],[90.333488,23.830441],[90.333317,23.830353],[90.333363,23.830264],[90.333397,23.830189],[90.333399,23.830184],[90.333746,23.830365],[90.333743,23.83037],[90.333726,23.830403]]]}},{"type":"Feature","properties":{"survey":"bds","sheet":"003","dag":"1070","label_bn":"1070","area_sqm":441.2},"geometry":{"type":"Polygon","coordinates":[[[90.334301,23.830361],[90.334214,23.830569],[90.334056,23.830506],[90.334074,23.83047],[90.334088,23.83044],[90.334146,23.830317],[90.334157,23.830291],[90.334306,23.830351],[90.334301,23.830361]]]}},{"type":"Feature","properties":{"survey":"bds","sheet":"003","dag":"1045","label_bn":"1045","area_sqm":2770.1},"geometry":{"type":"Polygon","coordinates":[[[90.333029,23.830455],[90.332898,23.830616],[90.33275,23.830502],[90.332748,23.8305],[90.332728,23.830484],[90.33279,23.83042],[90.332865,23.830331],[90.332922,23.830274],[90.332952,23.83022],[90.332991,23.830113],[90.333027,23.830026],[90.333065,23.829899],[90.333124,23.829774],[90.333158,23.82967],[90.33325,23.829476],[90.333454,23.829577],[90.333275,23.829961],[90.333274,23.829961],[90.333174,23.830184],[90.333102,23.830342],[90.333029,23.830455]]]}},{"type":"Feature","properties":{"survey":"bds","sheet":"003","dag":"1052","label_bn":"1052","area_sqm":334.3},"geometry":{"type":"Polygon","coordinates":[[[90.333627,23.830603],[90.333596,23.830663],[90.33342,23.830575],[90.333488,23.830441],[90.333663,23.830531],[90.333627,23.830603]]]}},{"type":"Feature","properties":{"survey":"bds","sheet":"003","dag":"1064","label_bn":"1064","area_sqm":1307.3},"geometry":{"type":"Polygon","coordinates":[[[90.334005,23.830617],[90.333941,23.830742],[90.333799,23.830679],[90.333722,23.830645],[90.333627,23.830603],[90.333663,23.830531],[90.333726,23.830403],[90.333743,23.83037],[90.333746,23.830365],[90.333778,23.830302],[90.333974,23.830389],[90.334088,23.83044],[90.334074,23.83047],[90.334056,23.830506],[90.33404,23.830539],[90.334015,23.830598],[90.334005,23.830617]]]}},{"type":"Feature","properties":{"survey":"bds","sheet":"003","dag":"1048","label_bn":"1048","area_sqm":2802.0},"geometry":{"type":"Polygon","coordinates":[[[90.333115,23.830684],[90.333059,23.830755],[90.332898,23.830616],[90.333029,23.830455],[90.333102,23.830342],[90.333174,23.830184],[90.333274,23.829961],[90.333275,23.829961],[90.333454,23.829577],[90.333643,23.82966],[90.33364,23.829666],[90.333604,23.829739],[90.333577,23.829796],[90.333552,23.829849],[90.333499,23.829953],[90.333463,23.830027],[90.333421,23.830134],[90.333399,23.830184],[90.333397,23.830189],[90.333363,23.830264],[90.333317,23.830353],[90.333229,23.830523],[90.333167,23.830611],[90.333115,23.830684]]]}},{"type":"Feature","properties":{"survey":"bds","sheet":"003","dag":"1042","label_bn":"1042","area_sqm":3741.1},"geometry":{"type":"Polygon","coordinates":[[[90.33267,23.830586],[90.332501,23.830774],[90.332498,23.830771],[90.332491,23.830764],[90.332463,23.830742],[90.332141,23.830477],[90.332074,23.830422],[90.332029,23.83038],[90.331794,23.830156],[90.331841,23.830128],[90.331937,23.830024],[90.332032,23.829929],[90.332154,23.830022],[90.332573,23.830358],[90.332728,23.830484],[90.332748,23.8305],[90.33267,23.830586]]]}},{"type":"Feature","properties":{"survey":"bds","sheet":"003","dag":"1051","label_bn":"1051","area_sqm":996.5},"geometry":{"type":"Polygon","coordinates":[[[90.333525,23.830794],[90.333524,23.830796],[90.333167,23.830611],[90.333229,23.830523],[90.333317,23.830353],[90.333488,23.830441],[90.33342,23.830575],[90.333596,23.830663],[90.333535,23.830781],[90.333525,23.830794]]]}},{"type":"Feature","properties":{"survey":"bds","sheet":"003","dag":"1044","label_bn":"1044","area_sqm":517.2},"geometry":{"type":"Polygon","coordinates":[[[90.333059,23.830755],[90.332983,23.830829],[90.332891,23.830761],[90.33267,23.830586],[90.332748,23.8305],[90.33275,23.830502],[90.332898,23.830616],[90.333059,23.830755]]]}},{"type":"Feature","properties":{"survey":"bds","sheet":"003","dag":"1050","label_bn":"1050","area_sqm":897.5},"geometry":{"type":"Polygon","coordinates":[[[90.333524,23.830796],[90.333394,23.830961],[90.333229,23.830876],[90.333059,23.830755],[90.333115,23.830684],[90.333167,23.830611],[90.333524,23.830796]]]}},{"type":"Feature","properties":{"survey":"bds","sheet":"003","dag":"1065","label_bn":"1065","area_sqm":845.0},"geometry":{"type":"Polygon","coordinates":[[[90.333679,23.830845],[90.333545,23.831054],[90.333394,23.830961],[90.333524,23.830796],[90.333525,23.830794],[90.333535,23.830781],[90.333596,23.830663],[90.333627,23.830603],[90.333722,23.830645],[90.333799,23.830679],[90.333757,23.830744],[90.333679,23.830845]]]}},{"type":"Feature","properties":{"survey":"bds","sheet":"003","dag":"1043","label_bn":"1043","area_sqm":1479.3},"geometry":{"type":"Polygon","coordinates":[[[90.332899,23.831072],[90.332875,23.8311],[90.332824,23.831053],[90.33261,23.830875],[90.332602,23.830868],[90.332501,23.830774],[90.33267,23.830586],[90.332891,23.830761],[90.332983,23.830829],[90.333045,23.830882],[90.332986,23.830968],[90.332899,23.831072]]]}},{"type":"Feature","properties":{"survey":"bds","sheet":"003","dag":"1066","label_bn":"1066","area_sqm":966.5},"geometry":{"type":"Polygon","coordinates":[[[90.333819,23.830987],[90.333701,23.831161],[90.333545,23.831054],[90.333679,23.830845],[90.333757,23.830744],[90.333799,23.830679],[90.333941,23.830742],[90.333904,23.83082],[90.333819,23.830987]]]}},{"type":"Feature","properties":{"survey":"bds","sheet":"003","dag":"1069","label_bn":"1069","area_sqm":1483.8},"geometry":{"type":"Polygon","coordinates":[[[90.333961,23.831056],[90.333819,23.831279],[90.333682,23.831183],[90.333701,23.831161],[90.333819,23.830987],[90.333904,23.83082],[90.333941,23.830742],[90.334005,23.830617],[90.334015,23.830598],[90.33404,23.830539],[90.334056,23.830506],[90.334214,23.830569],[90.334168,23.830668],[90.334098,23.830804],[90.33406,23.830888],[90.33405,23.830903],[90.333961,23.831056]]]}},{"type":"Feature","properties":{"survey":"bds","sheet":"003","dag":"1049","label_bn":"1049","area_sqm":1504.7},"geometry":{"type":"Polygon","coordinates":[[[90.333394,23.830961],[90.333138,23.831278],[90.332879,23.831104],[90.332875,23.8311],[90.332899,23.831072],[90.332986,23.830968],[90.333045,23.830882],[90.332983,23.830829],[90.333059,23.830755],[90.333229,23.830876],[90.333394,23.830961]]]}},{"type":"Feature","properties":{"survey":"bds","sheet":"003","dag":"1067","label_bn":"1067","area_sqm":1569.5},"geometry":{"type":"Polygon","coordinates":[[[90.333463,23.831423],[90.333432,23.831454],[90.333138,23.831278],[90.333394,23.830961],[90.333545,23.831054],[90.333701,23.831161],[90.333682,23.831183],[90.333657,23.831174],[90.333463,23.831423]]]}},{"type":"Feature","properties":{"survey":"bds","sheet":"003","dag":"1068","label_bn":"1068","area_sqm":661.0},"geometry":{"type":"Polygon","coordinates":[[[90.333819,23.831279],[90.333589,23.831507],[90.333432,23.831454],[90.333463,23.831423],[90.333657,23.831174],[90.333682,23.831183],[90.333819,23.831279]]]}},{"type":"Feature","properties":{"survey":"bds","sheet":"003","dag":"1001","label_bn":"1001","area_sqm":13751.0},"geometry":{"type":"Polygon","coordinates":[[[90.333563,23.831583],[90.33341,23.831782],[90.333221,23.831645],[90.332857,23.831382],[90.33276,23.831301],[90.332486,23.831058],[90.332423,23.83101],[90.332308,23.83092],[90.332193,23.830831],[90.331917,23.830627],[90.331729,23.830447],[90.331504,23.830231],[90.33142,23.830139],[90.331334,23.830075],[90.331209,23.829997],[90.330967,23.82974],[90.330773,23.829559],[90.330474,23.829299],[90.330253,23.829116],[90.330107,23.828996],[90.330347,23.828774],[90.330412,23.828714],[90.330532,23.828809],[90.330649,23.828915],[90.330712,23.828973],[90.330712,23.828973],[90.330763,23.829022],[90.330881,23.829134],[90.330818,23.829187],[90.330903,23.82928],[90.331103,23.829477],[90.331495,23.829863],[90.331701,23.830066],[90.331774,23.830138],[90.331794,23.830156],[90.332029,23.83038],[90.332074,23.830422],[90.332141,23.830477],[90.332463,23.830742],[90.332491,23.830764],[90.332498,23.830771],[90.332501,23.830774],[90.332602,23.830868],[90.33261,23.830875],[90.332824,23.831053],[90.332875,23.8311],[90.332879,23.831104],[90.333138,23.831278],[90.333432,23.831454],[90.333589,23.831507],[90.333571,23.831561],[90.333563,23.831583]]]}}]}