{"type":"FeatureCollection","features":[{"type":"Feature","properties":{"survey":"bds","sheet":"004","dag":"1542","label_bn":"1542","area_sqm":220.9},"geometry":{"type":"Polygon","coordinates":[[[90.335935,23.829469],[90.335902,23.82952],[90.335666,23.82938],[90.335706,23.829312],[90.335716,23.829321],[90.335792,23.829367],[90.335935,23.829469]]]}},{"type":"Feature","properties":{"survey":"bds","sheet":"004","dag":"1541","label_bn":"1541","area_sqm":3513.4},"geometry":{"type":"Polygon","coordinates":[[[90.335824,23.829693],[90.335758,23.829949],[90.335559,23.829879],[90.335542,23.829873],[90.33534,23.829794],[90.33529,23.829776],[90.33508,23.829695],[90.335204,23.829416],[90.335371,23.829474],[90.335449,23.82934],[90.335486,23.82927],[90.335666,23.82938],[90.335902,23.82952],[90.335872,23.829588],[90.335824,23.829693]]]}},{"type":"Feature","properties":{"survey":"bds","sheet":"004","dag":"1546","label_bn":"1546","area_sqm":5604.7},"geometry":{"type":"Polygon","coordinates":[[[90.337113,23.829615],[90.336945,23.829975],[90.336684,23.829949],[90.33649,23.829865],[90.336424,23.829841],[90.336302,23.829776],[90.336164,23.829692],[90.33607,23.829614],[90.335902,23.82952],[90.335935,23.829469],[90.335998,23.829322],[90.336112,23.829366],[90.336234,23.829416],[90.33646,23.829514],[90.336573,23.829353],[90.336688,23.829423],[90.336724,23.829432],[90.336821,23.829517],[90.336975,23.829413],[90.337051,23.829323],[90.337151,23.829357],[90.337237,23.829357],[90.337308,23.829415],[90.337311,23.829418],[90.337285,23.829444],[90.337284,23.829445],[90.337132,23.829595],[90.337113,23.829615]]]}},{"type":"Feature","properties":{"survey":"bds","sheet":"004","dag":"1532","label_bn":"1532","area_sqm":1389.3},"geometry":{"type":"Polygon","coordinates":[[[90.334602,23.82968],[90.334462,23.829975],[90.334308,23.829913],[90.33435,23.829837],[90.334412,23.829709],[90.334461,23.829615],[90.334523,23.829491],[90.334572,23.82939],[90.334621,23.829289],[90.334676,23.829202],[90.334801,23.829255],[90.334662,23.829552],[90.334602,23.82968]]]}},{"type":"Feature","properties":{"survey":"bds","sheet":"004","dag":"1533","label_bn":"1533","area_sqm":1379.5},"geometry":{"type":"Polygon","coordinates":[[[90.334739,23.829747],[90.334616,23.830037],[90.334462,23.829975],[90.334602,23.82968],[90.334662,23.829552],[90.334801,23.829255],[90.33493,23.829301],[90.334927,23.829321],[90.334801,23.829613],[90.334739,23.829747]]]}},{"type":"Feature","properties":{"survey":"bds","sheet":"004","dag":"1540","label_bn":"1540","area_sqm":795.0},"geometry":{"type":"Polygon","coordinates":[[[90.33529,23.829776],[90.335185,23.830062],[90.33497,23.829979],[90.335067,23.829718],[90.33508,23.829695],[90.33529,23.829776]]]}},{"type":"Feature","properties":{"survey":"bds","sheet":"004","dag":"1534","label_bn":"1534","area_sqm":2612.1},"geometry":{"type":"Polygon","coordinates":[[[90.334937,23.830063],[90.334906,23.830136],[90.334616,23.830037],[90.334739,23.829747],[90.334801,23.829613],[90.334927,23.829321],[90.335064,23.829367],[90.335204,23.829416],[90.33508,23.829695],[90.335067,23.829718],[90.33497,23.829979],[90.334937,23.830063]]]}},{"type":"Feature","properties":{"survey":"bds","sheet":"004","dag":"1539","label_bn":"1539","area_sqm":882.3},"geometry":{"type":"Polygon","coordinates":[[[90.335542,23.829873],[90.335424,23.830141],[90.335185,23.830062],[90.33529,23.829776],[90.33534,23.829794],[90.335542,23.829873]]]}},{"type":"Feature","properties":{"survey":"bds","sheet":"004","dag":"1538","label_bn":"1538","area_sqm":800.1},"geometry":{"type":"Polygon","coordinates":[[[90.335708,23.830144],[90.335683,23.83021],[90.335424,23.830141],[90.335542,23.829873],[90.335559,23.829879],[90.335758,23.829949],[90.335708,23.830144]]]}},{"type":"Feature","properties":{"survey":"bds","sheet":"004","dag":"1543","label_bn":"1543","area_sqm":3710.6},"geometry":{"type":"Polygon","coordinates":[[[90.336209,23.830248],[90.336176,23.830294],[90.335942,23.830218],[90.335708,23.830144],[90.335758,23.829949],[90.335824,23.829693],[90.335872,23.829588],[90.335902,23.82952],[90.33607,23.829614],[90.336164,23.829692],[90.336302,23.829776],[90.336424,23.829841],[90.336342,23.830007],[90.336209,23.830248]]]}},{"type":"Feature","properties":{"survey":"bds","sheet":"004","dag":"1537","label_bn":"1537","area_sqm":474.2},"geometry":{"type":"Polygon","coordinates":[[[90.335683,23.83021],[90.335635,23.830354],[90.335358,23.830279],[90.335424,23.830141],[90.335683,23.83021]]]}},{"type":"Feature","properties":{"survey":"bds","sheet":"004","dag":"1536","label_bn":"1536","area_sqm":687.6},"geometry":{"type":"Polygon","coordinates":[[[90.335358,23.830279],[90.335322,23.830365],[90.335094,23.830294],[90.335156,23.830123],[90.335185,23.830062],[90.335424,23.830141],[90.335358,23.830279]]]}},{"type":"Feature","properties":{"survey":"bds","sheet":"004","dag":"1531","label_bn":"1531","area_sqm":1336.3},"geometry":{"type":"Polygon","coordinates":[[[90.334812,23.83036],[90.334767,23.83048],[90.334461,23.830386],[90.33451,23.830262],[90.334575,23.830124],[90.334616,23.830037],[90.334906,23.830136],[90.334812,23.83036]]]}},{"type":"Feature","properties":{"survey":"bds","sheet":"004","dag":"1545","label_bn":"1545","area_sqm":3695.5},"geometry":{"type":"Polygon","coordinates":[[[90.336945,23.829975],[90.336706,23.83049],[90.336452,23.83047],[90.336337,23.830465],[90.33625,23.83046],[90.336174,23.830456],[90.336144,23.830367],[90.336176,23.830294],[90.336209,23.830248],[90.336342,23.830007],[90.336424,23.829841],[90.33649,23.829865],[90.336684,23.829949],[90.336945,23.829975]]]}},{"type":"Feature","properties":{"survey":"bds","sheet":"004","dag":"1526","label_bn":"1526","area_sqm":665.5},"geometry":{"type":"Polygon","coordinates":[[[90.335251,23.830519],[90.335215,23.830599],[90.335007,23.830544],[90.335094,23.830294],[90.335322,23.830365],[90.335251,23.830519]]]}},{"type":"Feature","properties":{"survey":"bds","sheet":"004","dag":"1525","label_bn":"1525","area_sqm":952.3},"geometry":{"type":"Polygon","coordinates":[[[90.33556,23.830591],[90.335545,23.830637],[90.335299,23.830538],[90.335251,23.830519],[90.335322,23.830365],[90.335358,23.830279],[90.335635,23.830354],[90.33556,23.830591]]]}},{"type":"Feature","properties":{"survey":"bds","sheet":"004","dag":"1544","label_bn":"1544","area_sqm":2447.2},"geometry":{"type":"Polygon","coordinates":[[[90.336174,23.830456],[90.336128,23.830658],[90.335971,23.830611],[90.335931,23.830629],[90.335697,23.830588],[90.33556,23.830591],[90.335635,23.830354],[90.335683,23.83021],[90.335708,23.830144],[90.335942,23.830218],[90.336176,23.830294],[90.336144,23.830367],[90.336174,23.830456]]]}},{"type":"Feature","properties":{"survey":"bds","sheet":"004","dag":"1535","label_bn":"1535","area_sqm":1777.9},"geometry":{"type":"Polygon","coordinates":[[[90.335007,23.830544],[90.334953,23.830669],[90.334726,23.830605],[90.334756,23.830513],[90.334767,23.83048],[90.334812,23.83036],[90.334906,23.830136],[90.334937,23.830063],[90.33497,23.829979],[90.335185,23.830062],[90.335156,23.830123],[90.335094,23.830294],[90.335007,23.830544]]]}},{"type":"Feature","properties":{"survey":"bds","sheet":"004","dag":"1530","label_bn":"1530","area_sqm":1419.2},"geometry":{"type":"Polygon","coordinates":[[[90.334726,23.830605],[90.334638,23.83086],[90.334326,23.830726],[90.334372,23.83062],[90.334423,23.830504],[90.334448,23.830418],[90.334461,23.830386],[90.334767,23.83048],[90.334756,23.830513],[90.334726,23.830605]]]}},{"type":"Feature","properties":{"survey":"bds","sheet":"004","dag":"1524","label_bn":"1524","area_sqm":1034.8},"geometry":{"type":"Polygon","coordinates":[[[90.335545,23.830637],[90.335485,23.830885],[90.335267,23.830825],[90.335213,23.830807],[90.335148,23.83079],[90.335215,23.830599],[90.335251,23.830519],[90.335299,23.830538],[90.335545,23.830637]]]}},{"type":"Feature","properties":{"survey":"bds","sheet":"004","dag":"1527","label_bn":"1527","area_sqm":895.0},"geometry":{"type":"Polygon","coordinates":[[[90.335148,23.83079],[90.335092,23.830932],[90.334877,23.830877],[90.334953,23.830669],[90.335007,23.830544],[90.335215,23.830599],[90.335148,23.83079]]]}},{"type":"Feature","properties":{"survey":"bds","sheet":"004","dag":"1515","label_bn":"1515","area_sqm":1705.9},"geometry":{"type":"Polygon","coordinates":[[[90.335953,23.830864],[90.335887,23.831],[90.335686,23.83094],[90.335485,23.830885],[90.335545,23.830637],[90.33556,23.830591],[90.335697,23.830588],[90.335931,23.830629],[90.335971,23.830611],[90.335953,23.830864]]]}},{"type":"Feature","properties":{"survey":"bds","sheet":"004","dag":"1523","label_bn":"1523","area_sqm":738.0},"geometry":{"type":"Polygon","coordinates":[[[90.335485,23.830885],[90.335405,23.831073],[90.335202,23.831004],[90.335092,23.830932],[90.335148,23.83079],[90.335213,23.830807],[90.335267,23.830825],[90.335485,23.830885]]]}},{"type":"Feature","properties":{"survey":"bds","sheet":"004","dag":"1528","label_bn":"1528","area_sqm":476.6},"geometry":{"type":"Polygon","coordinates":[[[90.335092,23.830932],[90.335026,23.831113],[90.334807,23.831043],[90.334877,23.830877],[90.335092,23.830932]]]}},{"type":"Feature","properties":{"survey":"bds","sheet":"004","dag":"1514","label_bn":"1514","area_sqm":4177.4},"geometry":{"type":"Polygon","coordinates":[[[90.33655,23.830956],[90.336512,23.831138],[90.336395,23.831122],[90.336161,23.831076],[90.336043,23.831043],[90.335887,23.831],[90.335953,23.830864],[90.335971,23.830611],[90.336128,23.830658],[90.336174,23.830456],[90.33625,23.83046],[90.336337,23.830465],[90.336452,23.83047],[90.336706,23.83049],[90.336616,23.830683],[90.3366,23.830719],[90.33655,23.830956]]]}},{"type":"Feature","properties":{"survey":"bds","sheet":"004","dag":"1529","label_bn":"1529","area_sqm":1474.4},"geometry":{"type":"Polygon","coordinates":[[[90.334837,23.831187],[90.33482,23.831194],[90.334532,23.831085],[90.334638,23.83086],[90.334726,23.830605],[90.334953,23.830669],[90.334877,23.830877],[90.334807,23.831043],[90.334796,23.831085],[90.334857,23.83111],[90.334837,23.831187]]]}},{"type":"Feature","properties":{"survey":"bds","sheet":"004","dag":"1522","label_bn":"1522","area_sqm":667.2},"geometry":{"type":"Polygon","coordinates":[[[90.335405,23.831073],[90.335345,23.831232],[90.33531,23.831219],[90.335145,23.83116],[90.335086,23.83114],[90.335026,23.831113],[90.335092,23.830932],[90.335202,23.831004],[90.335405,23.831073]]]}},{"type":"Feature","properties":{"survey":"bds","sheet":"004","dag":"1521","label_bn":"1521","area_sqm":799.9},"geometry":{"type":"Polygon","coordinates":[[[90.33531,23.831219],[90.335249,23.831356],[90.335021,23.83128],[90.334837,23.831187],[90.334857,23.83111],[90.334796,23.831085],[90.334807,23.831043],[90.335026,23.831113],[90.335086,23.83114],[90.335145,23.83116],[90.33531,23.831219]]]}},{"type":"Feature","properties":{"survey":"bds","sheet":"004","dag":"1503","label_bn":"1503","area_sqm":2097.7},"geometry":{"type":"Polygon","coordinates":[[[90.334102,23.831172],[90.33396,23.831433],[90.333819,23.831279],[90.333961,23.831056],[90.33405,23.830903],[90.33406,23.830888],[90.334098,23.830804],[90.334168,23.830668],[90.334214,23.830569],[90.334301,23.830361],[90.334448,23.830418],[90.334423,23.830504],[90.334372,23.83062],[90.334326,23.830726],[90.334242,23.83087],[90.334235,23.830887],[90.334197,23.830955],[90.334149,23.831074],[90.334102,23.831172]]]}},{"type":"Feature","properties":{"survey":"bds","sheet":"004","dag":"1517","label_bn":"1517","area_sqm":1423.8},"geometry":{"type":"Polygon","coordinates":[[[90.335557,23.83132],[90.335507,23.831458],[90.335372,23.831405],[90.335249,23.831356],[90.33531,23.831219],[90.335345,23.831232],[90.335405,23.831073],[90.335485,23.830885],[90.335686,23.83094],[90.335615,23.831142],[90.335557,23.83132]]]}},{"type":"Feature","properties":{"survey":"bds","sheet":"004","dag":"1520","label_bn":"1520","area_sqm":602.7},"geometry":{"type":"Polygon","coordinates":[[[90.335021,23.83128],[90.334939,23.831484],[90.3347,23.831417],[90.334717,23.831382],[90.33475,23.831385],[90.334778,23.831307],[90.33482,23.831194],[90.334837,23.831187],[90.335021,23.83128]]]}},{"type":"Feature","properties":{"survey":"bds","sheet":"004","dag":"1519","label_bn":"1519","area_sqm":458.0},"geometry":{"type":"Polygon","coordinates":[[[90.334939,23.831484],[90.334871,23.831653],[90.334645,23.831549],[90.3347,23.831417],[90.334939,23.831484]]]}},{"type":"Feature","properties":{"survey":"bds","sheet":"004","dag":"1504","label_bn":"1504","area_sqm":3368.4},"geometry":{"type":"Polygon","coordinates":[[[90.334532,23.831085],[90.334264,23.831654],[90.33396,23.831433],[90.334102,23.831172],[90.334149,23.831074],[90.334197,23.830955],[90.334235,23.830887],[90.334242,23.83087],[90.334326,23.830726],[90.334638,23.83086],[90.334532,23.831085]]]}},{"type":"Feature","properties":{"survey":"bds","sheet":"004","dag":"1516","label_bn":"1516","area_sqm":1835.9},"geometry":{"type":"Polygon","coordinates":[[[90.335763,23.831397],[90.33565,23.831691],[90.335434,23.831663],[90.335507,23.831458],[90.335557,23.83132],[90.335615,23.831142],[90.335686,23.83094],[90.335887,23.831],[90.335827,23.831196],[90.335763,23.831397]]]}},{"type":"Feature","properties":{"survey":"bds","sheet":"004","dag":"1518","label_bn":"1518","area_sqm":1726.8},"geometry":{"type":"Polygon","coordinates":[[[90.335372,23.831405],[90.33521,23.831791],[90.334871,23.831653],[90.334939,23.831484],[90.335021,23.83128],[90.335249,23.831356],[90.335372,23.831405]]]}},{"type":"Feature","properties":{"survey":"bds","sheet":"004","dag":"1513","label_bn":"1513","area_sqm":5395.9},"geometry":{"type":"Polygon","coordinates":[[[90.336427,23.831646],[90.336414,23.831806],[90.336213,23.831773],[90.336202,23.83177],[90.335962,23.831741],[90.335932,23.83174],[90.33565,23.831691],[90.335763,23.831397],[90.335827,23.831196],[90.335887,23.831],[90.336043,23.831043],[90.336161,23.831076],[90.336395,23.831122],[90.336512,23.831138],[90.33646,23.831384],[90.336452,23.83142],[90.336424,23.83161],[90.336427,23.831646]]]}},{"type":"Feature","properties":{"survey":"bds","sheet":"004","dag":"1505","label_bn":"1505","area_sqm":2299.8},"geometry":{"type":"Polygon","coordinates":[[[90.334645,23.831549],[90.334508,23.831832],[90.334264,23.831654],[90.334532,23.831085],[90.33482,23.831194],[90.334778,23.831307],[90.33475,23.831385],[90.334717,23.831382],[90.3347,23.831417],[90.334645,23.831549]]]}},{"type":"Feature","properties":{"survey":"bds","sheet":"004","dag":"1502","label_bn":"1502","area_sqm":3430.6},"geometry":{"type":"Polygon","coordinates":[[[90.334569,23.831883],[90.334488,23.832035],[90.33436,23.831989],[90.334251,23.831949],[90.334146,23.831911],[90.333935,23.831818],[90.333853,23.831775],[90.333751,23.831721],[90.33374,23.831715],[90.333635,23.83164],[90.333571,23.831561],[90.333589,23.831507],[90.333819,23.831279],[90.33396,23.831433],[90.334264,23.831654],[90.334508,23.831832],[90.334569,23.831883]]]}},{"type":"Feature","properties":{"survey":"bds","sheet":"004","dag":"1512","label_bn":"1512","area_sqm":2967.8},"geometry":{"type":"Polygon","coordinates":[[[90.335826,23.832093],[90.335503,23.832108],[90.33565,23.831691],[90.335932,23.83174],[90.335962,23.831741],[90.336202,23.83177],[90.336213,23.831773],[90.336414,23.831806],[90.336393,23.832067],[90.336174,23.832046],[90.33586,23.832018],[90.335826,23.832093]]]}},{"type":"Feature","properties":{"survey":"bds","sheet":"004","dag":"1506","label_bn":"1506","area_sqm":2540.5},"geometry":{"type":"Polygon","coordinates":[[[90.335139,23.831958],[90.335068,23.832143],[90.334904,23.832076],[90.334569,23.831883],[90.334508,23.831832],[90.334645,23.831549],[90.334871,23.831653],[90.33521,23.831791],[90.335139,23.831958]]]}},{"type":"Feature","properties":{"survey":"bds","sheet":"004","dag":"1508","label_bn":"1508","area_sqm":1511.8},"geometry":{"type":"Polygon","coordinates":[[[90.335302,23.832026],[90.335227,23.832228],[90.335068,23.832143],[90.335139,23.831958],[90.33521,23.831791],[90.335372,23.831405],[90.335507,23.831458],[90.335434,23.831663],[90.33537,23.831838],[90.335302,23.832026]]]}},{"type":"Feature","properties":{"survey":"bds","sheet":"004","dag":"1509","label_bn":"1509","area_sqm":1521.4},"geometry":{"type":"Polygon","coordinates":[[[90.335503,23.832108],[90.335413,23.832305],[90.335227,23.832228],[90.335302,23.832026],[90.33537,23.831838],[90.335434,23.831663],[90.33565,23.831691],[90.335503,23.832108]]]}},{"type":"Feature","properties":{"survey":"bds","sheet":"004","dag":"1507","label_bn":"1507","area_sqm":868.8},"geometry":{"type":"Polygon","coordinates":[[[90.335413,23.832305],[90.335401,23.832329],[90.335392,23.832326],[90.33521,23.832253],[90.335107,23.832217],[90.335042,23.832199],[90.334885,23.832154],[90.334574,23.832066],[90.334488,23.832035],[90.334569,23.831883],[90.334904,23.832076],[90.335068,23.832143],[90.335227,23.832228],[90.335413,23.832305]]]}},{"type":"Feature","properties":{"survey":"bds","sheet":"004","dag":"1510","label_bn":"1510","area_sqm":1170.2},"geometry":{"type":"Polygon","coordinates":[[[90.33576,23.832433],[90.335749,23.832471],[90.335732,23.832455],[90.335706,23.832435],[90.335677,23.832419],[90.335605,23.832398],[90.335485,23.832363],[90.335476,23.832359],[90.335465,23.832356],[90.335462,23.832354],[90.335401,23.832329],[90.335413,23.832305],[90.335503,23.832108],[90.335826,23.832093],[90.335783,23.832312],[90.335775,23.832339],[90.33576,23.832433]]]}},{"type":"Feature","properties":{"survey":"bds","sheet":"004","dag":"1511","label_bn":"1511","area_sqm":3543.2},"geometry":{"type":"Polygon","coordinates":[[[90.33635,23.832512],[90.336317,23.832619],[90.336183,23.832599],[90.335975,23.832581],[90.335951,23.832573],[90.335868,23.832547],[90.335814,23.832525],[90.335785,23.832507],[90.335749,23.832471],[90.33576,23.832433],[90.335775,23.832339],[90.335783,23.832312],[90.335826,23.832093],[90.33586,23.832018],[90.336174,23.832046],[90.336393,23.832067],[90.336361,23.832475],[90.33635,23.832512]]]}},{"type":"Feature","properties":{"survey":"bds","sheet":"004","dag":"1547","label_bn":"1547","area_sqm":10473.1},"geometry":{"type":"Polygon","coordinates":[[[90.336596,23.832385],[90.336563,23.832641],[90.336451,23.832638],[90.336317,23.832619],[90.33635,23.832512],[90.336361,23.832475],[90.336393,23.832067],[90.336414,23.831806],[90.336427,23.831646],[90.336424,23.83161],[90.336452,23.83142],[90.33646,23.831384],[90.336512,23.831138],[90.33655,23.830956],[90.3366,23.830719],[90.336616,23.830683],[90.336706,23.83049],[90.336945,23.829975],[90.337113,23.829615],[90.337132,23.829595],[90.337284,23.829445],[90.337285,23.829444],[90.337311,23.829418],[90.337323,23.829427],[90.337324,23.829429],[90.337592,23.829646],[90.337584,23.829652],[90.33752,23.829692],[90.33748,23.829713],[90.337409,23.829746],[90.337342,23.829782],[90.337302,23.829807],[90.337255,23.829842],[90.337213,23.829877],[90.337179,23.829908],[90.337143,23.82995],[90.337087,23.830012],[90.337047,23.830069],[90.337028,23.830098],[90.337025,23.83011],[90.337022,23.830192],[90.337018,23.830215],[90.337011,23.830309],[90.337008,23.830327],[90.337008,23.830381],[90.337007,23.830411],[90.336999,23.830466],[90.336993,23.830534],[90.336987,23.83059],[90.336976,23.830671],[90.336968,23.830743],[90.336961,23.830781],[90.336946,23.830832],[90.336934,23.830879],[90.336916,23.830968],[90.336897,23.831052],[90.336892,23.831084],[90.33689,23.8311],[90.336671,23.83193],[90.336596,23.832385]]]}},{"type":"Feature","properties":{"survey":"bds","sheet":"004","dag":"1548","label_bn":"1548","area_sqm":19659.2},"geometry":{"type":"Polygon","coordinates":[[[90.337201,23.832541],[90.337242,23.832661],[90.336563,23.832641],[90.336596,23.832385],[90.336671,23.83193],[90.33689,23.8311],[90.336892,23.831084],[90.336897,23.831052],[90.336916,23.830968],[90.336934,23.830879],[90.336946,23.830832],[90.336961,23.830781],[90.336968,23.830743],[90.336976,23.830671],[90.336987,23.83059],[90.336993,23.830534],[90.336999,23.830466],[90.337007,23.830411],[90.337008,23.830381],[90.337008,23.830327],[90.337011,23.830309],[90.337018,23.830215],[90.337022,23.830192],[90.337025,23.83011],[90.337028,23.830098],[90.337047,23.830069],[90.337087,23.830012],[90.337143,23.82995],[90.337179,23.829908],[90.337213,23.829877],[90.337255,23.829842],[90.337302,23.829807],[90.337342,23.829782],[90.337409,23.829746],[90.33748,23.829713],[90.33752,23.829692],[90.337584,23.829652],[90.337592,23.829646],[90.337599,23.82964],[90.337651,23.82962],[90.337707,23.829599],[90.338109,23.829508],[90.338379,23.829432],[90.338564,23.829847],[90.338511,23.829854],[90.338472,23.829862],[90.338378,23.82988],[90.338263,23.829901],[90.338176,23.829904],[90.338091,23.82991],[90.33798,23.829922],[90.337894,23.82993],[90.337844,23.82994],[90.337789,23.829949],[90.337729,23.829962],[90.337719,23.829967],[90.337694,23.829992],[90.337677,23.830006],[90.337659,23.83003],[90.337635,23.830069],[90.337623,23.830097],[90.337599,23.830181],[90.337591,23.830209],[90.337585,23.830229],[90.337547,23.830362],[90.337537,23.830387],[90.33753,23.830408],[90.337507,23.830454],[90.337482,23.830506],[90.337457,23.83057],[90.33743,23.83064],[90.337417,23.830683],[90.337398,23.830774],[90.337374,23.830853],[90.337369,23.830907],[90.33736,23.830934],[90.337337,23.83103],[90.337301,23.83112],[90.337294,23.831149],[90.337272,23.831246],[90.337244,23.831333],[90.337236,23.831367],[90.337221,23.831428],[90.337206,23.83149],[90.337164,23.831623],[90.337141,23.831714],[90.337112,23.831814],[90.337097,23.831878],[90.337089,23.831939],[90.337077,23.832023],[90.337126,23.832139],[90.337145,23.832192],[90.337161,23.832256],[90.337176,23.832321],[90.337184,23.832413],[90.337201,23.832541]]]}},{"type":"Feature","properties":{"survey":"bds","sheet":"004","dag":"1501","label_bn":"1501","area_sqm":7563.6},"geometry":{"type":"Polygon","coordinates":[[[90.335975,23.832581],[90.335897,23.83279],[90.335768,23.832747],[90.335603,23.832692],[90.335269,23.832579],[90.334939,23.83245],[90.334629,23.83233],[90.334251,23.8322],[90.334033,23.832143],[90.333779,23.831993],[90.33351,23.831854],[90.33341,23.831782],[90.333563,23.831583],[90.333571,23.831561],[90.333635,23.83164],[90.33374,23.831715],[90.333751,23.831721],[90.333853,23.831775],[90.333935,23.831818],[90.334146,23.831911],[90.334251,23.831949],[90.33436,23.831989],[90.334488,23.832035],[90.334574,23.832066],[90.334885,23.832154],[90.335042,23.832199],[90.335107,23.832217],[90.33521,23.832253],[90.335392,23.832326],[90.335401,23.832329],[90.335462,23.832354],[90.335465,23.832356],[90.335476,23.832359],[90.335485,23.832363],[90.335605,23.832398],[90.335677,23.832419],[90.335706,23.832435],[90.335732,23.832455],[90.335749,23.832471],[90.335785,23.832507],[90.335814,23.832525],[90.335868,23.832547],[90.335951,23.832573],[90.335975,23.832581]]]}}]}