{"type":"FeatureCollection","features":[{"type":"Feature","properties":{"survey":"bds","sheet":"005","dag":"2065","label_bn":"2065","area_sqm":4299.5},"geometry":{"type":"Polygon","coordinates":[[[90.338817,23.826026],[90.338384,23.826112],[90.338396,23.825278],[90.338453,23.825262],[90.338513,23.825245],[90.338571,23.825234],[90.338631,23.825229],[90.338652,23.825219],[90.33872,23.825195],[90.338874,23.825205],[90.338873,23.82531],[90.338851,23.825385],[90.338838,23.82544],[90.338832,23.825499],[90.338838,23.825595],[90.338851,23.825666],[90.338833,23.825783],[90.338829,23.825855],[90.338826,23.825948],[90.338817,23.826026]]]}},{"type":"Feature","properties":{"survey":"bds","sheet":"005","dag":"2064","label_bn":"2064","area_sqm":2038.6},"geometry":{"type":"Polygon","coordinates":[[[90.338367,23.826179],[90.338184,23.826195],[90.338188,23.82531],[90.338311,23.825299],[90.33835,23.825286],[90.338396,23.825278],[90.338384,23.826112],[90.338367,23.826179]]]}},{"type":"Feature","properties":{"survey":"bds","sheet":"005","dag":"2062","label_bn":"2062","area_sqm":1757.2},"geometry":{"type":"Polygon","coordinates":[[[90.338184,23.826195],[90.337993,23.826214],[90.338028,23.825329],[90.338158,23.825317],[90.338188,23.82531],[90.338184,23.826195]]]}},{"type":"Feature","properties":{"survey":"bds","sheet":"005","dag":"2061","label_bn":"2061","area_sqm":2500.0},"geometry":{"type":"Polygon","coordinates":[[[90.337993,23.826214],[90.337706,23.826242],[90.337816,23.825346],[90.337944,23.825338],[90.338028,23.825329],[90.337993,23.826214]]]}},{"type":"Feature","properties":{"survey":"bds","sheet":"005","dag":"2057","label_bn":"2057","area_sqm":1769.3},"geometry":{"type":"Polygon","coordinates":[[[90.337706,23.826242],[90.337514,23.826256],[90.337509,23.826235],[90.337661,23.825367],[90.337816,23.825346],[90.337706,23.826242]]]}},{"type":"Feature","properties":{"survey":"bds","sheet":"005","dag":"2056","label_bn":"2056","area_sqm":2015.3},"geometry":{"type":"Polygon","coordinates":[[[90.337509,23.826235],[90.337307,23.826283],[90.337403,23.825599],[90.337433,23.825599],[90.337457,23.825398],[90.337661,23.825367],[90.337509,23.826235]]]}},{"type":"Feature","properties":{"survey":"bds","sheet":"005","dag":"2063","label_bn":"2063","area_sqm":906.7},"geometry":{"type":"Polygon","coordinates":[[[90.338141,23.82668],[90.338069,23.826728],[90.337993,23.826214],[90.338184,23.826195],[90.338198,23.826292],[90.338195,23.826612],[90.338194,23.826621],[90.338159,23.826634],[90.338141,23.82668]]]}},{"type":"Feature","properties":{"survey":"bds","sheet":"005","dag":"2060","label_bn":"2060","area_sqm":1836.7},"geometry":{"type":"Polygon","coordinates":[[[90.33789,23.826832],[90.337808,23.826842],[90.337706,23.826242],[90.337993,23.826214],[90.338069,23.826728],[90.338009,23.826771],[90.337926,23.826796],[90.33789,23.826832]]]}},{"type":"Feature","properties":{"survey":"bds","sheet":"005","dag":"2058","label_bn":"2058","area_sqm":1381.1},"geometry":{"type":"Polygon","coordinates":[[[90.337661,23.826908],[90.337636,23.826908],[90.337629,23.826877],[90.337594,23.826709],[90.337514,23.826256],[90.337706,23.826242],[90.337808,23.826842],[90.337771,23.826868],[90.337757,23.826879],[90.337702,23.826901],[90.337661,23.826908]]]}},{"type":"Feature","properties":{"survey":"bds","sheet":"005","dag":"2053","label_bn":"2053","area_sqm":2646.7},"geometry":{"type":"Polygon","coordinates":[[[90.337069,23.826906],[90.336881,23.827001],[90.336859,23.826975],[90.336814,23.826966],[90.33677,23.826933],[90.33672,23.82685],[90.3367,23.826783],[90.336693,23.826648],[90.33666,23.82654],[90.336642,23.826499],[90.336913,23.826437],[90.337086,23.826395],[90.337228,23.826837],[90.337068,23.826905],[90.337069,23.826906]]]}},{"type":"Feature","properties":{"survey":"bds","sheet":"005","dag":"2052","label_bn":"2052","area_sqm":366.0},"geometry":{"type":"Polygon","coordinates":[[[90.337069,23.826906],[90.337142,23.827118],[90.336967,23.827112],[90.336962,23.827094],[90.336881,23.827001],[90.337069,23.826906]]]}},{"type":"Feature","properties":{"survey":"bds","sheet":"005","dag":"2059","label_bn":"2059","area_sqm":2888.3},"geometry":{"type":"Polygon","coordinates":[[[90.337595,23.827074],[90.337396,23.82713],[90.337425,23.827044],[90.337456,23.82703],[90.337492,23.82695],[90.337536,23.826911],[90.337636,23.826908],[90.337661,23.826908],[90.337702,23.826901],[90.337757,23.826879],[90.337771,23.826868],[90.337808,23.826842],[90.33789,23.826832],[90.337926,23.826796],[90.338009,23.826771],[90.338069,23.826728],[90.338141,23.82668],[90.338159,23.826634],[90.338194,23.826621],[90.338195,23.826612],[90.338252,23.82663],[90.338294,23.82667],[90.338297,23.826714],[90.338291,23.826732],[90.338261,23.826763],[90.338287,23.826868],[90.338318,23.826946],[90.338323,23.826989],[90.338344,23.827121],[90.338088,23.827116],[90.337958,23.827106],[90.337797,23.827093],[90.337595,23.827074]]]}},{"type":"Feature","properties":{"survey":"bds","sheet":"005","dag":"2055","label_bn":"2055","area_sqm":3410.3},"geometry":{"type":"Polygon","coordinates":[[[90.337333,23.827156],[90.337318,23.827174],[90.337276,23.826991],[90.33724,23.826874],[90.337228,23.826837],[90.337086,23.826395],[90.337081,23.826361],[90.337307,23.826283],[90.337509,23.826235],[90.337514,23.826256],[90.337594,23.826709],[90.337629,23.826877],[90.337636,23.826908],[90.337536,23.826911],[90.337492,23.82695],[90.337456,23.82703],[90.337425,23.827044],[90.337396,23.82713],[90.337369,23.827142],[90.337333,23.827156]]]}},{"type":"Feature","properties":{"survey":"bds","sheet":"005","dag":"2054","label_bn":"2054","area_sqm":610.0},"geometry":{"type":"Polygon","coordinates":[[[90.337318,23.827174],[90.33726,23.827199],[90.337137,23.827153],[90.337142,23.827118],[90.337069,23.826906],[90.337068,23.826905],[90.337228,23.826837],[90.33724,23.826874],[90.337276,23.826991],[90.337318,23.827174]]]}},{"type":"Feature","properties":{"survey":"bds","sheet":"005","dag":"2051","label_bn":"2051","area_sqm":244.0},"geometry":{"type":"Polygon","coordinates":[[[90.337023,23.827259],[90.336969,23.827263],[90.336928,23.827251],[90.336957,23.827211],[90.336972,23.827136],[90.336967,23.827112],[90.337142,23.827118],[90.337137,23.827153],[90.337136,23.827163],[90.337079,23.827229],[90.337023,23.827259]]]}},{"type":"Feature","properties":{"survey":"bds","sheet":"005","dag":"2048","label_bn":"2048","area_sqm":462.0},"geometry":{"type":"Polygon","coordinates":[[[90.337803,23.827294],[90.337609,23.827295],[90.337595,23.827074],[90.337797,23.827093],[90.337793,23.827254],[90.337803,23.827294]]]}},{"type":"Feature","properties":{"survey":"bds","sheet":"005","dag":"2044","label_bn":"2044","area_sqm":740.4},"geometry":{"type":"Polygon","coordinates":[[[90.338361,23.827283],[90.338339,23.82737],[90.338332,23.827369],[90.338046,23.827326],[90.338088,23.827116],[90.338344,23.827121],[90.338343,23.827136],[90.338345,23.827219],[90.338361,23.827283]]]}},{"type":"Feature","properties":{"survey":"bds","sheet":"005","dag":"2049","label_bn":"2049","area_sqm":916.7},"geometry":{"type":"Polygon","coordinates":[[[90.33714,23.827394],[90.337089,23.827401],[90.337089,23.827391],[90.337116,23.827382],[90.337142,23.827369],[90.337152,23.827359],[90.337161,23.827349],[90.337193,23.827303],[90.337224,23.827256],[90.33726,23.827199],[90.337318,23.827174],[90.337333,23.827156],[90.337369,23.827142],[90.337396,23.82713],[90.337595,23.827074],[90.337609,23.827295],[90.337387,23.827336],[90.33714,23.827394]]]}},{"type":"Feature","properties":{"survey":"bds","sheet":"005","dag":"2050","label_bn":"2050","area_sqm":609.8},"geometry":{"type":"Polygon","coordinates":[[[90.337089,23.827401],[90.3369,23.827425],[90.336894,23.827313],[90.336928,23.827251],[90.336969,23.827263],[90.337023,23.827259],[90.337079,23.827229],[90.337136,23.827163],[90.337137,23.827153],[90.33726,23.827199],[90.337224,23.827256],[90.337193,23.827303],[90.337161,23.827349],[90.337152,23.827359],[90.337142,23.827369],[90.337116,23.827382],[90.337089,23.827391],[90.337089,23.827401]]]}},{"type":"Feature","properties":{"survey":"bds","sheet":"005","dag":"2047","label_bn":"2047","area_sqm":461.5},"geometry":{"type":"Polygon","coordinates":[[[90.337803,23.827294],[90.337781,23.827535],[90.337623,23.827516],[90.337609,23.827295],[90.337803,23.827294]]]}},{"type":"Feature","properties":{"survey":"bds","sheet":"005","dag":"2046","label_bn":"2046","area_sqm":710.4},"geometry":{"type":"Polygon","coordinates":[[[90.337958,23.827106],[90.337908,23.827555],[90.337781,23.827535],[90.337803,23.827294],[90.337793,23.827254],[90.337797,23.827093],[90.337958,23.827106]]]}},{"type":"Feature","properties":{"survey":"bds","sheet":"005","dag":"2037","label_bn":"2037","area_sqm":212.6},"geometry":{"type":"Polygon","coordinates":[[[90.338515,23.827437],[90.33849,23.827555],[90.338343,23.827546],[90.338348,23.827425],[90.338369,23.827429],[90.338515,23.827437]]]}},{"type":"Feature","properties":{"survey":"bds","sheet":"005","dag":"2042","label_bn":"2042","area_sqm":161.9},"geometry":{"type":"Polygon","coordinates":[[[90.338343,23.827546],[90.338342,23.827559],[90.338335,23.827553],[90.338275,23.827516],[90.33821,23.827487],[90.338244,23.827443],[90.338277,23.827408],[90.338297,23.827389],[90.338332,23.827369],[90.338339,23.82737],[90.338348,23.827425],[90.338343,23.827546]]]}},{"type":"Feature","properties":{"survey":"bds","sheet":"005","dag":"2043","label_bn":"2043","area_sqm":413.3},"geometry":{"type":"Polygon","coordinates":[[[90.338121,23.827525],[90.338059,23.827563],[90.33807,23.827454],[90.338046,23.827438],[90.338035,23.827324],[90.338046,23.827326],[90.338332,23.827369],[90.338297,23.827389],[90.338277,23.827408],[90.338244,23.827443],[90.33821,23.827487],[90.338182,23.827504],[90.338121,23.827525]]]}},{"type":"Feature","properties":{"survey":"bds","sheet":"005","dag":"2045","label_bn":"2045","area_sqm":653.8},"geometry":{"type":"Polygon","coordinates":[[[90.338057,23.827564],[90.338042,23.827573],[90.337929,23.827556],[90.337908,23.827555],[90.337958,23.827106],[90.338088,23.827116],[90.338046,23.827326],[90.338035,23.827324],[90.338046,23.827438],[90.33807,23.827454],[90.338059,23.827563],[90.338057,23.827564]]]}},{"type":"Feature","properties":{"survey":"bds","sheet":"005","dag":"2036","label_bn":"2036","area_sqm":483.5},"geometry":{"type":"Polygon","coordinates":[[[90.338825,23.827456],[90.338821,23.827583],[90.33849,23.827573],[90.33849,23.827555],[90.338515,23.827437],[90.338525,23.827437],[90.338677,23.827448],[90.338825,23.827456]]]}},{"type":"Feature","properties":{"survey":"bds","sheet":"005","dag":"2041","label_bn":"2041","area_sqm":246.2},"geometry":{"type":"Polygon","coordinates":[[[90.338342,23.827569],[90.338345,23.82762],[90.338121,23.827585],[90.338058,23.827576],[90.338042,23.827573],[90.338057,23.827564],[90.338059,23.827563],[90.338121,23.827525],[90.338182,23.827504],[90.33821,23.827487],[90.338275,23.827516],[90.338335,23.827553],[90.338342,23.827559],[90.338342,23.827569]]]}},{"type":"Feature","properties":{"survey":"bds","sheet":"005","dag":"2038","label_bn":"2038","area_sqm":200.6},"geometry":{"type":"Polygon","coordinates":[[[90.33849,23.827573],[90.338491,23.827676],[90.338403,23.827671],[90.338345,23.827668],[90.338345,23.82762],[90.338342,23.827569],[90.338342,23.827559],[90.338343,23.827546],[90.33849,23.827555],[90.33849,23.827573]]]}},{"type":"Feature","properties":{"survey":"bds","sheet":"005","dag":"2009","label_bn":"2009","area_sqm":942.6},"geometry":{"type":"Polygon","coordinates":[[[90.337298,23.827751],[90.337281,23.82776],[90.337233,23.827695],[90.337226,23.827687],[90.3372,23.827655],[90.337143,23.827583],[90.337139,23.827578],[90.337121,23.827549],[90.337103,23.827484],[90.337092,23.827434],[90.337089,23.827401],[90.33714,23.827394],[90.337387,23.827336],[90.337375,23.827459],[90.33736,23.827745],[90.337298,23.827751]]]}},{"type":"Feature","properties":{"survey":"bds","sheet":"005","dag":"2011","label_bn":"2011","area_sqm":658.2},"geometry":{"type":"Polygon","coordinates":[[[90.337756,23.82778],[90.33775,23.827787],[90.337698,23.827778],[90.337673,23.827713],[90.337623,23.827516],[90.337781,23.827535],[90.337908,23.827555],[90.337929,23.827556],[90.338042,23.827573],[90.33799,23.827604],[90.337949,23.827626],[90.337935,23.827635],[90.337896,23.827661],[90.33782,23.827727],[90.337756,23.82778]]]}},{"type":"Feature","properties":{"survey":"bds","sheet":"005","dag":"2039","label_bn":"2039","area_sqm":356.4},"geometry":{"type":"Polygon","coordinates":[[[90.338166,23.827797],[90.338151,23.827811],[90.338121,23.827585],[90.338345,23.82762],[90.338345,23.827668],[90.338345,23.827698],[90.338287,23.827726],[90.338226,23.827761],[90.338166,23.827797]]]}},{"type":"Feature","properties":{"survey":"bds","sheet":"005","dag":"2040","label_bn":"2040","area_sqm":743.6},"geometry":{"type":"Polygon","coordinates":[[[90.338134,23.827837],[90.338127,23.82785],[90.33795,23.827818],[90.33775,23.827787],[90.337756,23.82778],[90.33782,23.827727],[90.337896,23.827661],[90.337935,23.827635],[90.337949,23.827626],[90.33799,23.827604],[90.338042,23.827573],[90.338058,23.827576],[90.338121,23.827585],[90.338151,23.827811],[90.338144,23.827817],[90.338134,23.827837]]]}},{"type":"Feature","properties":{"survey":"bds","sheet":"005","dag":"2010","label_bn":"2010","area_sqm":1499.1},"geometry":{"type":"Polygon","coordinates":[[[90.337673,23.827713],[90.337359,23.827869],[90.337292,23.827774],[90.337281,23.82776],[90.337298,23.827751],[90.33736,23.827745],[90.337375,23.827459],[90.337387,23.827336],[90.337609,23.827295],[90.337623,23.827516],[90.337673,23.827713]]]}},{"type":"Feature","properties":{"survey":"bds","sheet":"005","dag":"2035","label_bn":"2035","area_sqm":1805.1},"geometry":{"type":"Polygon","coordinates":[[[90.338936,23.82784],[90.338511,23.827899],[90.338363,23.82787],[90.338344,23.827767],[90.338345,23.827698],[90.338345,23.827668],[90.338403,23.827671],[90.338491,23.827676],[90.33849,23.827573],[90.338821,23.827583],[90.338954,23.82759],[90.338932,23.827675],[90.338933,23.827759],[90.338936,23.82784]]]}},{"type":"Feature","properties":{"survey":"bds","sheet":"005","dag":"2008","label_bn":"2008","area_sqm":2819.3},"geometry":{"type":"Polygon","coordinates":[[[90.337281,23.82776],[90.336901,23.827946],[90.336694,23.827796],[90.336671,23.827779],[90.336683,23.827315],[90.336764,23.827315],[90.336894,23.827313],[90.3369,23.827425],[90.337089,23.827401],[90.337092,23.827434],[90.337103,23.827484],[90.337121,23.827549],[90.337139,23.827578],[90.337143,23.827583],[90.3372,23.827655],[90.337226,23.827687],[90.337233,23.827695],[90.337281,23.82776]]]}},{"type":"Feature","properties":{"survey":"bds","sheet":"005","dag":"2034","label_bn":"2034","area_sqm":5033.2},"geometry":{"type":"Polygon","coordinates":[[[90.33955,23.827985],[90.339537,23.828009],[90.339456,23.827968],[90.339328,23.827925],[90.33921,23.827903],[90.338959,23.827845],[90.338936,23.82784],[90.338933,23.827759],[90.338932,23.827675],[90.338954,23.82759],[90.338959,23.827546],[90.338959,23.827465],[90.338976,23.827341],[90.33901,23.827249],[90.339128,23.827269],[90.339271,23.827312],[90.339531,23.827391],[90.339674,23.82743],[90.339857,23.827503],[90.339898,23.82752],[90.339856,23.827557],[90.339788,23.827619],[90.339743,23.827667],[90.339719,23.827693],[90.339674,23.827741],[90.339616,23.827812],[90.339573,23.827872],[90.339562,23.827893],[90.339553,23.827948],[90.33955,23.827985]]]}},{"type":"Feature","properties":{"survey":"bds","sheet":"005","dag":"2007","label_bn":"2007","area_sqm":1816.2},"geometry":{"type":"Polygon","coordinates":[[[90.33679,23.828088],[90.336613,23.828179],[90.336526,23.828178],[90.33647,23.828134],[90.336336,23.827946],[90.336396,23.827948],[90.336418,23.827839],[90.336392,23.827833],[90.336379,23.827743],[90.336443,23.827733],[90.336546,23.827743],[90.336671,23.827779],[90.336694,23.827796],[90.336901,23.827946],[90.336824,23.82807],[90.33679,23.828088]]]}},{"type":"Feature","properties":{"survey":"bds","sheet":"005","dag":"2012","label_bn":"2012","area_sqm":1213.1},"geometry":{"type":"Polygon","coordinates":[[[90.337724,23.82818],[90.337716,23.828217],[90.337692,23.828206],[90.337637,23.828199],[90.337581,23.828192],[90.337544,23.828137],[90.337542,23.828133],[90.33751,23.828079],[90.337506,23.828073],[90.337466,23.828021],[90.337408,23.827938],[90.337359,23.827869],[90.337673,23.827713],[90.337698,23.827778],[90.33775,23.827787],[90.33771,23.82783],[90.337709,23.827832],[90.337686,23.827864],[90.337669,23.827892],[90.337653,23.82792],[90.337646,23.827936],[90.337647,23.827946],[90.337678,23.827978],[90.337724,23.82802],[90.337758,23.828051],[90.337759,23.828061],[90.33775,23.828091],[90.337737,23.828135],[90.337736,23.828139],[90.337725,23.828178],[90.337724,23.82818]]]}},{"type":"Feature","properties":{"survey":"bds","sheet":"005","dag":"2013","label_bn":"2013","area_sqm":1564.1},"geometry":{"type":"Polygon","coordinates":[[[90.337927,23.828205],[90.337886,23.828308],[90.3378,23.828267],[90.337771,23.828244],[90.337744,23.82823],[90.337724,23.828221],[90.337716,23.828217],[90.337724,23.82818],[90.337725,23.828178],[90.337736,23.828139],[90.337737,23.828135],[90.33775,23.828091],[90.337759,23.828061],[90.337758,23.828051],[90.337724,23.82802],[90.337678,23.827978],[90.337647,23.827946],[90.337646,23.827936],[90.337653,23.82792],[90.337669,23.827892],[90.337686,23.827864],[90.337709,23.827832],[90.33771,23.82783],[90.33775,23.827787],[90.33795,23.827818],[90.338127,23.82785],[90.33812,23.827866],[90.338081,23.827931],[90.338022,23.828017],[90.33796,23.828141],[90.337955,23.828151],[90.33794,23.82818],[90.337927,23.828205]]]}},{"type":"Feature","properties":{"survey":"bds","sheet":"005","dag":"2033","label_bn":"2033","area_sqm":3605.1},"geometry":{"type":"Polygon","coordinates":[[[90.338864,23.828362],[90.338845,23.828451],[90.338293,23.82839],[90.338356,23.827882],[90.338363,23.82787],[90.338511,23.827899],[90.338936,23.82784],[90.338959,23.827845],[90.338864,23.828362]]]}},{"type":"Feature","properties":{"survey":"bds","sheet":"005","dag":"2016","label_bn":"2016","area_sqm":3385.6},"geometry":{"type":"Polygon","coordinates":[[[90.337361,23.828392],[90.337232,23.82852],[90.337171,23.828429],[90.3371,23.828347],[90.337075,23.828314],[90.337043,23.828284],[90.337011,23.828254],[90.336949,23.828201],[90.336904,23.828168],[90.336862,23.828144],[90.336824,23.828121],[90.336803,23.828105],[90.33679,23.828092],[90.33679,23.828088],[90.336824,23.82807],[90.336901,23.827946],[90.337281,23.82776],[90.337292,23.827774],[90.337359,23.827869],[90.337408,23.827938],[90.337466,23.828021],[90.337506,23.828073],[90.33751,23.828079],[90.337542,23.828133],[90.337544,23.828137],[90.337581,23.828192],[90.337518,23.828188],[90.337486,23.828234],[90.337481,23.82824],[90.337453,23.82828],[90.337361,23.828392]]]}},{"type":"Feature","properties":{"survey":"bds","sheet":"005","dag":"2006","label_bn":"2006","area_sqm":515.0},"geometry":{"type":"Polygon","coordinates":[[[90.336731,23.828497],[90.336643,23.828524],[90.336643,23.828524],[90.336383,23.828233],[90.336476,23.828189],[90.336526,23.828178],[90.336731,23.828497]]]}},{"type":"Feature","properties":{"survey":"bds","sheet":"005","dag":"2014","label_bn":"2014","area_sqm":894.1},"geometry":{"type":"Polygon","coordinates":[[[90.338025,23.828545],[90.337794,23.828629],[90.337724,23.828248],[90.337724,23.828221],[90.337744,23.82823],[90.337771,23.828244],[90.3378,23.828267],[90.337886,23.828308],[90.337966,23.828349],[90.337998,23.828369],[90.338,23.828371],[90.338022,23.828386],[90.338076,23.828529],[90.338025,23.828545]]]}},{"type":"Feature","properties":{"survey":"bds","sheet":"005","dag":"2032","label_bn":"2032","area_sqm":2641.5},"geometry":{"type":"Polygon","coordinates":[[[90.338293,23.82839],[90.338283,23.828634],[90.338226,23.828585],[90.338148,23.828498],[90.338119,23.828471],[90.338076,23.828427],[90.338049,23.828404],[90.338022,23.828386],[90.338,23.828371],[90.337998,23.828369],[90.337966,23.828349],[90.337886,23.828308],[90.337927,23.828205],[90.33794,23.82818],[90.337955,23.828151],[90.33796,23.828141],[90.338022,23.828017],[90.338081,23.827931],[90.33812,23.827866],[90.338127,23.82785],[90.338134,23.827837],[90.338144,23.827817],[90.338151,23.827811],[90.338166,23.827797],[90.338226,23.827761],[90.338287,23.827726],[90.338345,23.827698],[90.338344,23.827767],[90.338363,23.82787],[90.338356,23.827882],[90.338293,23.82839]]]}},{"type":"Feature","properties":{"survey":"bds","sheet":"005","dag":"2031","label_bn":"2031","area_sqm":1711.5},"geometry":{"type":"Polygon","coordinates":[[[90.338845,23.828451],[90.338783,23.82874],[90.338702,23.828728],[90.338348,23.828679],[90.338349,23.828679],[90.338289,23.82864],[90.338283,23.828634],[90.338293,23.82839],[90.338845,23.828451]]]}},{"type":"Feature","properties":{"survey":"bds","sheet":"005","dag":"2015","label_bn":"2015","area_sqm":1611.6},"geometry":{"type":"Polygon","coordinates":[[[90.337642,23.828715],[90.337567,23.828751],[90.337449,23.828586],[90.337481,23.82824],[90.337486,23.828234],[90.337518,23.828188],[90.337581,23.828192],[90.337637,23.828199],[90.337692,23.828206],[90.337716,23.828217],[90.337724,23.828221],[90.337724,23.828248],[90.337794,23.828629],[90.337716,23.828658],[90.337642,23.828715]]]}},{"type":"Feature","properties":{"survey":"bds","sheet":"005","dag":"2021","label_bn":"2021","area_sqm":619.2},"geometry":{"type":"Polygon","coordinates":[[[90.338245,23.82877],[90.338213,23.828801],[90.338102,23.828714],[90.338025,23.828545],[90.338076,23.828529],[90.338022,23.828386],[90.338049,23.828404],[90.338076,23.828427],[90.338119,23.828471],[90.338148,23.828498],[90.338226,23.828585],[90.338283,23.828634],[90.338289,23.82864],[90.338349,23.828679],[90.338348,23.828679],[90.338316,23.828706],[90.338299,23.828721],[90.338245,23.82877]]]}},{"type":"Feature","properties":{"survey":"bds","sheet":"005","dag":"2030","label_bn":"2030","area_sqm":5775.9},"geometry":{"type":"Polygon","coordinates":[[[90.339304,23.828824],[90.339286,23.828841],[90.339267,23.828837],[90.339266,23.828837],[90.338783,23.82874],[90.338845,23.828451],[90.338864,23.828362],[90.338959,23.827845],[90.33921,23.827903],[90.339328,23.827925],[90.339456,23.827968],[90.339537,23.828009],[90.339487,23.828196],[90.339487,23.828232],[90.339306,23.828823],[90.339304,23.828824]]]}},{"type":"Feature","properties":{"survey":"bds","sheet":"005","dag":"2005","label_bn":"2005","area_sqm":3078.0},"geometry":{"type":"Polygon","coordinates":[[[90.337001,23.828912],[90.336998,23.828921],[90.336974,23.828912],[90.336919,23.828893],[90.336919,23.828882],[90.336773,23.828679],[90.336643,23.828524],[90.336731,23.828497],[90.336526,23.828178],[90.336613,23.828179],[90.33679,23.828088],[90.33679,23.828092],[90.336803,23.828105],[90.336824,23.828121],[90.336862,23.828144],[90.336904,23.828168],[90.336949,23.828201],[90.337011,23.828254],[90.337043,23.828284],[90.337075,23.828314],[90.3371,23.828347],[90.337171,23.828429],[90.337232,23.82852],[90.337162,23.828572],[90.337137,23.828591],[90.337088,23.828621],[90.337066,23.828642],[90.337008,23.828737],[90.336989,23.828774],[90.336997,23.828851],[90.336999,23.828882],[90.337001,23.828912]]]}},{"type":"Feature","properties":{"survey":"bds","sheet":"005","dag":"2029","label_bn":"2029","area_sqm":1561.4},"geometry":{"type":"Polygon","coordinates":[[[90.339582,23.828904],[90.339577,23.828927],[90.339306,23.828847],[90.339306,23.828847],[90.339286,23.828841],[90.339304,23.828824],[90.339306,23.828823],[90.339487,23.828232],[90.339487,23.828196],[90.339537,23.828009],[90.33955,23.827985],[90.339549,23.828003],[90.339554,23.828082],[90.33957,23.828347],[90.339572,23.828438],[90.339589,23.828595],[90.339591,23.828724],[90.339588,23.828805],[90.339585,23.828838],[90.339582,23.828904]]]}},{"type":"Feature","properties":{"survey":"bds","sheet":"005","dag":"2022","label_bn":"2022","area_sqm":722.3},"geometry":{"type":"Polygon","coordinates":[[[90.338657,23.828817],[90.338575,23.828977],[90.338315,23.828768],[90.338299,23.828721],[90.338316,23.828706],[90.338348,23.828679],[90.338702,23.828728],[90.338657,23.828817]]]}},{"type":"Feature","properties":{"survey":"bds","sheet":"005","dag":"2004","label_bn":"2004","area_sqm":1147.8},"geometry":{"type":"Polygon","coordinates":[[[90.336907,23.828974],[90.336889,23.828982],[90.336841,23.828957],[90.336653,23.828854],[90.33667,23.828817],[90.336509,23.828739],[90.336393,23.828663],[90.336643,23.828524],[90.336643,23.828524],[90.336773,23.828679],[90.336919,23.828882],[90.336919,23.828893],[90.336974,23.828912],[90.336998,23.828921],[90.336996,23.828927],[90.336974,23.828943],[90.336963,23.82895],[90.336907,23.828974]]]}},{"type":"Feature","properties":{"survey":"bds","sheet":"005","dag":"2020","label_bn":"2020","area_sqm":2170.0},"geometry":{"type":"Polygon","coordinates":[[[90.33773,23.829086],[90.33772,23.82909],[90.337738,23.829033],[90.337657,23.828905],[90.337567,23.828751],[90.337642,23.828715],[90.337716,23.828658],[90.337794,23.828629],[90.338025,23.828545],[90.338102,23.828714],[90.338213,23.828801],[90.338207,23.828807],[90.338163,23.828849],[90.338119,23.82889],[90.33807,23.828933],[90.338036,23.828962],[90.337974,23.829008],[90.337912,23.829009],[90.33773,23.829086]]]}},{"type":"Feature","properties":{"survey":"bds","sheet":"005","dag":"2027","label_bn":"2027","area_sqm":2050.8},"geometry":{"type":"Polygon","coordinates":[[[90.338544,23.829142],[90.338525,23.829146],[90.338524,23.829131],[90.338575,23.828977],[90.338657,23.828817],[90.338702,23.828728],[90.338783,23.82874],[90.339266,23.828837],[90.339267,23.828837],[90.339286,23.828841],[90.339266,23.828859],[90.339266,23.828859],[90.338994,23.829074],[90.338974,23.829074],[90.338954,23.829074],[90.338544,23.829142]]]}},{"type":"Feature","properties":{"survey":"bds","sheet":"005","dag":"2003","label_bn":"2003","area_sqm":554.6},"geometry":{"type":"Polygon","coordinates":[[[90.3368,23.829025],[90.336728,23.829145],[90.336591,23.829064],[90.336541,23.829031],[90.336653,23.828854],[90.336841,23.828957],[90.336889,23.828982],[90.336851,23.829001],[90.3368,23.829025]]]}},{"type":"Feature","properties":{"survey":"bds","sheet":"005","dag":"2017","label_bn":"2017","area_sqm":3330.1},"geometry":{"type":"Polygon","coordinates":[[[90.337657,23.828905],[90.337393,23.829181],[90.337282,23.829023],[90.337176,23.828989],[90.336998,23.828921],[90.337001,23.828912],[90.336999,23.828882],[90.336997,23.828851],[90.336989,23.828774],[90.337008,23.828737],[90.337066,23.828642],[90.337088,23.828621],[90.337137,23.828591],[90.337162,23.828572],[90.337232,23.82852],[90.337361,23.828392],[90.337453,23.82828],[90.337481,23.82824],[90.337449,23.828586],[90.337567,23.828751],[90.337657,23.828905]]]}},{"type":"Feature","properties":{"survey":"bds","sheet":"005","dag":"2018","label_bn":"2018","area_sqm":1203.9},"geometry":{"type":"Polygon","coordinates":[[[90.337355,23.829224],[90.337159,23.829309],[90.337126,23.829279],[90.337093,23.829249],[90.337062,23.829216],[90.337015,23.829182],[90.33697,23.829128],[90.336916,23.828997],[90.336907,23.828974],[90.336963,23.82895],[90.336974,23.828943],[90.336996,23.828927],[90.336998,23.828921],[90.337176,23.828989],[90.337282,23.829023],[90.337393,23.829181],[90.337408,23.829201],[90.337355,23.829224]]]}},{"type":"Feature","properties":{"survey":"bds","sheet":"005","dag":"2002","label_bn":"2002","area_sqm":708.8},"geometry":{"type":"Polygon","coordinates":[[[90.337159,23.829309],[90.337229,23.829357],[90.337151,23.829357],[90.337051,23.829323],[90.337029,23.829303],[90.336829,23.829204],[90.336728,23.829145],[90.3368,23.829025],[90.336851,23.829001],[90.336889,23.828982],[90.336907,23.828974],[90.336916,23.828997],[90.33697,23.829128],[90.337015,23.829182],[90.337062,23.829216],[90.337093,23.829249],[90.337126,23.829279],[90.337159,23.829309]]]}},{"type":"Feature","properties":{"survey":"bds","sheet":"005","dag":"2028","label_bn":"2028","area_sqm":1869.8},"geometry":{"type":"Polygon","coordinates":[[[90.339187,23.829373],[90.339162,23.829389],[90.338985,23.829092],[90.338974,23.829074],[90.338994,23.829074],[90.339266,23.828859],[90.339266,23.828859],[90.339286,23.828841],[90.339306,23.828847],[90.339306,23.828847],[90.339577,23.828927],[90.339562,23.828961],[90.339529,23.829006],[90.339459,23.829095],[90.339389,23.829161],[90.339376,23.829178],[90.339319,23.829256],[90.339305,23.829263],[90.339279,23.829295],[90.339224,23.829341],[90.339187,23.829373]]]}},{"type":"Feature","properties":{"survey":"bds","sheet":"005","dag":"2019","label_bn":"2019","area_sqm":1102.5},"geometry":{"type":"Polygon","coordinates":[[[90.337324,23.829418],[90.337317,23.829423],[90.337311,23.829418],[90.337303,23.829411],[90.337237,23.829357],[90.337229,23.829357],[90.337159,23.829309],[90.337355,23.829224],[90.337408,23.829201],[90.337393,23.829181],[90.337657,23.828905],[90.337738,23.829033],[90.33772,23.82909],[90.33771,23.829123],[90.337324,23.829418]]]}},{"type":"Feature","properties":{"survey":"bds","sheet":"005","dag":"2023","label_bn":"2023","area_sqm":3473.8},"geometry":{"type":"Polygon","coordinates":[[[90.337324,23.829421],[90.337317,23.829423],[90.337324,23.829418],[90.33771,23.829123],[90.33772,23.82909],[90.33773,23.829086],[90.337912,23.829009],[90.337974,23.829008],[90.338036,23.828962],[90.33807,23.828933],[90.338119,23.82889],[90.338163,23.828849],[90.338207,23.828807],[90.338213,23.828801],[90.338245,23.82877],[90.338299,23.828721],[90.338315,23.828768],[90.338575,23.828977],[90.338524,23.829131],[90.338525,23.829146],[90.338505,23.829149],[90.337324,23.829421]]]}},{"type":"Feature","properties":{"survey":"bds","sheet":"005","dag":"2026","label_bn":"2026","area_sqm":2176.1},"geometry":{"type":"Polygon","coordinates":[[[90.338819,23.829465],[90.338743,23.82947],[90.338666,23.829465],[90.338577,23.829454],[90.338541,23.829451],[90.338526,23.829167],[90.338525,23.829146],[90.338544,23.829142],[90.338954,23.829074],[90.338974,23.829074],[90.338985,23.829092],[90.339162,23.829389],[90.339105,23.829412],[90.339068,23.829426],[90.339037,23.829432],[90.338994,23.829447],[90.338968,23.829451],[90.338914,23.829458],[90.338859,23.829462],[90.338819,23.829465]]]}},{"type":"Feature","properties":{"survey":"bds","sheet":"005","dag":"2001","label_bn":"2001","area_sqm":1492.9},"geometry":{"type":"Polygon","coordinates":[[[90.336975,23.829413],[90.336821,23.829517],[90.336724,23.829432],[90.336688,23.829423],[90.336573,23.829353],[90.336454,23.829272],[90.336477,23.829217],[90.336591,23.829064],[90.336728,23.829145],[90.336829,23.829204],[90.337029,23.829303],[90.337051,23.829323],[90.336975,23.829413]]]}},{"type":"Feature","properties":{"survey":"bds","sheet":"005","dag":"2024","label_bn":"2024","area_sqm":3309.0},"geometry":{"type":"Polygon","coordinates":[[[90.337599,23.82964],[90.337592,23.829646],[90.337324,23.829429],[90.337317,23.829423],[90.337324,23.829421],[90.338505,23.829149],[90.338525,23.829146],[90.338526,23.829167],[90.338541,23.829451],[90.338505,23.829448],[90.338427,23.829437],[90.338395,23.829433],[90.338379,23.829432],[90.338109,23.829508],[90.337842,23.829568],[90.337707,23.829599],[90.337651,23.82962],[90.337599,23.82964]]]}},{"type":"Feature","properties":{"survey":"bds","sheet":"005","dag":"2025","label_bn":"2025","area_sqm":14953.4},"geometry":{"type":"Polygon","coordinates":[[[90.339062,23.829847],[90.339,23.829849],[90.338904,23.829846],[90.338832,23.829842],[90.338753,23.829841],[90.338699,23.829837],[90.338625,23.829843],[90.338596,23.829842],[90.338564,23.829847],[90.338379,23.829432],[90.338395,23.829433],[90.338427,23.829437],[90.338505,23.829448],[90.338541,23.829451],[90.338577,23.829454],[90.338666,23.829465],[90.338743,23.82947],[90.338819,23.829465],[90.338859,23.829462],[90.338914,23.829458],[90.338968,23.829451],[90.338994,23.829447],[90.339037,23.829432],[90.339068,23.829426],[90.339105,23.829412],[90.339162,23.829389],[90.339187,23.829373],[90.339224,23.829341],[90.339279,23.829295],[90.339305,23.829263],[90.339319,23.829256],[90.339376,23.829178],[90.339389,23.829161],[90.339459,23.829095],[90.339529,23.829006],[90.339562,23.828961],[90.339577,23.828927],[90.339582,23.828904],[90.339585,23.828838],[90.339588,23.828805],[90.339591,23.828724],[90.339589,23.828595],[90.339572,23.828438],[90.33957,23.828347],[90.339554,23.828082],[90.339549,23.828003],[90.33955,23.827985],[90.339553,23.827948],[90.339562,23.827893],[90.339573,23.827872],[90.339616,23.827812],[90.339674,23.827741],[90.339719,23.827693],[90.339743,23.827667],[90.339788,23.827619],[90.339856,23.827557],[90.339898,23.82752],[90.340229,23.827863],[90.340182,23.827929],[90.340143,23.827986],[90.340128,23.828009],[90.340095,23.828066],[90.34007,23.828117],[90.340058,23.82815],[90.34004,23.8282],[90.340004,23.828329],[90.339979,23.828433],[90.339967,23.828499],[90.339964,23.828531],[90.339964,23.82857],[90.339968,23.8286],[90.339982,23.828648],[90.339993,23.828694],[90.339996,23.828731],[90.340002,23.828789],[90.339997,23.828809],[90.339986,23.828861],[90.339971,23.8289],[90.339943,23.828994],[90.339906,23.829124],[90.339862,23.829275],[90.339876,23.829274],[90.339859,23.829319],[90.339853,23.829336],[90.339852,23.82934],[90.339848,23.829357],[90.339841,23.829388],[90.339827,23.829422],[90.339794,23.829469],[90.339788,23.829481],[90.339779,23.829493],[90.339759,23.829521],[90.339716,23.829578],[90.339689,23.829604],[90.339651,23.829639],[90.339623,23.829661],[90.339591,23.82968],[90.339542,23.829706],[90.339451,23.829753],[90.339397,23.829779],[90.339361,23.829794],[90.339305,23.82981],[90.33925,23.829823],[90.339192,23.829832],[90.339142,23.82984],[90.339109,23.829843],[90.339062,23.829847]]]}}]}