{"type":"FeatureCollection","features":[{"type":"Feature","properties":{"survey":"bds","sheet":"006","dag":"2550","label_bn":"2550","area_sqm":550.8},"geometry":{"type":"Polygon","coordinates":[[[90.339441,23.824968],[90.339415,23.825286],[90.339281,23.825259],[90.339234,23.82524],[90.339181,23.82513],[90.339441,23.824968]]]}},{"type":"Feature","properties":{"survey":"bds","sheet":"006","dag":"2552","label_bn":"2552","area_sqm":607.9},"geometry":{"type":"Polygon","coordinates":[[[90.340071,23.825227],[90.340149,23.825301],[90.339858,23.82512],[90.339686,23.825057],[90.339441,23.824968],[90.339604,23.824866],[90.339779,23.824991],[90.339917,23.8251],[90.340071,23.825227]]]}},{"type":"Feature","properties":{"survey":"bds","sheet":"006","dag":"2551","label_bn":"2551","area_sqm":825.8},"geometry":{"type":"Polygon","coordinates":[[[90.339686,23.825057],[90.339646,23.825331],[90.339482,23.8253],[90.339415,23.825286],[90.339441,23.824968],[90.339686,23.825057]]]}},{"type":"Feature","properties":{"survey":"bds","sheet":"006","dag":"2553","label_bn":"2553","area_sqm":1101.7},"geometry":{"type":"Polygon","coordinates":[[[90.340191,23.825352],[90.340073,23.825457],[90.340047,23.82543],[90.339833,23.825278],[90.339791,23.825314],[90.339759,23.825332],[90.339646,23.825331],[90.339686,23.825057],[90.339858,23.82512],[90.340149,23.825301],[90.340184,23.825344],[90.340191,23.825352]]]}},{"type":"Feature","properties":{"survey":"bds","sheet":"006","dag":"2554","label_bn":"2554","area_sqm":405.0},"geometry":{"type":"Polygon","coordinates":[[[90.340282,23.825576],[90.340219,23.825642],[90.340103,23.825489],[90.340073,23.825457],[90.340191,23.825352],[90.340252,23.82543],[90.340328,23.825525],[90.340282,23.825576]]]}},{"type":"Feature","properties":{"survey":"bds","sheet":"006","dag":"2555","label_bn":"2555","area_sqm":591.7},"geometry":{"type":"Polygon","coordinates":[[[90.340494,23.825702],[90.340433,23.82584],[90.340219,23.825642],[90.340282,23.825576],[90.340328,23.825525],[90.340382,23.825523],[90.340449,23.82558],[90.340543,23.825641],[90.340494,23.825702]]]}},{"type":"Feature","properties":{"survey":"bds","sheet":"006","dag":"2547","label_bn":"2547","area_sqm":852.0},"geometry":{"type":"Polygon","coordinates":[[[90.340064,23.825832],[90.339953,23.826048],[90.339861,23.826021],[90.339822,23.826025],[90.340103,23.825489],[90.340219,23.825642],[90.340064,23.825832]]]}},{"type":"Feature","properties":{"survey":"bds","sheet":"006","dag":"2548","label_bn":"2548","area_sqm":2614.9},"geometry":{"type":"Polygon","coordinates":[[[90.339705,23.826094],[90.339674,23.826106],[90.33963,23.826099],[90.339608,23.826084],[90.33959,23.82606],[90.339563,23.826048],[90.339759,23.825332],[90.339791,23.825314],[90.339833,23.825278],[90.340047,23.82543],[90.340073,23.825457],[90.340103,23.825489],[90.339822,23.826025],[90.339786,23.826034],[90.33974,23.826063],[90.339705,23.826094]]]}},{"type":"Feature","properties":{"survey":"bds","sheet":"006","dag":"2549","label_bn":"2549","area_sqm":3356.8},"geometry":{"type":"Polygon","coordinates":[[[90.339346,23.826194],[90.33931,23.82622],[90.339308,23.826158],[90.339281,23.825259],[90.339415,23.825286],[90.339482,23.8253],[90.339646,23.825331],[90.339759,23.825332],[90.339563,23.826048],[90.339519,23.826063],[90.339443,23.826112],[90.339346,23.826194]]]}},{"type":"Feature","properties":{"survey":"bds","sheet":"006","dag":"2545","label_bn":"2545","area_sqm":1170.9},"geometry":{"type":"Polygon","coordinates":[[[90.340701,23.82583],[90.3405,23.826231],[90.340451,23.8262],[90.340314,23.826105],[90.34033,23.826069],[90.340433,23.82584],[90.340494,23.825702],[90.340701,23.82583]]]}},{"type":"Feature","properties":{"survey":"bds","sheet":"006","dag":"2544","label_bn":"2544","area_sqm":365.8},"geometry":{"type":"Polygon","coordinates":[[[90.340451,23.8262],[90.340416,23.826361],[90.340234,23.82629],[90.340314,23.826105],[90.340451,23.8262]]]}},{"type":"Feature","properties":{"survey":"bds","sheet":"006","dag":"2539","label_bn":"2539","area_sqm":2411.4},"geometry":{"type":"Polygon","coordinates":[[[90.341306,23.826355],[90.341135,23.826385],[90.341086,23.826371],[90.341044,23.82638],[90.341047,23.826235],[90.340961,23.826239],[90.340778,23.826319],[90.340693,23.826332],[90.34064,23.826298],[90.340597,23.826279],[90.340502,23.826232],[90.3405,23.826231],[90.340701,23.82583],[90.340834,23.82594],[90.340968,23.826028],[90.341175,23.826175],[90.341324,23.826295],[90.341379,23.826336],[90.341367,23.82634],[90.341306,23.826355]]]}},{"type":"Feature","properties":{"survey":"bds","sheet":"006","dag":"2519","label_bn":"2519","area_sqm":5882.0},"geometry":{"type":"Polygon","coordinates":[[[90.339308,23.826158],[90.338777,23.826426],[90.338753,23.826398],[90.338746,23.826374],[90.338817,23.826026],[90.338826,23.825948],[90.338829,23.825855],[90.338833,23.825783],[90.338851,23.825666],[90.338838,23.825595],[90.338832,23.825499],[90.338838,23.82544],[90.338851,23.825385],[90.338873,23.82531],[90.338874,23.825205],[90.338887,23.825193],[90.338995,23.825184],[90.339181,23.82513],[90.339234,23.82524],[90.339281,23.825259],[90.339308,23.826158]]]}},{"type":"Feature","properties":{"survey":"bds","sheet":"006","dag":"2540","label_bn":"2540","area_sqm":526.7},"geometry":{"type":"Polygon","coordinates":[[[90.341044,23.82638],[90.340729,23.826448],[90.340693,23.826332],[90.340778,23.826319],[90.340961,23.826239],[90.341047,23.826235],[90.341044,23.82638]]]}},{"type":"Feature","properties":{"survey":"bds","sheet":"006","dag":"2518","label_bn":"2518","area_sqm":1733.2},"geometry":{"type":"Polygon","coordinates":[[[90.338753,23.826398],[90.338348,23.826493],[90.338367,23.826179],[90.338384,23.826112],[90.338817,23.826026],[90.338746,23.826374],[90.338753,23.826398]]]}},{"type":"Feature","properties":{"survey":"bds","sheet":"006","dag":"2543","label_bn":"2543","area_sqm":516.6},"geometry":{"type":"Polygon","coordinates":[[[90.340416,23.826363],[90.340373,23.826541],[90.340148,23.826531],[90.340234,23.82629],[90.340416,23.826361],[90.340416,23.826363]]]}},{"type":"Feature","properties":{"survey":"bds","sheet":"006","dag":"2546","label_bn":"2546","area_sqm":2924.1},"geometry":{"type":"Polygon","coordinates":[[[90.340148,23.826531],[90.340146,23.826551],[90.339956,23.826519],[90.339978,23.826385],[90.339967,23.826323],[90.339942,23.82629],[90.339916,23.826266],[90.339896,23.826232],[90.339895,23.826202],[90.339914,23.826163],[90.339942,23.826132],[90.339961,23.826091],[90.339964,23.826053],[90.339953,23.826048],[90.340064,23.825832],[90.340219,23.825642],[90.340433,23.82584],[90.34033,23.826069],[90.340314,23.826105],[90.340234,23.82629],[90.340148,23.826531]]]}},{"type":"Feature","properties":{"survey":"bds","sheet":"006","dag":"2541","label_bn":"2541","area_sqm":441.6},"geometry":{"type":"Polygon","coordinates":[[[90.340827,23.826544],[90.340744,23.826574],[90.340757,23.826537],[90.340729,23.826448],[90.341044,23.82638],[90.341044,23.826382],[90.341032,23.826535],[90.341032,23.826538],[90.340827,23.826544]]]}},{"type":"Feature","properties":{"survey":"bds","sheet":"006","dag":"2542","label_bn":"2542","area_sqm":1277.6},"geometry":{"type":"Polygon","coordinates":[[[90.340639,23.826611],[90.340594,23.826626],[90.340497,23.826626],[90.340431,23.826612],[90.340361,23.826589],[90.340373,23.826541],[90.340416,23.826363],[90.340416,23.826361],[90.340451,23.8262],[90.3405,23.826231],[90.340502,23.826232],[90.340597,23.826279],[90.34064,23.826298],[90.340693,23.826332],[90.340729,23.826448],[90.340757,23.826537],[90.340744,23.826574],[90.340639,23.826611]]]}},{"type":"Feature","properties":{"survey":"bds","sheet":"006","dag":"2520","label_bn":"2520","area_sqm":1868.7},"geometry":{"type":"Polygon","coordinates":[[[90.33929,23.826431],[90.339307,23.826647],[90.338961,23.826593],[90.338791,23.8266],[90.338777,23.826426],[90.339308,23.826158],[90.33931,23.82622],[90.339296,23.826362],[90.33929,23.826431]]]}},{"type":"Feature","properties":{"survey":"bds","sheet":"006","dag":"2517","label_bn":"2517","area_sqm":963.7},"geometry":{"type":"Polygon","coordinates":[[[90.338427,23.826651],[90.338337,23.826664],[90.338348,23.826493],[90.338753,23.826398],[90.338777,23.826426],[90.338791,23.8266],[90.33859,23.826636],[90.338492,23.826648],[90.338427,23.826651]]]}},{"type":"Feature","properties":{"survey":"bds","sheet":"006","dag":"2527","label_bn":"2527","area_sqm":334.8},"geometry":{"type":"Polygon","coordinates":[[[90.340431,23.826612],[90.340419,23.826669],[90.340135,23.826636],[90.340146,23.826551],[90.340148,23.826531],[90.340373,23.826541],[90.340361,23.826589],[90.340431,23.826612]]]}},{"type":"Feature","properties":{"survey":"bds","sheet":"006","dag":"2516","label_bn":"2516","area_sqm":814.0},"geometry":{"type":"Polygon","coordinates":[[[90.338337,23.826664],[90.338294,23.82667],[90.338252,23.82663],[90.338195,23.826612],[90.338198,23.826292],[90.338184,23.826195],[90.338367,23.826179],[90.338348,23.826493],[90.338337,23.826664]]]}},{"type":"Feature","properties":{"survey":"bds","sheet":"006","dag":"2522","label_bn":"2522","area_sqm":1440.3},"geometry":{"type":"Polygon","coordinates":[[[90.339519,23.826063],[90.339498,23.826759],[90.339436,23.826754],[90.339277,23.826741],[90.339292,23.826712],[90.339307,23.826647],[90.33929,23.826431],[90.339296,23.826362],[90.33931,23.82622],[90.339346,23.826194],[90.339443,23.826112],[90.339519,23.826063]]]}},{"type":"Feature","properties":{"survey":"bds","sheet":"006","dag":"2523","label_bn":"2523","area_sqm":3458.1},"geometry":{"type":"Polygon","coordinates":[[[90.339843,23.826763],[90.339734,23.826777],[90.339634,23.826773],[90.33962,23.826771],[90.33955,23.826763],[90.339498,23.826759],[90.339519,23.826063],[90.339563,23.826048],[90.33959,23.82606],[90.339608,23.826084],[90.33963,23.826099],[90.339674,23.826106],[90.339705,23.826094],[90.33974,23.826063],[90.339786,23.826034],[90.339822,23.826025],[90.339861,23.826021],[90.339953,23.826048],[90.339964,23.826053],[90.339961,23.826091],[90.339942,23.826132],[90.339914,23.826163],[90.339895,23.826202],[90.339896,23.826232],[90.339916,23.826266],[90.339942,23.82629],[90.339967,23.826323],[90.339978,23.826385],[90.339956,23.826519],[90.339885,23.826768],[90.339843,23.826763]]]}},{"type":"Feature","properties":{"survey":"bds","sheet":"006","dag":"2556","label_bn":"2556","area_sqm":2039.8},"geometry":{"type":"Polygon","coordinates":[[[90.342072,23.826807],[90.34201,23.826828],[90.341792,23.826655],[90.341487,23.826414],[90.341379,23.826336],[90.341324,23.826295],[90.341175,23.826175],[90.340968,23.826028],[90.340834,23.82594],[90.340701,23.82583],[90.340494,23.825702],[90.340543,23.825641],[90.340644,23.825706],[90.340954,23.825905],[90.341407,23.826227],[90.341498,23.826296],[90.341558,23.826342],[90.341735,23.826478],[90.341898,23.826593],[90.342015,23.82672],[90.342072,23.826807]]]}},{"type":"Feature","properties":{"survey":"bds","sheet":"006","dag":"2538","label_bn":"2538","area_sqm":1168.2},"geometry":{"type":"Polygon","coordinates":[[[90.341522,23.826845],[90.341458,23.826866],[90.341436,23.826738],[90.341436,23.826695],[90.341388,23.826458],[90.341378,23.826425],[90.341367,23.82634],[90.341379,23.826336],[90.341487,23.826414],[90.341792,23.826655],[90.341687,23.826726],[90.341522,23.826845]]]}},{"type":"Feature","properties":{"survey":"bds","sheet":"006","dag":"2512","label_bn":"2512","area_sqm":584.3},"geometry":{"type":"Polygon","coordinates":[[[90.339046,23.826844],[90.338845,23.826866],[90.338791,23.8266],[90.338961,23.826593],[90.338999,23.82667],[90.33904,23.826773],[90.339046,23.826844]]]}},{"type":"Feature","properties":{"survey":"bds","sheet":"006","dag":"2537","label_bn":"2537","area_sqm":1729.8},"geometry":{"type":"Polygon","coordinates":[[[90.341458,23.826866],[90.341283,23.82687],[90.341214,23.826866],[90.341195,23.826814],[90.341162,23.826738],[90.341112,23.826622],[90.341101,23.826536],[90.341032,23.826538],[90.341032,23.826535],[90.341044,23.826382],[90.341044,23.82638],[90.341086,23.826371],[90.341135,23.826385],[90.341306,23.826355],[90.341367,23.82634],[90.341378,23.826425],[90.341388,23.826458],[90.341436,23.826695],[90.341436,23.826738],[90.341458,23.826866]]]}},{"type":"Feature","properties":{"survey":"bds","sheet":"006","dag":"2515","label_bn":"2515","area_sqm":330.5},"geometry":{"type":"Polygon","coordinates":[[[90.338427,23.826651],[90.338412,23.826878],[90.338287,23.826868],[90.338261,23.826763],[90.338291,23.826732],[90.338297,23.826714],[90.338294,23.82667],[90.338337,23.826664],[90.338427,23.826651]]]}},{"type":"Feature","properties":{"survey":"bds","sheet":"006","dag":"2514","label_bn":"2514","area_sqm":417.7},"geometry":{"type":"Polygon","coordinates":[[[90.338596,23.826838],[90.338412,23.826878],[90.338427,23.826651],[90.338492,23.826648],[90.33859,23.826636],[90.338596,23.826838]]]}},{"type":"Feature","properties":{"survey":"bds","sheet":"006","dag":"2513","label_bn":"2513","area_sqm":660.2},"geometry":{"type":"Polygon","coordinates":[[[90.338845,23.826866],[90.338604,23.826884],[90.338596,23.826838],[90.33859,23.826636],[90.338791,23.8266],[90.338845,23.826866]]]}},{"type":"Feature","properties":{"survey":"bds","sheet":"006","dag":"2536","label_bn":"2536","area_sqm":628.4},"geometry":{"type":"Polygon","coordinates":[[[90.341034,23.826856],[90.34099,23.82694],[90.340942,23.826761],[90.341029,23.826602],[90.341032,23.826538],[90.341101,23.826536],[90.341112,23.826622],[90.341162,23.826738],[90.341195,23.826814],[90.341214,23.826866],[90.341034,23.826856]]]}},{"type":"Feature","properties":{"survey":"bds","sheet":"006","dag":"2509","label_bn":"2509","area_sqm":140.7},"geometry":{"type":"Polygon","coordinates":[[[90.338423,23.826989],[90.338323,23.826989],[90.338318,23.826946],[90.338287,23.826868],[90.338412,23.826878],[90.338423,23.826989]]]}},{"type":"Feature","properties":{"survey":"bds","sheet":"006","dag":"2510","label_bn":"2510","area_sqm":652.8},"geometry":{"type":"Polygon","coordinates":[[[90.338845,23.826866],[90.338867,23.82701],[90.338853,23.827009],[90.338423,23.826989],[90.338412,23.826878],[90.338596,23.826838],[90.338604,23.826884],[90.338845,23.826866]]]}},{"type":"Feature","properties":{"survey":"bds","sheet":"006","dag":"2511","label_bn":"2511","area_sqm":365.3},"geometry":{"type":"Polygon","coordinates":[[[90.339059,23.827004],[90.339057,23.82702],[90.338867,23.82701],[90.338845,23.826866],[90.339046,23.826844],[90.33906,23.826934],[90.339059,23.827004]]]}},{"type":"Feature","properties":{"survey":"bds","sheet":"006","dag":"2535","label_bn":"2535","area_sqm":1576.5},"geometry":{"type":"Polygon","coordinates":[[[90.34201,23.826828],[90.341297,23.827101],[90.341214,23.826866],[90.341283,23.82687],[90.341458,23.826866],[90.341522,23.826845],[90.341687,23.826726],[90.341792,23.826655],[90.34201,23.826828]]]}},{"type":"Feature","properties":{"survey":"bds","sheet":"006","dag":"2534","label_bn":"2534","area_sqm":804.1},"geometry":{"type":"Polygon","coordinates":[[[90.341206,23.827136],[90.341039,23.827181],[90.34099,23.82694],[90.341034,23.826856],[90.341214,23.826866],[90.341297,23.827101],[90.341206,23.827136]]]}},{"type":"Feature","properties":{"survey":"bds","sheet":"006","dag":"2508","label_bn":"2508","area_sqm":973.5},"geometry":{"type":"Polygon","coordinates":[[[90.33887,23.827124],[90.338855,23.827199],[90.338554,23.827149],[90.338344,23.827121],[90.338323,23.826989],[90.338423,23.826989],[90.338853,23.827009],[90.338867,23.82701],[90.33887,23.827124]]]}},{"type":"Feature","properties":{"survey":"bds","sheet":"006","dag":"2507","label_bn":"2507","area_sqm":346.8},"geometry":{"type":"Polygon","coordinates":[[[90.338888,23.82719],[90.338855,23.827199],[90.33887,23.827124],[90.338867,23.82701],[90.339057,23.82702],[90.339058,23.82702],[90.339032,23.827191],[90.338957,23.82718],[90.338919,23.827184],[90.338888,23.82719]]]}},{"type":"Feature","properties":{"survey":"bds","sheet":"006","dag":"2533","label_bn":"2533","area_sqm":2545.1},"geometry":{"type":"Polygon","coordinates":[[[90.340777,23.827252],[90.340693,23.827276],[90.340639,23.826611],[90.340744,23.826574],[90.340827,23.826544],[90.341032,23.826538],[90.341029,23.826602],[90.340942,23.826761],[90.34099,23.82694],[90.341039,23.827181],[90.340777,23.827252]]]}},{"type":"Feature","properties":{"survey":"bds","sheet":"006","dag":"2521","label_bn":"2521","area_sqm":1574.6},"geometry":{"type":"Polygon","coordinates":[[[90.339277,23.826741],[90.3392,23.82729],[90.339128,23.827269],[90.33901,23.827249],[90.339032,23.827191],[90.339058,23.82702],[90.339057,23.82702],[90.339059,23.827004],[90.33906,23.826934],[90.339046,23.826844],[90.33904,23.826773],[90.338999,23.82667],[90.338961,23.826593],[90.339307,23.826647],[90.339292,23.826712],[90.339277,23.826741]]]}},{"type":"Feature","properties":{"survey":"bds","sheet":"006","dag":"2528","label_bn":"2528","area_sqm":1750.0},"geometry":{"type":"Polygon","coordinates":[[[90.340281,23.827274],[90.340079,23.827297],[90.340135,23.826636],[90.340419,23.826669],[90.340281,23.827274]]]}},{"type":"Feature","properties":{"survey":"bds","sheet":"006","dag":"2502","label_bn":"2502","area_sqm":355.8},"geometry":{"type":"Polygon","coordinates":[[[90.338554,23.827149],[90.338535,23.827307],[90.338361,23.827283],[90.338345,23.827219],[90.338343,23.827136],[90.338344,23.827121],[90.338554,23.827149]]]}},{"type":"Feature","properties":{"survey":"bds","sheet":"006","dag":"2506","label_bn":"2506","area_sqm":253.3},"geometry":{"type":"Polygon","coordinates":[[[90.33901,23.827249],[90.338976,23.827341],[90.338922,23.827335],[90.338865,23.827318],[90.338855,23.827307],[90.338846,23.827283],[90.338855,23.827199],[90.338888,23.82719],[90.338919,23.827184],[90.338957,23.82718],[90.339032,23.827191],[90.33901,23.827249]]]}},{"type":"Feature","properties":{"survey":"bds","sheet":"006","dag":"2524","label_bn":"2524","area_sqm":2324.0},"geometry":{"type":"Polygon","coordinates":[[[90.339579,23.827107],[90.339531,23.827391],[90.339271,23.827312],[90.3392,23.82729],[90.339277,23.826741],[90.339436,23.826754],[90.339498,23.826759],[90.33955,23.826763],[90.33962,23.826771],[90.339579,23.827107]]]}},{"type":"Feature","properties":{"survey":"bds","sheet":"006","dag":"2532","label_bn":"2532","area_sqm":2597.9},"geometry":{"type":"Polygon","coordinates":[[[90.340693,23.827276],[90.340252,23.8274],[90.340281,23.827274],[90.340419,23.826669],[90.340431,23.826612],[90.340497,23.826626],[90.340594,23.826626],[90.340639,23.826611],[90.340693,23.827276]]]}},{"type":"Feature","properties":{"survey":"bds","sheet":"006","dag":"2557","label_bn":"2557","area_sqm":34410.2},"geometry":{"type":"Polygon","coordinates":[[[90.342814,23.827363],[90.342673,23.827412],[90.342423,23.827234],[90.342183,23.827034],[90.342126,23.827048],[90.342131,23.82703],[90.342137,23.826973],[90.342094,23.82684],[90.342072,23.826807],[90.342015,23.82672],[90.341898,23.826593],[90.341735,23.826478],[90.341558,23.826342],[90.341498,23.826296],[90.341407,23.826227],[90.340954,23.825905],[90.340644,23.825706],[90.340543,23.825641],[90.340449,23.82558],[90.340382,23.825523],[90.340328,23.825525],[90.340252,23.82543],[90.340191,23.825352],[90.340184,23.825344],[90.340149,23.825301],[90.340071,23.825227],[90.339917,23.8251],[90.339779,23.824991],[90.339604,23.824866],[90.34013,23.824537],[90.340653,23.825089],[90.341648,23.825453],[90.341717,23.825373],[90.341789,23.825421],[90.341991,23.825554],[90.342166,23.825673],[90.342403,23.825837],[90.342541,23.825926],[90.342628,23.825994],[90.342625,23.826005],[90.34262,23.826023],[90.342623,23.826044],[90.342638,23.826069],[90.342665,23.826113],[90.342687,23.826144],[90.34278,23.826254],[90.342799,23.826284],[90.34285,23.826364],[90.342905,23.826451],[90.342917,23.826476],[90.342963,23.82657],[90.343004,23.826645],[90.343034,23.826703],[90.343044,23.826743],[90.343077,23.826839],[90.343108,23.82693],[90.343145,23.82702],[90.343148,23.827033],[90.343307,23.827203],[90.34325,23.827222],[90.343043,23.827292],[90.342957,23.827323],[90.342814,23.827363]]]}},{"type":"Feature","properties":{"survey":"bds","sheet":"006","dag":"2501","label_bn":"2501","area_sqm":288.0},"geometry":{"type":"Polygon","coordinates":[[[90.338535,23.827307],[90.338525,23.827437],[90.338369,23.827429],[90.338348,23.827425],[90.338339,23.82737],[90.338361,23.827283],[90.338535,23.827307]]]}},{"type":"Feature","properties":{"survey":"bds","sheet":"006","dag":"2503","label_bn":"2503","area_sqm":215.2},"geometry":{"type":"Polygon","coordinates":[[[90.338688,23.827331],[90.338677,23.827448],[90.338525,23.827437],[90.338535,23.827307],[90.338688,23.827331]]]}},{"type":"Feature","properties":{"survey":"bds","sheet":"006","dag":"2504","label_bn":"2504","area_sqm":732.9},"geometry":{"type":"Polygon","coordinates":[[[90.338846,23.827283],[90.338825,23.827456],[90.338677,23.827448],[90.338688,23.827331],[90.338535,23.827307],[90.338554,23.827149],[90.338855,23.827199],[90.338846,23.827283]]]}},{"type":"Feature","properties":{"survey":"bds","sheet":"006","dag":"2525","label_bn":"2525","area_sqm":1754.7},"geometry":{"type":"Polygon","coordinates":[[[90.339843,23.826763],[90.339778,23.827472],[90.339674,23.82743],[90.339531,23.827391],[90.339579,23.827107],[90.33962,23.826771],[90.339634,23.826773],[90.339734,23.826777],[90.339843,23.826763]]]}},{"type":"Feature","properties":{"survey":"bds","sheet":"006","dag":"2531","label_bn":"2531","area_sqm":3574.9},"geometry":{"type":"Polygon","coordinates":[[[90.340049,23.827472],[90.340034,23.827473],[90.339995,23.827473],[90.340252,23.8274],[90.340693,23.827276],[90.340777,23.827252],[90.341039,23.827181],[90.341206,23.827136],[90.341297,23.827101],[90.34201,23.826828],[90.342072,23.826807],[90.342094,23.82684],[90.342137,23.826973],[90.342131,23.82703],[90.342126,23.827048],[90.342044,23.82707],[90.341862,23.827116],[90.341762,23.827145],[90.341685,23.827159],[90.341668,23.827159],[90.341569,23.827187],[90.341475,23.827215],[90.341365,23.827243],[90.341171,23.827301],[90.341093,23.827319],[90.341007,23.827345],[90.340845,23.827376],[90.340717,23.827408],[90.340633,23.827426],[90.340363,23.827452],[90.340226,23.827459],[90.340049,23.827472]]]}},{"type":"Feature","properties":{"survey":"bds","sheet":"006","dag":"2526","label_bn":"2526","area_sqm":2636.5},"geometry":{"type":"Polygon","coordinates":[[[90.339971,23.827355],[90.339871,23.827508],[90.339857,23.827503],[90.339778,23.827472],[90.339843,23.826763],[90.339885,23.826768],[90.339956,23.826519],[90.340146,23.826551],[90.340135,23.826636],[90.340079,23.827297],[90.34001,23.827319],[90.339971,23.827355]]]}},{"type":"Feature","properties":{"survey":"bds","sheet":"006","dag":"2529","label_bn":"2529","area_sqm":553.7},"geometry":{"type":"Polygon","coordinates":[[[90.339949,23.827496],[90.339898,23.82752],[90.339871,23.827508],[90.339971,23.827355],[90.34001,23.827319],[90.340079,23.827297],[90.340281,23.827274],[90.340252,23.8274],[90.339995,23.827473],[90.339952,23.827494],[90.339949,23.827496]]]}},{"type":"Feature","properties":{"survey":"bds","sheet":"006","dag":"2505","label_bn":"2505","area_sqm":398.2},"geometry":{"type":"Polygon","coordinates":[[[90.338959,23.827546],[90.338954,23.82759],[90.338821,23.827583],[90.338825,23.827456],[90.338846,23.827283],[90.338855,23.827307],[90.338865,23.827318],[90.338922,23.827335],[90.338976,23.827341],[90.338959,23.827465],[90.338959,23.827546]]]}},{"type":"Feature","properties":{"survey":"bds","sheet":"006","dag":"2530","label_bn":"2530","area_sqm":11200.8},"geometry":{"type":"Polygon","coordinates":[[[90.340267,23.827831],[90.340229,23.827863],[90.339921,23.827543],[90.339898,23.82752],[90.339949,23.827496],[90.339952,23.827494],[90.339995,23.827473],[90.340034,23.827473],[90.340049,23.827472],[90.340226,23.827459],[90.340363,23.827452],[90.340633,23.827426],[90.340717,23.827408],[90.340845,23.827376],[90.341007,23.827345],[90.341093,23.827319],[90.341171,23.827301],[90.341365,23.827243],[90.341475,23.827215],[90.341569,23.827187],[90.341668,23.827159],[90.341685,23.827159],[90.341762,23.827145],[90.341862,23.827116],[90.342044,23.82707],[90.342126,23.827048],[90.342183,23.827034],[90.342423,23.827234],[90.342673,23.827412],[90.342693,23.827427],[90.342606,23.827445],[90.342475,23.827485],[90.342327,23.82753],[90.342208,23.827565],[90.342079,23.8276],[90.341957,23.827626],[90.341815,23.827647],[90.341715,23.827657],[90.341644,23.827656],[90.341532,23.827664],[90.341472,23.827663],[90.341405,23.827658],[90.341346,23.827653],[90.34128,23.827653],[90.341224,23.827662],[90.341159,23.827663],[90.341112,23.827667],[90.341015,23.82768],[90.340954,23.827682],[90.340882,23.82769],[90.340768,23.8277],[90.340644,23.827705],[90.340566,23.827715],[90.340521,23.827724],[90.340492,23.827734],[90.340415,23.827755],[90.34038,23.827763],[90.340347,23.827777],[90.340313,23.827794],[90.340267,23.827831]]]}}]}