{"type":"FeatureCollection","features":[{"type":"Feature","properties":{"survey":"bds","sheet":"007","dag":"3015","label_bn":"3015","area_sqm":733.1},"geometry":{"type":"Polygon","coordinates":[[[90.337044,23.822695],[90.336932,23.822773],[90.336844,23.822744],[90.336836,23.822764],[90.336734,23.822699],[90.336672,23.82266],[90.336851,23.822496],[90.337123,23.822676],[90.337155,23.822706],[90.337146,23.822705],[90.337044,23.822695]]]}},{"type":"Feature","properties":{"survey":"bds","sheet":"007","dag":"3014","label_bn":"3014","area_sqm":2106.3},"geometry":{"type":"Polygon","coordinates":[[[90.336761,23.82353],[90.336759,23.823554],[90.336672,23.823553],[90.336678,23.823292],[90.336672,23.823223],[90.33668,23.823171],[90.336702,23.823119],[90.336836,23.822764],[90.336844,23.822744],[90.336932,23.822773],[90.337044,23.822695],[90.337146,23.822705],[90.337083,23.822868],[90.33691,23.823225],[90.336761,23.82353]]]}},{"type":"Feature","properties":{"survey":"bds","sheet":"007","dag":"3012","label_bn":"3012","area_sqm":1352.8},"geometry":{"type":"Polygon","coordinates":[[[90.337171,23.823594],[90.337145,23.823621],[90.337035,23.82353],[90.33705,23.823518],[90.337075,23.823498],[90.337151,23.823413],[90.337294,23.823242],[90.337417,23.822991],[90.337458,23.822925],[90.337629,23.823087],[90.337422,23.823315],[90.337276,23.82348],[90.337171,23.823594]]]}},{"type":"Feature","properties":{"survey":"bds","sheet":"007","dag":"3013","label_bn":"3013","area_sqm":3199.6},"geometry":{"type":"Polygon","coordinates":[[[90.336967,23.823567],[90.336917,23.823651],[90.336885,23.823633],[90.336832,23.823602],[90.336795,23.82357],[90.336759,23.823554],[90.336761,23.82353],[90.33691,23.823225],[90.337083,23.822868],[90.337146,23.822705],[90.337155,23.822706],[90.337227,23.822773],[90.337373,23.822869],[90.337458,23.822925],[90.337417,23.822991],[90.337294,23.823242],[90.337151,23.823413],[90.337075,23.823498],[90.33705,23.823518],[90.337035,23.82353],[90.336967,23.823567]]]}},{"type":"Feature","properties":{"survey":"bds","sheet":"007","dag":"3011","label_bn":"3011","area_sqm":1757.7},"geometry":{"type":"Polygon","coordinates":[[[90.337336,23.823723],[90.337328,23.823732],[90.337145,23.823621],[90.337171,23.823594],[90.337276,23.82348],[90.337422,23.823315],[90.337629,23.823087],[90.337798,23.823265],[90.337626,23.823429],[90.337336,23.823723]]]}},{"type":"Feature","properties":{"survey":"bds","sheet":"007","dag":"3010","label_bn":"3010","area_sqm":1437.7},"geometry":{"type":"Polygon","coordinates":[[[90.337629,23.823722],[90.337455,23.8238],[90.337414,23.823779],[90.337382,23.823761],[90.337328,23.823732],[90.337336,23.823723],[90.337626,23.823429],[90.337798,23.823265],[90.337924,23.8234],[90.33796,23.823438],[90.337768,23.823571],[90.337699,23.823637],[90.337681,23.823682],[90.337629,23.823722]]]}},{"type":"Feature","properties":{"survey":"bds","sheet":"007","dag":"3008","label_bn":"3008","area_sqm":1432.3},"geometry":{"type":"Polygon","coordinates":[[[90.33758,23.823952],[90.337518,23.823968],[90.337508,23.823939],[90.337481,23.823858],[90.337455,23.8238],[90.337629,23.823722],[90.337681,23.823682],[90.337699,23.823637],[90.337768,23.823571],[90.33796,23.823438],[90.338117,23.823594],[90.338122,23.823598],[90.338021,23.823666],[90.337829,23.823771],[90.337615,23.823913],[90.337614,23.823914],[90.337592,23.823949],[90.33758,23.823952]]]}},{"type":"Feature","properties":{"survey":"bds","sheet":"007","dag":"3009","label_bn":"3009","area_sqm":2079.1},"geometry":{"type":"Polygon","coordinates":[[[90.337456,23.823985],[90.337286,23.824031],[90.33712,23.823941],[90.337107,23.823981],[90.336981,23.823903],[90.336839,23.82379],[90.336852,23.823768],[90.336917,23.823651],[90.336967,23.823567],[90.337035,23.82353],[90.337145,23.823621],[90.337328,23.823732],[90.337382,23.823761],[90.337414,23.823779],[90.337455,23.8238],[90.337481,23.823858],[90.337508,23.823939],[90.337518,23.823968],[90.337456,23.823985]]]}},{"type":"Feature","properties":{"survey":"bds","sheet":"007","dag":"3005","label_bn":"3005","area_sqm":543.4},"geometry":{"type":"Polygon","coordinates":[[[90.338837,23.824476],[90.338794,23.824516],[90.338593,23.824281],[90.338525,23.824201],[90.338619,23.824148],[90.338891,23.824425],[90.338837,23.824476]]]}},{"type":"Feature","properties":{"survey":"bds","sheet":"007","dag":"3007","label_bn":"3007","area_sqm":6339.7},"geometry":{"type":"Polygon","coordinates":[[[90.337353,23.824542],[90.337285,23.824547],[90.337251,23.824533],[90.337195,23.82451],[90.33697,23.824418],[90.337009,23.824306],[90.337107,23.823981],[90.33712,23.823941],[90.337286,23.824031],[90.337456,23.823985],[90.337518,23.823968],[90.33758,23.823952],[90.337592,23.823949],[90.337614,23.823914],[90.337615,23.823913],[90.337829,23.823771],[90.338021,23.823666],[90.338122,23.823598],[90.338215,23.823713],[90.338344,23.823872],[90.338328,23.82388],[90.33826,23.823912],[90.338255,23.823915],[90.338085,23.824024],[90.337922,23.824113],[90.337869,23.824167],[90.337817,23.824255],[90.337707,23.824324],[90.337666,23.824364],[90.337396,23.824544],[90.337353,23.824542]]]}},{"type":"Feature","properties":{"survey":"bds","sheet":"007","dag":"3006","label_bn":"3006","area_sqm":4731.1},"geometry":{"type":"Polygon","coordinates":[[[90.337759,23.824664],[90.337516,23.824792],[90.337467,23.824742],[90.337465,23.82474],[90.337396,23.824544],[90.337666,23.824364],[90.337707,23.824324],[90.337817,23.824255],[90.337869,23.824167],[90.337922,23.824113],[90.338085,23.824024],[90.338255,23.823915],[90.33826,23.823912],[90.338328,23.82388],[90.338344,23.823872],[90.338605,23.824133],[90.338619,23.824148],[90.338525,23.824201],[90.3385,23.824216],[90.338166,23.824409],[90.337982,23.82452],[90.337884,23.824582],[90.337759,23.824664]]]}},{"type":"Feature","properties":{"survey":"bds","sheet":"007","dag":"3016","label_bn":"3016","area_sqm":43958.2},"geometry":{"type":"Polygon","coordinates":[[[90.339609,23.824863],[90.339431,23.824974],[90.338897,23.82443],[90.338891,23.824425],[90.338619,23.824148],[90.338605,23.824133],[90.338344,23.823872],[90.338215,23.823713],[90.338122,23.823598],[90.338117,23.823594],[90.33796,23.823438],[90.337924,23.8234],[90.337798,23.823265],[90.337629,23.823087],[90.337458,23.822925],[90.337373,23.822869],[90.337227,23.822773],[90.337155,23.822706],[90.337123,23.822676],[90.336851,23.822496],[90.336733,23.822372],[90.336736,23.822197],[90.336737,23.822111],[90.336981,23.821949],[90.336982,23.821948],[90.337547,23.821573],[90.33757,23.821596],[90.337596,23.821625],[90.337671,23.821716],[90.337819,23.821877],[90.337862,23.821916],[90.337885,23.821943],[90.338022,23.822101],[90.338131,23.822212],[90.338275,23.822346],[90.338335,23.822392],[90.338446,23.822507],[90.338506,23.822575],[90.338598,23.822681],[90.338712,23.822792],[90.338854,23.82292],[90.33894,23.823028],[90.33916,23.823284],[90.339259,23.823403],[90.339336,23.823484],[90.339381,23.823536],[90.339407,23.82357],[90.339483,23.823637],[90.339589,23.823723],[90.339696,23.823809],[90.339704,23.823826],[90.339742,23.823911],[90.339758,23.823943],[90.339769,23.823972],[90.339778,23.823991],[90.339781,23.823999],[90.339785,23.824022],[90.339791,23.824189],[90.34013,23.824537],[90.339609,23.824863]]]}},{"type":"Feature","properties":{"survey":"bds","sheet":"007","dag":"3004","label_bn":"3004","area_sqm":1670.3},"geometry":{"type":"Polygon","coordinates":[[[90.339431,23.824974],[90.339181,23.82513],[90.339166,23.825104],[90.339114,23.825012],[90.33896,23.824719],[90.338943,23.824698],[90.338829,23.824559],[90.338794,23.824516],[90.338837,23.824476],[90.338891,23.824425],[90.338897,23.82443],[90.339431,23.824974]]]}},{"type":"Feature","properties":{"survey":"bds","sheet":"007","dag":"3003","label_bn":"3003","area_sqm":2234.9},"geometry":{"type":"Polygon","coordinates":[[[90.338887,23.825193],[90.338874,23.825205],[90.338761,23.825198],[90.33872,23.825195],[90.338528,23.824844],[90.33896,23.824719],[90.339114,23.825012],[90.339166,23.825104],[90.339181,23.82513],[90.338995,23.825184],[90.338887,23.825193]]]}},{"type":"Feature","properties":{"survey":"bds","sheet":"007","dag":"3002","label_bn":"3002","area_sqm":1386.5},"geometry":{"type":"Polygon","coordinates":[[[90.33838,23.825281],[90.33835,23.825286],[90.338347,23.825273],[90.33828,23.824943],[90.338301,23.824934],[90.33839,23.824888],[90.338528,23.824844],[90.33872,23.825195],[90.338652,23.825219],[90.338638,23.825226],[90.338631,23.825229],[90.338608,23.825231],[90.338571,23.825234],[90.338513,23.825245],[90.338496,23.82525],[90.338453,23.825262],[90.338396,23.825278],[90.33838,23.825281]]]}},{"type":"Feature","properties":{"survey":"bds","sheet":"007","dag":"3001","label_bn":"3001","area_sqm":9751.4},"geometry":{"type":"Polygon","coordinates":[[[90.337816,23.825346],[90.337662,23.825367],[90.337648,23.825324],[90.337615,23.825222],[90.337555,23.825041],[90.337511,23.824907],[90.33751,23.824902],[90.337497,23.82484],[90.337516,23.824792],[90.337759,23.824664],[90.337884,23.824582],[90.337982,23.82452],[90.338166,23.824409],[90.3385,23.824216],[90.338525,23.824201],[90.338593,23.824281],[90.338794,23.824516],[90.338829,23.824559],[90.338943,23.824698],[90.33896,23.824719],[90.338528,23.824844],[90.33839,23.824888],[90.338301,23.824934],[90.33828,23.824943],[90.338347,23.825273],[90.33835,23.825286],[90.338311,23.825299],[90.338188,23.82531],[90.338158,23.825317],[90.338028,23.825329],[90.337947,23.825338],[90.337944,23.825338],[90.337816,23.825346]]]}}]}