{"type":"FeatureCollection","features":[{"type":"Feature","properties":{"survey":"bds","sheet":"008","dag":"3546","label_bn":"3546","area_sqm":23.8},"geometry":{"type":"Polygon","coordinates":[[[90.335562,23.822466],[90.335441,23.822544],[90.335456,23.822522],[90.33549,23.822486],[90.335541,23.822463],[90.335577,23.82246],[90.335562,23.822466]]]}},{"type":"Feature","properties":{"survey":"bds","sheet":"008","dag":"3559","label_bn":"3559","area_sqm":1653.9},"geometry":{"type":"Polygon","coordinates":[[[90.336851,23.822496],[90.336672,23.82266],[90.336608,23.822645],[90.336358,23.822532],[90.336349,23.822528],[90.336256,23.822492],[90.336342,23.82228],[90.336445,23.822278],[90.336536,23.82227],[90.336597,23.822281],[90.336655,23.822307],[90.336733,23.822372],[90.336851,23.822496]]]}},{"type":"Feature","properties":{"survey":"bds","sheet":"008","dag":"3555","label_bn":"3555","area_sqm":1804.8},"geometry":{"type":"Polygon","coordinates":[[[90.33616,23.822284],[90.336004,23.82274],[90.335934,23.822725],[90.335848,23.822695],[90.335716,23.822674],[90.335667,23.822657],[90.335639,23.822622],[90.335626,23.822564],[90.335622,23.822445],[90.335627,23.822444],[90.335746,23.822414],[90.335795,23.822393],[90.335874,23.822312],[90.33595,23.822288],[90.33616,23.822284]]]}},{"type":"Feature","properties":{"survey":"bds","sheet":"008","dag":"3544","label_bn":"3544","area_sqm":74.9},"geometry":{"type":"Polygon","coordinates":[[[90.334982,23.822722],[90.334919,23.822764],[90.334956,23.822709],[90.334982,23.822682],[90.335043,23.82267],[90.335116,23.822677],[90.335188,23.822689],[90.335003,23.822713],[90.334982,23.822722]]]}},{"type":"Feature","properties":{"survey":"bds","sheet":"008","dag":"3556","label_bn":"3556","area_sqm":927.7},"geometry":{"type":"Polygon","coordinates":[[[90.336256,23.822492],[90.336143,23.822799],[90.336004,23.82274],[90.33616,23.822284],[90.336342,23.82228],[90.336256,23.822492]]]}},{"type":"Feature","properties":{"survey":"bds","sheet":"008","dag":"3557","label_bn":"3557","area_sqm":362.5},"geometry":{"type":"Polygon","coordinates":[[[90.336349,23.822528],[90.336233,23.822834],[90.336143,23.822799],[90.336256,23.822492],[90.336349,23.822528]]]}},{"type":"Feature","properties":{"survey":"bds","sheet":"008","dag":"3542","label_bn":"3542","area_sqm":2439.3},"geometry":{"type":"Polygon","coordinates":[[[90.334579,23.822824],[90.334561,23.82285],[90.334558,23.82285],[90.33427,23.822825],[90.334246,23.822828],[90.33402,23.822812],[90.334018,23.822756],[90.334196,23.822697],[90.334257,23.822658],[90.334341,23.822628],[90.334423,23.822569],[90.334504,23.8225],[90.33465,23.8224],[90.334982,23.822543],[90.334962,23.822596],[90.334944,23.822611],[90.334928,23.82261],[90.334915,23.822603],[90.334908,23.822597],[90.334833,23.822661],[90.334746,23.822766],[90.334711,23.82281],[90.334696,23.822824],[90.334681,23.822826],[90.334651,23.822819],[90.334631,23.822814],[90.334599,23.822795],[90.334579,23.822824]]]}},{"type":"Feature","properties":{"survey":"bds","sheet":"008","dag":"3543","label_bn":"3543","area_sqm":774.6},"geometry":{"type":"Polygon","coordinates":[[[90.334886,23.822808],[90.334847,23.822856],[90.33477,23.822809],[90.334814,23.822773],[90.33484,23.822733],[90.334888,23.822656],[90.334939,23.822615],[90.334944,23.822611],[90.334962,23.822596],[90.335023,23.822592],[90.335023,23.822592],[90.33524,23.822622],[90.335287,23.822609],[90.335352,23.822521],[90.335424,23.82242],[90.33549,23.822486],[90.335456,23.822522],[90.335441,23.822544],[90.335413,23.822586],[90.335398,23.822607],[90.335338,23.822678],[90.335268,23.822702],[90.335226,23.822695],[90.335188,23.822689],[90.335116,23.822677],[90.335043,23.82267],[90.334982,23.822682],[90.334956,23.822709],[90.334919,23.822764],[90.334904,23.822786],[90.334886,23.822808]]]}},{"type":"Feature","properties":{"survey":"bds","sheet":"008","dag":"3560","label_bn":"3560","area_sqm":198.7},"geometry":{"type":"Polygon","coordinates":[[[90.334697,23.822835],[90.334662,23.822857],[90.334561,23.82285],[90.334579,23.822824],[90.334599,23.822795],[90.334631,23.822814],[90.334651,23.822819],[90.334681,23.822826],[90.334696,23.822824],[90.334711,23.82281],[90.334746,23.822766],[90.334833,23.822661],[90.334908,23.822597],[90.334915,23.822603],[90.334928,23.82261],[90.334944,23.822611],[90.334939,23.822615],[90.334888,23.822656],[90.33484,23.822733],[90.334814,23.822773],[90.33477,23.822809],[90.33473,23.822819],[90.334717,23.822822],[90.334697,23.822835]]]}},{"type":"Feature","properties":{"survey":"bds","sheet":"008","dag":"3558","label_bn":"3558","area_sqm":853.9},"geometry":{"type":"Polygon","coordinates":[[[90.336449,23.822833],[90.336396,23.822912],[90.33629,23.822863],[90.336251,23.822841],[90.336233,23.822834],[90.336349,23.822528],[90.336358,23.822532],[90.336608,23.822645],[90.336449,23.822833]]]}},{"type":"Feature","properties":{"survey":"bds","sheet":"008","dag":"3541","label_bn":"3541","area_sqm":21.8},"geometry":{"type":"Polygon","coordinates":[[[90.334675,23.822976],[90.334645,23.82305],[90.334637,23.823028],[90.334647,23.822983],[90.334683,23.822943],[90.334702,23.822933],[90.334675,23.822976]]]}},{"type":"Feature","properties":{"survey":"bds","sheet":"008","dag":"3554","label_bn":"3554","area_sqm":1218.2},"geometry":{"type":"Polygon","coordinates":[[[90.336254,23.82305],[90.336186,23.823097],[90.33592,23.822955],[90.335884,23.822935],[90.335882,23.822934],[90.335906,23.822886],[90.335934,23.822725],[90.336004,23.82274],[90.336143,23.822799],[90.336233,23.822834],[90.336251,23.822841],[90.33629,23.822863],[90.336396,23.822912],[90.336408,23.822941],[90.336398,23.822976],[90.336254,23.82305]]]}},{"type":"Feature","properties":{"survey":"bds","sheet":"008","dag":"3547","label_bn":"3547","area_sqm":2349.5},"geometry":{"type":"Polygon","coordinates":[[[90.335736,23.823133],[90.335686,23.823158],[90.335537,23.822944],[90.335338,23.822678],[90.335398,23.822607],[90.335413,23.822586],[90.335441,23.822544],[90.335562,23.822466],[90.335577,23.82246],[90.335622,23.822445],[90.335626,23.822564],[90.335639,23.822622],[90.335667,23.822657],[90.335716,23.822674],[90.335848,23.822695],[90.335934,23.822725],[90.335906,23.822886],[90.335882,23.822934],[90.335736,23.823133]]]}},{"type":"Feature","properties":{"survey":"bds","sheet":"008","dag":"3545","label_bn":"3545","area_sqm":3326.9},"geometry":{"type":"Polygon","coordinates":[[[90.335429,23.823232],[90.335249,23.823279],[90.334847,23.822856],[90.334886,23.822808],[90.334904,23.822786],[90.334919,23.822764],[90.334982,23.822722],[90.335003,23.822713],[90.335188,23.822689],[90.335226,23.822695],[90.335268,23.822702],[90.335338,23.822678],[90.335537,23.822944],[90.335686,23.823158],[90.335629,23.823193],[90.335531,23.823218],[90.335429,23.823232]]]}},{"type":"Feature","properties":{"survey":"bds","sheet":"008","dag":"3540","label_bn":"3540","area_sqm":32.8},"geometry":{"type":"Polygon","coordinates":[[[90.335117,23.823325],[90.335116,23.823329],[90.335099,23.823315],[90.334972,23.823243],[90.334659,23.823081],[90.334777,23.823139],[90.334832,23.823168],[90.33498,23.823233],[90.33509,23.823302],[90.335117,23.823325]]]}},{"type":"Feature","properties":{"survey":"bds","sheet":"008","dag":"3539","label_bn":"3539","area_sqm":1381.8},"geometry":{"type":"Polygon","coordinates":[[[90.335249,23.823279],[90.335152,23.823358],[90.335136,23.823345],[90.335116,23.823329],[90.335117,23.823325],[90.33509,23.823302],[90.33498,23.823233],[90.334832,23.823168],[90.334777,23.823139],[90.334659,23.823081],[90.334655,23.823077],[90.334655,23.823077],[90.334645,23.82305],[90.334675,23.822976],[90.334702,23.822933],[90.334768,23.822898],[90.334847,23.822856],[90.335249,23.823279]]]}},{"type":"Feature","properties":{"survey":"bds","sheet":"008","dag":"3548","label_bn":"3548","area_sqm":1468.5},"geometry":{"type":"Polygon","coordinates":[[[90.336149,23.823352],[90.335986,23.823448],[90.335896,23.823337],[90.335785,23.8232],[90.335736,23.823133],[90.335882,23.822934],[90.335884,23.822935],[90.33592,23.822955],[90.336186,23.823097],[90.336155,23.823129],[90.336129,23.823177],[90.336122,23.823245],[90.336149,23.823352]]]}},{"type":"Feature","properties":{"survey":"bds","sheet":"008","dag":"3533","label_bn":"3533","area_sqm":935.0},"geometry":{"type":"Polygon","coordinates":[[[90.33507,23.823431],[90.33507,23.823471],[90.334659,23.823426],[90.334636,23.823177],[90.334771,23.82321],[90.335026,23.823317],[90.335056,23.823346],[90.33507,23.823431]]]}},{"type":"Feature","properties":{"survey":"bds","sheet":"008","dag":"3534","label_bn":"3534","area_sqm":53.0},"geometry":{"type":"Polygon","coordinates":[[[90.335113,23.823416],[90.335125,23.823477],[90.33507,23.823471],[90.33507,23.823431],[90.335056,23.823346],[90.335086,23.823375],[90.335113,23.823416]]]}},{"type":"Feature","properties":{"survey":"bds","sheet":"008","dag":"3553","label_bn":"3553","area_sqm":3776.2},"geometry":{"type":"Polygon","coordinates":[[[90.336672,23.823553],[90.336562,23.823568],[90.336506,23.823442],[90.336429,23.823382],[90.336231,23.82337],[90.336149,23.823352],[90.336122,23.823245],[90.336129,23.823177],[90.336155,23.823129],[90.336186,23.823097],[90.336254,23.82305],[90.336398,23.822976],[90.336408,23.822941],[90.336396,23.822912],[90.336449,23.822833],[90.336608,23.822645],[90.336672,23.82266],[90.336836,23.822764],[90.336702,23.823119],[90.33668,23.823171],[90.336672,23.823223],[90.336678,23.823292],[90.336672,23.823553]]]}},{"type":"Feature","properties":{"survey":"bds","sheet":"008","dag":"3550","label_bn":"3550","area_sqm":823.4},"geometry":{"type":"Polygon","coordinates":[[[90.336562,23.823568],[90.33656,23.823578],[90.336367,23.823556],[90.335986,23.823448],[90.336149,23.823352],[90.336231,23.82337],[90.336429,23.823382],[90.336506,23.823442],[90.336562,23.823568]]]}},{"type":"Feature","properties":{"survey":"bds","sheet":"008","dag":"3532","label_bn":"3532","area_sqm":650.3},"geometry":{"type":"Polygon","coordinates":[[[90.335068,23.823575],[90.335065,23.823605],[90.33466,23.823576],[90.334664,23.823554],[90.334666,23.823512],[90.334666,23.823506],[90.334663,23.823473],[90.334659,23.823426],[90.33507,23.823471],[90.335069,23.823494],[90.335068,23.823575]]]}},{"type":"Feature","properties":{"survey":"bds","sheet":"008","dag":"3531","label_bn":"3531","area_sqm":82.1},"geometry":{"type":"Polygon","coordinates":[[[90.335115,23.823608],[90.335115,23.823608],[90.335065,23.823605],[90.335068,23.823575],[90.335069,23.823494],[90.33507,23.823471],[90.335125,23.823477],[90.335125,23.823479],[90.335125,23.823497],[90.335125,23.823497],[90.335125,23.823555],[90.335115,23.823608]]]}},{"type":"Feature","properties":{"survey":"bds","sheet":"008","dag":"3549","label_bn":"3549","area_sqm":1109.3},"geometry":{"type":"Polygon","coordinates":[[[90.336367,23.823556],[90.336379,23.823707],[90.335875,23.823679],[90.335843,23.823677],[90.335795,23.823662],[90.335882,23.823567],[90.335964,23.823477],[90.335986,23.823448],[90.336367,23.823556]]]}},{"type":"Feature","properties":{"survey":"bds","sheet":"008","dag":"3530","label_bn":"3530","area_sqm":47.2},"geometry":{"type":"Polygon","coordinates":[[[90.335082,23.823696],[90.33505,23.823752],[90.335061,23.823647],[90.335065,23.823605],[90.335115,23.823608],[90.335099,23.823649],[90.335082,23.823696]]]}},{"type":"Feature","properties":{"survey":"bds","sheet":"008","dag":"3528","label_bn":"3528","area_sqm":1057.0},"geometry":{"type":"Polygon","coordinates":[[[90.33458,23.823757],[90.334548,23.823802],[90.334491,23.823801],[90.334486,23.823267],[90.334522,23.823199],[90.334585,23.823151],[90.334636,23.823177],[90.334659,23.823426],[90.334663,23.823473],[90.334666,23.823506],[90.334666,23.823512],[90.334664,23.823554],[90.33466,23.823576],[90.334656,23.823595],[90.334648,23.823619],[90.334639,23.823643],[90.334626,23.82368],[90.33458,23.823757]]]}},{"type":"Feature","properties":{"survey":"bds","sheet":"008","dag":"3529","label_bn":"3529","area_sqm":1301.3},"geometry":{"type":"Polygon","coordinates":[[[90.334987,23.823855],[90.334963,23.823891],[90.334548,23.823802],[90.33458,23.823757],[90.334626,23.82368],[90.334639,23.823643],[90.334648,23.823619],[90.334656,23.823595],[90.33466,23.823576],[90.335065,23.823605],[90.335061,23.823647],[90.33505,23.823752],[90.335049,23.823753],[90.335026,23.823793],[90.335022,23.823801],[90.335014,23.823814],[90.334987,23.823855]]]}},{"type":"Feature","properties":{"survey":"bds","sheet":"008","dag":"3538","label_bn":"3538","area_sqm":4566.4},"geometry":{"type":"Polygon","coordinates":[[[90.335795,23.823662],[90.33567,23.823893],[90.335442,23.823816],[90.33514,23.823708],[90.335189,23.823543],[90.335171,23.8234],[90.335152,23.823358],[90.335249,23.823279],[90.335429,23.823232],[90.335531,23.823218],[90.335629,23.823193],[90.335686,23.823158],[90.335736,23.823133],[90.335785,23.8232],[90.335896,23.823337],[90.335986,23.823448],[90.335964,23.823477],[90.335882,23.823567],[90.335795,23.823662]]]}},{"type":"Feature","properties":{"survey":"bds","sheet":"008","dag":"3537","label_bn":"3537","area_sqm":537.6},"geometry":{"type":"Polygon","coordinates":[[[90.335442,23.823816],[90.335372,23.823949],[90.335069,23.823837],[90.33514,23.823708],[90.335442,23.823816]]]}},{"type":"Feature","properties":{"survey":"bds","sheet":"008","dag":"3552","label_bn":"3552","area_sqm":1208.4},"geometry":{"type":"Polygon","coordinates":[[[90.336703,23.823869],[90.3366,23.823991],[90.336502,23.823974],[90.336548,23.823817],[90.336544,23.823699],[90.33656,23.823578],[90.336562,23.823568],[90.336672,23.823553],[90.336759,23.823554],[90.336795,23.82357],[90.336832,23.823602],[90.336917,23.823651],[90.336839,23.82379],[90.336703,23.823869]]]}},{"type":"Feature","properties":{"survey":"bds","sheet":"008","dag":"3551","label_bn":"3551","area_sqm":744.6},"geometry":{"type":"Polygon","coordinates":[[[90.336502,23.823974],[90.336401,23.824012],[90.336379,23.823707],[90.336367,23.823556],[90.33656,23.823578],[90.336544,23.823699],[90.336548,23.823817],[90.336502,23.823974]]]}},{"type":"Feature","properties":{"survey":"bds","sheet":"008","dag":"3527","label_bn":"3527","area_sqm":1290.6},"geometry":{"type":"Polygon","coordinates":[[[90.334906,23.823976],[90.334852,23.824128],[90.334846,23.824127],[90.334825,23.824124],[90.334581,23.824092],[90.334472,23.824077],[90.334482,23.823926],[90.334492,23.823857],[90.334491,23.823801],[90.334548,23.823802],[90.334963,23.823891],[90.334906,23.823976]]]}},{"type":"Feature","properties":{"survey":"bds","sheet":"008","dag":"3514","label_bn":"3514","area_sqm":4241.9},"geometry":{"type":"Polygon","coordinates":[[[90.335915,23.824259],[90.335838,23.824268],[90.335633,23.824241],[90.33564,23.824058],[90.33565,23.823944],[90.33567,23.823893],[90.335795,23.823662],[90.335843,23.823677],[90.335875,23.823679],[90.336379,23.823707],[90.336401,23.824012],[90.336299,23.82418],[90.336238,23.824175],[90.336056,23.824213],[90.335915,23.824259]]]}},{"type":"Feature","properties":{"survey":"bds","sheet":"008","dag":"3536","label_bn":"3536","area_sqm":2230.7},"geometry":{"type":"Polygon","coordinates":[[[90.335633,23.824241],[90.335611,23.824274],[90.334927,23.824045],[90.334982,23.823958],[90.335069,23.823837],[90.335372,23.823949],[90.335442,23.823816],[90.33567,23.823893],[90.33565,23.823944],[90.33564,23.824058],[90.335633,23.824241]]]}},{"type":"Feature","properties":{"survey":"bds","sheet":"008","dag":"3526","label_bn":"3526","area_sqm":66.7},"geometry":{"type":"Polygon","coordinates":[[[90.334836,23.824329],[90.334822,23.824393],[90.334812,23.824393],[90.334818,23.824325],[90.334819,23.824192],[90.334852,23.824128],[90.334851,23.824261],[90.334836,23.824329]]]}},{"type":"Feature","properties":{"survey":"bds","sheet":"008","dag":"3535","label_bn":"3535","area_sqm":1543.0},"geometry":{"type":"Polygon","coordinates":[[[90.33487,23.82448],[90.33483,23.824504],[90.334822,23.824393],[90.334836,23.824329],[90.334851,23.824261],[90.334852,23.824128],[90.334906,23.823976],[90.334963,23.823891],[90.334987,23.823855],[90.335014,23.823814],[90.335022,23.823801],[90.335026,23.823793],[90.335049,23.823753],[90.33505,23.823752],[90.335082,23.823696],[90.335099,23.823649],[90.335115,23.823608],[90.335115,23.823608],[90.335125,23.823555],[90.335125,23.823497],[90.335125,23.823497],[90.335125,23.823479],[90.335125,23.823477],[90.335113,23.823416],[90.335086,23.823375],[90.335056,23.823346],[90.335026,23.823317],[90.334771,23.82321],[90.334636,23.823177],[90.334585,23.823151],[90.33451,23.823067],[90.334513,23.823028],[90.334553,23.822983],[90.334576,23.822958],[90.334662,23.822857],[90.334697,23.822835],[90.334717,23.822822],[90.33473,23.822819],[90.33477,23.822809],[90.334847,23.822856],[90.334768,23.822898],[90.334702,23.822933],[90.334683,23.822943],[90.334647,23.822983],[90.334637,23.823028],[90.334645,23.82305],[90.334655,23.823077],[90.334655,23.823077],[90.334659,23.823081],[90.334972,23.823243],[90.335099,23.823315],[90.335116,23.823329],[90.335136,23.823345],[90.335152,23.823358],[90.335171,23.8234],[90.335189,23.823543],[90.33514,23.823708],[90.335069,23.823837],[90.334982,23.823958],[90.334927,23.824045],[90.334908,23.824125],[90.334894,23.824259],[90.33487,23.82448]]]}},{"type":"Feature","properties":{"survey":"bds","sheet":"008","dag":"3525","label_bn":"3525","area_sqm":23.4},"geometry":{"type":"Polygon","coordinates":[[[90.334824,23.824504],[90.334802,23.824507],[90.334804,23.82449],[90.334812,23.824393],[90.334822,23.824393],[90.33483,23.824504],[90.334824,23.824504]]]}},{"type":"Feature","properties":{"survey":"bds","sheet":"008","dag":"3524","label_bn":"3524","area_sqm":1435.9},"geometry":{"type":"Polygon","coordinates":[[[90.334607,23.824529],[90.334447,23.824546],[90.334581,23.824092],[90.334825,23.824124],[90.334846,23.824127],[90.334852,23.824128],[90.334819,23.824192],[90.334818,23.824325],[90.334812,23.824393],[90.334804,23.82449],[90.334802,23.824507],[90.334801,23.824507],[90.334607,23.824529]]]}},{"type":"Feature","properties":{"survey":"bds","sheet":"008","dag":"3513","label_bn":"3513","area_sqm":4315.2},"geometry":{"type":"Polygon","coordinates":[[[90.33674,23.824408],[90.336491,23.824579],[90.336427,23.82449],[90.336361,23.824406],[90.336292,23.824264],[90.336299,23.82418],[90.336401,23.824012],[90.336502,23.823974],[90.3366,23.823991],[90.336703,23.823869],[90.336839,23.82379],[90.336981,23.823903],[90.337107,23.823981],[90.337009,23.824306],[90.33697,23.824418],[90.336832,23.824389],[90.33674,23.824408]]]}},{"type":"Feature","properties":{"survey":"bds","sheet":"008","dag":"3518","label_bn":"3518","area_sqm":2658.1},"geometry":{"type":"Polygon","coordinates":[[[90.335611,23.824274],[90.33544,23.824586],[90.335084,23.824447],[90.33487,23.82448],[90.334894,23.824259],[90.334908,23.824125],[90.334927,23.824045],[90.335611,23.824274]]]}},{"type":"Feature","properties":{"survey":"bds","sheet":"008","dag":"3519","label_bn":"3519","area_sqm":1532.3},"geometry":{"type":"Polygon","coordinates":[[[90.33544,23.824586],[90.335376,23.824822],[90.335024,23.824758],[90.334983,23.824662],[90.334908,23.824565],[90.33487,23.82448],[90.335084,23.824447],[90.33544,23.824586]]]}},{"type":"Feature","properties":{"survey":"bds","sheet":"008","dag":"3522","label_bn":"3522","area_sqm":666.5},"geometry":{"type":"Polygon","coordinates":[[[90.334797,23.824548],[90.334904,23.824825],[90.334679,23.824798],[90.334607,23.824529],[90.334801,23.824507],[90.334802,23.824507],[90.334797,23.824548]]]}},{"type":"Feature","properties":{"survey":"bds","sheet":"008","dag":"3521","label_bn":"3521","area_sqm":294.1},"geometry":{"type":"Polygon","coordinates":[[[90.334983,23.824807],[90.334961,23.824832],[90.33492,23.824827],[90.334904,23.824825],[90.334797,23.824548],[90.334802,23.824507],[90.334824,23.824504],[90.33483,23.824504],[90.334832,23.824519],[90.334832,23.82452],[90.33486,23.824566],[90.334954,23.824686],[90.334982,23.824746],[90.334983,23.824807]]]}},{"type":"Feature","properties":{"survey":"bds","sheet":"008","dag":"3520","label_bn":"3520","area_sqm":173.6},"geometry":{"type":"Polygon","coordinates":[[[90.335024,23.824758],[90.335012,23.824835],[90.334961,23.824832],[90.334983,23.824807],[90.334982,23.824746],[90.334954,23.824686],[90.33486,23.824566],[90.334832,23.82452],[90.334832,23.824519],[90.33483,23.824504],[90.33487,23.82448],[90.334908,23.824565],[90.334983,23.824662],[90.335024,23.824758]]]}},{"type":"Feature","properties":{"survey":"bds","sheet":"008","dag":"3523","label_bn":"3523","area_sqm":785.4},"geometry":{"type":"Polygon","coordinates":[[[90.334677,23.824798],[90.334447,23.824841],[90.334385,23.824684],[90.334387,23.824628],[90.334387,23.824551],[90.334447,23.824546],[90.334607,23.824529],[90.334679,23.824798],[90.334677,23.824798]]]}},{"type":"Feature","properties":{"survey":"bds","sheet":"008","dag":"3515","label_bn":"3515","area_sqm":3891.4},"geometry":{"type":"Polygon","coordinates":[[[90.336392,23.824727],[90.336328,23.824855],[90.335968,23.824742],[90.335683,23.824639],[90.335687,23.824627],[90.335838,23.824268],[90.335915,23.824259],[90.336056,23.824213],[90.336238,23.824175],[90.336299,23.82418],[90.336292,23.824264],[90.336361,23.824406],[90.336427,23.82449],[90.336491,23.824579],[90.336428,23.824654],[90.336392,23.824727]]]}},{"type":"Feature","properties":{"survey":"bds","sheet":"008","dag":"3517","label_bn":"3517","area_sqm":1656.1},"geometry":{"type":"Polygon","coordinates":[[[90.335683,23.824639],[90.335575,23.824887],[90.335574,23.824887],[90.335376,23.824822],[90.33544,23.824586],[90.335611,23.824274],[90.335633,23.824241],[90.335838,23.824268],[90.335687,23.824627],[90.335683,23.824639]]]}},{"type":"Feature","properties":{"survey":"bds","sheet":"008","dag":"3516","label_bn":"3516","area_sqm":1869.2},"geometry":{"type":"Polygon","coordinates":[[[90.336328,23.824855],[90.336166,23.825063],[90.335575,23.824887],[90.335683,23.824639],[90.335968,23.824742],[90.336328,23.824855]]]}},{"type":"Feature","properties":{"survey":"bds","sheet":"008","dag":"3512","label_bn":"3512","area_sqm":8756.2},"geometry":{"type":"Polygon","coordinates":[[[90.336327,23.825486],[90.336198,23.825536],[90.336143,23.825525],[90.336102,23.825501],[90.336092,23.825479],[90.336075,23.825398],[90.336076,23.825286],[90.336097,23.825181],[90.33612,23.825124],[90.336166,23.825063],[90.336328,23.824855],[90.336392,23.824727],[90.336428,23.824654],[90.336491,23.824579],[90.33674,23.824408],[90.336832,23.824389],[90.33697,23.824418],[90.337285,23.824547],[90.337353,23.824542],[90.337396,23.824544],[90.337465,23.82474],[90.337065,23.824995],[90.336864,23.825122],[90.336655,23.825168],[90.336592,23.825209],[90.336543,23.825267],[90.336498,23.82532],[90.336443,23.82543],[90.336327,23.825486]]]}},{"type":"Feature","properties":{"survey":"bds","sheet":"008","dag":"3502","label_bn":"3502","area_sqm":1058.3},"geometry":{"type":"Polygon","coordinates":[[[90.335372,23.825206],[90.335393,23.825566],[90.335152,23.825548],[90.335082,23.825206],[90.335158,23.825201],[90.335372,23.825206]]]}},{"type":"Feature","properties":{"survey":"bds","sheet":"008","dag":"3503","label_bn":"3503","area_sqm":6334.5},"geometry":{"type":"Polygon","coordinates":[[[90.335889,23.825504],[90.335393,23.825566],[90.335372,23.825206],[90.335158,23.825201],[90.335115,23.825108],[90.335068,23.825056],[90.334959,23.824939],[90.335012,23.824835],[90.335024,23.824758],[90.335376,23.824822],[90.335574,23.824887],[90.335575,23.824887],[90.336166,23.825063],[90.33612,23.825124],[90.336097,23.825181],[90.336076,23.825286],[90.336075,23.825398],[90.336092,23.825479],[90.336091,23.825479],[90.336052,23.825484],[90.335889,23.825504]]]}},{"type":"Feature","properties":{"survey":"bds","sheet":"008","dag":"3510","label_bn":"3510","area_sqm":4695.9},"geometry":{"type":"Polygon","coordinates":[[[90.337256,23.825593],[90.337014,23.825609],[90.336993,23.825417],[90.336948,23.825255],[90.336864,23.825122],[90.337065,23.824995],[90.337465,23.82474],[90.337516,23.824792],[90.337497,23.82484],[90.337511,23.824907],[90.337662,23.825367],[90.337457,23.825398],[90.337433,23.825599],[90.337403,23.825599],[90.337256,23.825593]]]}},{"type":"Feature","properties":{"survey":"bds","sheet":"008","dag":"3511","label_bn":"3511","area_sqm":2484.6},"geometry":{"type":"Polygon","coordinates":[[[90.337014,23.825609],[90.33656,23.825649],[90.336443,23.82543],[90.336498,23.82532],[90.336543,23.825267],[90.336592,23.825209],[90.336655,23.825168],[90.336864,23.825122],[90.336948,23.825255],[90.336993,23.825417],[90.337014,23.825609]]]}},{"type":"Feature","properties":{"survey":"bds","sheet":"008","dag":"3504","label_bn":"3504","area_sqm":1700.7},"geometry":{"type":"Polygon","coordinates":[[[90.336245,23.825761],[90.335993,23.825776],[90.335955,23.82577],[90.335889,23.825504],[90.336052,23.825484],[90.336091,23.825479],[90.336092,23.825479],[90.336102,23.825501],[90.336143,23.825525],[90.336198,23.825536],[90.336327,23.825486],[90.336443,23.82543],[90.33656,23.825649],[90.336469,23.825682],[90.336437,23.82569],[90.336245,23.825761]]]}},{"type":"Feature","properties":{"survey":"bds","sheet":"008","dag":"3508","label_bn":"3508","area_sqm":2846.3},"geometry":{"type":"Polygon","coordinates":[[[90.33678,23.826105],[90.336631,23.826221],[90.336628,23.826162],[90.336623,23.826135],[90.336593,23.826082],[90.33654,23.826021],[90.336507,23.826014],[90.336448,23.826013],[90.336447,23.825932],[90.336469,23.825682],[90.33656,23.825649],[90.337014,23.825609],[90.337051,23.825969],[90.336993,23.825979],[90.336957,23.825997],[90.33678,23.826105]]]}},{"type":"Feature","properties":{"survey":"bds","sheet":"008","dag":"3509","label_bn":"3509","area_sqm":2494.2},"geometry":{"type":"Polygon","coordinates":[[[90.337307,23.826283],[90.337081,23.826361],[90.337051,23.825969],[90.337014,23.825609],[90.337256,23.825593],[90.337403,23.825599],[90.337307,23.826283]]]}},{"type":"Feature","properties":{"survey":"bds","sheet":"008","dag":"3507","label_bn":"3507","area_sqm":1885.5},"geometry":{"type":"Polygon","coordinates":[[[90.336913,23.826437],[90.336642,23.826499],[90.336622,23.826397],[90.336633,23.82628],[90.336631,23.826221],[90.33678,23.826105],[90.336957,23.825997],[90.336993,23.825979],[90.337051,23.825969],[90.337081,23.826361],[90.337086,23.826395],[90.336913,23.826437]]]}},{"type":"Feature","properties":{"survey":"bds","sheet":"008","dag":"3501","label_bn":"3501","area_sqm":7465.9},"geometry":{"type":"Polygon","coordinates":[[[90.335951,23.826634],[90.335913,23.826647],[90.335416,23.826584],[90.335434,23.826415],[90.335385,23.826204],[90.335152,23.825548],[90.335393,23.825566],[90.335889,23.825504],[90.335955,23.82577],[90.335993,23.825776],[90.335876,23.825982],[90.33594,23.82605],[90.335951,23.826634]]]}},{"type":"Feature","properties":{"survey":"bds","sheet":"008","dag":"3505","label_bn":"3505","area_sqm":3687.0},"geometry":{"type":"Polygon","coordinates":[[[90.336216,23.826097],[90.336232,23.826686],[90.336077,23.826663],[90.336046,23.826635],[90.335951,23.826634],[90.33594,23.82605],[90.335876,23.825982],[90.335993,23.825776],[90.336245,23.825761],[90.336437,23.82569],[90.336469,23.825682],[90.336447,23.825932],[90.336448,23.826013],[90.336337,23.826014],[90.336312,23.826077],[90.336216,23.826097]]]}},{"type":"Feature","properties":{"survey":"bds","sheet":"008","dag":"3506","label_bn":"3506","area_sqm":2606.8},"geometry":{"type":"Polygon","coordinates":[[[90.336405,23.826623],[90.336387,23.826687],[90.336232,23.826686],[90.336216,23.826097],[90.336312,23.826077],[90.336337,23.826014],[90.336448,23.826013],[90.336507,23.826014],[90.33654,23.826021],[90.336593,23.826082],[90.336623,23.826135],[90.336628,23.826162],[90.336631,23.826221],[90.336633,23.82628],[90.336622,23.826397],[90.336642,23.826499],[90.33666,23.82654],[90.336476,23.826556],[90.336407,23.826558],[90.336405,23.826623]]]}}]}