{"type":"FeatureCollection","features":[{"type":"Feature","properties":{"survey":"bds","sheet":"009","dag":"4061","label_bn":"4061","area_sqm":1824.2},"geometry":{"type":"Polygon","coordinates":[[[90.335068,23.825056],[90.334527,23.825147],[90.33445,23.825084],[90.334449,23.825035],[90.334448,23.824865],[90.334447,23.824841],[90.334677,23.824798],[90.335004,23.824835],[90.335012,23.824835],[90.334988,23.824881],[90.334959,23.824939],[90.334972,23.824953],[90.335068,23.825056]]]}},{"type":"Feature","properties":{"survey":"bds","sheet":"009","dag":"4060","label_bn":"4060","area_sqm":4559.5},"geometry":{"type":"Polygon","coordinates":[[[90.33445,23.825084],[90.333841,23.825348],[90.333836,23.825335],[90.333809,23.825275],[90.333754,23.825226],[90.333713,23.825191],[90.333718,23.825173],[90.333727,23.825144],[90.333703,23.82514],[90.333596,23.82512],[90.33357,23.825079],[90.333546,23.82504],[90.333609,23.824853],[90.334387,23.824628],[90.334385,23.824684],[90.334389,23.824694],[90.334447,23.824841],[90.334448,23.824865],[90.334449,23.825035],[90.33445,23.825084]]]}},{"type":"Feature","properties":{"survey":"bds","sheet":"009","dag":"4059","label_bn":"4059","area_sqm":16414.7},"geometry":{"type":"Polygon","coordinates":[[[90.335422,23.826363],[90.335434,23.826415],[90.335203,23.826383],[90.335133,23.826373],[90.335016,23.826354],[90.334302,23.826239],[90.334284,23.826236],[90.334065,23.826205],[90.334095,23.826011],[90.334099,23.825901],[90.334028,23.825803],[90.334001,23.825766],[90.333969,23.825743],[90.333841,23.825348],[90.33445,23.825084],[90.334527,23.825147],[90.335068,23.825056],[90.335115,23.825108],[90.335158,23.825201],[90.335082,23.825206],[90.3351,23.825292],[90.335104,23.825314],[90.335152,23.825548],[90.335177,23.825619],[90.335385,23.826204],[90.335422,23.826363]]]}},{"type":"Feature","properties":{"survey":"bds","sheet":"009","dag":"4058","label_bn":"4058","area_sqm":3426.0},"geometry":{"type":"Polygon","coordinates":[[[90.335124,23.826418],[90.335069,23.826704],[90.335026,23.826702],[90.334841,23.826694],[90.334755,23.826677],[90.334291,23.826586],[90.334247,23.82658],[90.334221,23.826577],[90.334241,23.826471],[90.334276,23.82628],[90.334284,23.826236],[90.334302,23.826239],[90.335016,23.826354],[90.335133,23.826373],[90.335124,23.826418]]]}},{"type":"Feature","properties":{"survey":"bds","sheet":"009","dag":"4044","label_bn":"4044","area_sqm":1341.5},"geometry":{"type":"Polygon","coordinates":[[[90.33677,23.826933],[90.33649,23.827026],[90.336405,23.826623],[90.336407,23.826558],[90.336476,23.826556],[90.336649,23.82654],[90.33666,23.82654],[90.336669,23.82657],[90.336693,23.826648],[90.3367,23.826783],[90.33672,23.82685],[90.336744,23.82689],[90.33677,23.826933]]]}},{"type":"Feature","properties":{"survey":"bds","sheet":"009","dag":"4046","label_bn":"4046","area_sqm":2359.1},"geometry":{"type":"Polygon","coordinates":[[[90.336075,23.826842],[90.336032,23.82707],[90.335941,23.827058],[90.335914,23.827059],[90.335815,23.827058],[90.335796,23.826632],[90.335913,23.826647],[90.335951,23.826634],[90.336046,23.826635],[90.336077,23.826663],[90.336232,23.826686],[90.336387,23.826687],[90.336405,23.826623],[90.33649,23.827026],[90.336477,23.82703],[90.336408,23.827026],[90.336194,23.826894],[90.336075,23.826842]]]}},{"type":"Feature","properties":{"survey":"bds","sheet":"009","dag":"4057","label_bn":"4057","area_sqm":2246.8},"geometry":{"type":"Polygon","coordinates":[[[90.334386,23.827058],[90.334297,23.827081],[90.334239,23.826977],[90.334232,23.826965],[90.334232,23.826964],[90.334305,23.826843],[90.334304,23.826841],[90.334304,23.826783],[90.33425,23.826649],[90.334221,23.826577],[90.334247,23.82658],[90.334291,23.826586],[90.334755,23.826677],[90.334841,23.826694],[90.334832,23.826711],[90.334765,23.826831],[90.334722,23.826973],[90.334681,23.826983],[90.334386,23.827058]]]}},{"type":"Feature","properties":{"survey":"bds","sheet":"009","dag":"4047","label_bn":"4047","area_sqm":3329.9},"geometry":{"type":"Polygon","coordinates":[[[90.335809,23.827213],[90.335272,23.827264],[90.335276,23.827236],[90.335276,23.82723],[90.335416,23.826584],[90.335796,23.826632],[90.335815,23.827058],[90.335821,23.827212],[90.335809,23.827213]]]}},{"type":"Feature","properties":{"survey":"bds","sheet":"009","dag":"4056","label_bn":"4056","area_sqm":4579.5},"geometry":{"type":"Polygon","coordinates":[[[90.335099,23.827278],[90.334939,23.827295],[90.334853,23.827169],[90.334722,23.826973],[90.334765,23.826831],[90.334832,23.826711],[90.334841,23.826694],[90.335026,23.826702],[90.335069,23.826704],[90.335124,23.826418],[90.335133,23.826373],[90.335203,23.826383],[90.335434,23.826415],[90.335416,23.826584],[90.335276,23.82723],[90.335276,23.827236],[90.335272,23.827264],[90.335197,23.82727],[90.335099,23.827278]]]}},{"type":"Feature","properties":{"survey":"bds","sheet":"009","dag":"4045","label_bn":"4045","area_sqm":1123.2},"geometry":{"type":"Polygon","coordinates":[[[90.336415,23.8273],[90.336416,23.827317],[90.336386,23.827298],[90.336032,23.82707],[90.336075,23.826842],[90.336194,23.826894],[90.336408,23.827026],[90.336415,23.8273]]]}},{"type":"Feature","properties":{"survey":"bds","sheet":"009","dag":"4043","label_bn":"4043","area_sqm":1966.0},"geometry":{"type":"Polygon","coordinates":[[[90.336617,23.827316],[90.336416,23.827317],[90.336415,23.8273],[90.336408,23.827026],[90.336477,23.82703],[90.33649,23.827026],[90.33677,23.826933],[90.336784,23.826944],[90.336814,23.826966],[90.336859,23.826975],[90.336962,23.827094],[90.336972,23.827136],[90.336957,23.827211],[90.336928,23.827251],[90.336894,23.827313],[90.336878,23.827314],[90.336764,23.827315],[90.336683,23.827315],[90.336617,23.827316]]]}},{"type":"Feature","properties":{"survey":"bds","sheet":"009","dag":"4054","label_bn":"4054","area_sqm":297.2},"geometry":{"type":"Polygon","coordinates":[[[90.334429,23.827297],[90.334261,23.827355],[90.334241,23.8273],[90.334249,23.827265],[90.334239,23.827229],[90.334437,23.827165],[90.334457,23.827288],[90.334429,23.827297]]]}},{"type":"Feature","properties":{"survey":"bds","sheet":"009","dag":"4055","label_bn":"4055","area_sqm":1693.6},"geometry":{"type":"Polygon","coordinates":[[[90.334924,23.827302],[90.334589,23.827362],[90.334574,23.82733],[90.334563,23.827306],[90.334541,23.827259],[90.334457,23.827288],[90.334437,23.827165],[90.334239,23.827229],[90.334236,23.827218],[90.334239,23.827164],[90.334278,23.827108],[90.334297,23.827081],[90.334386,23.827058],[90.334681,23.826983],[90.334722,23.826973],[90.334853,23.827169],[90.334939,23.827295],[90.334934,23.827297],[90.334924,23.827302]]]}},{"type":"Feature","properties":{"survey":"bds","sheet":"009","dag":"4053","label_bn":"4053","area_sqm":191.4},"geometry":{"type":"Polygon","coordinates":[[[90.334455,23.827389],[90.334322,23.827437],[90.334274,23.827394],[90.334261,23.827355],[90.334429,23.827297],[90.334465,23.827371],[90.33447,23.827382],[90.334455,23.827389]]]}},{"type":"Feature","properties":{"survey":"bds","sheet":"009","dag":"4052","label_bn":"4052","area_sqm":244.0},"geometry":{"type":"Polygon","coordinates":[[[90.334619,23.827426],[90.334508,23.827464],[90.33447,23.827382],[90.334465,23.827371],[90.334429,23.827297],[90.334457,23.827288],[90.334541,23.827259],[90.334563,23.827306],[90.334574,23.82733],[90.334589,23.827362],[90.334619,23.827426]]]}},{"type":"Feature","properties":{"survey":"bds","sheet":"009","dag":"4051","label_bn":"4051","area_sqm":163.6},"geometry":{"type":"Polygon","coordinates":[[[90.334672,23.827538],[90.334559,23.827574],[90.334508,23.827464],[90.334619,23.827426],[90.334672,23.827538]]]}},{"type":"Feature","properties":{"survey":"bds","sheet":"009","dag":"4007","label_bn":"4007","area_sqm":1056.9},"geometry":{"type":"Polygon","coordinates":[[[90.333935,23.827717],[90.333936,23.827727],[90.333751,23.827712],[90.33368,23.827706],[90.333591,23.827698],[90.333627,23.827626],[90.3337,23.827434],[90.333741,23.827338],[90.333766,23.827335],[90.333865,23.827351],[90.333902,23.827364],[90.333904,23.827428],[90.333924,23.827582],[90.333935,23.827717]]]}},{"type":"Feature","properties":{"survey":"bds","sheet":"009","dag":"4050","label_bn":"4050","area_sqm":772.9},"geometry":{"type":"Polygon","coordinates":[[[90.334619,23.827717],[90.334347,23.827755],[90.334356,23.827551],[90.334354,23.827486],[90.334354,23.827466],[90.334335,23.827449],[90.334322,23.827437],[90.334455,23.827389],[90.33447,23.827382],[90.334508,23.827464],[90.334559,23.827574],[90.334608,23.82768],[90.334619,23.827717]]]}},{"type":"Feature","properties":{"survey":"bds","sheet":"009","dag":"4042","label_bn":"4042","area_sqm":1372.0},"geometry":{"type":"Polygon","coordinates":[[[90.336683,23.827323],[90.336671,23.827779],[90.336546,23.827743],[90.336474,23.827736],[90.336443,23.827733],[90.336379,23.827743],[90.33638,23.827732],[90.336416,23.827317],[90.336617,23.827316],[90.336683,23.827315],[90.336683,23.827323]]]}},{"type":"Feature","properties":{"survey":"bds","sheet":"009","dag":"4005","label_bn":"4005","area_sqm":152.8},"geometry":{"type":"Polygon","coordinates":[[[90.33368,23.827706],[90.333676,23.827837],[90.333537,23.827795],[90.333547,23.827785],[90.333591,23.827698],[90.33368,23.827706]]]}},{"type":"Feature","properties":{"survey":"bds","sheet":"009","dag":"4006","label_bn":"4006","area_sqm":528.4},"geometry":{"type":"Polygon","coordinates":[[[90.333959,23.827905],[90.333986,23.827959],[90.333757,23.827862],[90.333676,23.827837],[90.33368,23.827706],[90.333751,23.827712],[90.333936,23.827727],[90.333945,23.827821],[90.333959,23.827905]]]}},{"type":"Feature","properties":{"survey":"bds","sheet":"009","dag":"4041","label_bn":"4041","area_sqm":4655.7},"geometry":{"type":"Polygon","coordinates":[[[90.336058,23.828046],[90.336057,23.828046],[90.335896,23.828018],[90.335906,23.827979],[90.335929,23.827884],[90.33603,23.827704],[90.335938,23.827519],[90.335884,23.827416],[90.335821,23.827212],[90.335815,23.827058],[90.335914,23.827059],[90.335941,23.827058],[90.336032,23.82707],[90.336386,23.827298],[90.336416,23.827317],[90.33638,23.827732],[90.336379,23.827743],[90.336392,23.827833],[90.336418,23.827839],[90.336396,23.827948],[90.336354,23.827946],[90.336336,23.827946],[90.33623,23.827981],[90.336166,23.828004],[90.336113,23.82803],[90.336058,23.828046]]]}},{"type":"Feature","properties":{"survey":"bds","sheet":"009","dag":"4049","label_bn":"4049","area_sqm":3644.2},"geometry":{"type":"Polygon","coordinates":[[[90.334643,23.828077],[90.334467,23.82812],[90.334416,23.827895],[90.334415,23.827892],[90.334347,23.827755],[90.334619,23.827717],[90.334608,23.82768],[90.334559,23.827574],[90.334672,23.827538],[90.334619,23.827426],[90.334589,23.827362],[90.334924,23.827302],[90.334924,23.827314],[90.334929,23.827494],[90.33493,23.827499],[90.33497,23.82812],[90.334865,23.82809],[90.334738,23.828053],[90.334643,23.828077]]]}},{"type":"Feature","properties":{"survey":"bds","sheet":"009","dag":"4008","label_bn":"4008","area_sqm":3209.6},"geometry":{"type":"Polygon","coordinates":[[[90.334363,23.828144],[90.334259,23.828159],[90.334207,23.82803],[90.334185,23.827976],[90.334188,23.827975],[90.334212,23.827965],[90.334189,23.827883],[90.334157,23.827875],[90.333945,23.827821],[90.333936,23.827727],[90.333935,23.827717],[90.333924,23.827582],[90.333904,23.827428],[90.333902,23.827364],[90.333923,23.82736],[90.334016,23.827343],[90.334066,23.827334],[90.334212,23.827305],[90.334241,23.8273],[90.334261,23.827355],[90.334274,23.827394],[90.334322,23.827437],[90.334335,23.827449],[90.334354,23.827466],[90.334354,23.827486],[90.334356,23.827551],[90.334347,23.827755],[90.334415,23.827892],[90.334416,23.827895],[90.334467,23.82812],[90.334363,23.828144]]]}},{"type":"Feature","properties":{"survey":"bds","sheet":"009","dag":"4009","label_bn":"4009","area_sqm":474.8},"geometry":{"type":"Polygon","coordinates":[[[90.334237,23.828164],[90.334188,23.828176],[90.334169,23.828072],[90.334119,23.82803],[90.334097,23.827988],[90.334066,23.827971],[90.333986,23.827959],[90.333959,23.827905],[90.333945,23.827821],[90.334157,23.827875],[90.334189,23.827883],[90.334212,23.827965],[90.334188,23.827975],[90.334185,23.827976],[90.334207,23.82803],[90.334259,23.828159],[90.334237,23.828164]]]}},{"type":"Feature","properties":{"survey":"bds","sheet":"009","dag":"4004","label_bn":"4004","area_sqm":1312.8},"geometry":{"type":"Polygon","coordinates":[[[90.333936,23.828085],[90.333887,23.82818],[90.333668,23.828094],[90.333435,23.827978],[90.333537,23.827795],[90.333676,23.827837],[90.333757,23.827862],[90.333986,23.827959],[90.333936,23.828085]]]}},{"type":"Feature","properties":{"survey":"bds","sheet":"009","dag":"4040","label_bn":"4040","area_sqm":896.1},"geometry":{"type":"Polygon","coordinates":[[[90.336262,23.828271],[90.336212,23.828297],[90.336199,23.828263],[90.336113,23.82803],[90.336166,23.828004],[90.33623,23.827981],[90.336336,23.827946],[90.336378,23.828005],[90.33647,23.828134],[90.336526,23.828178],[90.3365,23.828184],[90.336476,23.828189],[90.336383,23.828233],[90.336262,23.828271]]]}},{"type":"Feature","properties":{"survey":"bds","sheet":"009","dag":"4034","label_bn":"4034","area_sqm":830.1},"geometry":{"type":"Polygon","coordinates":[[[90.334199,23.828308],[90.334189,23.82831],[90.334188,23.828176],[90.334237,23.828164],[90.334259,23.828159],[90.334363,23.828144],[90.334467,23.82812],[90.334643,23.828077],[90.334738,23.828053],[90.33473,23.828085],[90.334698,23.82821],[90.334636,23.828223],[90.334532,23.828243],[90.334199,23.828308]]]}},{"type":"Feature","properties":{"survey":"bds","sheet":"009","dag":"4003","label_bn":"4003","area_sqm":479.2},"geometry":{"type":"Polygon","coordinates":[[[90.333887,23.82818],[90.333812,23.828333],[90.333583,23.828264],[90.333668,23.828094],[90.333887,23.82818]]]}},{"type":"Feature","properties":{"survey":"bds","sheet":"009","dag":"4048","label_bn":"4048","area_sqm":11538.9},"geometry":{"type":"Polygon","coordinates":[[[90.335037,23.828391],[90.334955,23.828405],[90.33496,23.828315],[90.33497,23.828126],[90.33497,23.82812],[90.33493,23.827499],[90.334929,23.827494],[90.334924,23.827314],[90.334924,23.827302],[90.334934,23.827297],[90.334939,23.827295],[90.335099,23.827278],[90.335197,23.82727],[90.335272,23.827264],[90.335809,23.827213],[90.335821,23.827212],[90.335884,23.827416],[90.335938,23.827519],[90.33603,23.827704],[90.335929,23.827884],[90.335906,23.827979],[90.335896,23.828018],[90.335808,23.828149],[90.335802,23.828181],[90.335779,23.828215],[90.335691,23.82823],[90.335579,23.828286],[90.33557,23.828288],[90.335523,23.828298],[90.335367,23.82833],[90.335279,23.828348],[90.335037,23.828391]]]}},{"type":"Feature","properties":{"survey":"bds","sheet":"009","dag":"4039","label_bn":"4039","area_sqm":1229.2},"geometry":{"type":"Polygon","coordinates":[[[90.336003,23.828406],[90.33595,23.828425],[90.335802,23.828181],[90.335808,23.828149],[90.335896,23.828018],[90.336057,23.828046],[90.336058,23.828046],[90.336113,23.82803],[90.336199,23.828263],[90.336212,23.828297],[90.336201,23.828303],[90.336006,23.828404],[90.336003,23.828406]]]}},{"type":"Feature","properties":{"survey":"bds","sheet":"009","dag":"4035","label_bn":"4035","area_sqm":1002.5},"geometry":{"type":"Polygon","coordinates":[[[90.334939,23.828431],[90.334888,23.828445],[90.334812,23.828428],[90.334736,23.828401],[90.334677,23.828341],[90.334677,23.82834],[90.334698,23.82821],[90.33473,23.828085],[90.334738,23.828053],[90.334865,23.82809],[90.33497,23.82812],[90.33497,23.828126],[90.33496,23.828315],[90.334955,23.828405],[90.334939,23.828431]]]}},{"type":"Feature","properties":{"survey":"bds","sheet":"009","dag":"4036","label_bn":"4036","area_sqm":741.6},"geometry":{"type":"Polygon","coordinates":[[[90.335284,23.828468],[90.335073,23.828571],[90.335004,23.828515],[90.334992,23.828506],[90.334991,23.828504],[90.334939,23.828431],[90.334955,23.828405],[90.335037,23.828391],[90.335279,23.828348],[90.335367,23.82833],[90.335523,23.828298],[90.33557,23.828288],[90.335579,23.828286],[90.335571,23.828291],[90.335357,23.828423],[90.335284,23.828468]]]}},{"type":"Feature","properties":{"survey":"bds","sheet":"009","dag":"4038","label_bn":"4038","area_sqm":983.9},"geometry":{"type":"Polygon","coordinates":[[[90.335864,23.828522],[90.335809,23.828585],[90.335793,23.828572],[90.335769,23.828554],[90.335676,23.828496],[90.335644,23.828476],[90.335637,23.828462],[90.335604,23.828396],[90.335589,23.828366],[90.335585,23.828332],[90.335579,23.828286],[90.335691,23.82823],[90.335779,23.828215],[90.335802,23.828181],[90.33595,23.828425],[90.335885,23.828498],[90.335885,23.828499],[90.335864,23.828522]]]}},{"type":"Feature","properties":{"survey":"bds","sheet":"009","dag":"4002","label_bn":"4002","area_sqm":777.9},"geometry":{"type":"Polygon","coordinates":[[[90.333731,23.828543],[90.333706,23.828594],[90.333451,23.828461],[90.333583,23.828264],[90.333812,23.828333],[90.333806,23.828357],[90.333731,23.828543]]]}},{"type":"Feature","properties":{"survey":"bds","sheet":"009","dag":"4037","label_bn":"4037","area_sqm":690.5},"geometry":{"type":"Polygon","coordinates":[[[90.33552,23.828578],[90.335439,23.828615],[90.335322,23.828512],[90.335298,23.828485],[90.335284,23.828468],[90.335357,23.828423],[90.335571,23.828291],[90.335579,23.828286],[90.335585,23.828332],[90.335589,23.828366],[90.335604,23.828396],[90.335637,23.828462],[90.335644,23.828476],[90.335534,23.828571],[90.33552,23.828578]]]}},{"type":"Feature","properties":{"survey":"bds","sheet":"009","dag":"4030","label_bn":"4030","area_sqm":520.1},"geometry":{"type":"Polygon","coordinates":[[[90.336239,23.82859],[90.336189,23.828673],[90.335864,23.828522],[90.335885,23.828499],[90.335885,23.828498],[90.33595,23.828425],[90.336003,23.828406],[90.336003,23.828406],[90.336088,23.828473],[90.336153,23.828519],[90.336239,23.82859]]]}},{"type":"Feature","properties":{"survey":"bds","sheet":"009","dag":"4029","label_bn":"4029","area_sqm":1679.3},"geometry":{"type":"Polygon","coordinates":[[[90.336393,23.828663],[90.336349,23.828674],[90.336239,23.82859],[90.336153,23.828519],[90.336088,23.828473],[90.336003,23.828406],[90.336003,23.828406],[90.336006,23.828404],[90.336201,23.828303],[90.336212,23.828297],[90.336262,23.828271],[90.336383,23.828233],[90.336643,23.828524],[90.336393,23.828663]]]}},{"type":"Feature","properties":{"survey":"bds","sheet":"009","dag":"4033","label_bn":"4033","area_sqm":4342.7},"geometry":{"type":"Polygon","coordinates":[[[90.335159,23.8286],[90.33509,23.828953],[90.335012,23.828922],[90.334841,23.828874],[90.334817,23.828864],[90.334654,23.828801],[90.334597,23.828776],[90.334545,23.828773],[90.33454,23.828773],[90.33452,23.82881],[90.334491,23.828785],[90.334456,23.828756],[90.334339,23.828633],[90.33433,23.828623],[90.334326,23.828611],[90.334326,23.828611],[90.334294,23.828521],[90.334301,23.828488],[90.334311,23.828441],[90.334314,23.828428],[90.334233,23.828375],[90.334214,23.828362],[90.334213,23.828359],[90.334196,23.828323],[90.334189,23.82831],[90.334199,23.828308],[90.334532,23.828243],[90.334636,23.828223],[90.334698,23.82821],[90.334677,23.82834],[90.334677,23.828341],[90.334736,23.828401],[90.334812,23.828428],[90.334888,23.828445],[90.334939,23.828431],[90.334991,23.828504],[90.334992,23.828506],[90.335004,23.828515],[90.335073,23.828571],[90.335159,23.8286]]]}},{"type":"Feature","properties":{"survey":"bds","sheet":"009","dag":"4028","label_bn":"4028","area_sqm":1016.1},"geometry":{"type":"Polygon","coordinates":[[[90.336653,23.828854],[90.336572,23.828981],[90.336144,23.828749],[90.336169,23.828708],[90.336189,23.828673],[90.336239,23.82859],[90.336349,23.828674],[90.336393,23.828663],[90.336509,23.828739],[90.33667,23.828817],[90.336653,23.828854]]]}},{"type":"Feature","properties":{"survey":"bds","sheet":"009","dag":"4011","label_bn":"4011","area_sqm":1819.0},"geometry":{"type":"Polygon","coordinates":[[[90.334473,23.828909],[90.334423,23.829013],[90.334237,23.828947],[90.334026,23.828868],[90.334096,23.828686],[90.334168,23.828454],[90.334214,23.828362],[90.334233,23.828375],[90.334314,23.828428],[90.334311,23.828441],[90.334301,23.828488],[90.334294,23.828521],[90.334326,23.828611],[90.334326,23.828611],[90.33433,23.828623],[90.334339,23.828633],[90.334456,23.828756],[90.334491,23.828785],[90.33452,23.82881],[90.334476,23.828903],[90.334473,23.828909]]]}},{"type":"Feature","properties":{"survey":"bds","sheet":"009","dag":"4017","label_bn":"4017","area_sqm":587.7},"geometry":{"type":"Polygon","coordinates":[[[90.334772,23.829014],[90.334769,23.829021],[90.334473,23.828909],[90.334476,23.828903],[90.33452,23.82881],[90.33454,23.828773],[90.334545,23.828773],[90.334597,23.828776],[90.334654,23.828801],[90.334817,23.828864],[90.334841,23.828874],[90.33483,23.828896],[90.334772,23.829014]]]}},{"type":"Feature","properties":{"survey":"bds","sheet":"009","dag":"4027","label_bn":"4027","area_sqm":277.8},"geometry":{"type":"Polygon","coordinates":[[[90.336555,23.829008],[90.336541,23.829031],[90.336421,23.828961],[90.336412,23.828955],[90.336235,23.828849],[90.33612,23.828789],[90.336144,23.828749],[90.336572,23.828981],[90.336555,23.829008]]]}},{"type":"Feature","properties":{"survey":"bds","sheet":"009","dag":"4031","label_bn":"4031","area_sqm":2033.1},"geometry":{"type":"Polygon","coordinates":[[[90.335962,23.829063],[90.335951,23.829081],[90.335855,23.829033],[90.335735,23.828973],[90.33565,23.828928],[90.335567,23.828879],[90.33561,23.828837],[90.33564,23.828804],[90.335807,23.828625],[90.335809,23.828585],[90.335864,23.828522],[90.336189,23.828673],[90.336169,23.828708],[90.336144,23.828749],[90.33612,23.828789],[90.335962,23.829063]]]}},{"type":"Feature","properties":{"survey":"bds","sheet":"009","dag":"4012","label_bn":"4012","area_sqm":448.9},"geometry":{"type":"Polygon","coordinates":[[[90.334237,23.828947],[90.334149,23.829117],[90.333952,23.829015],[90.333959,23.829002],[90.334026,23.828868],[90.334237,23.828947]]]}},{"type":"Feature","properties":{"survey":"bds","sheet":"009","dag":"4016","label_bn":"4016","area_sqm":486.4},"geometry":{"type":"Polygon","coordinates":[[[90.334709,23.829127],[90.334702,23.829142],[90.334413,23.829034],[90.334423,23.829013],[90.334473,23.828909],[90.334769,23.829021],[90.334764,23.82903],[90.334709,23.829127]]]}},{"type":"Feature","properties":{"survey":"bds","sheet":"009","dag":"4032","label_bn":"4032","area_sqm":3172.7},"geometry":{"type":"Polygon","coordinates":[[[90.335367,23.829081],[90.335305,23.829152],[90.33529,23.829144],[90.335241,23.829117],[90.335226,23.829108],[90.335178,23.82908],[90.335161,23.829054],[90.335123,23.828996],[90.33509,23.828953],[90.335159,23.8286],[90.335073,23.828571],[90.335284,23.828468],[90.335298,23.828485],[90.335322,23.828512],[90.335439,23.828615],[90.33552,23.828578],[90.335534,23.828571],[90.335644,23.828476],[90.335676,23.828496],[90.335769,23.828554],[90.335793,23.828572],[90.335809,23.828585],[90.335807,23.828625],[90.33564,23.828804],[90.33561,23.828837],[90.335567,23.828879],[90.335367,23.829081]]]}},{"type":"Feature","properties":{"survey":"bds","sheet":"009","dag":"4013","label_bn":"4013","area_sqm":462.3},"geometry":{"type":"Polygon","coordinates":[[[90.334332,23.829202],[90.334323,23.829208],[90.334318,23.829205],[90.334149,23.829117],[90.334237,23.828947],[90.334423,23.829013],[90.334413,23.829034],[90.334332,23.829202]]]}},{"type":"Feature","properties":{"survey":"bds","sheet":"009","dag":"4026","label_bn":"4026","area_sqm":1712.1},"geometry":{"type":"Polygon","coordinates":[[[90.336348,23.829196],[90.336332,23.829223],[90.336246,23.829184],[90.336203,23.829172],[90.336098,23.829125],[90.336088,23.829144],[90.336028,23.829116],[90.335951,23.829081],[90.335962,23.829063],[90.33612,23.828789],[90.336235,23.828849],[90.336412,23.828955],[90.336421,23.828961],[90.336541,23.829031],[90.336591,23.829064],[90.336515,23.829166],[90.336477,23.829217],[90.336467,23.829216],[90.336348,23.829196]]]}},{"type":"Feature","properties":{"survey":"bds","sheet":"009","dag":"4001","label_bn":"4001","area_sqm":2887.5},"geometry":{"type":"Polygon","coordinates":[[[90.333686,23.829102],[90.333601,23.829261],[90.333412,23.82919],[90.333425,23.829153],[90.333455,23.829114],[90.333501,23.829018],[90.333504,23.828993],[90.333604,23.82882],[90.33364,23.828729],[90.333706,23.828594],[90.333731,23.828543],[90.333806,23.828357],[90.333812,23.828333],[90.333887,23.82818],[90.333936,23.828085],[90.333986,23.827959],[90.334066,23.827971],[90.334097,23.827988],[90.334058,23.828138],[90.333992,23.828413],[90.333915,23.828617],[90.333787,23.828908],[90.333686,23.829102]]]}},{"type":"Feature","properties":{"survey":"bds","sheet":"009","dag":"4021","label_bn":"4021","area_sqm":230.4},"geometry":{"type":"Polygon","coordinates":[[[90.335535,23.829198],[90.335486,23.82927],[90.335302,23.829159],[90.335305,23.829152],[90.335367,23.829081],[90.335485,23.829157],[90.335535,23.829198]]]}},{"type":"Feature","properties":{"survey":"bds","sheet":"009","dag":"4018","label_bn":"4018","area_sqm":1209.9},"geometry":{"type":"Polygon","coordinates":[[[90.334978,23.829187],[90.33493,23.829301],[90.334801,23.829255],[90.334676,23.829202],[90.334702,23.829142],[90.334709,23.829127],[90.334764,23.82903],[90.334769,23.829021],[90.334772,23.829014],[90.33483,23.828896],[90.334841,23.828874],[90.335012,23.828922],[90.33509,23.828953],[90.335123,23.828996],[90.335112,23.829011],[90.334978,23.829187]]]}},{"type":"Feature","properties":{"survey":"bds","sheet":"009","dag":"4010","label_bn":"4010","area_sqm":2788.4},"geometry":{"type":"Polygon","coordinates":[[[90.333862,23.829187],[90.333784,23.829339],[90.333601,23.829261],[90.333686,23.829102],[90.333787,23.828908],[90.333915,23.828617],[90.333992,23.828413],[90.334058,23.828138],[90.334097,23.827988],[90.334119,23.82803],[90.334169,23.828072],[90.334188,23.828176],[90.334189,23.82831],[90.334196,23.828323],[90.334213,23.828359],[90.334214,23.828362],[90.334168,23.828454],[90.334096,23.828686],[90.334026,23.828868],[90.333959,23.829002],[90.333952,23.829015],[90.333937,23.829043],[90.333862,23.829187]]]}},{"type":"Feature","properties":{"survey":"bds","sheet":"009","dag":"4023","label_bn":"4023","area_sqm":1607.3},"geometry":{"type":"Polygon","coordinates":[[[90.335951,23.829081],[90.335792,23.829367],[90.335716,23.829321],[90.335706,23.829312],[90.335535,23.829198],[90.335485,23.829157],[90.335367,23.829081],[90.335567,23.828879],[90.33565,23.828928],[90.335735,23.828973],[90.335855,23.829033],[90.335951,23.829081]]]}},{"type":"Feature","properties":{"survey":"bds","sheet":"009","dag":"4015","label_bn":"4015","area_sqm":911.0},"geometry":{"type":"Polygon","coordinates":[[[90.334621,23.829289],[90.334578,23.829377],[90.334291,23.829267],[90.334323,23.829208],[90.334332,23.829202],[90.334413,23.829034],[90.334702,23.829142],[90.334676,23.829202],[90.334621,23.829289]]]}},{"type":"Feature","properties":{"survey":"bds","sheet":"009","dag":"4022","label_bn":"4022","area_sqm":196.3},"geometry":{"type":"Polygon","coordinates":[[[90.335706,23.829312],[90.335666,23.82938],[90.335486,23.82927],[90.335535,23.829198],[90.335706,23.829312]]]}},{"type":"Feature","properties":{"survey":"bds","sheet":"009","dag":"4019","label_bn":"4019","area_sqm":954.6},"geometry":{"type":"Polygon","coordinates":[[[90.335198,23.829413],[90.335198,23.829414],[90.335198,23.829414],[90.335064,23.829367],[90.334927,23.829321],[90.33493,23.829301],[90.334978,23.829187],[90.335112,23.829011],[90.335123,23.828996],[90.335161,23.829054],[90.335178,23.82908],[90.335226,23.829108],[90.335241,23.829117],[90.33529,23.829144],[90.335305,23.829152],[90.335302,23.829159],[90.335251,23.829253],[90.335219,23.829313],[90.335198,23.829413]]]}},{"type":"Feature","properties":{"survey":"bds","sheet":"009","dag":"4024","label_bn":"4024","area_sqm":910.7},"geometry":{"type":"Polygon","coordinates":[[[90.335998,23.829322],[90.335935,23.829469],[90.335792,23.829367],[90.335951,23.829081],[90.336028,23.829116],[90.336088,23.829144],[90.336098,23.829125],[90.336203,23.829172],[90.336175,23.829233],[90.336112,23.829366],[90.335998,23.829322]]]}},{"type":"Feature","properties":{"survey":"bds","sheet":"009","dag":"4020","label_bn":"4020","area_sqm":600.7},"geometry":{"type":"Polygon","coordinates":[[[90.335449,23.82934],[90.335371,23.829474],[90.335198,23.829414],[90.335198,23.829413],[90.335219,23.829313],[90.335251,23.829253],[90.335302,23.829159],[90.335486,23.82927],[90.335449,23.82934]]]}},{"type":"Feature","properties":{"survey":"bds","sheet":"009","dag":"4014","label_bn":"4014","area_sqm":391.5},"geometry":{"type":"Polygon","coordinates":[[[90.334538,23.82946],[90.334529,23.829478],[90.334237,23.829365],[90.334281,23.829284],[90.334291,23.829267],[90.334578,23.829377],[90.334572,23.82939],[90.334538,23.82946]]]}},{"type":"Feature","properties":{"survey":"bds","sheet":"009","dag":"4025","label_bn":"4025","area_sqm":1027.3},"geometry":{"type":"Polygon","coordinates":[[[90.336573,23.829353],[90.33646,23.829514],[90.336234,23.829416],[90.336226,23.829413],[90.336112,23.829366],[90.336175,23.829233],[90.336203,23.829172],[90.336246,23.829184],[90.336332,23.829223],[90.336348,23.829196],[90.336467,23.829216],[90.336477,23.829217],[90.336454,23.829272],[90.336573,23.829353]]]}}]}