{"type":"FeatureCollection","features":[{"type":"Feature","properties":{"survey":"bds","sheet":"010","dag":"4572","label_bn":"4572","area_sqm":1151.5},"geometry":{"type":"Polygon","coordinates":[[[90.333438,23.825329],[90.333378,23.825367],[90.33336,23.825017],[90.333546,23.82504],[90.333596,23.82512],[90.333727,23.825144],[90.333713,23.825191],[90.333809,23.825275],[90.333836,23.825335],[90.3337,23.825347],[90.333599,23.825319],[90.333438,23.825329]]]}},{"type":"Feature","properties":{"survey":"bds","sheet":"010","dag":"4566","label_bn":"4566","area_sqm":4623.6},"geometry":{"type":"Polygon","coordinates":[[[90.332382,23.825505],[90.332104,23.825518],[90.332059,23.825494],[90.331859,23.825512],[90.331763,23.82499],[90.331991,23.824989],[90.332171,23.825026],[90.332399,23.825016],[90.332611,23.82501],[90.332613,23.82526],[90.33262,23.82532],[90.332641,23.825345],[90.332701,23.825387],[90.332674,23.825478],[90.33262,23.825489],[90.332405,23.825504],[90.332382,23.825505]]]}},{"type":"Feature","properties":{"survey":"bds","sheet":"010","dag":"4571","label_bn":"4571","area_sqm":4218.5},"geometry":{"type":"Polygon","coordinates":[[[90.333279,23.825562],[90.333235,23.825604],[90.333163,23.825539],[90.333097,23.825507],[90.333009,23.825484],[90.332877,23.825459],[90.332674,23.825478],[90.332701,23.825387],[90.332641,23.825345],[90.33262,23.82532],[90.332613,23.82526],[90.332611,23.82501],[90.332883,23.824981],[90.33308,23.824975],[90.33336,23.825017],[90.333378,23.825367],[90.333319,23.825503],[90.333279,23.825562]]]}},{"type":"Feature","properties":{"survey":"bds","sheet":"010","dag":"4570","label_bn":"4570","area_sqm":2756.8},"geometry":{"type":"Polygon","coordinates":[[[90.333841,23.825348],[90.333969,23.825743],[90.333219,23.825726],[90.333235,23.825604],[90.333279,23.825562],[90.333319,23.825503],[90.333378,23.825367],[90.333438,23.825329],[90.333599,23.825319],[90.3337,23.825347],[90.333836,23.825335],[90.333841,23.825348]]]}},{"type":"Feature","properties":{"survey":"bds","sheet":"010","dag":"4565","label_bn":"4565","area_sqm":9459.7},"geometry":{"type":"Polygon","coordinates":[[[90.331214,23.825845],[90.331207,23.82586],[90.331136,23.825851],[90.331047,23.82579],[90.330877,23.825661],[90.330856,23.825608],[90.33088,23.825483],[90.33078,23.825373],[90.330667,23.825316],[90.330554,23.82527],[90.330516,23.825241],[90.33055,23.825148],[90.330556,23.825081],[90.330544,23.825044],[90.330618,23.825002],[90.330888,23.824954],[90.331003,23.824937],[90.331323,23.824895],[90.331413,23.82501],[90.331763,23.82499],[90.331859,23.825512],[90.331817,23.825517],[90.331704,23.825559],[90.331604,23.825609],[90.331579,23.825629],[90.331566,23.825663],[90.331574,23.825707],[90.331346,23.82578],[90.331214,23.825845]]]}},{"type":"Feature","properties":{"survey":"bds","sheet":"010","dag":"4567","label_bn":"4567","area_sqm":1975.8},"geometry":{"type":"Polygon","coordinates":[[[90.332399,23.825906],[90.332275,23.825931],[90.332238,23.825925],[90.332256,23.825774],[90.332213,23.825641],[90.332169,23.825633],[90.332104,23.825518],[90.332382,23.825505],[90.332405,23.825504],[90.33262,23.825489],[90.332674,23.825478],[90.332684,23.82551],[90.332657,23.825666],[90.332566,23.825899],[90.33252,23.825896],[90.332467,23.825894],[90.332417,23.825903],[90.332399,23.825906]]]}},{"type":"Feature","properties":{"survey":"bds","sheet":"010","dag":"4559","label_bn":"4559","area_sqm":103.7},"geometry":{"type":"Polygon","coordinates":[[[90.332426,23.825971],[90.332276,23.825986],[90.332275,23.825931],[90.332399,23.825906],[90.332417,23.825903],[90.332426,23.825971]]]}},{"type":"Feature","properties":{"survey":"bds","sheet":"010","dag":"4569","label_bn":"4569","area_sqm":2833.1},"geometry":{"type":"Polygon","coordinates":[[[90.334095,23.826011],[90.333365,23.826037],[90.333271,23.826028],[90.333168,23.825993],[90.333202,23.825883],[90.333207,23.825803],[90.333219,23.825726],[90.333969,23.825743],[90.334001,23.825766],[90.334099,23.825901],[90.334095,23.826011]]]}},{"type":"Feature","properties":{"survey":"bds","sheet":"010","dag":"4563","label_bn":"4563","area_sqm":3301.0},"geometry":{"type":"Polygon","coordinates":[[[90.332199,23.825941],[90.332012,23.826065],[90.331908,23.826065],[90.331808,23.826034],[90.331758,23.826],[90.331737,23.825941],[90.331703,23.825933],[90.331674,23.825918],[90.331611,23.825834],[90.33158,23.825762],[90.331582,23.825743],[90.331574,23.825707],[90.331566,23.825663],[90.331579,23.825629],[90.331604,23.825609],[90.331704,23.825559],[90.331817,23.825517],[90.331859,23.825512],[90.332059,23.825494],[90.332104,23.825518],[90.332169,23.825633],[90.332213,23.825641],[90.332256,23.825774],[90.332238,23.825925],[90.332275,23.825931],[90.332199,23.825941]]]}},{"type":"Feature","properties":{"survey":"bds","sheet":"010","dag":"4560","label_bn":"4560","area_sqm":189.4},"geometry":{"type":"Polygon","coordinates":[[[90.332439,23.826078],[90.332284,23.826093],[90.332278,23.826065],[90.332276,23.825986],[90.332426,23.825971],[90.332439,23.826078]]]}},{"type":"Feature","properties":{"survey":"bds","sheet":"010","dag":"4568","label_bn":"4568","area_sqm":3683.6},"geometry":{"type":"Polygon","coordinates":[[[90.332817,23.826116],[90.332776,23.826117],[90.332731,23.826094],[90.332699,23.826058],[90.332655,23.826005],[90.332566,23.825899],[90.332657,23.825666],[90.332684,23.82551],[90.332674,23.825478],[90.332877,23.825459],[90.333009,23.825484],[90.333097,23.825507],[90.333163,23.825539],[90.333235,23.825604],[90.333219,23.825726],[90.333207,23.825803],[90.333202,23.825883],[90.333168,23.825993],[90.333099,23.826039],[90.332883,23.826054],[90.332817,23.826116]]]}},{"type":"Feature","properties":{"survey":"bds","sheet":"010","dag":"4558","label_bn":"4558","area_sqm":654.5},"geometry":{"type":"Polygon","coordinates":[[[90.332569,23.826148],[90.332449,23.826156],[90.332439,23.826078],[90.332426,23.825971],[90.332417,23.825903],[90.332467,23.825894],[90.33252,23.825896],[90.332566,23.825899],[90.332655,23.826005],[90.332699,23.826058],[90.332731,23.826094],[90.332776,23.826117],[90.332569,23.826148]]]}},{"type":"Feature","properties":{"survey":"bds","sheet":"010","dag":"4561","label_bn":"4561","area_sqm":131.8},"geometry":{"type":"Polygon","coordinates":[[[90.332433,23.826157],[90.332299,23.826164],[90.332284,23.826093],[90.332439,23.826078],[90.332449,23.826156],[90.332433,23.826157]]]}},{"type":"Feature","properties":{"survey":"bds","sheet":"010","dag":"4564","label_bn":"4564","area_sqm":2725.9},"geometry":{"type":"Polygon","coordinates":[[[90.331929,23.826327],[90.331796,23.826366],[90.331751,23.826296],[90.331667,23.826247],[90.331569,23.82621],[90.33151,23.826187],[90.33144,23.826126],[90.331402,23.826094],[90.331378,23.826051],[90.331279,23.825923],[90.331275,23.825856],[90.331207,23.82586],[90.331214,23.825845],[90.331346,23.82578],[90.331574,23.825707],[90.331582,23.825743],[90.33158,23.825762],[90.331611,23.825834],[90.331674,23.825918],[90.331703,23.825933],[90.331737,23.825941],[90.331758,23.826],[90.331808,23.826034],[90.331908,23.826065],[90.332012,23.826065],[90.33202,23.826205],[90.332007,23.826248],[90.331978,23.826287],[90.331929,23.826327]]]}},{"type":"Feature","properties":{"survey":"bds","sheet":"010","dag":"4554","label_bn":"4554","area_sqm":4705.5},"geometry":{"type":"Polygon","coordinates":[[[90.334065,23.826205],[90.333998,23.826384],[90.332806,23.826334],[90.332805,23.82633],[90.332776,23.826117],[90.332817,23.826116],[90.332883,23.826054],[90.333099,23.826039],[90.333168,23.825993],[90.333271,23.826028],[90.333365,23.826037],[90.334095,23.826011],[90.334065,23.826205]]]}},{"type":"Feature","properties":{"survey":"bds","sheet":"010","dag":"4503","label_bn":"4503","area_sqm":246.2},"geometry":{"type":"Polygon","coordinates":[[[90.331751,23.826296],[90.3317,23.826387],[90.331518,23.8263],[90.331569,23.82621],[90.331667,23.826247],[90.331751,23.826296]]]}},{"type":"Feature","properties":{"survey":"bds","sheet":"010","dag":"4557","label_bn":"4557","area_sqm":1068.5},"geometry":{"type":"Polygon","coordinates":[[[90.332469,23.82638],[90.332471,23.826402],[90.332461,23.826398],[90.332342,23.826272],[90.332299,23.826164],[90.332433,23.826157],[90.332449,23.826156],[90.332569,23.826148],[90.332776,23.826117],[90.332805,23.82633],[90.332643,23.826347],[90.332469,23.82638]]]}},{"type":"Feature","properties":{"survey":"bds","sheet":"010","dag":"4504","label_bn":"4504","area_sqm":285.2},"geometry":{"type":"Polygon","coordinates":[[[90.331691,23.826402],[90.331642,23.826495],[90.331553,23.826453],[90.331454,23.826406],[90.331507,23.826319],[90.331518,23.8263],[90.3317,23.826387],[90.331691,23.826402]]]}},{"type":"Feature","properties":{"survey":"bds","sheet":"010","dag":"4556","label_bn":"4556","area_sqm":652.1},"geometry":{"type":"Polygon","coordinates":[[[90.332528,23.826502],[90.332479,23.826507],[90.332479,23.826502],[90.332471,23.826402],[90.332469,23.82638],[90.332643,23.826347],[90.332805,23.82633],[90.332806,23.826334],[90.332818,23.82643],[90.33293,23.826452],[90.332927,23.826491],[90.332737,23.826502],[90.332725,23.826502],[90.332528,23.826502],[90.332528,23.826502]]]}},{"type":"Feature","properties":{"survey":"bds","sheet":"010","dag":"4562","label_bn":"4562","area_sqm":2116.1},"geometry":{"type":"Polygon","coordinates":[[[90.332324,23.826526],[90.332179,23.826529],[90.332128,23.826517],[90.332079,23.8265],[90.332042,23.826424],[90.331994,23.826364],[90.331929,23.826327],[90.331978,23.826287],[90.332007,23.826248],[90.33202,23.826205],[90.332012,23.826065],[90.332199,23.825941],[90.332275,23.825931],[90.332276,23.825986],[90.332278,23.826065],[90.332284,23.826093],[90.332299,23.826164],[90.332342,23.826272],[90.332461,23.826398],[90.332471,23.826402],[90.332479,23.826502],[90.332479,23.826507],[90.332324,23.826526]]]}},{"type":"Feature","properties":{"survey":"bds","sheet":"010","dag":"4555","label_bn":"4555","area_sqm":2102.4},"geometry":{"type":"Polygon","coordinates":[[[90.33391,23.826549],[90.333905,23.826585],[90.333755,23.826567],[90.33375,23.826566],[90.333604,23.826548],[90.333209,23.8265],[90.333138,23.826492],[90.33293,23.826452],[90.332818,23.82643],[90.332806,23.826334],[90.333998,23.826384],[90.333997,23.8265],[90.33391,23.826549]]]}},{"type":"Feature","properties":{"survey":"bds","sheet":"010","dag":"4539","label_bn":"4539","area_sqm":570.2},"geometry":{"type":"Polygon","coordinates":[[[90.333604,23.826548],[90.333589,23.82667],[90.333459,23.826657],[90.333453,23.826657],[90.333194,23.826628],[90.333209,23.8265],[90.333604,23.826548]]]}},{"type":"Feature","properties":{"survey":"bds","sheet":"010","dag":"4540","label_bn":"4540","area_sqm":204.3},"geometry":{"type":"Polygon","coordinates":[[[90.33375,23.826566],[90.333738,23.826685],[90.333736,23.826685],[90.333597,23.826671],[90.333589,23.82667],[90.333604,23.826548],[90.33375,23.826566]]]}},{"type":"Feature","properties":{"survey":"bds","sheet":"010","dag":"4541","label_bn":"4541","area_sqm":203.4},"geometry":{"type":"Polygon","coordinates":[[[90.333905,23.826585],[90.333887,23.826699],[90.333738,23.826685],[90.33375,23.826566],[90.333755,23.826567],[90.333905,23.826585]]]}},{"type":"Feature","properties":{"survey":"bds","sheet":"010","dag":"4502","label_bn":"4502","area_sqm":4081.1},"geometry":{"type":"Polygon","coordinates":[[[90.331158,23.826603],[90.331117,23.826701],[90.330929,23.826607],[90.33081,23.826558],[90.330965,23.82621],[90.330988,23.82614],[90.331136,23.825851],[90.331207,23.82586],[90.331275,23.825856],[90.331279,23.825923],[90.331378,23.826051],[90.331402,23.826094],[90.33144,23.826126],[90.33151,23.826187],[90.331569,23.82621],[90.331518,23.8263],[90.331507,23.826319],[90.331454,23.826406],[90.33145,23.826412],[90.331325,23.826667],[90.331158,23.826603]]]}},{"type":"Feature","properties":{"survey":"bds","sheet":"010","dag":"4513","label_bn":"4513","area_sqm":497.3},"geometry":{"type":"Polygon","coordinates":[[[90.332905,23.826727],[90.332724,23.826742],[90.332737,23.826502],[90.332927,23.826491],[90.332905,23.826727]]]}},{"type":"Feature","properties":{"survey":"bds","sheet":"010","dag":"4512","label_bn":"4512","area_sqm":569.4},"geometry":{"type":"Polygon","coordinates":[[[90.332724,23.826742],[90.332526,23.826758],[90.332528,23.826502],[90.332725,23.826502],[90.332737,23.826502],[90.332724,23.826742]]]}},{"type":"Feature","properties":{"survey":"bds","sheet":"010","dag":"4511","label_bn":"4511","area_sqm":569.0},"geometry":{"type":"Polygon","coordinates":[[[90.332526,23.826758],[90.332459,23.826764],[90.332271,23.82668],[90.332279,23.826671],[90.332306,23.826624],[90.332324,23.826526],[90.332479,23.826507],[90.332528,23.826502],[90.332528,23.826502],[90.332526,23.826758]]]}},{"type":"Feature","properties":{"survey":"bds","sheet":"010","dag":"4536","label_bn":"4536","area_sqm":1130.9},"geometry":{"type":"Polygon","coordinates":[[[90.333194,23.826628],[90.333169,23.826838],[90.332895,23.826833],[90.332905,23.826727],[90.332927,23.826491],[90.33293,23.826452],[90.333138,23.826492],[90.333209,23.8265],[90.333194,23.826628]]]}},{"type":"Feature","properties":{"survey":"bds","sheet":"010","dag":"4537","label_bn":"4537","area_sqm":650.7},"geometry":{"type":"Polygon","coordinates":[[[90.333453,23.826657],[90.333431,23.826867],[90.333304,23.826862],[90.333187,23.826857],[90.333187,23.826854],[90.333188,23.826838],[90.333169,23.826838],[90.333194,23.826628],[90.333453,23.826657]]]}},{"type":"Feature","properties":{"survey":"bds","sheet":"010","dag":"4538","label_bn":"4538","area_sqm":650.7},"geometry":{"type":"Polygon","coordinates":[[[90.333736,23.826685],[90.33371,23.826879],[90.333669,23.826877],[90.333452,23.826868],[90.333437,23.826868],[90.333431,23.826867],[90.333453,23.826657],[90.333459,23.826657],[90.333589,23.82667],[90.333597,23.826671],[90.333736,23.826685]]]}},{"type":"Feature","properties":{"survey":"bds","sheet":"010","dag":"4542","label_bn":"4542","area_sqm":325.0},"geometry":{"type":"Polygon","coordinates":[[[90.333885,23.826712],[90.333859,23.826885],[90.333762,23.826881],[90.333712,23.826879],[90.33371,23.826879],[90.333736,23.826685],[90.333738,23.826685],[90.333887,23.826699],[90.333885,23.826712]]]}},{"type":"Feature","properties":{"survey":"bds","sheet":"010","dag":"4533","label_bn":"4533","area_sqm":207.9},"geometry":{"type":"Polygon","coordinates":[[[90.333669,23.826877],[90.333673,23.826958],[90.333457,23.826957],[90.333452,23.826868],[90.333669,23.826877]]]}},{"type":"Feature","properties":{"survey":"bds","sheet":"010","dag":"4553","label_bn":"4553","area_sqm":2587.8},"geometry":{"type":"Polygon","coordinates":[[[90.334305,23.826843],[90.334232,23.826965],[90.33408,23.826931],[90.334054,23.826926],[90.333941,23.826901],[90.333918,23.826896],[90.333871,23.826885],[90.333859,23.826885],[90.333885,23.826712],[90.333887,23.826699],[90.333905,23.826585],[90.33391,23.826549],[90.333997,23.8265],[90.333998,23.826384],[90.334065,23.826205],[90.334284,23.826236],[90.334221,23.826577],[90.334304,23.826783],[90.334304,23.826841],[90.334305,23.826843]]]}},{"type":"Feature","properties":{"survey":"bds","sheet":"010","dag":"4509","label_bn":"4509","area_sqm":1228.0},"geometry":{"type":"Polygon","coordinates":[[[90.332091,23.826904],[90.332043,23.826993],[90.33191,23.826937],[90.331863,23.826914],[90.331851,23.826909],[90.331877,23.826869],[90.332001,23.826702],[90.332027,23.8266],[90.332051,23.826546],[90.332079,23.8265],[90.332128,23.826517],[90.332179,23.826529],[90.332324,23.826526],[90.332306,23.826624],[90.332279,23.826671],[90.332271,23.82668],[90.332201,23.826759],[90.33216,23.826797],[90.332121,23.826852],[90.332091,23.826904]]]}},{"type":"Feature","properties":{"survey":"bds","sheet":"010","dag":"4543","label_bn":"4543","area_sqm":415.4},"geometry":{"type":"Polygon","coordinates":[[[90.333918,23.826896],[90.33393,23.827038],[90.333676,23.82702],[90.333673,23.826958],[90.333669,23.826877],[90.33371,23.826879],[90.333712,23.826879],[90.333762,23.826881],[90.333859,23.826885],[90.333871,23.826885],[90.333918,23.826896]]]}},{"type":"Feature","properties":{"survey":"bds","sheet":"010","dag":"4532","label_bn":"4532","area_sqm":208.1},"geometry":{"type":"Polygon","coordinates":[[[90.333677,23.827039],[90.333461,23.827045],[90.333457,23.826957],[90.333673,23.826958],[90.333676,23.82702],[90.333677,23.827039]]]}},{"type":"Feature","properties":{"survey":"bds","sheet":"010","dag":"4551","label_bn":"4551","area_sqm":248.0},"geometry":{"type":"Polygon","coordinates":[[[90.334285,23.827059],[90.334068,23.82706],[90.334054,23.826926],[90.33408,23.826931],[90.334232,23.826965],[90.334285,23.827059]]]}},{"type":"Feature","properties":{"survey":"bds","sheet":"010","dag":"4508","label_bn":"4508","area_sqm":2437.4},"geometry":{"type":"Polygon","coordinates":[[[90.331825,23.826968],[90.331775,23.827065],[90.331521,23.826971],[90.331548,23.826915],[90.331602,23.826753],[90.331687,23.826585],[90.331737,23.826499],[90.331796,23.826366],[90.331929,23.826327],[90.331994,23.826364],[90.332042,23.826424],[90.332079,23.8265],[90.332051,23.826546],[90.332027,23.8266],[90.332001,23.826702],[90.331877,23.826869],[90.331851,23.826909],[90.331837,23.82693],[90.331825,23.826968]]]}},{"type":"Feature","properties":{"survey":"bds","sheet":"010","dag":"4514","label_bn":"4514","area_sqm":1524.5},"geometry":{"type":"Polygon","coordinates":[[[90.332873,23.82707],[90.332812,23.827071],[90.332592,23.827006],[90.33251,23.826993],[90.332359,23.827007],[90.332459,23.826764],[90.332526,23.826758],[90.332724,23.826742],[90.332905,23.826727],[90.332895,23.826833],[90.332895,23.826837],[90.332873,23.82707]]]}},{"type":"Feature","properties":{"survey":"bds","sheet":"010","dag":"4535","label_bn":"4535","area_sqm":712.1},"geometry":{"type":"Polygon","coordinates":[[[90.333046,23.827056],[90.332931,23.827075],[90.332873,23.82707],[90.332895,23.826837],[90.332895,23.826833],[90.333169,23.826838],[90.333188,23.826838],[90.333187,23.826854],[90.333187,23.826857],[90.333184,23.826904],[90.333188,23.826929],[90.333162,23.827003],[90.333137,23.827018],[90.333077,23.827027],[90.333046,23.827056]]]}},{"type":"Feature","properties":{"survey":"bds","sheet":"010","dag":"4531","label_bn":"4531","area_sqm":208.2},"geometry":{"type":"Polygon","coordinates":[[[90.333682,23.82712],[90.333466,23.827134],[90.333461,23.827045],[90.333677,23.827039],[90.333682,23.82712]]]}},{"type":"Feature","properties":{"survey":"bds","sheet":"010","dag":"4550","label_bn":"4550","area_sqm":245.6},"geometry":{"type":"Polygon","coordinates":[[[90.334091,23.827174],[90.33408,23.827174],[90.334068,23.82706],[90.334285,23.827059],[90.334287,23.827062],[90.334297,23.827081],[90.334239,23.827164],[90.334162,23.827169],[90.334091,23.827174]]]}},{"type":"Feature","properties":{"survey":"bds","sheet":"010","dag":"4552","label_bn":"4552","area_sqm":407.3},"geometry":{"type":"Polygon","coordinates":[[[90.33408,23.827174],[90.333942,23.827177],[90.33393,23.827038],[90.333918,23.826896],[90.333941,23.826901],[90.334054,23.826926],[90.334068,23.82706],[90.33408,23.827174]]]}},{"type":"Feature","properties":{"survey":"bds","sheet":"010","dag":"4544","label_bn":"4544","area_sqm":412.9},"geometry":{"type":"Polygon","coordinates":[[[90.333942,23.827177],[90.333942,23.827181],[90.333684,23.827163],[90.333682,23.82712],[90.333677,23.827039],[90.333676,23.82702],[90.33393,23.827038],[90.333942,23.827177]]]}},{"type":"Feature","properties":{"survey":"bds","sheet":"010","dag":"4510","label_bn":"4510","area_sqm":1342.0},"geometry":{"type":"Polygon","coordinates":[[[90.332226,23.82711],[90.332183,23.82718],[90.332149,23.827177],[90.33212,23.827142],[90.331995,23.827082],[90.332043,23.826993],[90.332091,23.826904],[90.332121,23.826852],[90.33216,23.826797],[90.332201,23.826759],[90.332271,23.82668],[90.332459,23.826764],[90.332359,23.827007],[90.332323,23.827027],[90.332262,23.827068],[90.332226,23.82711]]]}},{"type":"Feature","properties":{"survey":"bds","sheet":"010","dag":"4534","label_bn":"4534","area_sqm":2081.5},"geometry":{"type":"Polygon","coordinates":[[[90.333466,23.827134],[90.333475,23.827305],[90.333243,23.827276],[90.332792,23.827177],[90.332812,23.827071],[90.332873,23.82707],[90.332931,23.827075],[90.333046,23.827056],[90.333077,23.827027],[90.333137,23.827018],[90.333162,23.827003],[90.333188,23.826929],[90.333184,23.826904],[90.333187,23.826857],[90.333304,23.826862],[90.333431,23.826867],[90.333437,23.826868],[90.333452,23.826868],[90.333457,23.826957],[90.333461,23.827045],[90.333466,23.827134]]]}},{"type":"Feature","properties":{"survey":"bds","sheet":"010","dag":"4530","label_bn":"4530","area_sqm":410.1},"geometry":{"type":"Polygon","coordinates":[[[90.33369,23.827282],[90.333475,23.827305],[90.333466,23.827134],[90.333682,23.82712],[90.333684,23.827163],[90.33369,23.827282]]]}},{"type":"Feature","properties":{"survey":"bds","sheet":"010","dag":"4549","label_bn":"4549","area_sqm":122.4},"geometry":{"type":"Polygon","coordinates":[[[90.334241,23.8273],[90.334166,23.827314],[90.334162,23.827169],[90.334239,23.827164],[90.334236,23.827218],[90.334249,23.827265],[90.334241,23.8273]]]}},{"type":"Feature","properties":{"survey":"bds","sheet":"010","dag":"4545","label_bn":"4545","area_sqm":412.1},"geometry":{"type":"Polygon","coordinates":[[[90.333943,23.827295],[90.333943,23.827324],[90.33374,23.827309],[90.333692,23.827306],[90.33369,23.827282],[90.333684,23.827163],[90.333942,23.827181],[90.333943,23.827295]]]}},{"type":"Feature","properties":{"survey":"bds","sheet":"010","dag":"4548","label_bn":"4548","area_sqm":121.8},"geometry":{"type":"Polygon","coordinates":[[[90.33416,23.827316],[90.334094,23.827328],[90.334091,23.827174],[90.334162,23.827169],[90.334166,23.827314],[90.33416,23.827316]]]}},{"type":"Feature","properties":{"survey":"bds","sheet":"010","dag":"4547","label_bn":"4547","area_sqm":284.6},"geometry":{"type":"Polygon","coordinates":[[[90.33396,23.827353],[90.333943,23.827356],[90.333943,23.827324],[90.333943,23.827295],[90.333942,23.827181],[90.333942,23.827177],[90.33408,23.827174],[90.334091,23.827174],[90.334094,23.827328],[90.334083,23.82733],[90.334066,23.827334],[90.33396,23.827353]]]}},{"type":"Feature","properties":{"survey":"bds","sheet":"010","dag":"4546","label_bn":"4546","area_sqm":72.4},"geometry":{"type":"Polygon","coordinates":[[[90.333943,23.827356],[90.333902,23.827364],[90.333865,23.827351],[90.333766,23.827335],[90.333741,23.827338],[90.33374,23.827309],[90.333943,23.827324],[90.333943,23.827356]]]}},{"type":"Feature","properties":{"survey":"bds","sheet":"010","dag":"4529","label_bn":"4529","area_sqm":687.7},"geometry":{"type":"Polygon","coordinates":[[[90.333741,23.827338],[90.333702,23.827427],[90.333247,23.82741],[90.333235,23.827381],[90.333252,23.827309],[90.333243,23.827276],[90.333475,23.827305],[90.33369,23.827282],[90.333692,23.827306],[90.33374,23.827309],[90.333741,23.827338]]]}},{"type":"Feature","properties":{"survey":"bds","sheet":"010","dag":"4515","label_bn":"4515","area_sqm":3493.1},"geometry":{"type":"Polygon","coordinates":[[[90.332747,23.827425],[90.33272,23.827472],[90.332475,23.827381],[90.332362,23.827369],[90.332207,23.82733],[90.332162,23.827301],[90.33212,23.827302],[90.33207,23.827288],[90.331754,23.827153],[90.331775,23.827065],[90.331825,23.826968],[90.331837,23.82693],[90.331851,23.826909],[90.331863,23.826914],[90.33191,23.826937],[90.332043,23.826993],[90.331995,23.827082],[90.33212,23.827142],[90.332149,23.827177],[90.332183,23.82718],[90.332226,23.82711],[90.332262,23.827068],[90.332323,23.827027],[90.332359,23.827007],[90.33251,23.826993],[90.332592,23.827006],[90.332812,23.827071],[90.332792,23.827177],[90.332796,23.827244],[90.3328,23.827302],[90.332747,23.827425]]]}},{"type":"Feature","properties":{"survey":"bds","sheet":"010","dag":"4518","label_bn":"4518","area_sqm":730.6},"geometry":{"type":"Polygon","coordinates":[[[90.332475,23.827381],[90.332362,23.827623],[90.332111,23.82754],[90.332207,23.82733],[90.332362,23.827369],[90.332475,23.827381]]]}},{"type":"Feature","properties":{"survey":"bds","sheet":"010","dag":"4528","label_bn":"4528","area_sqm":874.2},"geometry":{"type":"Polygon","coordinates":[[[90.333627,23.827626],[90.333626,23.827628],[90.33318,23.827534],[90.333184,23.827527],[90.333247,23.82741],[90.333702,23.827427],[90.3337,23.827434],[90.333627,23.827626]]]}},{"type":"Feature","properties":{"survey":"bds","sheet":"010","dag":"4527","label_bn":"4527","area_sqm":507.6},"geometry":{"type":"Polygon","coordinates":[[[90.333626,23.827628],[90.33358,23.82772],[90.333129,23.827621],[90.33318,23.827534],[90.333626,23.827628]]]}},{"type":"Feature","properties":{"survey":"bds","sheet":"010","dag":"4524","label_bn":"4524","area_sqm":4458.1},"geometry":{"type":"Polygon","coordinates":[[[90.332849,23.828125],[90.33284,23.82814],[90.332466,23.827963],[90.332514,23.827864],[90.332589,23.827748],[90.332613,23.827695],[90.33263,23.827668],[90.332713,23.827493],[90.33272,23.827472],[90.332747,23.827425],[90.3328,23.827302],[90.332796,23.827244],[90.332792,23.827177],[90.333243,23.827276],[90.333252,23.827309],[90.333235,23.827381],[90.333247,23.82741],[90.333184,23.827527],[90.33318,23.827534],[90.333129,23.827621],[90.333109,23.827657],[90.33304,23.827796],[90.33302,23.827842],[90.332971,23.827917],[90.332932,23.827978],[90.332915,23.828014],[90.332849,23.828125]]]}},{"type":"Feature","properties":{"survey":"bds","sheet":"010","dag":"4522","label_bn":"4522","area_sqm":176.4},"geometry":{"type":"Polygon","coordinates":[[[90.33261,23.828129],[90.332575,23.828196],[90.332389,23.828108],[90.332415,23.828059],[90.332423,23.828043],[90.332424,23.828041],[90.33261,23.828129]]]}},{"type":"Feature","properties":{"survey":"bds","sheet":"010","dag":"4523","label_bn":"4523","area_sqm":413.9},"geometry":{"type":"Polygon","coordinates":[[[90.332808,23.828199],[90.332798,23.828219],[90.33261,23.828129],[90.332424,23.828041],[90.332456,23.827982],[90.332457,23.82798],[90.332466,23.827963],[90.33284,23.82814],[90.332829,23.828158],[90.332808,23.828199]]]}},{"type":"Feature","properties":{"survey":"bds","sheet":"010","dag":"4521","label_bn":"4521","area_sqm":177.1},"geometry":{"type":"Polygon","coordinates":[[[90.332773,23.828263],[90.332761,23.828284],[90.332575,23.828196],[90.33261,23.828129],[90.332798,23.828219],[90.332792,23.828231],[90.332773,23.828263]]]}},{"type":"Feature","properties":{"survey":"bds","sheet":"010","dag":"4519","label_bn":"4519","area_sqm":2841.5},"geometry":{"type":"Polygon","coordinates":[[[90.332291,23.828296],[90.33223,23.828414],[90.332036,23.828335],[90.332362,23.827624],[90.332362,23.827623],[90.332475,23.827381],[90.33272,23.827472],[90.332713,23.827493],[90.33263,23.827668],[90.332613,23.827695],[90.332589,23.827748],[90.332514,23.827864],[90.332466,23.827963],[90.332457,23.82798],[90.332456,23.827982],[90.332424,23.828041],[90.332423,23.828043],[90.332415,23.828059],[90.332389,23.828108],[90.332381,23.828123],[90.332354,23.828175],[90.332346,23.828189],[90.332291,23.828296]]]}},{"type":"Feature","properties":{"survey":"bds","sheet":"010","dag":"4520","label_bn":"4520","area_sqm":1436.7},"geometry":{"type":"Polygon","coordinates":[[[90.332638,23.828491],[90.332607,23.828532],[90.33223,23.828414],[90.332291,23.828296],[90.332346,23.828189],[90.332354,23.828175],[90.332381,23.828123],[90.332389,23.828108],[90.332575,23.828196],[90.332761,23.828284],[90.332736,23.828328],[90.33272,23.828349],[90.332673,23.828418],[90.332638,23.828491]]]}},{"type":"Feature","properties":{"survey":"bds","sheet":"010","dag":"4506","label_bn":"4506","area_sqm":3050.2},"geometry":{"type":"Polygon","coordinates":[[[90.330957,23.828574],[90.330944,23.828616],[90.330917,23.828609],[90.330838,23.828568],[90.330906,23.828415],[90.330953,23.828272],[90.330978,23.828159],[90.330987,23.828074],[90.330999,23.828004],[90.33149,23.826815],[90.331631,23.826516],[90.331642,23.826495],[90.331691,23.826402],[90.3317,23.826387],[90.331751,23.826296],[90.331796,23.826366],[90.331737,23.826499],[90.331687,23.826585],[90.331602,23.826753],[90.331548,23.826915],[90.331521,23.826971],[90.331501,23.827054],[90.331326,23.827545],[90.33126,23.827703],[90.331155,23.828018],[90.331057,23.828325],[90.330957,23.828574]]]}},{"type":"Feature","properties":{"survey":"bds","sheet":"010","dag":"4501","label_bn":"4501","area_sqm":3012.6},"geometry":{"type":"Polygon","coordinates":[[[90.331049,23.827652],[90.330652,23.828628],[90.330529,23.828548],[90.330703,23.828242],[90.330765,23.828076],[90.330824,23.82794],[90.330892,23.827747],[90.330906,23.827697],[90.330946,23.827606],[90.331152,23.827101],[90.331173,23.82699],[90.331325,23.826668],[90.331325,23.826667],[90.33145,23.826412],[90.331454,23.826406],[90.331553,23.826453],[90.33154,23.826476],[90.331448,23.826664],[90.331275,23.827081],[90.331261,23.827138],[90.331049,23.827652]]]}},{"type":"Feature","properties":{"survey":"bds","sheet":"010","dag":"4507","label_bn":"4507","area_sqm":4842.1},"geometry":{"type":"Polygon","coordinates":[[[90.331189,23.828574],[90.331146,23.828672],[90.330944,23.828616],[90.330957,23.828574],[90.331057,23.828325],[90.331155,23.828018],[90.33126,23.827703],[90.331326,23.827545],[90.331501,23.827054],[90.331521,23.826971],[90.331775,23.827065],[90.331754,23.827153],[90.331721,23.827289],[90.33163,23.827526],[90.331569,23.827646],[90.33154,23.827699],[90.331459,23.827885],[90.331366,23.828098],[90.331295,23.828288],[90.331232,23.828459],[90.331189,23.828574]]]}},{"type":"Feature","properties":{"survey":"bds","sheet":"010","dag":"4525","label_bn":"4525","area_sqm":5408.7},"geometry":{"type":"Polygon","coordinates":[[[90.333013,23.828622],[90.332966,23.828688],[90.332569,23.828608],[90.332607,23.828532],[90.332638,23.828491],[90.332673,23.828418],[90.33272,23.828349],[90.332736,23.828328],[90.332761,23.828284],[90.332773,23.828263],[90.332792,23.828231],[90.332798,23.828219],[90.332808,23.828199],[90.332829,23.828158],[90.33284,23.82814],[90.332849,23.828125],[90.332915,23.828014],[90.332932,23.827978],[90.332971,23.827917],[90.33302,23.827842],[90.33304,23.827796],[90.333109,23.827657],[90.333129,23.827621],[90.33358,23.82772],[90.333547,23.827785],[90.333537,23.827795],[90.333435,23.827978],[90.333427,23.827996],[90.333318,23.828175],[90.333313,23.828178],[90.333181,23.828381],[90.333102,23.828498],[90.333091,23.828513],[90.333013,23.828622]]]}},{"type":"Feature","properties":{"survey":"bds","sheet":"010","dag":"4505","label_bn":"4505","area_sqm":2830.1},"geometry":{"type":"Polygon","coordinates":[[[90.330838,23.828568],[90.330772,23.828688],[90.330652,23.828628],[90.331049,23.827652],[90.331261,23.827138],[90.331275,23.827081],[90.331448,23.826664],[90.33154,23.826476],[90.331553,23.826453],[90.331642,23.826495],[90.331631,23.826516],[90.33149,23.826815],[90.330999,23.828004],[90.330987,23.828074],[90.330978,23.828159],[90.330953,23.828272],[90.330906,23.828415],[90.330838,23.828568]]]}},{"type":"Feature","properties":{"survey":"bds","sheet":"010","dag":"4517","label_bn":"4517","area_sqm":5574.1},"geometry":{"type":"Polygon","coordinates":[[[90.331971,23.828501],[90.331882,23.828715],[90.331645,23.828606],[90.331525,23.828551],[90.331669,23.828216],[90.331722,23.8281],[90.331786,23.827931],[90.331927,23.827612],[90.331983,23.827498],[90.33206,23.82732],[90.33207,23.827288],[90.33212,23.827302],[90.332162,23.827301],[90.332207,23.82733],[90.332111,23.82754],[90.332362,23.827623],[90.332362,23.827624],[90.332036,23.828335],[90.331971,23.828501]]]}},{"type":"Feature","properties":{"survey":"bds","sheet":"010","dag":"4516","label_bn":"4516","area_sqm":5820.2},"geometry":{"type":"Polygon","coordinates":[[[90.331525,23.828551],[90.33143,23.828763],[90.331146,23.828672],[90.331189,23.828574],[90.331232,23.828459],[90.331295,23.828288],[90.331366,23.828098],[90.331459,23.827885],[90.33154,23.827699],[90.331569,23.827646],[90.33163,23.827526],[90.331721,23.827289],[90.331754,23.827153],[90.33207,23.827288],[90.33206,23.82732],[90.331983,23.827498],[90.331927,23.827612],[90.331786,23.827931],[90.331722,23.8281],[90.331669,23.828216],[90.331525,23.828551]]]}},{"type":"Feature","properties":{"survey":"bds","sheet":"010","dag":"4526","label_bn":"4526","area_sqm":2669.3},"geometry":{"type":"Polygon","coordinates":[[[90.333382,23.8286],[90.33325,23.828814],[90.332966,23.828688],[90.333013,23.828622],[90.333091,23.828513],[90.333102,23.828498],[90.333181,23.828381],[90.333313,23.828178],[90.333318,23.828175],[90.333427,23.827996],[90.333435,23.827978],[90.333668,23.828094],[90.333583,23.828264],[90.333451,23.828461],[90.333382,23.8286]]]}}]}