{"type":"FeatureCollection","features":[{"type":"Feature","properties":{"survey":"bds","sheet":"011","dag":"5034","label_bn":"5034","area_sqm":106.4},"geometry":{"type":"Polygon","coordinates":[[[90.334576,23.822958],[90.334533,23.823006],[90.334533,23.822977],[90.334535,23.822924],[90.334542,23.82288],[90.334559,23.822853],[90.334561,23.82285],[90.334662,23.822857],[90.334576,23.822958]]]}},{"type":"Feature","properties":{"survey":"bds","sheet":"011","dag":"5021","label_bn":"5021","area_sqm":607.9},"geometry":{"type":"Polygon","coordinates":[[[90.330581,23.82274],[90.330602,23.823079],[90.330426,23.823077],[90.330455,23.822705],[90.330581,23.82274]]]}},{"type":"Feature","properties":{"survey":"bds","sheet":"011","dag":"5022","label_bn":"5022","area_sqm":1277.5},"geometry":{"type":"Polygon","coordinates":[[[90.330933,23.822804],[90.330958,23.823107],[90.330602,23.823079],[90.330581,23.82274],[90.330933,23.822804]]]}},{"type":"Feature","properties":{"survey":"bds","sheet":"011","dag":"5027","label_bn":"5027","area_sqm":2845.7},"geometry":{"type":"Polygon","coordinates":[[[90.332844,23.822706],[90.332843,23.823132],[90.332673,23.82313],[90.332244,23.823125],[90.332252,23.823116],[90.332264,23.822686],[90.332286,23.822684],[90.332606,23.822702],[90.332825,23.822718],[90.332844,23.822706]]]}},{"type":"Feature","properties":{"survey":"bds","sheet":"011","dag":"5028","label_bn":"5028","area_sqm":2846.3},"geometry":{"type":"Polygon","coordinates":[[[90.333415,23.822847],[90.333265,23.823135],[90.332843,23.823132],[90.332844,23.822706],[90.332866,23.822691],[90.332894,23.822673],[90.333032,23.822633],[90.333088,23.822626],[90.333151,23.822629],[90.333246,23.822665],[90.333345,23.822692],[90.333446,23.822714],[90.33343,23.822765],[90.333424,23.822776],[90.333422,23.822794],[90.333422,23.822796],[90.33342,23.822813],[90.333415,23.822847]]]}},{"type":"Feature","properties":{"survey":"bds","sheet":"011","dag":"5033","label_bn":"5033","area_sqm":5475.4},"geometry":{"type":"Polygon","coordinates":[[[90.33456,23.823123],[90.334259,23.823266],[90.334214,23.823226],[90.334055,23.823211],[90.333827,23.82321],[90.333583,23.823223],[90.333498,23.823223],[90.333202,23.823258],[90.333206,23.82325],[90.333265,23.823135],[90.333415,23.822847],[90.33342,23.822813],[90.333422,23.822796],[90.33397,23.822825],[90.333971,23.822809],[90.33402,23.822812],[90.334246,23.822828],[90.33427,23.822825],[90.334558,23.82285],[90.334561,23.82285],[90.334559,23.822853],[90.334542,23.82288],[90.334535,23.822924],[90.334533,23.822977],[90.334533,23.823006],[90.334513,23.823028],[90.33451,23.823067],[90.33456,23.823123]]]}},{"type":"Feature","properties":{"survey":"bds","sheet":"011","dag":"5029","label_bn":"5029","area_sqm":1422.8},"geometry":{"type":"Polygon","coordinates":[[[90.333202,23.823258],[90.333145,23.823369],[90.33267,23.823367],[90.332673,23.82313],[90.332843,23.823132],[90.333265,23.823135],[90.333206,23.82325],[90.333202,23.823258]]]}},{"type":"Feature","properties":{"survey":"bds","sheet":"011","dag":"5023","label_bn":"5023","area_sqm":3291.7},"geometry":{"type":"Polygon","coordinates":[[[90.33127,23.823403],[90.331311,23.823574],[90.331124,23.823526],[90.330971,23.823523],[90.330977,23.823436],[90.330958,23.823107],[90.330933,23.822804],[90.33093,23.822687],[90.331195,23.822682],[90.331314,23.822674],[90.331324,23.822672],[90.33127,23.823403]]]}},{"type":"Feature","properties":{"survey":"bds","sheet":"011","dag":"5024","label_bn":"5024","area_sqm":5042.4},"geometry":{"type":"Polygon","coordinates":[[[90.331762,23.823574],[90.331761,23.82359],[90.331311,23.823574],[90.33127,23.823403],[90.331324,23.822672],[90.331569,23.822645],[90.331789,23.822642],[90.331786,23.822717],[90.331762,23.823574]]]}},{"type":"Feature","properties":{"survey":"bds","sheet":"011","dag":"5025","label_bn":"5025","area_sqm":4569.3},"geometry":{"type":"Polygon","coordinates":[[[90.33198,23.823574],[90.331873,23.823605],[90.331867,23.823604],[90.331762,23.823574],[90.331786,23.822717],[90.332264,23.822686],[90.332252,23.823116],[90.332244,23.823125],[90.33222,23.823151],[90.332194,23.823579],[90.33213,23.823569],[90.33198,23.823574]]]}},{"type":"Feature","properties":{"survey":"bds","sheet":"011","dag":"5026","label_bn":"5026","area_sqm":2846.1},"geometry":{"type":"Polygon","coordinates":[[[90.33267,23.823367],[90.332667,23.823672],[90.332194,23.823665],[90.332194,23.823579],[90.33222,23.823151],[90.332244,23.823125],[90.332673,23.82313],[90.33267,23.823367]]]}},{"type":"Feature","properties":{"survey":"bds","sheet":"011","dag":"5030","label_bn":"5030","area_sqm":1423.5},"geometry":{"type":"Polygon","coordinates":[[[90.3331,23.823664],[90.332667,23.823672],[90.33267,23.823367],[90.333145,23.823369],[90.333044,23.823565],[90.3331,23.823664]]]}},{"type":"Feature","properties":{"survey":"bds","sheet":"011","dag":"5019","label_bn":"5019","area_sqm":1422.6},"geometry":{"type":"Polygon","coordinates":[[[90.331311,23.823574],[90.331337,23.823904],[90.330946,23.823861],[90.330971,23.823523],[90.331124,23.823526],[90.331311,23.823574]]]}},{"type":"Feature","properties":{"survey":"bds","sheet":"011","dag":"5032","label_bn":"5032","area_sqm":1304.2},"geometry":{"type":"Polygon","coordinates":[[[90.334492,23.823857],[90.334482,23.823926],[90.334349,23.823906],[90.334359,23.823789],[90.334361,23.82369],[90.334349,23.823567],[90.334319,23.823374],[90.33429,23.823307],[90.334259,23.823266],[90.33456,23.823123],[90.334585,23.823151],[90.334522,23.823199],[90.334486,23.823267],[90.334492,23.823857]]]}},{"type":"Feature","properties":{"survey":"bds","sheet":"011","dag":"5031","label_bn":"5031","area_sqm":9585.1},"geometry":{"type":"Polygon","coordinates":[[[90.333309,23.823959],[90.333298,23.823966],[90.333173,23.823796],[90.3331,23.823664],[90.333044,23.823565],[90.333145,23.823369],[90.333202,23.823258],[90.333498,23.823223],[90.333583,23.823223],[90.333827,23.82321],[90.334055,23.823211],[90.334214,23.823226],[90.334259,23.823266],[90.33429,23.823307],[90.334319,23.823374],[90.334349,23.823567],[90.334361,23.82369],[90.334359,23.823789],[90.334349,23.823906],[90.334264,23.82391],[90.333309,23.823959]]]}},{"type":"Feature","properties":{"survey":"bds","sheet":"011","dag":"5018","label_bn":"5018","area_sqm":1831.5},"geometry":{"type":"Polygon","coordinates":[[[90.33135,23.824236],[90.331352,23.824299],[90.331167,23.824257],[90.330944,23.82424],[90.33092,23.82422],[90.330902,23.824197],[90.330932,23.823859],[90.330946,23.823861],[90.331337,23.823904],[90.33135,23.824236]]]}},{"type":"Feature","properties":{"survey":"bds","sheet":"011","dag":"5015","label_bn":"5015","area_sqm":4308.6},"geometry":{"type":"Polygon","coordinates":[[[90.331867,23.823604],[90.331849,23.824385],[90.331361,23.824236],[90.33135,23.824236],[90.331337,23.823904],[90.331311,23.823574],[90.331761,23.82359],[90.331762,23.823574],[90.331867,23.823604]]]}},{"type":"Feature","properties":{"survey":"bds","sheet":"011","dag":"5014","label_bn":"5014","area_sqm":12026.5},"geometry":{"type":"Polygon","coordinates":[[[90.333333,23.824383],[90.333236,23.824417],[90.331849,23.824385],[90.331867,23.823604],[90.331873,23.823605],[90.33198,23.823574],[90.33213,23.823569],[90.332194,23.823579],[90.332194,23.823665],[90.332667,23.823672],[90.3331,23.823664],[90.333173,23.823796],[90.333298,23.823966],[90.333302,23.823971],[90.333294,23.823984],[90.333333,23.824383]]]}},{"type":"Feature","properties":{"survey":"bds","sheet":"011","dag":"5017","label_bn":"5017","area_sqm":756.3},"geometry":{"type":"Polygon","coordinates":[[[90.331352,23.824299],[90.331256,23.824444],[90.330869,23.824391],[90.330944,23.82424],[90.331167,23.824257],[90.331352,23.824299]]]}},{"type":"Feature","properties":{"survey":"bds","sheet":"011","dag":"5016","label_bn":"5016","area_sqm":953.0},"geometry":{"type":"Polygon","coordinates":[[[90.331849,23.824385],[90.331843,23.824482],[90.331503,23.824457],[90.331256,23.824444],[90.331352,23.824299],[90.33135,23.824236],[90.331361,23.824236],[90.331849,23.824385]]]}},{"type":"Feature","properties":{"survey":"bds","sheet":"011","dag":"5005","label_bn":"5005","area_sqm":724.1},"geometry":{"type":"Polygon","coordinates":[[[90.331256,23.824444],[90.33123,23.824583],[90.331108,23.824577],[90.330929,23.824558],[90.330778,23.824532],[90.330852,23.82443],[90.330869,23.824391],[90.331256,23.824444]]]}},{"type":"Feature","properties":{"survey":"bds","sheet":"011","dag":"5012","label_bn":"5012","area_sqm":2256.7},"geometry":{"type":"Polygon","coordinates":[[[90.334387,23.824551],[90.334387,23.82462],[90.334269,23.824554],[90.33425,23.824549],[90.334135,23.824495],[90.334264,23.82391],[90.334349,23.823906],[90.334482,23.823926],[90.334472,23.824077],[90.334581,23.824092],[90.334447,23.824546],[90.334387,23.824551]]]}},{"type":"Feature","properties":{"survey":"bds","sheet":"011","dag":"5020","label_bn":"5020","area_sqm":9796.2},"geometry":{"type":"Polygon","coordinates":[[[90.330717,23.82456],[90.330446,23.824642],[90.330281,23.824543],[90.330198,23.824475],[90.330121,23.824428],[90.330199,23.824261],[90.330243,23.82419],[90.330485,23.823597],[90.330478,23.823489],[90.330426,23.823088],[90.330426,23.823077],[90.330602,23.823079],[90.330958,23.823107],[90.330977,23.823436],[90.330971,23.823523],[90.330946,23.823861],[90.330932,23.823859],[90.330902,23.824197],[90.33092,23.82422],[90.330944,23.82424],[90.330869,23.824391],[90.330852,23.82443],[90.330778,23.824532],[90.330717,23.82456]]]}},{"type":"Feature","properties":{"survey":"bds","sheet":"011","dag":"5004","label_bn":"5004","area_sqm":653.5},"geometry":{"type":"Polygon","coordinates":[[[90.33123,23.824583],[90.331257,23.824699],[90.330794,23.824665],[90.330717,23.82456],[90.330778,23.824532],[90.330929,23.824558],[90.331108,23.824577],[90.33123,23.824583]]]}},{"type":"Feature","properties":{"survey":"bds","sheet":"011","dag":"5009","label_bn":"5009","area_sqm":5903.9},"geometry":{"type":"Polygon","coordinates":[[[90.333416,23.824348],[90.333651,23.824715],[90.331815,23.824691],[90.331825,23.824645],[90.331843,23.824482],[90.331849,23.824385],[90.333236,23.824417],[90.333333,23.824383],[90.333367,23.824371],[90.333395,23.824358],[90.333416,23.824348]]]}},{"type":"Feature","properties":{"survey":"bds","sheet":"011","dag":"5013","label_bn":"5013","area_sqm":6107.9},"geometry":{"type":"Polygon","coordinates":[[[90.333867,23.824616],[90.333651,23.824715],[90.333416,23.824348],[90.333395,23.824358],[90.333367,23.824371],[90.333333,23.824383],[90.333294,23.823984],[90.333302,23.823971],[90.333298,23.823966],[90.333309,23.823959],[90.334264,23.82391],[90.334135,23.824495],[90.334,23.824513],[90.333867,23.824616]]]}},{"type":"Feature","properties":{"survey":"bds","sheet":"011","dag":"5006","label_bn":"5006","area_sqm":724.5},"geometry":{"type":"Polygon","coordinates":[[[90.331503,23.824457],[90.331484,23.824714],[90.331271,23.824697],[90.331257,23.824699],[90.33123,23.824583],[90.331256,23.824444],[90.331503,23.824457]]]}},{"type":"Feature","properties":{"survey":"bds","sheet":"011","dag":"5008","label_bn":"5008","area_sqm":974.6},"geometry":{"type":"Polygon","coordinates":[[[90.331815,23.824691],[90.331804,23.824737],[90.331484,23.824714],[90.331503,23.824457],[90.331843,23.824482],[90.331825,23.824645],[90.331815,23.824691]]]}},{"type":"Feature","properties":{"survey":"bds","sheet":"011","dag":"5003","label_bn":"5003","area_sqm":417.1},"geometry":{"type":"Polygon","coordinates":[[[90.330794,23.824665],[90.330575,23.824752],[90.330506,23.824714],[90.330476,23.824689],[90.330446,23.824642],[90.330717,23.82456],[90.330794,23.824665]]]}},{"type":"Feature","properties":{"survey":"bds","sheet":"011","dag":"5011","label_bn":"5011","area_sqm":1323.9},"geometry":{"type":"Polygon","coordinates":[[[90.334387,23.824628],[90.333609,23.824853],[90.333651,23.824715],[90.333867,23.824616],[90.334,23.824513],[90.334135,23.824495],[90.33425,23.824549],[90.334269,23.824554],[90.334387,23.82462],[90.334387,23.824628]]]}},{"type":"Feature","properties":{"survey":"bds","sheet":"011","dag":"5007","label_bn":"5007","area_sqm":1509.6},"geometry":{"type":"Polygon","coordinates":[[[90.331763,23.82499],[90.331413,23.82501],[90.331386,23.824975],[90.331324,23.824895],[90.331304,23.824897],[90.331287,23.824836],[90.331271,23.824697],[90.331484,23.824714],[90.331804,23.824737],[90.331772,23.82496],[90.331763,23.82499]]]}},{"type":"Feature","properties":{"survey":"bds","sheet":"011","dag":"5001","label_bn":"5001","area_sqm":1337.5},"geometry":{"type":"Polygon","coordinates":[[[90.330512,23.82484],[90.330356,23.825026],[90.330274,23.824967],[90.330115,23.824915],[90.330281,23.824543],[90.330446,23.824642],[90.330476,23.824689],[90.330506,23.824714],[90.330575,23.824752],[90.330583,23.824784],[90.330512,23.82484]]]}},{"type":"Feature","properties":{"survey":"bds","sheet":"011","dag":"5010","label_bn":"5010","area_sqm":6198.0},"geometry":{"type":"Polygon","coordinates":[[[90.333609,23.824853],[90.333546,23.82504],[90.33336,23.825017],[90.33308,23.824975],[90.332883,23.824981],[90.332611,23.82501],[90.332399,23.825016],[90.332171,23.825026],[90.331991,23.824989],[90.331763,23.82499],[90.331772,23.82496],[90.331804,23.824737],[90.331815,23.824691],[90.333651,23.824715],[90.333609,23.824853]]]}},{"type":"Feature","properties":{"survey":"bds","sheet":"011","dag":"5002","label_bn":"5002","area_sqm":2483.8},"geometry":{"type":"Polygon","coordinates":[[[90.330488,23.825056],[90.330395,23.825081],[90.330381,23.825061],[90.330356,23.825026],[90.330512,23.82484],[90.330583,23.824784],[90.330575,23.824752],[90.330794,23.824665],[90.331257,23.824699],[90.331271,23.824697],[90.331287,23.824836],[90.331304,23.824897],[90.331003,23.824937],[90.330888,23.824954],[90.330618,23.825002],[90.330544,23.825044],[90.330488,23.825056]]]}}]}