{"type":"FeatureCollection","features":[{"type":"Feature","properties":{"survey":"bds","sheet":"012","dag":"5512","label_bn":"5512","area_sqm":269.5},"geometry":{"type":"Polygon","coordinates":[[[90.327843,23.822832],[90.327698,23.822844],[90.327695,23.822833],[90.327683,23.822763],[90.32778,23.822735],[90.327852,23.822747],[90.328034,23.822807],[90.328073,23.822815],[90.328006,23.822818],[90.327843,23.822832]]]}},{"type":"Feature","properties":{"survey":"bds","sheet":"012","dag":"5511","label_bn":"5511","area_sqm":100.6},"geometry":{"type":"Polygon","coordinates":[[[90.327681,23.822845],[90.32759,23.822849],[90.327583,23.82284],[90.32755,23.822795],[90.327542,23.822789],[90.327568,23.822788],[90.327683,23.822763],[90.327695,23.822833],[90.327698,23.822844],[90.327681,23.822845]]]}},{"type":"Feature","properties":{"survey":"bds","sheet":"012","dag":"5533","label_bn":"5533","area_sqm":2866.4},"geometry":{"type":"Polygon","coordinates":[[[90.330455,23.822705],[90.330426,23.823088],[90.330399,23.823087],[90.329829,23.823073],[90.329889,23.822657],[90.329978,23.822641],[90.330087,23.822622],[90.330092,23.822622],[90.33022,23.822626],[90.33026,23.822639],[90.330455,23.822705]]]}},{"type":"Feature","properties":{"survey":"bds","sheet":"012","dag":"5507","label_bn":"5507","area_sqm":1699.9},"geometry":{"type":"Polygon","coordinates":[[[90.326448,23.823357],[90.326379,23.823423],[90.326372,23.823413],[90.326347,23.823388],[90.326214,23.823257],[90.326185,23.823238],[90.326185,23.823238],[90.326199,23.823221],[90.326214,23.823219],[90.326233,23.823216],[90.32625,23.823213],[90.326319,23.823193],[90.326439,23.823121],[90.326511,23.823063],[90.326562,23.823021],[90.326748,23.822887],[90.326814,23.822826],[90.326994,23.822689],[90.327021,23.822813],[90.327031,23.822859],[90.326846,23.822963],[90.326593,23.823205],[90.326453,23.823353],[90.326448,23.823357]]]}},{"type":"Feature","properties":{"survey":"bds","sheet":"012","dag":"5532","label_bn":"5532","area_sqm":3597.0},"geometry":{"type":"Polygon","coordinates":[[[90.330478,23.823489],[90.330485,23.823597],[90.330382,23.823572],[90.330379,23.823572],[90.329839,23.823571],[90.329838,23.823555],[90.329834,23.823462],[90.329824,23.823432],[90.329817,23.823431],[90.329782,23.823424],[90.329823,23.823119],[90.329829,23.823073],[90.330399,23.823087],[90.330426,23.823088],[90.330478,23.823489]]]}},{"type":"Feature","properties":{"survey":"bds","sheet":"012","dag":"5513","label_bn":"5513","area_sqm":9187.9},"geometry":{"type":"Polygon","coordinates":[[[90.327859,23.823743],[90.327701,23.823767],[90.327697,23.823729],[90.327693,23.823701],[90.327691,23.823557],[90.327693,23.823428],[90.327701,23.823216],[90.327709,23.823011],[90.327713,23.822905],[90.327698,23.822844],[90.327843,23.822832],[90.328006,23.822818],[90.328073,23.822815],[90.32817,23.822834],[90.328227,23.822826],[90.328284,23.822824],[90.328317,23.822803],[90.328333,23.822794],[90.328388,23.822787],[90.328436,23.822798],[90.328456,23.822802],[90.328517,23.822816],[90.328523,23.82284],[90.328571,23.822936],[90.328546,23.823001],[90.32856,23.823145],[90.328565,23.823238],[90.32859,23.823708],[90.328591,23.823713],[90.328594,23.82376],[90.328569,23.823767],[90.328566,23.823768],[90.328379,23.823751],[90.328257,23.823745],[90.328105,23.823766],[90.327985,23.823744],[90.327908,23.823743],[90.327859,23.823743]]]}},{"type":"Feature","properties":{"survey":"bds","sheet":"012","dag":"5510","label_bn":"5510","area_sqm":1059.0},"geometry":{"type":"Polygon","coordinates":[[[90.327701,23.823767],[90.327618,23.823785],[90.327615,23.823747],[90.327604,23.823608],[90.327603,23.823435],[90.327592,23.823104],[90.327594,23.823021],[90.327593,23.822959],[90.327583,23.82284],[90.32759,23.822849],[90.327681,23.822845],[90.327698,23.822844],[90.327713,23.822905],[90.327709,23.823011],[90.327701,23.823216],[90.327693,23.823428],[90.327691,23.823557],[90.327693,23.823701],[90.327697,23.823729],[90.327701,23.823767]]]}},{"type":"Feature","properties":{"survey":"bds","sheet":"012","dag":"5506","label_bn":"5506","area_sqm":5757.6},"geometry":{"type":"Polygon","coordinates":[[[90.327241,23.823675],[90.326476,23.823789],[90.326467,23.823748],[90.326423,23.823583],[90.326413,23.823546],[90.326408,23.823522],[90.326402,23.823499],[90.326392,23.823455],[90.326389,23.82344],[90.326379,23.823423],[90.326448,23.823357],[90.326453,23.823353],[90.326593,23.823205],[90.326846,23.822963],[90.327031,23.822859],[90.32704,23.822896],[90.327175,23.82329],[90.327206,23.823364],[90.327211,23.823374],[90.327243,23.823574],[90.327242,23.823597],[90.327242,23.823626],[90.327241,23.823675]]]}},{"type":"Feature","properties":{"survey":"bds","sheet":"012","dag":"5522","label_bn":"5522","area_sqm":7256.3},"geometry":{"type":"Polygon","coordinates":[[[90.329175,23.82377],[90.329162,23.823802],[90.32907,23.823759],[90.329068,23.823759],[90.328832,23.82372],[90.328821,23.823722],[90.328594,23.82376],[90.328591,23.823713],[90.32859,23.823708],[90.328565,23.823238],[90.32856,23.823145],[90.328546,23.823001],[90.328571,23.822936],[90.328523,23.82284],[90.328517,23.822816],[90.328591,23.822774],[90.328804,23.822717],[90.328949,23.822697],[90.328951,23.822696],[90.329192,23.822675],[90.329181,23.82373],[90.329181,23.823734],[90.329175,23.82377]]]}},{"type":"Feature","properties":{"survey":"bds","sheet":"012","dag":"5509","label_bn":"5509","area_sqm":2384.3},"geometry":{"type":"Polygon","coordinates":[[[90.327496,23.82383],[90.327461,23.823834],[90.327454,23.82378],[90.327332,23.822839],[90.327332,23.822797],[90.327403,23.822792],[90.327542,23.822789],[90.32755,23.822795],[90.327583,23.82284],[90.327593,23.822959],[90.327594,23.823021],[90.327592,23.823104],[90.327603,23.823435],[90.327604,23.823608],[90.327615,23.823747],[90.327618,23.823785],[90.327559,23.823803],[90.327496,23.82383]]]}},{"type":"Feature","properties":{"survey":"bds","sheet":"012","dag":"5523","label_bn":"5523","area_sqm":4148.6},"geometry":{"type":"Polygon","coordinates":[[[90.329363,23.823777],[90.329262,23.823846],[90.329245,23.823839],[90.329162,23.823802],[90.329175,23.82377],[90.329181,23.823734],[90.329181,23.82373],[90.329192,23.822675],[90.329432,23.822627],[90.329546,23.822628],[90.329486,23.823417],[90.329476,23.823549],[90.329457,23.823733],[90.329451,23.823795],[90.329363,23.823777]]]}},{"type":"Feature","properties":{"survey":"bds","sheet":"012","dag":"5508","label_bn":"5508","area_sqm":2574.3},"geometry":{"type":"Polygon","coordinates":[[[90.327461,23.823834],[90.327347,23.823848],[90.327335,23.823847],[90.327324,23.823845],[90.327307,23.82384],[90.327301,23.823835],[90.327297,23.823833],[90.327297,23.823833],[90.327289,23.823827],[90.327271,23.823801],[90.327269,23.823798],[90.327249,23.823734],[90.327248,23.823729],[90.327242,23.823687],[90.327241,23.823682],[90.327241,23.823675],[90.327242,23.823626],[90.327242,23.823597],[90.327243,23.823574],[90.327211,23.823374],[90.327206,23.823364],[90.327175,23.82329],[90.32704,23.822896],[90.327084,23.822868],[90.327115,23.822847],[90.327207,23.822808],[90.327332,23.822797],[90.327332,23.822839],[90.327454,23.82378],[90.327461,23.823834]]]}},{"type":"Feature","properties":{"survey":"bds","sheet":"012","dag":"5524","label_bn":"5524","area_sqm":4378.4},"geometry":{"type":"Polygon","coordinates":[[[90.329707,23.823829],[90.329682,23.823869],[90.329533,23.823827],[90.329492,23.823816],[90.329451,23.823795],[90.329457,23.823733],[90.329476,23.823549],[90.329486,23.823417],[90.329546,23.822628],[90.329838,23.822653],[90.329889,23.822657],[90.329829,23.823073],[90.329823,23.823119],[90.329782,23.823424],[90.329817,23.823431],[90.329824,23.823432],[90.329834,23.823462],[90.329838,23.823555],[90.329839,23.823571],[90.32981,23.823642],[90.329754,23.823755],[90.329707,23.823829]]]}},{"type":"Feature","properties":{"survey":"bds","sheet":"012","dag":"5505","label_bn":"5505","area_sqm":1419.7},"geometry":{"type":"Polygon","coordinates":[[[90.327297,23.823833],[90.326511,23.823945],[90.326493,23.823869],[90.326484,23.823825],[90.326478,23.823799],[90.326476,23.823789],[90.327241,23.823675],[90.327241,23.823682],[90.327242,23.823687],[90.327248,23.823729],[90.327249,23.823734],[90.327269,23.823798],[90.327271,23.823801],[90.327289,23.823827],[90.327297,23.823833],[90.327297,23.823833]]]}},{"type":"Feature","properties":{"survey":"bds","sheet":"012","dag":"5515","label_bn":"5515","area_sqm":1095.9},"geometry":{"type":"Polygon","coordinates":[[[90.327904,23.823994],[90.327903,23.824022],[90.327748,23.824017],[90.3275,23.824006],[90.327509,23.823973],[90.327515,23.823956],[90.327513,23.823913],[90.327496,23.82383],[90.327559,23.823803],[90.327618,23.823785],[90.327701,23.823767],[90.327859,23.823743],[90.327908,23.823743],[90.327904,23.823994]]]}},{"type":"Feature","properties":{"survey":"bds","sheet":"012","dag":"5514","label_bn":"5514","area_sqm":2127.4},"geometry":{"type":"Polygon","coordinates":[[[90.328548,23.823913],[90.328487,23.824071],[90.328475,23.824069],[90.328369,23.824055],[90.328236,23.824046],[90.327994,23.824031],[90.327903,23.824022],[90.327904,23.823994],[90.327908,23.823743],[90.327985,23.823744],[90.328105,23.823766],[90.328257,23.823745],[90.328379,23.823751],[90.328566,23.823768],[90.328569,23.823767],[90.328594,23.82376],[90.328578,23.823844],[90.328548,23.823913]]]}},{"type":"Feature","properties":{"survey":"bds","sheet":"012","dag":"5504","label_bn":"5504","area_sqm":2195.4},"geometry":{"type":"Polygon","coordinates":[[[90.327175,23.824101],[90.326584,23.82418],[90.326563,23.824108],[90.326555,23.824081],[90.326542,23.824043],[90.326516,23.82397],[90.326516,23.823969],[90.326514,23.823962],[90.326511,23.823945],[90.327297,23.823833],[90.327301,23.823835],[90.327307,23.82384],[90.327324,23.823845],[90.327335,23.823847],[90.327332,23.824067],[90.327175,23.824101]]]}},{"type":"Feature","properties":{"survey":"bds","sheet":"012","dag":"5531","label_bn":"5531","area_sqm":5158.1},"geometry":{"type":"Polygon","coordinates":[[[90.330139,23.824391],[90.330121,23.824428],[90.330059,23.824399],[90.329808,23.824315],[90.32979,23.824251],[90.329682,23.823869],[90.329707,23.823829],[90.329754,23.823755],[90.32981,23.823642],[90.329839,23.823571],[90.330379,23.823572],[90.330382,23.823572],[90.330485,23.823597],[90.330482,23.823604],[90.330447,23.823691],[90.330243,23.82419],[90.330199,23.824261],[90.330139,23.824391]]]}},{"type":"Feature","properties":{"survey":"bds","sheet":"012","dag":"5503","label_bn":"5503","area_sqm":2805.5},"geometry":{"type":"Polygon","coordinates":[[[90.327312,23.824449],[90.326578,23.824461],[90.32658,23.824434],[90.326582,23.824416],[90.326585,23.824296],[90.326587,23.824211],[90.326587,23.824189],[90.326584,23.82418],[90.327175,23.824101],[90.327332,23.824067],[90.327345,23.824113],[90.32735,23.824153],[90.327353,23.824246],[90.327336,23.82437],[90.327328,23.82437],[90.327312,23.824449]]]}},{"type":"Feature","properties":{"survey":"bds","sheet":"012","dag":"5516","label_bn":"5516","area_sqm":5333.5},"geometry":{"type":"Polygon","coordinates":[[[90.32832,23.824481],[90.328315,23.824483],[90.327519,23.824399],[90.327517,23.824393],[90.327513,23.82438],[90.327336,23.82437],[90.327353,23.824246],[90.32735,23.824153],[90.327345,23.824113],[90.327332,23.824067],[90.327335,23.823847],[90.327347,23.823848],[90.327461,23.823834],[90.327496,23.82383],[90.327513,23.823913],[90.327515,23.823956],[90.327509,23.823973],[90.3275,23.824006],[90.327748,23.824017],[90.327903,23.824022],[90.327994,23.824031],[90.328236,23.824046],[90.328369,23.824055],[90.328475,23.824069],[90.328487,23.824071],[90.328447,23.824223],[90.328372,23.82443],[90.328341,23.824469],[90.32832,23.824481]]]}},{"type":"Feature","properties":{"survey":"bds","sheet":"012","dag":"5525","label_bn":"5525","area_sqm":3701.9},"geometry":{"type":"Polygon","coordinates":[[[90.329745,23.824404],[90.329719,23.824493],[90.329633,23.824475],[90.329402,23.824429],[90.329173,23.824382],[90.329171,23.824324],[90.329224,23.824131],[90.329219,23.824114],[90.329222,23.824081],[90.329262,23.823846],[90.329363,23.823777],[90.329451,23.823795],[90.329492,23.823816],[90.329533,23.823827],[90.329682,23.823869],[90.32979,23.824251],[90.329808,23.824315],[90.329768,23.824328],[90.329745,23.824404]]]}},{"type":"Feature","properties":{"survey":"bds","sheet":"012","dag":"5530","label_bn":"5530","area_sqm":893.2},"geometry":{"type":"Polygon","coordinates":[[[90.330059,23.824399],[90.32998,23.824647],[90.329713,23.82457],[90.3297,23.824566],[90.329706,23.82454],[90.329707,23.824534],[90.329719,23.824493],[90.329745,23.824404],[90.329768,23.824328],[90.329808,23.824315],[90.330059,23.824399]]]}},{"type":"Feature","properties":{"survey":"bds","sheet":"012","dag":"5519","label_bn":"5519","area_sqm":2115.9},"geometry":{"type":"Polygon","coordinates":[[[90.328832,23.82372],[90.328481,23.824654],[90.328476,23.824652],[90.328275,23.824609],[90.328272,23.824608],[90.328315,23.824483],[90.32832,23.824481],[90.328341,23.824469],[90.328372,23.82443],[90.328447,23.824223],[90.328487,23.824071],[90.328548,23.823913],[90.328578,23.823844],[90.328594,23.82376],[90.328821,23.823722],[90.328832,23.82372]]]}},{"type":"Feature","properties":{"survey":"bds","sheet":"012","dag":"5517","label_bn":"5517","area_sqm":1916.5},"geometry":{"type":"Polygon","coordinates":[[[90.328246,23.824681],[90.328241,23.824696],[90.328221,23.824692],[90.328211,23.82469],[90.327303,23.824496],[90.327306,23.824479],[90.327312,23.824449],[90.327328,23.82437],[90.327336,23.82437],[90.327513,23.82438],[90.327517,23.824393],[90.327519,23.824399],[90.328315,23.824483],[90.328272,23.824608],[90.328246,23.824681]]]}},{"type":"Feature","properties":{"survey":"bds","sheet":"012","dag":"5501","label_bn":"5501","area_sqm":4467.6},"geometry":{"type":"Polygon","coordinates":[[[90.3265,23.824699],[90.326484,23.824763],[90.3257,23.824606],[90.32564,23.824594],[90.325692,23.82457],[90.325822,23.824504],[90.325878,23.824472],[90.32588,23.824472],[90.325944,23.824429],[90.326008,23.824381],[90.326015,23.824371],[90.326037,23.82434],[90.326058,23.824304],[90.326062,23.824269],[90.326063,23.824201],[90.326058,23.824152],[90.326046,23.824096],[90.326094,23.824091],[90.326542,23.824043],[90.326555,23.824081],[90.326563,23.824108],[90.326584,23.82418],[90.326587,23.824189],[90.326587,23.824211],[90.326585,23.824296],[90.326582,23.824416],[90.32658,23.824434],[90.326578,23.824461],[90.326577,23.824473],[90.326575,23.824494],[90.326556,23.82453],[90.32652,23.82462],[90.3265,23.824699]]]}},{"type":"Feature","properties":{"survey":"bds","sheet":"012","dag":"5518","label_bn":"5518","area_sqm":813.8},"geometry":{"type":"Polygon","coordinates":[[[90.32846,23.824718],[90.328386,23.824947],[90.328153,23.824909],[90.328221,23.824692],[90.328241,23.824696],[90.328246,23.824681],[90.328272,23.824608],[90.328275,23.824609],[90.328476,23.824652],[90.328481,23.824654],[90.328475,23.824669],[90.32846,23.824718]]]}},{"type":"Feature","properties":{"survey":"bds","sheet":"012","dag":"5520","label_bn":"5520","area_sqm":4535.4},"geometry":{"type":"Polygon","coordinates":[[[90.328815,23.824742],[90.328739,23.825006],[90.328402,23.82495],[90.328386,23.824947],[90.32846,23.824718],[90.328475,23.824669],[90.328481,23.824654],[90.328832,23.82372],[90.329068,23.823759],[90.32907,23.823759],[90.329053,23.823828],[90.329038,23.823889],[90.329003,23.824028],[90.329004,23.824066],[90.328931,23.824323],[90.328846,23.824627],[90.328815,23.824742]]]}},{"type":"Feature","properties":{"survey":"bds","sheet":"012","dag":"5521","label_bn":"5521","area_sqm":3619.4},"geometry":{"type":"Polygon","coordinates":[[[90.329064,23.825031],[90.32905,23.825078],[90.328956,23.825056],[90.32875,23.825008],[90.328739,23.825006],[90.328815,23.824742],[90.328846,23.824627],[90.328931,23.824323],[90.329004,23.824066],[90.329003,23.824028],[90.329038,23.823889],[90.329053,23.823828],[90.32907,23.823759],[90.329162,23.823802],[90.329245,23.823839],[90.329262,23.823846],[90.329222,23.824081],[90.329219,23.824114],[90.329224,23.824131],[90.329171,23.824324],[90.329173,23.824382],[90.329173,23.824428],[90.329155,23.824475],[90.329086,23.824772],[90.329047,23.824979],[90.329044,23.824994],[90.329064,23.825028],[90.329064,23.825028],[90.329064,23.825031]]]}},{"type":"Feature","properties":{"survey":"bds","sheet":"012","dag":"5529","label_bn":"5529","area_sqm":1634.1},"geometry":{"type":"Polygon","coordinates":[[[90.330101,23.82491],[90.330013,23.825112],[90.329984,23.825103],[90.329852,23.825064],[90.32987,23.825007],[90.32998,23.824647],[90.330059,23.824399],[90.330121,23.824428],[90.330198,23.824475],[90.330281,23.824543],[90.330139,23.824861],[90.330115,23.824915],[90.330101,23.82491]]]}},{"type":"Feature","properties":{"survey":"bds","sheet":"012","dag":"5526","label_bn":"5526","area_sqm":3557.2},"geometry":{"type":"Polygon","coordinates":[[[90.329523,23.825078],[90.329515,23.825126],[90.329466,23.825115],[90.329309,23.825078],[90.329268,23.825069],[90.329237,23.825062],[90.329064,23.825028],[90.329064,23.825028],[90.329044,23.824994],[90.329047,23.824979],[90.329086,23.824772],[90.329155,23.824475],[90.329173,23.824428],[90.329173,23.824382],[90.329402,23.824429],[90.329633,23.824475],[90.329627,23.824509],[90.329523,23.825078]]]}},{"type":"Feature","properties":{"survey":"bds","sheet":"012","dag":"5527","label_bn":"5527","area_sqm":530.4},"geometry":{"type":"Polygon","coordinates":[[[90.32958,23.82509],[90.32957,23.825136],[90.329515,23.825126],[90.329523,23.825078],[90.329627,23.824509],[90.329633,23.824475],[90.329719,23.824493],[90.329707,23.824534],[90.329706,23.82454],[90.3297,23.824566],[90.32958,23.82509]]]}},{"type":"Feature","properties":{"survey":"bds","sheet":"012","dag":"5528","label_bn":"5528","area_sqm":1745.2},"geometry":{"type":"Polygon","coordinates":[[[90.329832,23.825063],[90.329799,23.825189],[90.32975,23.825177],[90.32957,23.825136],[90.32958,23.82509],[90.3297,23.824566],[90.329713,23.82457],[90.32998,23.824647],[90.32987,23.825007],[90.329852,23.825064],[90.329832,23.825063]]]}},{"type":"Feature","properties":{"survey":"bds","sheet":"012","dag":"5502","label_bn":"5502","area_sqm":11059.1},"geometry":{"type":"Polygon","coordinates":[[[90.328072,23.825081],[90.327976,23.825315],[90.327942,23.825305],[90.327706,23.82524],[90.327443,23.825177],[90.327359,23.82516],[90.32721,23.825122],[90.326623,23.824973],[90.326635,23.824911],[90.32665,23.824834],[90.326505,23.82481],[90.326483,23.824766],[90.326484,23.824763],[90.3265,23.824699],[90.32652,23.82462],[90.326556,23.82453],[90.326575,23.824494],[90.326577,23.824473],[90.326578,23.824461],[90.327312,23.824449],[90.327306,23.824479],[90.327303,23.824496],[90.328211,23.82469],[90.328221,23.824692],[90.328153,23.824909],[90.328072,23.825081]]]}}]}