{"type":"FeatureCollection","features":[{"type":"Feature","properties":{"survey":"bds","sheet":"013","dag":"6054","label_bn":"6054","area_sqm":4467.9},"geometry":{"type":"Polygon","coordinates":[[[90.325865,23.819097],[90.325732,23.81928],[90.325574,23.819166],[90.325323,23.818851],[90.325374,23.818816],[90.325424,23.818759],[90.325552,23.818534],[90.325609,23.818505],[90.325674,23.8184],[90.326145,23.818643],[90.326181,23.818666],[90.326027,23.818901],[90.325865,23.819097]]]}},{"type":"Feature","properties":{"survey":"bds","sheet":"013","dag":"6055","label_bn":"6055","area_sqm":4298.2},"geometry":{"type":"Polygon","coordinates":[[[90.326379,23.819293],[90.326137,23.819588],[90.325989,23.819484],[90.325862,23.819374],[90.325732,23.81928],[90.325865,23.819097],[90.326027,23.818901],[90.326181,23.818666],[90.326417,23.8188],[90.326595,23.818858],[90.326579,23.81892],[90.326539,23.818908],[90.326319,23.819235],[90.326375,23.81929],[90.326379,23.819293]]]}},{"type":"Feature","properties":{"survey":"bds","sheet":"013","dag":"6027","label_bn":"6027","area_sqm":1091.6},"geometry":{"type":"Polygon","coordinates":[[[90.326434,23.819581],[90.326332,23.819796],[90.326202,23.819669],[90.326137,23.819588],[90.326379,23.819293],[90.326542,23.819391],[90.326525,23.819415],[90.326434,23.819581]]]}},{"type":"Feature","properties":{"survey":"bds","sheet":"013","dag":"6053","label_bn":"6053","area_sqm":2881.7},"geometry":{"type":"Polygon","coordinates":[[[90.325568,23.8197],[90.325364,23.819916],[90.325254,23.819845],[90.325083,23.81972],[90.325308,23.819485],[90.325574,23.819166],[90.325732,23.81928],[90.325862,23.819374],[90.32558,23.819691],[90.325568,23.8197]]]}},{"type":"Feature","properties":{"survey":"bds","sheet":"013","dag":"6029","label_bn":"6029","area_sqm":1484.3},"geometry":{"type":"Polygon","coordinates":[[[90.325562,23.819991],[90.32554,23.820026],[90.325439,23.820006],[90.325364,23.819916],[90.325568,23.8197],[90.32558,23.819691],[90.325862,23.819374],[90.325989,23.819484],[90.325632,23.819894],[90.325562,23.819991]]]}},{"type":"Feature","properties":{"survey":"bds","sheet":"013","dag":"6028","label_bn":"6028","area_sqm":2171.7},"geometry":{"type":"Polygon","coordinates":[[[90.325843,23.820089],[90.325748,23.820137],[90.325737,23.820127],[90.32554,23.820026],[90.325562,23.819991],[90.325632,23.819894],[90.325989,23.819484],[90.326137,23.819588],[90.326202,23.819669],[90.325843,23.820089]]]}},{"type":"Feature","properties":{"survey":"bds","sheet":"013","dag":"6052","label_bn":"6052","area_sqm":1579.8},"geometry":{"type":"Polygon","coordinates":[[[90.324789,23.820281],[90.324785,23.820285],[90.324719,23.820226],[90.324651,23.820166],[90.324611,23.82013],[90.324631,23.820113],[90.32487,23.819905],[90.325083,23.81972],[90.325254,23.819845],[90.325038,23.820047],[90.324794,23.820276],[90.324789,23.820281]]]}},{"type":"Feature","properties":{"survey":"bds","sheet":"013","dag":"6051","label_bn":"6051","area_sqm":121.6},"geometry":{"type":"Polygon","coordinates":[[[90.324651,23.820166],[90.324506,23.820297],[90.324465,23.820258],[90.324474,23.820249],[90.324611,23.82013],[90.324651,23.820166]]]}},{"type":"Feature","properties":{"survey":"bds","sheet":"013","dag":"6050","label_bn":"6050","area_sqm":203.8},"geometry":{"type":"Polygon","coordinates":[[[90.324719,23.820226],[90.324573,23.820361],[90.324506,23.820297],[90.324651,23.820166],[90.324719,23.820226]]]}},{"type":"Feature","properties":{"survey":"bds","sheet":"013","dag":"6049","label_bn":"6049","area_sqm":203.1},"geometry":{"type":"Polygon","coordinates":[[[90.324785,23.820285],[90.324639,23.820424],[90.324573,23.820361],[90.324719,23.820226],[90.324785,23.820285]]]}},{"type":"Feature","properties":{"survey":"bds","sheet":"013","dag":"6048","label_bn":"6048","area_sqm":529.4},"geometry":{"type":"Polygon","coordinates":[[[90.324639,23.820424],[90.324498,23.820558],[90.324318,23.820369],[90.324345,23.820348],[90.324364,23.820345],[90.324465,23.820258],[90.324506,23.820297],[90.324573,23.820361],[90.324639,23.820424]]]}},{"type":"Feature","properties":{"survey":"bds","sheet":"013","dag":"6025","label_bn":"6025","area_sqm":2741.0},"geometry":{"type":"Polygon","coordinates":[[[90.326646,23.820431],[90.326528,23.820602],[90.326094,23.820343],[90.326139,23.820288],[90.326014,23.820205],[90.326332,23.819796],[90.32645,23.819908],[90.326322,23.820124],[90.326724,23.820323],[90.326701,23.820355],[90.326646,23.820431]]]}},{"type":"Feature","properties":{"survey":"bds","sheet":"013","dag":"6026","label_bn":"6026","area_sqm":6060.2},"geometry":{"type":"Polygon","coordinates":[[[90.325491,23.82045],[90.325302,23.820654],[90.324983,23.82044],[90.32509,23.820297],[90.32514,23.820261],[90.32533,23.820063],[90.325378,23.820026],[90.325439,23.820006],[90.32554,23.820026],[90.325737,23.820127],[90.325748,23.820137],[90.325843,23.820089],[90.326202,23.819669],[90.326332,23.819796],[90.326014,23.820205],[90.326139,23.820288],[90.326094,23.820343],[90.325919,23.820506],[90.325777,23.820638],[90.325616,23.820527],[90.325491,23.82045]]]}},{"type":"Feature","properties":{"survey":"bds","sheet":"013","dag":"6024","label_bn":"6024","area_sqm":1374.1},"geometry":{"type":"Polygon","coordinates":[[[90.326528,23.820602],[90.326382,23.820787],[90.325919,23.820506],[90.326094,23.820343],[90.326528,23.820602]]]}},{"type":"Feature","properties":{"survey":"bds","sheet":"013","dag":"6032","label_bn":"6032","area_sqm":203.1},"geometry":{"type":"Polygon","coordinates":[[[90.324925,23.820772],[90.324907,23.820789],[90.324791,23.820697],[90.324816,23.820663],[90.324859,23.820605],[90.32497,23.820695],[90.324989,23.820711],[90.324925,23.820772]]]}},{"type":"Feature","properties":{"survey":"bds","sheet":"013","dag":"6021","label_bn":"6021","area_sqm":163.2},"geometry":{"type":"Polygon","coordinates":[[[90.325386,23.820788],[90.325355,23.820828],[90.325225,23.820744],[90.325262,23.820701],[90.325288,23.82067],[90.325412,23.820755],[90.325386,23.820788]]]}},{"type":"Feature","properties":{"survey":"bds","sheet":"013","dag":"6031","label_bn":"6031","area_sqm":954.9},"geometry":{"type":"Polygon","coordinates":[[[90.325163,23.820819],[90.325146,23.820839],[90.324989,23.820711],[90.32497,23.820695],[90.324859,23.820605],[90.324972,23.820455],[90.324983,23.82044],[90.325302,23.820654],[90.325293,23.820664],[90.325288,23.82067],[90.325262,23.820701],[90.325225,23.820744],[90.325163,23.820819]]]}},{"type":"Feature","properties":{"survey":"bds","sheet":"013","dag":"6036","label_bn":"6036","area_sqm":202.2},"geometry":{"type":"Polygon","coordinates":[[[90.324815,23.820877],[90.324814,23.820878],[90.324709,23.82079],[90.324775,23.820718],[90.324775,23.820717],[90.324788,23.8207],[90.324791,23.820697],[90.324907,23.820789],[90.324861,23.820832],[90.324815,23.820877]]]}},{"type":"Feature","properties":{"survey":"bds","sheet":"013","dag":"6020","label_bn":"6020","area_sqm":163.7},"geometry":{"type":"Polygon","coordinates":[[[90.325308,23.820889],[90.3253,23.820898],[90.325163,23.820819],[90.325225,23.820744],[90.325355,23.820828],[90.325308,23.820889]]]}},{"type":"Feature","properties":{"survey":"bds","sheet":"013","dag":"6033","label_bn":"6033","area_sqm":203.6},"geometry":{"type":"Polygon","coordinates":[[[90.325146,23.820839],[90.325086,23.820902],[90.324925,23.820772],[90.324989,23.820711],[90.325146,23.820839]]]}},{"type":"Feature","properties":{"survey":"bds","sheet":"013","dag":"6047","label_bn":"6047","area_sqm":1834.8},"geometry":{"type":"Polygon","coordinates":[[[90.324104,23.820934],[90.324082,23.820954],[90.324061,23.820931],[90.324025,23.820892],[90.323993,23.820854],[90.323932,23.820776],[90.323896,23.820702],[90.323896,23.820702],[90.323906,23.820694],[90.324318,23.820369],[90.324498,23.820558],[90.324104,23.820934]]]}},{"type":"Feature","properties":{"survey":"bds","sheet":"013","dag":"6022","label_bn":"6022","area_sqm":1483.2},"geometry":{"type":"Polygon","coordinates":[[[90.32568,23.820946],[90.325641,23.820967],[90.325386,23.820788],[90.325412,23.820755],[90.325288,23.82067],[90.325293,23.820664],[90.325302,23.820654],[90.325491,23.82045],[90.325616,23.820527],[90.325777,23.820638],[90.325732,23.820714],[90.325677,23.820815],[90.32568,23.820946]]]}},{"type":"Feature","properties":{"survey":"bds","sheet":"013","dag":"6034","label_bn":"6034","area_sqm":208.3},"geometry":{"type":"Polygon","coordinates":[[[90.325081,23.820908],[90.325026,23.820966],[90.324861,23.820832],[90.324907,23.820789],[90.324925,23.820772],[90.325086,23.820902],[90.325081,23.820908]]]}},{"type":"Feature","properties":{"survey":"bds","sheet":"013","dag":"6046","label_bn":"6046","area_sqm":149.9},"geometry":{"type":"Polygon","coordinates":[[[90.324082,23.820954],[90.32406,23.820975],[90.324035,23.820937],[90.324019,23.820925],[90.324004,23.820914],[90.323977,23.820895],[90.323929,23.82085],[90.323887,23.8208],[90.323852,23.820736],[90.323889,23.820708],[90.323896,23.820702],[90.323932,23.820776],[90.323993,23.820854],[90.324025,23.820892],[90.324061,23.820931],[90.324082,23.820954]]]}},{"type":"Feature","properties":{"survey":"bds","sheet":"013","dag":"6019","label_bn":"6019","area_sqm":206.3},"geometry":{"type":"Polygon","coordinates":[[[90.325279,23.820926],[90.325233,23.820984],[90.325178,23.820953],[90.325081,23.820908],[90.325086,23.820902],[90.325146,23.820839],[90.325163,23.820819],[90.3253,23.820898],[90.325279,23.820926]]]}},{"type":"Feature","properties":{"survey":"bds","sheet":"013","dag":"6037","label_bn":"6037","area_sqm":243.2},"geometry":{"type":"Polygon","coordinates":[[[90.324798,23.820894],[90.324704,23.820993],[90.324601,23.820908],[90.324633,23.820873],[90.324709,23.82079],[90.324814,23.820878],[90.324798,23.820894]]]}},{"type":"Feature","properties":{"survey":"bds","sheet":"013","dag":"6035","label_bn":"6035","area_sqm":212.8},"geometry":{"type":"Polygon","coordinates":[[[90.324982,23.821013],[90.324966,23.82103],[90.324886,23.820966],[90.324798,23.820894],[90.324814,23.820878],[90.324815,23.820877],[90.324861,23.820832],[90.325026,23.820966],[90.324982,23.821013]]]}},{"type":"Feature","properties":{"survey":"bds","sheet":"013","dag":"6038","label_bn":"6038","area_sqm":333.1},"geometry":{"type":"Polygon","coordinates":[[[90.324884,23.821116],[90.324872,23.821129],[90.324792,23.821065],[90.324737,23.82102],[90.324711,23.820998],[90.324704,23.820993],[90.324798,23.820894],[90.324886,23.820966],[90.324966,23.82103],[90.324884,23.821116]]]}},{"type":"Feature","properties":{"survey":"bds","sheet":"013","dag":"6018","label_bn":"6018","area_sqm":838.6},"geometry":{"type":"Polygon","coordinates":[[[90.32551,23.821073],[90.325413,23.821154],[90.325359,23.821096],[90.325233,23.820984],[90.325279,23.820926],[90.3253,23.820898],[90.325308,23.820889],[90.325355,23.820828],[90.325386,23.820788],[90.325641,23.820967],[90.32551,23.821073]]]}},{"type":"Feature","properties":{"survey":"bds","sheet":"013","dag":"6030","label_bn":"6030","area_sqm":5193.7},"geometry":{"type":"Polygon","coordinates":[[[90.324301,23.821209],[90.324273,23.821236],[90.324256,23.821205],[90.324231,23.821158],[90.324199,23.821112],[90.324168,23.821066],[90.324132,23.821018],[90.324097,23.82097],[90.324082,23.820954],[90.324104,23.820934],[90.324498,23.820558],[90.324639,23.820424],[90.324785,23.820285],[90.324789,23.820281],[90.324794,23.820276],[90.325038,23.820047],[90.325254,23.819845],[90.325364,23.819916],[90.325439,23.820006],[90.325378,23.820026],[90.32533,23.820063],[90.32514,23.820261],[90.32509,23.820297],[90.324983,23.82044],[90.324972,23.820455],[90.324859,23.820605],[90.324816,23.820663],[90.324791,23.820697],[90.324788,23.8207],[90.324775,23.820717],[90.324775,23.820718],[90.324709,23.82079],[90.324633,23.820873],[90.324601,23.820908],[90.324303,23.821207],[90.324301,23.821209]]]}},{"type":"Feature","properties":{"survey":"bds","sheet":"013","dag":"6039","label_bn":"6039","area_sqm":319.6},"geometry":{"type":"Polygon","coordinates":[[[90.324872,23.821129],[90.32476,23.821251],[90.32463,23.821145],[90.324737,23.82102],[90.324792,23.821065],[90.324872,23.821129]]]}},{"type":"Feature","properties":{"survey":"bds","sheet":"013","dag":"6045","label_bn":"6045","area_sqm":128.4},"geometry":{"type":"Polygon","coordinates":[[[90.324273,23.821236],[90.32425,23.82126],[90.324214,23.821189],[90.324092,23.821022],[90.324071,23.820991],[90.32406,23.820975],[90.324082,23.820954],[90.324097,23.82097],[90.324132,23.821018],[90.324168,23.821066],[90.324199,23.821112],[90.324231,23.821158],[90.324256,23.821205],[90.324273,23.821236]]]}},{"type":"Feature","properties":{"survey":"bds","sheet":"013","dag":"6040","label_bn":"6040","area_sqm":156.2},"geometry":{"type":"Polygon","coordinates":[[[90.324711,23.821305],[90.324704,23.821313],[90.324576,23.821208],[90.32463,23.821145],[90.32476,23.821251],[90.324711,23.821305]]]}},{"type":"Feature","properties":{"survey":"bds","sheet":"013","dag":"6023","label_bn":"6023","area_sqm":3887.0},"geometry":{"type":"Polygon","coordinates":[[[90.326131,23.821107],[90.325958,23.821339],[90.325793,23.821246],[90.325717,23.821101],[90.325697,23.821027],[90.32568,23.820946],[90.325677,23.820815],[90.325732,23.820714],[90.325777,23.820638],[90.325919,23.820506],[90.326382,23.820787],[90.326359,23.820817],[90.32628,23.820953],[90.326232,23.820995],[90.326194,23.821033],[90.326131,23.821107]]]}},{"type":"Feature","properties":{"survey":"bds","sheet":"013","dag":"6017","label_bn":"6017","area_sqm":1005.4},"geometry":{"type":"Polygon","coordinates":[[[90.32566,23.821382],[90.325625,23.821404],[90.325413,23.821154],[90.32551,23.821073],[90.325641,23.820967],[90.32568,23.820946],[90.325697,23.821027],[90.325717,23.821101],[90.325793,23.821246],[90.32566,23.821382]]]}},{"type":"Feature","properties":{"survey":"bds","sheet":"013","dag":"6041","label_bn":"6041","area_sqm":1088.3},"geometry":{"type":"Polygon","coordinates":[[[90.324422,23.821387],[90.324395,23.821419],[90.324393,23.821417],[90.324366,23.821374],[90.324314,23.821295],[90.324289,23.821258],[90.324277,23.821243],[90.324273,23.821236],[90.324301,23.821209],[90.324303,23.821207],[90.324601,23.820908],[90.324704,23.820993],[90.324711,23.820998],[90.324737,23.82102],[90.32463,23.821145],[90.324576,23.821208],[90.324422,23.821387]]]}},{"type":"Feature","properties":{"survey":"bds","sheet":"013","dag":"6044","label_bn":"6044","area_sqm":86.4},"geometry":{"type":"Polygon","coordinates":[[[90.324395,23.821419],[90.324377,23.821439],[90.324364,23.821423],[90.32432,23.82137],[90.324266,23.821293],[90.32425,23.82126],[90.324273,23.821236],[90.324277,23.821243],[90.324289,23.821258],[90.324314,23.821295],[90.324366,23.821374],[90.324393,23.821417],[90.324395,23.821419]]]}},{"type":"Feature","properties":{"survey":"bds","sheet":"013","dag":"6042","label_bn":"6042","area_sqm":543.2},"geometry":{"type":"Polygon","coordinates":[[[90.324523,23.821511],[90.324493,23.821543],[90.324442,23.821488],[90.324418,23.821452],[90.324395,23.821419],[90.324422,23.821387],[90.324576,23.821208],[90.324704,23.821313],[90.324523,23.821511]]]}},{"type":"Feature","properties":{"survey":"bds","sheet":"013","dag":"6043","label_bn":"6043","area_sqm":37.8},"geometry":{"type":"Polygon","coordinates":[[[90.324493,23.821543],[90.324479,23.821559],[90.324444,23.821517],[90.324418,23.821489],[90.324377,23.821439],[90.324395,23.821419],[90.324418,23.821452],[90.324442,23.821488],[90.324493,23.821543]]]}},{"type":"Feature","properties":{"survey":"bds","sheet":"013","dag":"6016","label_bn":"6016","area_sqm":1177.4},"geometry":{"type":"Polygon","coordinates":[[[90.325511,23.82154],[90.325367,23.82162],[90.325292,23.821488],[90.325191,23.821387],[90.325413,23.821154],[90.325625,23.821404],[90.325511,23.82154]]]}},{"type":"Feature","properties":{"survey":"bds","sheet":"013","dag":"6010","label_bn":"6010","area_sqm":2802.6},"geometry":{"type":"Polygon","coordinates":[[[90.325965,23.821885],[90.325954,23.821891],[90.325627,23.821623],[90.325511,23.82154],[90.325625,23.821404],[90.32566,23.821382],[90.325793,23.821246],[90.325958,23.821339],[90.326259,23.821651],[90.326267,23.821658],[90.32619,23.821726],[90.325965,23.821885]]]}},{"type":"Feature","properties":{"survey":"bds","sheet":"013","dag":"6015","label_bn":"6015","area_sqm":6190.4},"geometry":{"type":"Polygon","coordinates":[[[90.324917,23.821972],[90.324868,23.821999],[90.324827,23.821943],[90.324788,23.821886],[90.32475,23.821829],[90.324697,23.821767],[90.324644,23.821704],[90.324559,23.821613],[90.3245,23.82155],[90.324493,23.821543],[90.324523,23.821511],[90.324704,23.821313],[90.324711,23.821305],[90.32476,23.821251],[90.324872,23.821129],[90.324884,23.821116],[90.324966,23.82103],[90.324982,23.821013],[90.325026,23.820966],[90.325081,23.820908],[90.325178,23.820953],[90.325233,23.820984],[90.325359,23.821096],[90.325413,23.821154],[90.325191,23.821387],[90.325292,23.821488],[90.325367,23.82162],[90.325324,23.821662],[90.325278,23.821754],[90.325143,23.821855],[90.325054,23.821895],[90.325003,23.821929],[90.324925,23.821968],[90.324917,23.821972]]]}},{"type":"Feature","properties":{"survey":"bds","sheet":"013","dag":"6014","label_bn":"6014","area_sqm":202.2},"geometry":{"type":"Polygon","coordinates":[[[90.324868,23.821999],[90.324856,23.822005],[90.324806,23.821952],[90.324759,23.821901],[90.324758,23.8219],[90.32465,23.82177],[90.324517,23.821604],[90.324506,23.821592],[90.324479,23.821559],[90.324493,23.821543],[90.3245,23.82155],[90.324559,23.821613],[90.324644,23.821704],[90.324697,23.821767],[90.32475,23.821829],[90.324788,23.821886],[90.324827,23.821943],[90.324868,23.821999]]]}},{"type":"Feature","properties":{"survey":"bds","sheet":"013","dag":"6011","label_bn":"6011","area_sqm":2104.5},"geometry":{"type":"Polygon","coordinates":[[[90.325954,23.821891],[90.325692,23.822085],[90.325662,23.822079],[90.325525,23.821967],[90.325455,23.821901],[90.325423,23.821887],[90.325381,23.821859],[90.325323,23.821783],[90.325278,23.821754],[90.325324,23.821662],[90.325367,23.82162],[90.325511,23.82154],[90.325627,23.821623],[90.325954,23.821891]]]}},{"type":"Feature","properties":{"survey":"bds","sheet":"013","dag":"6008","label_bn":"6008","area_sqm":1060.2},"geometry":{"type":"Polygon","coordinates":[[[90.326424,23.822178],[90.32633,23.822226],[90.326181,23.822027],[90.326498,23.821844],[90.32657,23.821944],[90.326636,23.822094],[90.326424,23.822178]]]}},{"type":"Feature","properties":{"survey":"bds","sheet":"013","dag":"6013","label_bn":"6013","area_sqm":32.6},"geometry":{"type":"Polygon","coordinates":[[[90.324971,23.822111],[90.325078,23.822228],[90.325053,23.822205],[90.324954,23.82211],[90.324931,23.822085],[90.324863,23.822012],[90.324856,23.822005],[90.324868,23.821999],[90.32487,23.822002],[90.324893,23.822026],[90.324942,23.822075],[90.324971,23.822111]]]}},{"type":"Feature","properties":{"survey":"bds","sheet":"013","dag":"6012","label_bn":"6012","area_sqm":2654.9},"geometry":{"type":"Polygon","coordinates":[[[90.325252,23.822315],[90.325206,23.822351],[90.325156,23.822301],[90.325102,23.82225],[90.325078,23.822228],[90.324971,23.822111],[90.324942,23.822075],[90.324893,23.822026],[90.32487,23.822002],[90.324868,23.821999],[90.324917,23.821972],[90.324925,23.821968],[90.325003,23.821929],[90.325054,23.821895],[90.325143,23.821855],[90.325278,23.821754],[90.325323,23.821783],[90.325381,23.821859],[90.325423,23.821887],[90.325455,23.821901],[90.325525,23.821967],[90.325662,23.822079],[90.325574,23.822138],[90.325471,23.822186],[90.325361,23.822242],[90.325265,23.822305],[90.325252,23.822315]]]}},{"type":"Feature","properties":{"survey":"bds","sheet":"013","dag":"6009","label_bn":"6009","area_sqm":3359.2},"geometry":{"type":"Polygon","coordinates":[[[90.325378,23.822492],[90.325355,23.822506],[90.325319,23.822465],[90.325206,23.822351],[90.325252,23.822315],[90.325265,23.822305],[90.325361,23.822242],[90.325471,23.822186],[90.325574,23.822138],[90.325662,23.822079],[90.325692,23.822085],[90.325954,23.821891],[90.325965,23.821885],[90.32619,23.821726],[90.326267,23.821658],[90.32647,23.821808],[90.326498,23.821844],[90.326181,23.822027],[90.325415,23.822471],[90.325378,23.822492]]]}},{"type":"Feature","properties":{"survey":"bds","sheet":"013","dag":"6007","label_bn":"6007","area_sqm":2279.0},"geometry":{"type":"Polygon","coordinates":[[[90.325587,23.822634],[90.325524,23.822682],[90.325384,23.822539],[90.325355,23.822506],[90.325378,23.822492],[90.325415,23.822471],[90.326181,23.822027],[90.32633,23.822226],[90.326227,23.822278],[90.326122,23.822328],[90.326092,23.822339],[90.326055,23.822353],[90.325983,23.822362],[90.325869,23.822406],[90.325792,23.822477],[90.325587,23.822634]]]}},{"type":"Feature","properties":{"survey":"bds","sheet":"013","dag":"6005","label_bn":"6005","area_sqm":991.2},"geometry":{"type":"Polygon","coordinates":[[[90.326227,23.822541],[90.325939,23.822691],[90.325864,23.822582],[90.325792,23.822477],[90.325869,23.822406],[90.325983,23.822362],[90.326055,23.822353],[90.326092,23.822339],[90.326227,23.822541]]]}},{"type":"Feature","properties":{"survey":"bds","sheet":"013","dag":"6006","label_bn":"6006","area_sqm":468.4},"geometry":{"type":"Polygon","coordinates":[[[90.325864,23.822582],[90.325619,23.822771],[90.325563,23.822721],[90.325524,23.822682],[90.325587,23.822634],[90.325792,23.822477],[90.325864,23.822582]]]}},{"type":"Feature","properties":{"survey":"bds","sheet":"013","dag":"6004","label_bn":"6004","area_sqm":3859.4},"geometry":{"type":"Polygon","coordinates":[[[90.325905,23.822978],[90.32588,23.822998],[90.325787,23.82292],[90.325671,23.822817],[90.325619,23.822771],[90.325864,23.822582],[90.325939,23.822691],[90.326227,23.822541],[90.326092,23.822339],[90.326122,23.822328],[90.326227,23.822278],[90.32633,23.822226],[90.326424,23.822178],[90.326425,23.822179],[90.326668,23.822441],[90.326682,23.822441],[90.326709,23.822422],[90.326764,23.822482],[90.326505,23.822611],[90.326416,23.822664],[90.326326,23.822723],[90.326283,23.822759],[90.325932,23.822963],[90.325905,23.822978]]]}},{"type":"Feature","properties":{"survey":"bds","sheet":"013","dag":"6003","label_bn":"6003","area_sqm":2159.8},"geometry":{"type":"Polygon","coordinates":[[[90.326748,23.822887],[90.326562,23.823021],[90.326432,23.822891],[90.326283,23.822759],[90.326326,23.822723],[90.326416,23.822664],[90.326505,23.822611],[90.326764,23.822482],[90.326994,23.822689],[90.326814,23.822826],[90.326748,23.822887]]]}},{"type":"Feature","properties":{"survey":"bds","sheet":"013","dag":"6002","label_bn":"6002","area_sqm":1074.3},"geometry":{"type":"Polygon","coordinates":[[[90.326122,23.823094],[90.326049,23.823142],[90.325988,23.823096],[90.325888,23.823004],[90.32588,23.822998],[90.325905,23.822978],[90.325932,23.822963],[90.326283,23.822759],[90.326432,23.822891],[90.326122,23.823094]]]}},{"type":"Feature","properties":{"survey":"bds","sheet":"013","dag":"6001","label_bn":"6001","area_sqm":907.5},"geometry":{"type":"Polygon","coordinates":[[[90.32625,23.823213],[90.326199,23.823221],[90.326125,23.823192],[90.326096,23.823173],[90.326093,23.823176],[90.326049,23.823142],[90.326122,23.823094],[90.326432,23.822891],[90.326562,23.823021],[90.326439,23.823121],[90.326319,23.823193],[90.326281,23.823204],[90.32625,23.823213]]]}}]}