{"type":"FeatureCollection","features":[{"type":"Feature","properties":{"survey":"bds","sheet":"014","dag":"6507","label_bn":"6507","area_sqm":1228.9},"geometry":{"type":"Polygon","coordinates":[[[90.323579,23.818161],[90.323351,23.818469],[90.323138,23.818351],[90.32316,23.818266],[90.323236,23.81808],[90.323254,23.818033],[90.323429,23.818093],[90.32358,23.81816],[90.323579,23.818161]]]}},{"type":"Feature","properties":{"survey":"bds","sheet":"014","dag":"6508","label_bn":"6508","area_sqm":2031.8},"geometry":{"type":"Polygon","coordinates":[[[90.323686,23.818443],[90.323527,23.818631],[90.323487,23.818628],[90.323331,23.818518],[90.323321,23.81851],[90.323351,23.818469],[90.323579,23.818161],[90.32358,23.81816],[90.323709,23.817988],[90.323786,23.818004],[90.32378,23.818031],[90.323792,23.818038],[90.323976,23.818141],[90.323986,23.818147],[90.323808,23.818321],[90.323686,23.818443]]]}},{"type":"Feature","properties":{"survey":"bds","sheet":"014","dag":"6506","label_bn":"6506","area_sqm":1010.6},"geometry":{"type":"Polygon","coordinates":[[[90.323178,23.818674],[90.323056,23.818833],[90.322902,23.818741],[90.323127,23.818438],[90.323125,23.818401],[90.323138,23.818351],[90.323351,23.818469],[90.323321,23.81851],[90.323235,23.818621],[90.323178,23.818674]]]}},{"type":"Feature","properties":{"survey":"bds","sheet":"014","dag":"6510","label_bn":"6510","area_sqm":1668.7},"geometry":{"type":"Polygon","coordinates":[[[90.323487,23.818628],[90.323066,23.819182],[90.323022,23.819163],[90.322909,23.819075],[90.323056,23.818833],[90.323178,23.818674],[90.323235,23.818621],[90.323321,23.81851],[90.323331,23.818518],[90.323487,23.818628]]]}},{"type":"Feature","properties":{"survey":"bds","sheet":"014","dag":"6509","label_bn":"6509","area_sqm":3856.8},"geometry":{"type":"Polygon","coordinates":[[[90.323316,23.819223],[90.323228,23.81932],[90.323066,23.819182],[90.323487,23.818628],[90.323527,23.818631],[90.323686,23.818443],[90.323808,23.818321],[90.323986,23.818147],[90.32418,23.818274],[90.323316,23.819223]]]}},{"type":"Feature","properties":{"survey":"bds","sheet":"014","dag":"6502","label_bn":"6502","area_sqm":4791.4},"geometry":{"type":"Polygon","coordinates":[[[90.322303,23.819391],[90.322299,23.8194],[90.32207,23.819272],[90.321952,23.81921],[90.32183,23.819167],[90.321747,23.819128],[90.322025,23.818574],[90.322264,23.81862],[90.32264,23.818727],[90.322303,23.819391]]]}},{"type":"Feature","properties":{"survey":"bds","sheet":"014","dag":"6515","label_bn":"6515","area_sqm":2243.8},"geometry":{"type":"Polygon","coordinates":[[[90.324714,23.818398],[90.323643,23.819441],[90.323633,23.819432],[90.323528,23.819357],[90.323704,23.819153],[90.324676,23.818314],[90.324678,23.818314],[90.324678,23.818352],[90.324714,23.818398]]]}},{"type":"Feature","properties":{"survey":"bds","sheet":"014","dag":"6501","label_bn":"6501","area_sqm":461.5},"geometry":{"type":"Polygon","coordinates":[[[90.322299,23.8194],[90.322265,23.819467],[90.322219,23.81944],[90.322099,23.819361],[90.322034,23.819326],[90.321894,23.819265],[90.321721,23.819175],[90.321741,23.81914],[90.321747,23.819128],[90.32183,23.819167],[90.321952,23.81921],[90.32207,23.819272],[90.322299,23.8194]]]}},{"type":"Feature","properties":{"survey":"bds","sheet":"014","dag":"6522","label_bn":"6522","area_sqm":2276.5},"geometry":{"type":"Polygon","coordinates":[[[90.324805,23.818516],[90.323738,23.81952],[90.323643,23.819441],[90.324714,23.818398],[90.324798,23.818507],[90.324805,23.818516]]]}},{"type":"Feature","properties":{"survey":"bds","sheet":"014","dag":"6503","label_bn":"6503","area_sqm":2325.3},"geometry":{"type":"Polygon","coordinates":[[[90.322902,23.818741],[90.322516,23.81952],[90.322464,23.819488],[90.322306,23.819404],[90.322299,23.8194],[90.322303,23.819391],[90.32264,23.818727],[90.32265,23.818688],[90.322691,23.818681],[90.322902,23.818741]]]}},{"type":"Feature","properties":{"survey":"bds","sheet":"014","dag":"6524","label_bn":"6524","area_sqm":4153.5},"geometry":{"type":"Polygon","coordinates":[[[90.325291,23.818819],[90.324606,23.819552],[90.324566,23.819528],[90.324269,23.819353],[90.324562,23.819099],[90.324691,23.818942],[90.324762,23.818836],[90.324876,23.818676],[90.324902,23.818639],[90.324908,23.818647],[90.324955,23.818699],[90.324984,23.818731],[90.325011,23.818749],[90.325085,23.81869],[90.325114,23.818675],[90.325151,23.818664],[90.325228,23.818749],[90.325291,23.818819]]]}},{"type":"Feature","properties":{"survey":"bds","sheet":"014","dag":"6505","label_bn":"6505","area_sqm":1381.4},"geometry":{"type":"Polygon","coordinates":[[[90.322909,23.819075],[90.322601,23.819573],[90.322516,23.81952],[90.322902,23.818741],[90.323056,23.818833],[90.322909,23.819075]]]}},{"type":"Feature","properties":{"survey":"bds","sheet":"014","dag":"6511","label_bn":"6511","area_sqm":891.7},"geometry":{"type":"Polygon","coordinates":[[[90.323022,23.819163],[90.322707,23.819645],[90.322694,23.819636],[90.322607,23.819577],[90.322601,23.819573],[90.322909,23.819075],[90.323022,23.819163]]]}},{"type":"Feature","properties":{"survey":"bds","sheet":"014","dag":"6523","label_bn":"6523","area_sqm":3792.9},"geometry":{"type":"Polygon","coordinates":[[[90.324269,23.819353],[90.323925,23.819676],[90.323738,23.81952],[90.324805,23.818516],[90.324902,23.818639],[90.324876,23.818676],[90.324762,23.818836],[90.324691,23.818942],[90.324562,23.819099],[90.324269,23.819353]]]}},{"type":"Feature","properties":{"survey":"bds","sheet":"014","dag":"6533","label_bn":"6533","area_sqm":2235.3},"geometry":{"type":"Polygon","coordinates":[[[90.325083,23.81972],[90.325081,23.819721],[90.324884,23.819539],[90.325424,23.818979],[90.325574,23.819166],[90.325308,23.819485],[90.325083,23.81972]]]}},{"type":"Feature","properties":{"survey":"bds","sheet":"014","dag":"6512","label_bn":"6512","area_sqm":1396.2},"geometry":{"type":"Polygon","coordinates":[[[90.323228,23.81932],[90.322838,23.819747],[90.322812,23.819726],[90.322765,23.819687],[90.322707,23.819645],[90.323022,23.819163],[90.323066,23.819182],[90.323228,23.81932]]]}},{"type":"Feature","properties":{"survey":"bds","sheet":"014","dag":"6504","label_bn":"6504","area_sqm":507.3},"geometry":{"type":"Polygon","coordinates":[[[90.322838,23.819747],[90.322793,23.819796],[90.322727,23.81974],[90.32267,23.819699],[90.322602,23.81965],[90.322566,23.81963],[90.322499,23.819592],[90.322484,23.819585],[90.322361,23.819525],[90.322265,23.819467],[90.322299,23.8194],[90.322306,23.819404],[90.322464,23.819488],[90.322516,23.81952],[90.322601,23.819573],[90.322607,23.819577],[90.322694,23.819636],[90.322707,23.819645],[90.322765,23.819687],[90.322812,23.819726],[90.322838,23.819747]]]}},{"type":"Feature","properties":{"survey":"bds","sheet":"014","dag":"6521","label_bn":"6521","area_sqm":1098.4},"geometry":{"type":"Polygon","coordinates":[[[90.32388,23.819718],[90.323731,23.819855],[90.323453,23.819618],[90.323633,23.819432],[90.323643,23.819441],[90.323738,23.81952],[90.323925,23.819676],[90.32388,23.819718]]]}},{"type":"Feature","properties":{"survey":"bds","sheet":"014","dag":"6518","label_bn":"6518","area_sqm":205.0},"geometry":{"type":"Polygon","coordinates":[[[90.323527,23.819799],[90.323456,23.819872],[90.32332,23.819756],[90.323389,23.819684],[90.323527,23.819799]]]}},{"type":"Feature","properties":{"survey":"bds","sheet":"014","dag":"6514","label_bn":"6514","area_sqm":6994.7},"geometry":{"type":"Polygon","coordinates":[[[90.323516,23.81937],[90.323036,23.819891],[90.323032,23.819888],[90.322909,23.819803],[90.322859,23.819765],[90.322838,23.819747],[90.323228,23.81932],[90.323316,23.819223],[90.32418,23.818274],[90.324181,23.818274],[90.324262,23.818169],[90.324316,23.818193],[90.324397,23.818225],[90.324537,23.81827],[90.324538,23.81827],[90.324676,23.818314],[90.323704,23.819153],[90.323528,23.819357],[90.323516,23.81937]]]}},{"type":"Feature","properties":{"survey":"bds","sheet":"014","dag":"6520","label_bn":"6520","area_sqm":366.1},"geometry":{"type":"Polygon","coordinates":[[[90.323665,23.819913],[90.323665,23.819913],[90.323527,23.819799],[90.323389,23.819684],[90.323446,23.819626],[90.323453,23.819618],[90.323731,23.819855],[90.323665,23.819913]]]}},{"type":"Feature","properties":{"survey":"bds","sheet":"014","dag":"6532","label_bn":"6532","area_sqm":3225.4},"geometry":{"type":"Polygon","coordinates":[[[90.324884,23.819539],[90.324444,23.819938],[90.324276,23.819779],[90.324566,23.819528],[90.324606,23.819552],[90.325291,23.818819],[90.325323,23.818851],[90.325424,23.818979],[90.324884,23.819539]]]}},{"type":"Feature","properties":{"survey":"bds","sheet":"014","dag":"6516","label_bn":"6516","area_sqm":986.5},"geometry":{"type":"Polygon","coordinates":[[[90.323311,23.819766],[90.323129,23.819954],[90.323089,23.819932],[90.323036,23.819891],[90.323516,23.81937],[90.323528,23.819357],[90.323633,23.819432],[90.323453,23.819618],[90.323446,23.819626],[90.323389,23.819684],[90.32332,23.819756],[90.323311,23.819766]]]}},{"type":"Feature","properties":{"survey":"bds","sheet":"014","dag":"6519","label_bn":"6519","area_sqm":204.6},"geometry":{"type":"Polygon","coordinates":[[[90.323665,23.819913],[90.323586,23.819983],[90.323456,23.819872],[90.323527,23.819799],[90.323665,23.819913]]]}},{"type":"Feature","properties":{"survey":"bds","sheet":"014","dag":"6525","label_bn":"6525","area_sqm":2248.5},"geometry":{"type":"Polygon","coordinates":[[[90.324276,23.819779],[90.324015,23.820005],[90.324004,23.819994],[90.323958,23.819948],[90.323903,23.819894],[90.324,23.819808],[90.32388,23.819718],[90.323925,23.819676],[90.324269,23.819353],[90.324566,23.819528],[90.324276,23.819779]]]}},{"type":"Feature","properties":{"survey":"bds","sheet":"014","dag":"6531","label_bn":"6531","area_sqm":928.5},"geometry":{"type":"Polygon","coordinates":[[[90.324444,23.819938],[90.324185,23.820174],[90.324116,23.820106],[90.324015,23.820005],[90.324276,23.819779],[90.324444,23.819938]]]}},{"type":"Feature","properties":{"survey":"bds","sheet":"014","dag":"6517","label_bn":"6517","area_sqm":1040.1},"geometry":{"type":"Polygon","coordinates":[[[90.323585,23.819984],[90.323382,23.820177],[90.323373,23.820169],[90.323312,23.820112],[90.323295,23.820094],[90.323258,23.820043],[90.323247,23.820029],[90.3232,23.819988],[90.323145,23.819963],[90.323129,23.819954],[90.323311,23.819766],[90.32332,23.819756],[90.323456,23.819872],[90.323586,23.819983],[90.323585,23.819984]]]}},{"type":"Feature","properties":{"survey":"bds","sheet":"014","dag":"6526","label_bn":"6526","area_sqm":1442.2},"geometry":{"type":"Polygon","coordinates":[[[90.323958,23.819948],[90.323505,23.820286],[90.323501,23.820283],[90.323486,23.82027],[90.323382,23.820177],[90.323585,23.819984],[90.323586,23.819983],[90.323665,23.819913],[90.323665,23.819913],[90.323731,23.819855],[90.32388,23.819718],[90.324,23.819808],[90.323903,23.819894],[90.323958,23.819948]]]}},{"type":"Feature","properties":{"survey":"bds","sheet":"014","dag":"6530","label_bn":"6530","area_sqm":2770.3},"geometry":{"type":"Polygon","coordinates":[[[90.324364,23.820345],[90.324357,23.820346],[90.324191,23.82018],[90.324185,23.820174],[90.324444,23.819938],[90.324884,23.819539],[90.325081,23.819721],[90.324364,23.820345]]]}},{"type":"Feature","properties":{"survey":"bds","sheet":"014","dag":"6527","label_bn":"6527","area_sqm":1552.9},"geometry":{"type":"Polygon","coordinates":[[[90.324116,23.820106],[90.323701,23.820471],[90.323697,23.820467],[90.323631,23.820411],[90.323597,23.820381],[90.323545,23.820322],[90.323505,23.820286],[90.323958,23.819948],[90.324004,23.819994],[90.324015,23.820005],[90.324116,23.820106]]]}},{"type":"Feature","properties":{"survey":"bds","sheet":"014","dag":"6528","label_bn":"6528","area_sqm":653.9},"geometry":{"type":"Polygon","coordinates":[[[90.324191,23.82018],[90.323786,23.820537],[90.323701,23.820471],[90.324116,23.820106],[90.324185,23.820174],[90.324191,23.82018]]]}},{"type":"Feature","properties":{"survey":"bds","sheet":"014","dag":"6529","label_bn":"6529","area_sqm":1319.3},"geometry":{"type":"Polygon","coordinates":[[[90.324345,23.820348],[90.323906,23.820694],[90.323905,23.820692],[90.323858,23.820609],[90.323825,23.820569],[90.32379,23.82054],[90.323786,23.820537],[90.324191,23.82018],[90.324357,23.820346],[90.324345,23.820348]]]}},{"type":"Feature","properties":{"survey":"bds","sheet":"014","dag":"6513","label_bn":"6513","area_sqm":1122.7},"geometry":{"type":"Polygon","coordinates":[[[90.323889,23.820708],[90.32385,23.820732],[90.323818,23.820674],[90.323798,23.820646],[90.323733,23.820595],[90.323726,23.82059],[90.323644,23.820522],[90.323613,23.820496],[90.323527,23.82041],[90.32346,23.820342],[90.323447,23.820329],[90.323366,23.82025],[90.323342,23.820223],[90.323338,23.820218],[90.323303,23.820179],[90.32317,23.820067],[90.323165,23.820063],[90.32308,23.820004],[90.322992,23.819943],[90.32299,23.819941],[90.322937,23.8199],[90.322808,23.819809],[90.322793,23.819796],[90.322838,23.819747],[90.322859,23.819765],[90.322909,23.819803],[90.323032,23.819888],[90.323036,23.819891],[90.323089,23.819932],[90.323129,23.819954],[90.323145,23.819963],[90.3232,23.819988],[90.323247,23.820029],[90.323258,23.820043],[90.323295,23.820094],[90.323312,23.820112],[90.323373,23.820169],[90.323382,23.820177],[90.323486,23.82027],[90.323501,23.820283],[90.323505,23.820286],[90.323545,23.820322],[90.323597,23.820381],[90.323631,23.820411],[90.323697,23.820467],[90.323701,23.820471],[90.323786,23.820537],[90.32379,23.82054],[90.323825,23.820569],[90.323858,23.820609],[90.323905,23.820692],[90.323906,23.820694],[90.323889,23.820708]]]}}]}