{"type":"FeatureCollection","features":[{"type":"Feature","properties":{"survey":"bds","sheet":"015","dag":"7035","label_bn":"7035","area_sqm":142.8},"geometry":{"type":"Polygon","coordinates":[[[90.323127,23.81655],[90.323069,23.81661],[90.322934,23.816496],[90.323003,23.816442],[90.323023,23.816487],[90.323127,23.81655]]]}},{"type":"Feature","properties":{"survey":"bds","sheet":"015","dag":"7008","label_bn":"7008","area_sqm":429.5},"geometry":{"type":"Polygon","coordinates":[[[90.321185,23.816941],[90.320767,23.817035],[90.320712,23.816966],[90.3208,23.81694],[90.320944,23.816907],[90.321166,23.816861],[90.321185,23.816941]]]}},{"type":"Feature","properties":{"survey":"bds","sheet":"015","dag":"7009","label_bn":"7009","area_sqm":2009.4},"geometry":{"type":"Polygon","coordinates":[[[90.321788,23.816773],[90.321566,23.817255],[90.321219,23.817093],[90.321205,23.817067],[90.321202,23.817018],[90.321185,23.816941],[90.321166,23.816861],[90.321189,23.816856],[90.321414,23.816824],[90.321784,23.816774],[90.321788,23.816773]]]}},{"type":"Feature","properties":{"survey":"bds","sheet":"015","dag":"7007","label_bn":"7007","area_sqm":975.2},"geometry":{"type":"Polygon","coordinates":[[[90.321008,23.817294],[90.321,23.817296],[90.320767,23.817035],[90.321185,23.816941],[90.321202,23.817018],[90.321205,23.817067],[90.321219,23.817093],[90.321008,23.817294]]]}},{"type":"Feature","properties":{"survey":"bds","sheet":"015","dag":"7010","label_bn":"7010","area_sqm":1585.9},"geometry":{"type":"Polygon","coordinates":[[[90.321901,23.817077],[90.321733,23.817323],[90.321643,23.817309],[90.321566,23.817255],[90.321788,23.816773],[90.321969,23.816741],[90.322054,23.816726],[90.322059,23.816792],[90.322039,23.816852],[90.321974,23.816959],[90.321901,23.817077]]]}},{"type":"Feature","properties":{"survey":"bds","sheet":"015","dag":"7033","label_bn":"7033","area_sqm":2522.0},"geometry":{"type":"Polygon","coordinates":[[[90.32276,23.817236],[90.322666,23.817381],[90.322511,23.817316],[90.322514,23.817287],[90.322613,23.817015],[90.322631,23.816965],[90.322856,23.816541],[90.322923,23.816504],[90.322934,23.816496],[90.323069,23.81661],[90.323056,23.816622],[90.32307,23.816664],[90.323068,23.816696],[90.323005,23.816867],[90.322952,23.816972],[90.322825,23.81715],[90.32276,23.817236]]]}},{"type":"Feature","properties":{"survey":"bds","sheet":"015","dag":"7011","label_bn":"7011","area_sqm":1197.0},"geometry":{"type":"Polygon","coordinates":[[[90.321643,23.817309],[90.321539,23.817426],[90.321331,23.817372],[90.321008,23.817294],[90.321219,23.817093],[90.321566,23.817255],[90.321643,23.817309]]]}},{"type":"Feature","properties":{"survey":"bds","sheet":"015","dag":"7006","label_bn":"7006","area_sqm":3527.1},"geometry":{"type":"Polygon","coordinates":[[[90.320883,23.817487],[90.320732,23.817637],[90.320191,23.81727],[90.320132,23.81722],[90.320206,23.817176],[90.320337,23.817115],[90.320559,23.817017],[90.320699,23.81697],[90.320712,23.816966],[90.320767,23.817035],[90.321,23.817296],[90.321037,23.817338],[90.320883,23.817487]]]}},{"type":"Feature","properties":{"survey":"bds","sheet":"015","dag":"7032","label_bn":"7032","area_sqm":7674.5},"geometry":{"type":"Polygon","coordinates":[[[90.322666,23.817381],[90.322512,23.817703],[90.322329,23.817662],[90.322305,23.817654],[90.322248,23.817621],[90.322221,23.817586],[90.322204,23.817569],[90.322183,23.817562],[90.322158,23.817559],[90.322041,23.817515],[90.321921,23.817449],[90.321831,23.817422],[90.321775,23.81739],[90.321751,23.817363],[90.321733,23.817323],[90.321901,23.817077],[90.321974,23.816959],[90.322039,23.816852],[90.322059,23.816792],[90.322054,23.816726],[90.322077,23.816721],[90.322187,23.816702],[90.322548,23.816625],[90.322757,23.816574],[90.32276,23.816573],[90.322837,23.81655],[90.322843,23.816548],[90.322847,23.816546],[90.322856,23.816541],[90.322631,23.816965],[90.322613,23.817015],[90.322514,23.817287],[90.322511,23.817316],[90.322666,23.817381]]]}},{"type":"Feature","properties":{"survey":"bds","sheet":"015","dag":"7034","label_bn":"7034","area_sqm":4885.1},"geometry":{"type":"Polygon","coordinates":[[[90.323391,23.817236],[90.323225,23.817722],[90.323141,23.817686],[90.322957,23.817606],[90.322666,23.817381],[90.32276,23.817236],[90.322825,23.81715],[90.322952,23.816972],[90.323005,23.816867],[90.323068,23.816696],[90.32307,23.816664],[90.323056,23.816622],[90.323069,23.81661],[90.323127,23.81655],[90.323347,23.816632],[90.32333,23.816681],[90.323324,23.816727],[90.323312,23.816794],[90.323184,23.817141],[90.323349,23.817217],[90.323391,23.817236]]]}},{"type":"Feature","properties":{"survey":"bds","sheet":"015","dag":"7005","label_bn":"7005","area_sqm":1782.0},"geometry":{"type":"Polygon","coordinates":[[[90.320694,23.817713],[90.32063,23.817785],[90.319927,23.817359],[90.319991,23.817305],[90.320033,23.817279],[90.320101,23.817239],[90.320132,23.81722],[90.320191,23.81727],[90.320732,23.817637],[90.320694,23.817713]]]}},{"type":"Feature","properties":{"survey":"bds","sheet":"015","dag":"7031","label_bn":"7031","area_sqm":1184.0},"geometry":{"type":"Polygon","coordinates":[[[90.322957,23.817606],[90.32281,23.817831],[90.322793,23.817811],[90.32275,23.817788],[90.322512,23.817703],[90.322666,23.817381],[90.322957,23.817606]]]}},{"type":"Feature","properties":{"survey":"bds","sheet":"015","dag":"7004","label_bn":"7004","area_sqm":1582.7},"geometry":{"type":"Polygon","coordinates":[[[90.320468,23.817882],[90.320454,23.817902],[90.320151,23.8177],[90.319968,23.817577],[90.319824,23.817475],[90.319838,23.817449],[90.319852,23.817426],[90.31992,23.817364],[90.319927,23.817359],[90.32063,23.817785],[90.320537,23.817848],[90.320468,23.817882]]]}},{"type":"Feature","properties":{"survey":"bds","sheet":"015","dag":"7012","label_bn":"7012","area_sqm":1426.0},"geometry":{"type":"Polygon","coordinates":[[[90.321339,23.817667],[90.321094,23.817928],[90.320933,23.817817],[90.321162,23.81756],[90.321331,23.817372],[90.321539,23.817426],[90.321363,23.817639],[90.321339,23.817667]]]}},{"type":"Feature","properties":{"survey":"bds","sheet":"015","dag":"7001","label_bn":"7001","area_sqm":24369.9},"geometry":{"type":"Polygon","coordinates":[[[90.319871,23.817929],[90.319874,23.817933],[90.319325,23.817893],[90.319258,23.817888],[90.319197,23.817691],[90.319161,23.817456],[90.319242,23.817392],[90.319347,23.817282],[90.319453,23.817138],[90.319613,23.816986],[90.319809,23.816842],[90.319904,23.816774],[90.319996,23.816737],[90.320114,23.816704],[90.320199,23.81668],[90.320347,23.816632],[90.320465,23.816584],[90.320494,23.816565],[90.320586,23.816503],[90.32067,23.816459],[90.320764,23.816433],[90.320894,23.816412],[90.321021,23.816405],[90.321162,23.816397],[90.321321,23.816379],[90.32147,23.81634],[90.321647,23.816285],[90.321835,23.816219],[90.321971,23.816192],[90.322131,23.81616],[90.322224,23.816147],[90.322291,23.816127],[90.322474,23.816049],[90.322596,23.815974],[90.322706,23.8159],[90.322747,23.81586],[90.32276,23.815889],[90.323003,23.816442],[90.322934,23.816496],[90.322923,23.816504],[90.322856,23.816541],[90.322847,23.816546],[90.322843,23.816548],[90.322837,23.81655],[90.32276,23.816573],[90.322757,23.816574],[90.322548,23.816625],[90.322187,23.816702],[90.322077,23.816721],[90.322054,23.816726],[90.321969,23.816741],[90.321788,23.816773],[90.321784,23.816774],[90.321414,23.816824],[90.321189,23.816856],[90.321166,23.816861],[90.320944,23.816907],[90.3208,23.81694],[90.320712,23.816966],[90.320699,23.81697],[90.320559,23.817017],[90.320337,23.817115],[90.320206,23.817176],[90.320132,23.81722],[90.320101,23.817239],[90.320033,23.817279],[90.319991,23.817305],[90.319927,23.817359],[90.31992,23.817364],[90.319852,23.817426],[90.319838,23.817449],[90.319824,23.817475],[90.319822,23.817478],[90.319819,23.817507],[90.319823,23.81758],[90.319835,23.817743],[90.319855,23.817879],[90.319871,23.817929]]]}},{"type":"Feature","properties":{"survey":"bds","sheet":"015","dag":"7018","label_bn":"7018","area_sqm":3513.0},"geometry":{"type":"Polygon","coordinates":[[[90.322305,23.817654],[90.322061,23.817963],[90.322049,23.817957],[90.321818,23.81785],[90.321767,23.817826],[90.321624,23.81776],[90.321363,23.817639],[90.321539,23.817426],[90.321643,23.817309],[90.321733,23.817323],[90.321751,23.817363],[90.321775,23.81739],[90.321831,23.817422],[90.321921,23.817449],[90.322041,23.817515],[90.322158,23.817559],[90.322183,23.817562],[90.322204,23.817569],[90.322221,23.817586],[90.322248,23.817621],[90.322305,23.817654]]]}},{"type":"Feature","properties":{"survey":"bds","sheet":"015","dag":"7030","label_bn":"7030","area_sqm":804.4},"geometry":{"type":"Polygon","coordinates":[[[90.323141,23.817686],[90.323027,23.817974],[90.322938,23.817934],[90.322789,23.817857],[90.32281,23.817831],[90.322957,23.817606],[90.323141,23.817686]]]}},{"type":"Feature","properties":{"survey":"bds","sheet":"015","dag":"7002","label_bn":"7002","area_sqm":979.3},"geometry":{"type":"Polygon","coordinates":[[[90.320151,23.8177],[90.319916,23.817983],[90.319907,23.81797],[90.319874,23.817933],[90.319871,23.817929],[90.319855,23.817879],[90.319835,23.817743],[90.319823,23.81758],[90.319819,23.817507],[90.319822,23.817478],[90.319824,23.817475],[90.319968,23.817577],[90.320151,23.8177]]]}},{"type":"Feature","properties":{"survey":"bds","sheet":"015","dag":"7029","label_bn":"7029","area_sqm":609.7},"geometry":{"type":"Polygon","coordinates":[[[90.323225,23.817722],[90.323235,23.81805],[90.323007,23.818025],[90.323027,23.817974],[90.323141,23.817686],[90.323225,23.817722]]]}},{"type":"Feature","properties":{"survey":"bds","sheet":"015","dag":"7013","label_bn":"7013","area_sqm":2723.8},"geometry":{"type":"Polygon","coordinates":[[[90.320933,23.817817],[90.320701,23.818076],[90.320506,23.818004],[90.320467,23.817936],[90.320454,23.817902],[90.320468,23.817882],[90.320537,23.817848],[90.32063,23.817785],[90.320694,23.817713],[90.320732,23.817637],[90.320883,23.817487],[90.321037,23.817338],[90.321,23.817296],[90.321008,23.817294],[90.321331,23.817372],[90.321162,23.81756],[90.320933,23.817817]]]}},{"type":"Feature","properties":{"survey":"bds","sheet":"015","dag":"7014","label_bn":"7014","area_sqm":731.8},"geometry":{"type":"Polygon","coordinates":[[[90.321094,23.817928],[90.320865,23.818171],[90.320701,23.818076],[90.320933,23.817817],[90.321094,23.817928]]]}},{"type":"Feature","properties":{"survey":"bds","sheet":"015","dag":"7003","label_bn":"7003","area_sqm":1755.8},"geometry":{"type":"Polygon","coordinates":[[[90.320506,23.818004],[90.32015,23.818186],[90.320067,23.818118],[90.320013,23.818079],[90.31998,23.818057],[90.319933,23.818007],[90.319916,23.817983],[90.320151,23.8177],[90.320454,23.817902],[90.320467,23.817936],[90.320506,23.818004]]]}},{"type":"Feature","properties":{"survey":"bds","sheet":"015","dag":"7026","label_bn":"7026","area_sqm":2485.0},"geometry":{"type":"Polygon","coordinates":[[[90.322452,23.818173],[90.322396,23.818202],[90.322332,23.818124],[90.322265,23.818076],[90.322061,23.817963],[90.322305,23.817654],[90.322329,23.817662],[90.322512,23.817703],[90.32275,23.817788],[90.322793,23.817811],[90.32281,23.817831],[90.322789,23.817857],[90.322619,23.81802],[90.322452,23.818173]]]}},{"type":"Feature","properties":{"survey":"bds","sheet":"015","dag":"7017","label_bn":"7017","area_sqm":3060.7},"geometry":{"type":"Polygon","coordinates":[[[90.321327,23.818179],[90.321134,23.818432],[90.320827,23.818228],[90.320865,23.818171],[90.321094,23.817928],[90.321339,23.817667],[90.321363,23.817639],[90.321624,23.81776],[90.321483,23.817968],[90.321327,23.818179]]]}},{"type":"Feature","properties":{"survey":"bds","sheet":"015","dag":"7024","label_bn":"7024","area_sqm":1864.2},"geometry":{"type":"Polygon","coordinates":[[[90.322049,23.817957],[90.321852,23.818527],[90.321583,23.818354],[90.321818,23.81785],[90.322049,23.817957]]]}},{"type":"Feature","properties":{"survey":"bds","sheet":"015","dag":"7015","label_bn":"7015","area_sqm":2225.2},"geometry":{"type":"Polygon","coordinates":[[[90.320827,23.818228],[90.3206,23.81853],[90.320549,23.818501],[90.320423,23.818401],[90.320331,23.818338],[90.320253,23.818272],[90.320197,23.818227],[90.32016,23.818194],[90.32015,23.818186],[90.320506,23.818004],[90.320701,23.818076],[90.320865,23.818171],[90.320827,23.818228]]]}},{"type":"Feature","properties":{"survey":"bds","sheet":"015","dag":"7025","label_bn":"7025","area_sqm":2412.7},"geometry":{"type":"Polygon","coordinates":[[[90.322265,23.818604],[90.322264,23.81862],[90.322025,23.818574],[90.321852,23.818527],[90.322049,23.817957],[90.322061,23.817963],[90.322265,23.818076],[90.322332,23.818124],[90.322396,23.818202],[90.32235,23.818251],[90.32232,23.818302],[90.322289,23.818428],[90.322265,23.818604]]]}},{"type":"Feature","properties":{"survey":"bds","sheet":"015","dag":"7016","label_bn":"7016","area_sqm":1526.4},"geometry":{"type":"Polygon","coordinates":[[[90.321134,23.818432],[90.320921,23.818716],[90.320908,23.818709],[90.320804,23.818647],[90.320661,23.818564],[90.320602,23.818531],[90.3206,23.81853],[90.320827,23.818228],[90.321134,23.818432]]]}},{"type":"Feature","properties":{"survey":"bds","sheet":"015","dag":"7027","label_bn":"7027","area_sqm":3950.7},"geometry":{"type":"Polygon","coordinates":[[[90.32265,23.818688],[90.32264,23.818727],[90.322264,23.81862],[90.322265,23.818604],[90.322289,23.818428],[90.32232,23.818302],[90.32235,23.818251],[90.322396,23.818202],[90.322452,23.818173],[90.322619,23.81802],[90.322789,23.817857],[90.322938,23.817934],[90.323027,23.817974],[90.323007,23.818025],[90.32265,23.818688]]]}},{"type":"Feature","properties":{"survey":"bds","sheet":"015","dag":"7028","label_bn":"7028","area_sqm":2251.2},"geometry":{"type":"Polygon","coordinates":[[[90.323127,23.818438],[90.322902,23.818741],[90.322691,23.818681],[90.32265,23.818688],[90.323007,23.818025],[90.323235,23.81805],[90.323236,23.81808],[90.32316,23.818266],[90.323125,23.818401],[90.323127,23.818438]]]}},{"type":"Feature","properties":{"survey":"bds","sheet":"015","dag":"7023","label_bn":"7023","area_sqm":1041.7},"geometry":{"type":"Polygon","coordinates":[[[90.321852,23.818527],[90.321746,23.818747],[90.321668,23.818728],[90.321441,23.818657],[90.321583,23.818354],[90.321852,23.818527]]]}},{"type":"Feature","properties":{"survey":"bds","sheet":"015","dag":"7019","label_bn":"7019","area_sqm":2647.8},"geometry":{"type":"Polygon","coordinates":[[[90.321479,23.818285],[90.321141,23.81884],[90.321099,23.818816],[90.320921,23.818716],[90.321134,23.818432],[90.321327,23.818179],[90.321483,23.817968],[90.321624,23.81776],[90.321767,23.817826],[90.321479,23.818285]]]}},{"type":"Feature","properties":{"survey":"bds","sheet":"015","dag":"7020","label_bn":"7020","area_sqm":1705.8},"geometry":{"type":"Polygon","coordinates":[[[90.321441,23.818657],[90.321301,23.818928],[90.321257,23.818907],[90.321141,23.81884],[90.321479,23.818285],[90.321767,23.817826],[90.321818,23.81785],[90.321583,23.818354],[90.321441,23.818657]]]}},{"type":"Feature","properties":{"survey":"bds","sheet":"015","dag":"7021","label_bn":"7021","area_sqm":867.0},"geometry":{"type":"Polygon","coordinates":[[[90.321668,23.818728],[90.321525,23.819027],[90.32136,23.818956],[90.321301,23.818928],[90.321441,23.818657],[90.321668,23.818728]]]}},{"type":"Feature","properties":{"survey":"bds","sheet":"015","dag":"7022","label_bn":"7022","area_sqm":1471.3},"geometry":{"type":"Polygon","coordinates":[[[90.322025,23.818574],[90.321747,23.819128],[90.321669,23.819092],[90.321557,23.81904],[90.321525,23.819027],[90.321668,23.818728],[90.321746,23.818747],[90.321852,23.818527],[90.322025,23.818574]]]}}]}