{"type":"FeatureCollection","features":[{"type":"Feature","properties":{"survey":"bds","sheet":"016","dag":"7554","label_bn":"7554","area_sqm":227.6},"geometry":{"type":"Polygon","coordinates":[[[90.324668,23.814347],[90.324641,23.814456],[90.324458,23.814419],[90.324483,23.814319],[90.324668,23.814347]]]}},{"type":"Feature","properties":{"survey":"bds","sheet":"016","dag":"7558","label_bn":"7558","area_sqm":2025.9},"geometry":{"type":"Polygon","coordinates":[[[90.325633,23.814399],[90.325463,23.814821],[90.325089,23.814704],[90.325118,23.814638],[90.325157,23.814531],[90.325243,23.814296],[90.325438,23.814339],[90.325585,23.814373],[90.325633,23.814399]]]}},{"type":"Feature","properties":{"survey":"bds","sheet":"016","dag":"7555","label_bn":"7555","area_sqm":1146.0},"geometry":{"type":"Polygon","coordinates":[[[90.324675,23.814884],[90.32451,23.814896],[90.324638,23.814471],[90.324641,23.814456],[90.324668,23.814347],[90.324688,23.814298],[90.324863,23.814334],[90.324832,23.814433],[90.324804,23.814511],[90.324798,23.814532],[90.324768,23.814625],[90.324734,23.814712],[90.324709,23.814798],[90.324675,23.814884]]]}},{"type":"Feature","properties":{"survey":"bds","sheet":"016","dag":"7553","label_bn":"7553","area_sqm":1080.2},"geometry":{"type":"Polygon","coordinates":[[[90.324489,23.8149],[90.324454,23.814912],[90.324292,23.814861],[90.324299,23.814735],[90.324402,23.814662],[90.324455,23.814432],[90.324458,23.814419],[90.324641,23.814456],[90.324638,23.814471],[90.32451,23.814896],[90.324489,23.8149]]]}},{"type":"Feature","properties":{"survey":"bds","sheet":"016","dag":"7556","label_bn":"7556","area_sqm":2750.8},"geometry":{"type":"Polygon","coordinates":[[[90.325082,23.814719],[90.324979,23.815016],[90.324972,23.815013],[90.324732,23.814894],[90.324675,23.814884],[90.324709,23.814798],[90.324734,23.814712],[90.324768,23.814625],[90.324798,23.814532],[90.324804,23.814511],[90.324832,23.814433],[90.324863,23.814334],[90.324901,23.814229],[90.325243,23.814296],[90.325157,23.814531],[90.325118,23.814638],[90.325089,23.814704],[90.325082,23.814719]]]}},{"type":"Feature","properties":{"survey":"bds","sheet":"016","dag":"7529","label_bn":"7529","area_sqm":1558.2},"geometry":{"type":"Polygon","coordinates":[[[90.323517,23.81467],[90.32309,23.815064],[90.322979,23.814999],[90.322914,23.815008],[90.323088,23.814607],[90.323185,23.814621],[90.323254,23.814631],[90.323353,23.814646],[90.323409,23.814635],[90.323517,23.81467]]]}},{"type":"Feature","properties":{"survey":"bds","sheet":"016","dag":"7532","label_bn":"7532","area_sqm":1199.8},"geometry":{"type":"Polygon","coordinates":[[[90.324061,23.814794],[90.323907,23.815137],[90.323742,23.814991],[90.323769,23.814894],[90.323824,23.814785],[90.32401,23.814749],[90.32402,23.81473],[90.324015,23.814705],[90.324014,23.8147],[90.324037,23.814688],[90.324105,23.814697],[90.324126,23.814668],[90.324289,23.814714],[90.324299,23.814735],[90.324292,23.814861],[90.324108,23.814801],[90.324061,23.814794]]]}},{"type":"Feature","properties":{"survey":"bds","sheet":"016","dag":"7530","label_bn":"7530","area_sqm":1259.9},"geometry":{"type":"Polygon","coordinates":[[[90.323486,23.814967],[90.323275,23.815171],[90.32325,23.815154],[90.32309,23.815064],[90.323517,23.81467],[90.323553,23.814682],[90.323657,23.81475],[90.323619,23.814816],[90.323486,23.814967]]]}},{"type":"Feature","properties":{"survey":"bds","sheet":"016","dag":"7557","label_bn":"7557","area_sqm":1587.6},"geometry":{"type":"Polygon","coordinates":[[[90.325463,23.814821],[90.325316,23.815186],[90.325203,23.815136],[90.325116,23.81509],[90.32507,23.815061],[90.324979,23.815016],[90.325082,23.814719],[90.325089,23.814704],[90.325463,23.814821]]]}},{"type":"Feature","properties":{"survey":"bds","sheet":"016","dag":"7559","label_bn":"7559","area_sqm":5447.6},"geometry":{"type":"Polygon","coordinates":[[[90.325709,23.815243],[90.32568,23.81526],[90.325398,23.815214],[90.325316,23.815186],[90.325463,23.814821],[90.325633,23.814399],[90.325724,23.814449],[90.325858,23.814478],[90.326151,23.814532],[90.326243,23.814551],[90.326038,23.815072],[90.325709,23.815243]]]}},{"type":"Feature","properties":{"survey":"bds","sheet":"016","dag":"7531","label_bn":"7531","area_sqm":1261.7},"geometry":{"type":"Polygon","coordinates":[[[90.323742,23.814991],[90.323424,23.815271],[90.323403,23.815257],[90.323403,23.815256],[90.323275,23.815171],[90.323486,23.814967],[90.323619,23.814816],[90.323657,23.81475],[90.323746,23.814765],[90.323824,23.814785],[90.323769,23.814894],[90.323742,23.814991]]]}},{"type":"Feature","properties":{"survey":"bds","sheet":"016","dag":"7533","label_bn":"7533","area_sqm":2516.6},"geometry":{"type":"Polygon","coordinates":[[[90.324021,23.815496],[90.324007,23.81554],[90.32349,23.815453],[90.323461,23.815347],[90.323437,23.81528],[90.323424,23.815271],[90.323742,23.814991],[90.323907,23.815137],[90.324003,23.815218],[90.324086,23.815288],[90.324025,23.815481],[90.324025,23.815481],[90.324021,23.815496]]]}},{"type":"Feature","properties":{"survey":"bds","sheet":"016","dag":"7552","label_bn":"7552","area_sqm":7852.5},"geometry":{"type":"Polygon","coordinates":[[[90.325398,23.815214],[90.325164,23.815651],[90.324842,23.815524],[90.324669,23.81547],[90.324532,23.815425],[90.324415,23.815415],[90.324414,23.815414],[90.32437,23.815388],[90.324086,23.815288],[90.324003,23.815218],[90.323907,23.815137],[90.324061,23.814794],[90.324108,23.814801],[90.324292,23.814861],[90.324454,23.814912],[90.324489,23.8149],[90.32451,23.814896],[90.324675,23.814884],[90.324732,23.814894],[90.324972,23.815013],[90.324979,23.815016],[90.32507,23.815061],[90.325116,23.81509],[90.325203,23.815136],[90.325316,23.815186],[90.325398,23.815214]]]}},{"type":"Feature","properties":{"survey":"bds","sheet":"016","dag":"7545","label_bn":"7545","area_sqm":406.4},"geometry":{"type":"Polygon","coordinates":[[[90.324197,23.815672],[90.324165,23.815836],[90.32413,23.815824],[90.323963,23.815769],[90.323963,23.815767],[90.323995,23.8156],[90.324197,23.815672]]]}},{"type":"Feature","properties":{"survey":"bds","sheet":"016","dag":"7551","label_bn":"7551","area_sqm":3477.2},"geometry":{"type":"Polygon","coordinates":[[[90.325899,23.81549],[90.325719,23.815889],[90.325164,23.815651],[90.325398,23.815214],[90.32568,23.81526],[90.325709,23.815243],[90.325899,23.81549]]]}},{"type":"Feature","properties":{"survey":"bds","sheet":"016","dag":"7546","label_bn":"7546","area_sqm":325.2},"geometry":{"type":"Polygon","coordinates":[[[90.324335,23.815893],[90.324335,23.815893],[90.324165,23.815836],[90.324197,23.815672],[90.324357,23.815727],[90.324335,23.815893]]]}},{"type":"Feature","properties":{"survey":"bds","sheet":"016","dag":"7544","label_bn":"7544","area_sqm":203.2},"geometry":{"type":"Polygon","coordinates":[[[90.32413,23.815824],[90.324111,23.815922],[90.324069,23.815909],[90.323943,23.815874],[90.323963,23.815769],[90.32413,23.815824]]]}},{"type":"Feature","properties":{"survey":"bds","sheet":"016","dag":"7534","label_bn":"7534","area_sqm":2139.8},"geometry":{"type":"Polygon","coordinates":[[[90.323943,23.815874],[90.323933,23.815927],[90.323737,23.815888],[90.323454,23.815833],[90.323467,23.815784],[90.323506,23.815633],[90.323506,23.815632],[90.323512,23.815607],[90.32349,23.815455],[90.32349,23.815453],[90.324007,23.81554],[90.323995,23.8156],[90.323963,23.815767],[90.323963,23.815769],[90.323943,23.815874]]]}},{"type":"Feature","properties":{"survey":"bds","sheet":"016","dag":"7540","label_bn":"7540","area_sqm":81.5},"geometry":{"type":"Polygon","coordinates":[[[90.324069,23.815909],[90.324053,23.815965],[90.323933,23.815927],[90.323943,23.815874],[90.324069,23.815909]]]}},{"type":"Feature","properties":{"survey":"bds","sheet":"016","dag":"7543","label_bn":"7543","area_sqm":244.1},"geometry":{"type":"Polygon","coordinates":[[[90.324335,23.815893],[90.324326,23.815991],[90.324184,23.815946],[90.324111,23.815922],[90.32413,23.815824],[90.324165,23.815836],[90.324335,23.815893]]]}},{"type":"Feature","properties":{"survey":"bds","sheet":"016","dag":"7539","label_bn":"7539","area_sqm":81.4},"geometry":{"type":"Polygon","coordinates":[[[90.324053,23.815965],[90.324041,23.816021],[90.323922,23.815983],[90.323933,23.815927],[90.324053,23.815965]]]}},{"type":"Feature","properties":{"survey":"bds","sheet":"016","dag":"7541","label_bn":"7541","area_sqm":162.6},"geometry":{"type":"Polygon","coordinates":[[[90.324184,23.815946],[90.324157,23.816061],[90.324154,23.81606],[90.324041,23.816021],[90.324053,23.815965],[90.324069,23.815909],[90.324111,23.815922],[90.324184,23.815946]]]}},{"type":"Feature","properties":{"survey":"bds","sheet":"016","dag":"7542","label_bn":"7542","area_sqm":203.3},"geometry":{"type":"Polygon","coordinates":[[[90.324326,23.815992],[90.324302,23.816109],[90.324157,23.816061],[90.324184,23.815946],[90.324326,23.815991],[90.324326,23.815992]]]}},{"type":"Feature","properties":{"survey":"bds","sheet":"016","dag":"7536","label_bn":"7536","area_sqm":812.9},"geometry":{"type":"Polygon","coordinates":[[[90.323737,23.815888],[90.32369,23.816129],[90.323591,23.816108],[90.323392,23.816063],[90.323398,23.816046],[90.3234,23.816043],[90.323454,23.815833],[90.323737,23.815888]]]}},{"type":"Feature","properties":{"survey":"bds","sheet":"016","dag":"7547","label_bn":"7547","area_sqm":853.7},"geometry":{"type":"Polygon","coordinates":[[[90.324548,23.815783],[90.324511,23.816143],[90.324302,23.816109],[90.324326,23.815992],[90.324326,23.815991],[90.324335,23.815893],[90.324335,23.815893],[90.324357,23.815727],[90.324357,23.815727],[90.324548,23.815783]]]}},{"type":"Feature","properties":{"survey":"bds","sheet":"016","dag":"7535","label_bn":"7535","area_sqm":555.1},"geometry":{"type":"Polygon","coordinates":[[[90.323922,23.815983],[90.323886,23.816168],[90.32369,23.816129],[90.323737,23.815888],[90.323933,23.815927],[90.323922,23.815983]]]}},{"type":"Feature","properties":{"survey":"bds","sheet":"016","dag":"7537","label_bn":"7537","area_sqm":238.7},"geometry":{"type":"Polygon","coordinates":[[[90.323886,23.816168],[90.32388,23.816201],[90.323372,23.816112],[90.323392,23.816063],[90.323591,23.816108],[90.32369,23.816129],[90.323886,23.816168]]]}},{"type":"Feature","properties":{"survey":"bds","sheet":"016","dag":"7538","label_bn":"7538","area_sqm":1016.4},"geometry":{"type":"Polygon","coordinates":[[[90.324302,23.816109],[90.324298,23.816328],[90.32427,23.816317],[90.32388,23.816201],[90.323886,23.816168],[90.323922,23.815983],[90.324041,23.816021],[90.324154,23.81606],[90.324157,23.816061],[90.324302,23.816109]]]}},{"type":"Feature","properties":{"survey":"bds","sheet":"016","dag":"7548","label_bn":"7548","area_sqm":528.6},"geometry":{"type":"Polygon","coordinates":[[[90.324489,23.816356],[90.324424,23.816378],[90.324298,23.816328],[90.324302,23.816109],[90.324511,23.816143],[90.324489,23.816356]]]}},{"type":"Feature","properties":{"survey":"bds","sheet":"016","dag":"7549","label_bn":"7549","area_sqm":7065.2},"geometry":{"type":"Polygon","coordinates":[[[90.324801,23.816343],[90.324675,23.81639],[90.324599,23.816372],[90.324503,23.816352],[90.324489,23.816356],[90.324511,23.816143],[90.324548,23.815783],[90.324357,23.815727],[90.324357,23.815727],[90.324197,23.815672],[90.323995,23.8156],[90.324007,23.81554],[90.324021,23.815496],[90.324025,23.815481],[90.324025,23.815481],[90.324086,23.815288],[90.32437,23.815388],[90.324414,23.815414],[90.324415,23.815415],[90.324532,23.815425],[90.324669,23.81547],[90.324842,23.815524],[90.325164,23.815651],[90.325065,23.815859],[90.325043,23.815958],[90.325054,23.816064],[90.32505,23.816183],[90.325018,23.816296],[90.324801,23.816343]]]}},{"type":"Feature","properties":{"survey":"bds","sheet":"016","dag":"7550","label_bn":"7550","area_sqm":3985.3},"geometry":{"type":"Polygon","coordinates":[[[90.325719,23.815889],[90.325476,23.816429],[90.325425,23.816417],[90.325018,23.816296],[90.32505,23.816183],[90.325054,23.816064],[90.325043,23.815958],[90.325065,23.815859],[90.325164,23.815651],[90.325719,23.815889]]]}},{"type":"Feature","properties":{"survey":"bds","sheet":"016","dag":"7528","label_bn":"7528","area_sqm":8272.0},"geometry":{"type":"Polygon","coordinates":[[[90.323145,23.816342],[90.323023,23.816487],[90.323003,23.816442],[90.323003,23.816441],[90.322747,23.81586],[90.322819,23.815792],[90.32285,23.815724],[90.322855,23.815668],[90.322833,23.8156],[90.322788,23.815547],[90.322727,23.815509],[90.322722,23.815508],[90.322733,23.815485],[90.322965,23.815027],[90.322979,23.814999],[90.32309,23.815064],[90.32325,23.815154],[90.323275,23.815171],[90.323403,23.815256],[90.323403,23.815257],[90.323424,23.815271],[90.323437,23.81528],[90.323461,23.815347],[90.32349,23.815453],[90.32349,23.815455],[90.323512,23.815607],[90.323506,23.815632],[90.323506,23.815633],[90.323467,23.815784],[90.323454,23.815833],[90.3234,23.816043],[90.323398,23.816046],[90.323392,23.816063],[90.323372,23.816112],[90.323366,23.816129],[90.323347,23.816152],[90.323145,23.816342]]]}},{"type":"Feature","properties":{"survey":"bds","sheet":"016","dag":"7527","label_bn":"7527","area_sqm":7078.0},"geometry":{"type":"Polygon","coordinates":[[[90.324361,23.816609],[90.324263,23.816834],[90.32399,23.816771],[90.323972,23.816767],[90.323883,23.816753],[90.323847,23.816748],[90.323713,23.816722],[90.323504,23.816685],[90.323464,23.816674],[90.323347,23.816632],[90.323127,23.81655],[90.323023,23.816487],[90.323145,23.816342],[90.323347,23.816152],[90.323366,23.816129],[90.323372,23.816112],[90.32388,23.816201],[90.32427,23.816317],[90.324298,23.816328],[90.324424,23.816378],[90.324361,23.816609]]]}},{"type":"Feature","properties":{"survey":"bds","sheet":"016","dag":"7503","label_bn":"7503","area_sqm":2266.7},"geometry":{"type":"Polygon","coordinates":[[[90.323524,23.817258],[90.323524,23.817259],[90.323393,23.817236],[90.323391,23.817236],[90.323349,23.817217],[90.323184,23.817141],[90.323312,23.816794],[90.323324,23.816727],[90.32333,23.816681],[90.323347,23.816632],[90.323464,23.816674],[90.323504,23.816685],[90.323713,23.816722],[90.323524,23.817258]]]}},{"type":"Feature","properties":{"survey":"bds","sheet":"016","dag":"7504","label_bn":"7504","area_sqm":1147.4},"geometry":{"type":"Polygon","coordinates":[[[90.323883,23.816753],[90.323688,23.817312],[90.323651,23.817305],[90.323544,23.817283],[90.323535,23.817281],[90.323531,23.817276],[90.32353,23.817275],[90.323527,23.817272],[90.323524,23.817259],[90.323524,23.817258],[90.323713,23.816722],[90.323847,23.816748],[90.323883,23.816753]]]}},{"type":"Feature","properties":{"survey":"bds","sheet":"016","dag":"7507","label_bn":"7507","area_sqm":1100.4},"geometry":{"type":"Polygon","coordinates":[[[90.324586,23.817277],[90.324577,23.817317],[90.324153,23.817068],[90.324153,23.817062],[90.324218,23.816927],[90.324613,23.817038],[90.324613,23.81708],[90.324612,23.817118],[90.324608,23.817158],[90.324604,23.817202],[90.324594,23.817236],[90.324586,23.817277]]]}},{"type":"Feature","properties":{"survey":"bds","sheet":"016","dag":"7505","label_bn":"7505","area_sqm":731.4},"geometry":{"type":"Polygon","coordinates":[[[90.32399,23.816771],[90.323797,23.817333],[90.323772,23.81733],[90.323688,23.817312],[90.323883,23.816753],[90.323972,23.816767],[90.32399,23.816771]]]}},{"type":"Feature","properties":{"survey":"bds","sheet":"016","dag":"7526","label_bn":"7526","area_sqm":13649.6},"geometry":{"type":"Polygon","coordinates":[[[90.325813,23.817289],[90.325784,23.81736],[90.325599,23.817304],[90.32551,23.817276],[90.325447,23.817266],[90.325375,23.817244],[90.325277,23.817215],[90.325107,23.817164],[90.324737,23.817075],[90.324613,23.817038],[90.324613,23.817038],[90.324218,23.816927],[90.324263,23.816834],[90.324361,23.816609],[90.324424,23.816378],[90.324489,23.816356],[90.324503,23.816352],[90.324599,23.816372],[90.324675,23.81639],[90.324801,23.816343],[90.325018,23.816296],[90.325425,23.816417],[90.325476,23.816429],[90.325576,23.81647],[90.325712,23.816539],[90.325752,23.816601],[90.325815,23.816698],[90.326022,23.816673],[90.325968,23.816912],[90.325813,23.817289]]]}},{"type":"Feature","properties":{"survey":"bds","sheet":"016","dag":"7506","label_bn":"7506","area_sqm":1667.5},"geometry":{"type":"Polygon","coordinates":[[[90.324153,23.81711],[90.32402,23.817362],[90.323797,23.817333],[90.32399,23.816771],[90.324263,23.816834],[90.324218,23.816927],[90.324153,23.817062],[90.324153,23.817068],[90.324153,23.81708],[90.324153,23.817085],[90.324153,23.81711]]]}},{"type":"Feature","properties":{"survey":"bds","sheet":"016","dag":"7525","label_bn":"7525","area_sqm":2862.5},"geometry":{"type":"Polygon","coordinates":[[[90.325325,23.81737],[90.325277,23.817539],[90.324806,23.817481],[90.324793,23.817454],[90.324577,23.817317],[90.324586,23.817277],[90.324594,23.817236],[90.324604,23.817202],[90.324608,23.817158],[90.324612,23.817118],[90.324613,23.81708],[90.324613,23.817038],[90.324613,23.817038],[90.324737,23.817075],[90.325107,23.817164],[90.325277,23.817215],[90.325375,23.817244],[90.325325,23.81737]]]}},{"type":"Feature","properties":{"survey":"bds","sheet":"016","dag":"7508","label_bn":"7508","area_sqm":1878.3},"geometry":{"type":"Polygon","coordinates":[[[90.324525,23.817554],[90.324517,23.817595],[90.324023,23.817418],[90.32402,23.817362],[90.324153,23.81711],[90.324153,23.817085],[90.324153,23.81708],[90.324153,23.817068],[90.324577,23.817317],[90.324546,23.817456],[90.324525,23.817554]]]}},{"type":"Feature","properties":{"survey":"bds","sheet":"016","dag":"7502","label_bn":"7502","area_sqm":2996.9},"geometry":{"type":"Polygon","coordinates":[[[90.324009,23.817702],[90.323968,23.817776],[90.323285,23.817573],[90.323276,23.81757],[90.323308,23.817479],[90.323393,23.817236],[90.323524,23.817259],[90.323527,23.817272],[90.32353,23.817275],[90.323531,23.817276],[90.323535,23.817281],[90.323544,23.817283],[90.323651,23.817305],[90.323688,23.817312],[90.323772,23.81733],[90.323797,23.817333],[90.32402,23.817362],[90.324023,23.817418],[90.324024,23.817443],[90.324026,23.817598],[90.324026,23.817651],[90.324009,23.817702]]]}},{"type":"Feature","properties":{"survey":"bds","sheet":"016","dag":"7524","label_bn":"7524","area_sqm":2322.7},"geometry":{"type":"Polygon","coordinates":[[[90.325537,23.817901],[90.325516,23.817901],[90.325516,23.817897],[90.325356,23.817872],[90.325353,23.817773],[90.325375,23.817544],[90.325277,23.817539],[90.325325,23.81737],[90.325375,23.817244],[90.325447,23.817266],[90.32551,23.817276],[90.325599,23.817304],[90.325784,23.81736],[90.325789,23.817362],[90.32566,23.817665],[90.325571,23.81787],[90.325554,23.817891],[90.325537,23.817901]]]}},{"type":"Feature","properties":{"survey":"bds","sheet":"016","dag":"7509","label_bn":"7509","area_sqm":2175.0},"geometry":{"type":"Polygon","coordinates":[[[90.324379,23.81799],[90.324378,23.817993],[90.32428,23.817945],[90.324186,23.817898],[90.323961,23.817798],[90.323968,23.817776],[90.324009,23.817702],[90.324026,23.817651],[90.324026,23.817598],[90.324024,23.817443],[90.324023,23.817418],[90.324517,23.817595],[90.324515,23.817602],[90.324505,23.817652],[90.324472,23.81778],[90.324437,23.817883],[90.324393,23.817965],[90.324379,23.81799]]]}},{"type":"Feature","properties":{"survey":"bds","sheet":"016","dag":"7523","label_bn":"7523","area_sqm":3181.9},"geometry":{"type":"Polygon","coordinates":[[[90.326069,23.817725],[90.325838,23.818068],[90.325515,23.817946],[90.325516,23.817901],[90.325537,23.817901],[90.325554,23.817891],[90.325571,23.81787],[90.32566,23.817665],[90.325789,23.817362],[90.325784,23.81736],[90.325813,23.817289],[90.326213,23.81744],[90.326099,23.817699],[90.326069,23.817725]]]}},{"type":"Feature","properties":{"survey":"bds","sheet":"016","dag":"7513","label_bn":"7513","area_sqm":3516.4},"geometry":{"type":"Polygon","coordinates":[[[90.325356,23.817872],[90.325228,23.818103],[90.325158,23.818099],[90.325151,23.818098],[90.324739,23.818023],[90.32477,23.817865],[90.3248,23.817708],[90.324806,23.817481],[90.325277,23.817539],[90.325375,23.817544],[90.325353,23.817773],[90.325356,23.817872]]]}},{"type":"Feature","properties":{"survey":"bds","sheet":"016","dag":"7522","label_bn":"7522","area_sqm":532.2},"geometry":{"type":"Polygon","coordinates":[[[90.325425,23.818107],[90.325373,23.818137],[90.325346,23.818132],[90.32532,23.818126],[90.325228,23.818103],[90.325356,23.817872],[90.325516,23.817897],[90.325516,23.817901],[90.325515,23.817946],[90.325514,23.817961],[90.325478,23.818024],[90.325468,23.818041],[90.325425,23.818107]]]}},{"type":"Feature","properties":{"survey":"bds","sheet":"016","dag":"7521","label_bn":"7521","area_sqm":325.1},"geometry":{"type":"Polygon","coordinates":[[[90.325786,23.818079],[90.325763,23.818144],[90.325478,23.818024],[90.325514,23.817961],[90.325515,23.817946],[90.325838,23.818068],[90.325828,23.818084],[90.325787,23.818077],[90.325786,23.818079]]]}},{"type":"Feature","properties":{"survey":"bds","sheet":"016","dag":"7501","label_bn":"7501","area_sqm":3098.2},"geometry":{"type":"Polygon","coordinates":[[[90.323709,23.817988],[90.32358,23.81816],[90.323429,23.818093],[90.323234,23.818026],[90.32323,23.817886],[90.323225,23.817722],[90.323276,23.81757],[90.323285,23.817573],[90.323968,23.817776],[90.323961,23.817798],[90.323881,23.817966],[90.323862,23.818008],[90.32386,23.81801],[90.32378,23.818031],[90.323786,23.818004],[90.323709,23.817988]]]}},{"type":"Feature","properties":{"survey":"bds","sheet":"016","dag":"7510","label_bn":"7510","area_sqm":1008.9},"geometry":{"type":"Polygon","coordinates":[[[90.324378,23.817993],[90.324262,23.818169],[90.323881,23.817966],[90.323961,23.817798],[90.324186,23.817898],[90.32428,23.817945],[90.324378,23.817993]]]}},{"type":"Feature","properties":{"survey":"bds","sheet":"016","dag":"7511","label_bn":"7511","area_sqm":569.3},"geometry":{"type":"Polygon","coordinates":[[[90.324262,23.818169],[90.324181,23.818274],[90.323976,23.818141],[90.32378,23.818031],[90.32386,23.81801],[90.323862,23.818008],[90.323881,23.817966],[90.324262,23.818169]]]}},{"type":"Feature","properties":{"survey":"bds","sheet":"016","dag":"7518","label_bn":"7518","area_sqm":325.8},"geometry":{"type":"Polygon","coordinates":[[[90.325334,23.818183],[90.325311,23.818283],[90.325141,23.818245],[90.325151,23.818098],[90.325158,23.818099],[90.325228,23.818103],[90.32532,23.818126],[90.325346,23.818132],[90.325334,23.818183]]]}},{"type":"Feature","properties":{"survey":"bds","sheet":"016","dag":"7512","label_bn":"7512","area_sqm":3228.6},"geometry":{"type":"Polygon","coordinates":[[[90.324673,23.818243],[90.324678,23.818314],[90.324397,23.818225],[90.324316,23.818193],[90.324262,23.818169],[90.324378,23.817993],[90.324379,23.81799],[90.324393,23.817965],[90.324437,23.817883],[90.324472,23.81778],[90.324505,23.817652],[90.324515,23.817602],[90.324517,23.817595],[90.324525,23.817554],[90.324546,23.817456],[90.324577,23.817317],[90.324793,23.817454],[90.324806,23.817481],[90.3248,23.817708],[90.32477,23.817865],[90.324739,23.818023],[90.324709,23.818104],[90.324679,23.818186],[90.324673,23.818243]]]}},{"type":"Feature","properties":{"survey":"bds","sheet":"016","dag":"7520","label_bn":"7520","area_sqm":812.9},"geometry":{"type":"Polygon","coordinates":[[[90.325717,23.818276],[90.325695,23.818341],[90.325334,23.818183],[90.325346,23.818132],[90.325373,23.818137],[90.325425,23.818107],[90.325468,23.818041],[90.325478,23.818024],[90.325763,23.818144],[90.325758,23.818159],[90.325755,23.818167],[90.325717,23.818276]]]}},{"type":"Feature","properties":{"survey":"bds","sheet":"016","dag":"7519","label_bn":"7519","area_sqm":771.2},"geometry":{"type":"Polygon","coordinates":[[[90.325674,23.8184],[90.325609,23.818505],[90.325283,23.81835],[90.325311,23.818283],[90.325334,23.818183],[90.325695,23.818341],[90.325674,23.8184]]]}},{"type":"Feature","properties":{"survey":"bds","sheet":"016","dag":"7514","label_bn":"7514","area_sqm":1869.4},"geometry":{"type":"Polygon","coordinates":[[[90.324932,23.818407],[90.324805,23.818517],[90.324798,23.818507],[90.324678,23.818352],[90.324678,23.818314],[90.324673,23.818243],[90.324679,23.818186],[90.324709,23.818104],[90.324739,23.818023],[90.325151,23.818098],[90.325141,23.818245],[90.325003,23.818469],[90.324932,23.818407]]]}},{"type":"Feature","properties":{"survey":"bds","sheet":"016","dag":"7517","label_bn":"7517","area_sqm":731.9},"geometry":{"type":"Polygon","coordinates":[[[90.325171,23.818617],[90.325155,23.818656],[90.325003,23.818469],[90.325141,23.818245],[90.325311,23.818283],[90.325283,23.81835],[90.325171,23.818617]]]}},{"type":"Feature","properties":{"survey":"bds","sheet":"016","dag":"7515","label_bn":"7515","area_sqm":650.4},"geometry":{"type":"Polygon","coordinates":[[[90.325043,23.818724],[90.325011,23.818749],[90.324984,23.818731],[90.324908,23.818647],[90.324805,23.818517],[90.324932,23.818407],[90.325003,23.818469],[90.325155,23.818656],[90.325151,23.818664],[90.325114,23.818675],[90.325085,23.81869],[90.325043,23.818724]]]}},{"type":"Feature","properties":{"survey":"bds","sheet":"016","dag":"7516","label_bn":"7516","area_sqm":1341.6},"geometry":{"type":"Polygon","coordinates":[[[90.325374,23.818816],[90.325323,23.818851],[90.325286,23.818813],[90.325228,23.818749],[90.325151,23.818664],[90.325155,23.818656],[90.325171,23.818617],[90.325283,23.81835],[90.325609,23.818505],[90.325552,23.818534],[90.325424,23.818759],[90.325374,23.818816]]]}}]}