{"type":"FeatureCollection","features":[{"type":"Feature","properties":{"survey":"bds","sheet":"017","dag":"8049","label_bn":"8049","area_sqm":414.6},"geometry":{"type":"Polygon","coordinates":[[[90.326494,23.815096],[90.326374,23.815174],[90.32633,23.814913],[90.326506,23.814875],[90.326505,23.814886],[90.326494,23.815096]]]}},{"type":"Feature","properties":{"survey":"bds","sheet":"017","dag":"8051","label_bn":"8051","area_sqm":871.9},"geometry":{"type":"Polygon","coordinates":[[[90.327011,23.81522],[90.326693,23.815313],[90.326583,23.815085],[90.326602,23.815083],[90.32695,23.815036],[90.326953,23.815036],[90.327011,23.815219],[90.327011,23.81522]]]}},{"type":"Feature","properties":{"survey":"bds","sheet":"017","dag":"8066","label_bn":"8066","area_sqm":439.5},"geometry":{"type":"Polygon","coordinates":[[[90.328304,23.815303],[90.328281,23.815319],[90.328133,23.815253],[90.32822,23.81506],[90.328304,23.815086],[90.32835,23.815098],[90.328382,23.815131],[90.328304,23.815303]]]}},{"type":"Feature","properties":{"survey":"bds","sheet":"017","dag":"8052","label_bn":"8052","area_sqm":554.3},"geometry":{"type":"Polygon","coordinates":[[[90.327058,23.81535],[90.326754,23.815463],[90.326751,23.815455],[90.32673,23.8154],[90.326693,23.815313],[90.327011,23.81522],[90.327054,23.815342],[90.327058,23.81535]]]}},{"type":"Feature","properties":{"survey":"bds","sheet":"017","dag":"8048","label_bn":"8048","area_sqm":1991.1},"geometry":{"type":"Polygon","coordinates":[[[90.32591,23.815481],[90.325899,23.81549],[90.325769,23.815321],[90.325737,23.815279],[90.325709,23.815243],[90.326038,23.815072],[90.326302,23.814919],[90.32633,23.814913],[90.326374,23.815174],[90.325949,23.81545],[90.32591,23.815481]]]}},{"type":"Feature","properties":{"survey":"bds","sheet":"017","dag":"8067","label_bn":"8067","area_sqm":1066.6},"geometry":{"type":"Polygon","coordinates":[[[90.328675,23.815504],[90.328667,23.815524],[90.328419,23.815373],[90.328402,23.815363],[90.328304,23.815303],[90.328382,23.815131],[90.328406,23.81514],[90.32848,23.81517],[90.328735,23.815258],[90.328743,23.815283],[90.32875,23.815302],[90.328675,23.815504]]]}},{"type":"Feature","properties":{"survey":"bds","sheet":"017","dag":"8050","label_bn":"8050","area_sqm":2114.1},"geometry":{"type":"Polygon","coordinates":[[[90.326176,23.815551],[90.326159,23.815556],[90.325999,23.815476],[90.325949,23.81545],[90.326374,23.815174],[90.326494,23.815096],[90.326546,23.81509],[90.326583,23.815085],[90.326693,23.815313],[90.32673,23.8154],[90.326176,23.815551]]]}},{"type":"Feature","properties":{"survey":"bds","sheet":"017","dag":"8060","label_bn":"8060","area_sqm":1925.0},"geometry":{"type":"Polygon","coordinates":[[[90.327978,23.814982],[90.327732,23.815563],[90.327558,23.815499],[90.327358,23.815388],[90.327181,23.815322],[90.327276,23.815205],[90.327411,23.815243],[90.327448,23.815255],[90.327539,23.815284],[90.32765,23.815319],[90.327697,23.815221],[90.327721,23.815165],[90.327764,23.815088],[90.32785,23.814931],[90.327907,23.814959],[90.327978,23.814982]]]}},{"type":"Feature","properties":{"survey":"bds","sheet":"017","dag":"8053","label_bn":"8053","area_sqm":593.9},"geometry":{"type":"Polygon","coordinates":[[[90.326952,23.815559],[90.326813,23.815622],[90.32681,23.815613],[90.326754,23.815463],[90.327058,23.81535],[90.327095,23.815422],[90.327115,23.815471],[90.327116,23.815473],[90.32712,23.815482],[90.326955,23.815558],[90.326952,23.815559]]]}},{"type":"Feature","properties":{"survey":"bds","sheet":"017","dag":"8057","label_bn":"8057","area_sqm":244.1},"geometry":{"type":"Polygon","coordinates":[[[90.326996,23.815666],[90.326995,23.815667],[90.326952,23.815559],[90.326955,23.815558],[90.32712,23.815482],[90.327165,23.815576],[90.327169,23.815583],[90.327059,23.815636],[90.327058,23.815636],[90.326996,23.815666]]]}},{"type":"Feature","properties":{"survey":"bds","sheet":"017","dag":"8065","label_bn":"8065","area_sqm":1016.9},"geometry":{"type":"Polygon","coordinates":[[[90.328666,23.815545],[90.328609,23.815698],[90.328176,23.815468],[90.328281,23.815319],[90.328304,23.815303],[90.328402,23.815363],[90.328419,23.815373],[90.328667,23.815524],[90.328666,23.815545]]]}},{"type":"Feature","properties":{"survey":"bds","sheet":"017","dag":"8061","label_bn":"8061","area_sqm":2521.2},"geometry":{"type":"Polygon","coordinates":[[[90.328033,23.81567],[90.328044,23.815708],[90.327811,23.815688],[90.3278,23.815563],[90.327732,23.815563],[90.327978,23.814982],[90.32822,23.81506],[90.328133,23.815253],[90.328281,23.815319],[90.328176,23.815468],[90.328033,23.81567]]]}},{"type":"Feature","properties":{"survey":"bds","sheet":"017","dag":"8055","label_bn":"8055","area_sqm":203.3},"geometry":{"type":"Polygon","coordinates":[[[90.326995,23.815667],[90.326855,23.815733],[90.326852,23.815725],[90.326813,23.815622],[90.326952,23.815559],[90.326995,23.815667]]]}},{"type":"Feature","properties":{"survey":"bds","sheet":"017","dag":"8058","label_bn":"8058","area_sqm":203.4},"geometry":{"type":"Polygon","coordinates":[[[90.327157,23.815786],[90.327154,23.815789],[90.327059,23.815636],[90.327169,23.815583],[90.327223,23.815697],[90.327194,23.815751],[90.327157,23.815786]]]}},{"type":"Feature","properties":{"survey":"bds","sheet":"017","dag":"8062","label_bn":"8062","area_sqm":378.6},"geometry":{"type":"Polygon","coordinates":[[[90.327957,23.815869],[90.327828,23.81588],[90.327811,23.815688],[90.328044,23.815708],[90.327994,23.81583],[90.327957,23.815869]]]}},{"type":"Feature","properties":{"survey":"bds","sheet":"017","dag":"8056","label_bn":"8056","area_sqm":609.9},"geometry":{"type":"Polygon","coordinates":[[[90.327154,23.815789],[90.326991,23.815945],[90.326935,23.815942],[90.326855,23.815733],[90.326995,23.815667],[90.326996,23.815666],[90.327058,23.815636],[90.327059,23.815636],[90.327154,23.815789]]]}},{"type":"Feature","properties":{"survey":"bds","sheet":"017","dag":"8063","label_bn":"8063","area_sqm":1809.0},"geometry":{"type":"Polygon","coordinates":[[[90.328478,23.815744],[90.328393,23.815963],[90.32833,23.815958],[90.328314,23.815911],[90.328272,23.815927],[90.328214,23.815924],[90.328207,23.815921],[90.328164,23.815905],[90.328123,23.815839],[90.328119,23.815833],[90.328104,23.815819],[90.328072,23.81581],[90.327994,23.81583],[90.328044,23.815708],[90.328033,23.81567],[90.328176,23.815468],[90.328609,23.815698],[90.328607,23.815705],[90.328597,23.815727],[90.328574,23.815744],[90.328478,23.815744]]]}},{"type":"Feature","properties":{"survey":"bds","sheet":"017","dag":"8064","label_bn":"8064","area_sqm":626.8},"geometry":{"type":"Polygon","coordinates":[[[90.328793,23.815982],[90.328804,23.815994],[90.328416,23.815964],[90.328393,23.815963],[90.328478,23.815744],[90.328574,23.815744],[90.328585,23.815764],[90.328599,23.815787],[90.328628,23.815826],[90.328666,23.815865],[90.328793,23.815982]]]}},{"type":"Feature","properties":{"survey":"bds","sheet":"017","dag":"8059","label_bn":"8059","area_sqm":3826.0},"geometry":{"type":"Polygon","coordinates":[[[90.327132,23.816037],[90.327117,23.816042],[90.326991,23.815945],[90.327154,23.815789],[90.327157,23.815786],[90.327194,23.815751],[90.327223,23.815697],[90.327169,23.815583],[90.327165,23.815576],[90.32712,23.815482],[90.327116,23.815473],[90.327115,23.815471],[90.327095,23.815422],[90.327115,23.815398],[90.327181,23.815322],[90.327358,23.815388],[90.327558,23.815499],[90.327732,23.815563],[90.3278,23.815563],[90.327811,23.815688],[90.327828,23.81588],[90.327567,23.815904],[90.327506,23.815909],[90.327448,23.815929],[90.327246,23.815998],[90.327208,23.816011],[90.327147,23.816032],[90.327132,23.816037]]]}},{"type":"Feature","properties":{"survey":"bds","sheet":"017","dag":"8041","label_bn":"8041","area_sqm":1052.2},"geometry":{"type":"Polygon","coordinates":[[[90.328325,23.816009],[90.32831,23.816146],[90.327984,23.816102],[90.327944,23.816096],[90.327955,23.815916],[90.327957,23.815869],[90.327994,23.81583],[90.328072,23.81581],[90.328104,23.815819],[90.328119,23.815833],[90.328123,23.815839],[90.328164,23.815905],[90.328207,23.815921],[90.328214,23.815924],[90.328272,23.815927],[90.328314,23.815911],[90.32833,23.815958],[90.328325,23.816009]]]}},{"type":"Feature","properties":{"survey":"bds","sheet":"017","dag":"8054","label_bn":"8054","area_sqm":3984.1},"geometry":{"type":"Polygon","coordinates":[[[90.326687,23.816153],[90.326642,23.816195],[90.326619,23.816118],[90.326517,23.816031],[90.326441,23.816024],[90.326439,23.816017],[90.326427,23.815975],[90.32638,23.815815],[90.326329,23.815641],[90.326159,23.815556],[90.326176,23.815551],[90.32673,23.8154],[90.326751,23.815455],[90.326754,23.815463],[90.32681,23.815613],[90.326813,23.815622],[90.326852,23.815725],[90.326855,23.815733],[90.326935,23.815942],[90.326991,23.815945],[90.327117,23.816042],[90.32711,23.816134],[90.327061,23.816114],[90.326962,23.816107],[90.326833,23.816097],[90.326753,23.816114],[90.326687,23.816153]]]}},{"type":"Feature","properties":{"survey":"bds","sheet":"017","dag":"8040","label_bn":"8040","area_sqm":1557.5},"geometry":{"type":"Polygon","coordinates":[[[90.328818,23.81615],[90.328793,23.816306],[90.328353,23.816208],[90.328318,23.8162],[90.32831,23.816146],[90.328325,23.816009],[90.32833,23.815958],[90.328393,23.815963],[90.328416,23.815964],[90.328804,23.815994],[90.328817,23.815998],[90.328818,23.81615]]]}},{"type":"Feature","properties":{"survey":"bds","sheet":"017","dag":"8042","label_bn":"8042","area_sqm":1448.5},"geometry":{"type":"Polygon","coordinates":[[[90.328289,23.816316],[90.328251,23.816473],[90.328137,23.81646],[90.327879,23.816432],[90.327885,23.816399],[90.327944,23.816096],[90.327984,23.816102],[90.32831,23.816146],[90.328318,23.8162],[90.328289,23.816316]]]}},{"type":"Feature","properties":{"survey":"bds","sheet":"017","dag":"8039","label_bn":"8039","area_sqm":2389.0},"geometry":{"type":"Polygon","coordinates":[[[90.328612,23.816668],[90.328458,23.816696],[90.328386,23.816687],[90.328355,23.816683],[90.328321,23.816695],[90.328245,23.816662],[90.328221,23.816634],[90.328218,23.81663],[90.328216,23.816608],[90.328216,23.816606],[90.328251,23.816473],[90.328289,23.816316],[90.328318,23.8162],[90.328353,23.816208],[90.328793,23.816306],[90.328719,23.816562],[90.328702,23.816618],[90.328699,23.816675],[90.328669,23.816673],[90.328612,23.816668]]]}},{"type":"Feature","properties":{"survey":"bds","sheet":"017","dag":"8047","label_bn":"8047","area_sqm":7520.8},"geometry":{"type":"Polygon","coordinates":[[[90.325851,23.816694],[90.325815,23.816698],[90.325752,23.816601],[90.325723,23.816556],[90.325712,23.816539],[90.325576,23.81647],[90.325505,23.816441],[90.325476,23.816429],[90.325486,23.816406],[90.325897,23.815494],[90.325899,23.81549],[90.32591,23.815481],[90.325949,23.81545],[90.325999,23.815476],[90.326159,23.815556],[90.326329,23.815641],[90.32638,23.815815],[90.326427,23.815975],[90.326439,23.816017],[90.32604,23.816454],[90.326067,23.816511],[90.326042,23.81666],[90.326041,23.816665],[90.326025,23.816672],[90.326022,23.816673],[90.325991,23.816677],[90.325851,23.816694]]]}},{"type":"Feature","properties":{"survey":"bds","sheet":"017","dag":"8046","label_bn":"8046","area_sqm":3282.0},"geometry":{"type":"Polygon","coordinates":[[[90.326631,23.816229],[90.326502,23.816785],[90.326448,23.81676],[90.32635,23.816736],[90.326274,23.816717],[90.326041,23.816665],[90.326042,23.81666],[90.326067,23.816511],[90.32604,23.816454],[90.326439,23.816017],[90.326441,23.816024],[90.326517,23.816031],[90.326619,23.816118],[90.326642,23.816195],[90.326631,23.816229]]]}},{"type":"Feature","properties":{"survey":"bds","sheet":"017","dag":"8045","label_bn":"8045","area_sqm":3654.9},"geometry":{"type":"Polygon","coordinates":[[[90.326943,23.816839],[90.326937,23.816865],[90.326543,23.816792],[90.326502,23.816785],[90.326631,23.816229],[90.326642,23.816195],[90.326687,23.816153],[90.326753,23.816114],[90.326833,23.816097],[90.326962,23.816107],[90.327061,23.816114],[90.32711,23.816134],[90.327109,23.816142],[90.326943,23.816839]]]}},{"type":"Feature","properties":{"survey":"bds","sheet":"017","dag":"8030","label_bn":"8030","area_sqm":203.3},"geometry":{"type":"Polygon","coordinates":[[[90.326502,23.816785],[90.326461,23.816888],[90.326315,23.816841],[90.32635,23.816736],[90.326448,23.81676],[90.326502,23.816785]]]}},{"type":"Feature","properties":{"survey":"bds","sheet":"017","dag":"8044","label_bn":"8044","area_sqm":3455.7},"geometry":{"type":"Polygon","coordinates":[[[90.327156,23.816908],[90.327114,23.816909],[90.326937,23.816865],[90.326943,23.816839],[90.327109,23.816142],[90.32711,23.816134],[90.327117,23.816042],[90.327132,23.816037],[90.327147,23.816032],[90.327208,23.816011],[90.327246,23.815998],[90.327448,23.815929],[90.327506,23.815909],[90.327567,23.815904],[90.327407,23.81618],[90.327263,23.816907],[90.327156,23.816908]]]}},{"type":"Feature","properties":{"survey":"bds","sheet":"017","dag":"8043","label_bn":"8043","area_sqm":6165.7},"geometry":{"type":"Polygon","coordinates":[[[90.327879,23.816432],[90.327759,23.817023],[90.327713,23.817016],[90.327535,23.816986],[90.327505,23.816975],[90.327307,23.816906],[90.327263,23.816907],[90.327407,23.81618],[90.327567,23.815904],[90.327828,23.81588],[90.327957,23.815869],[90.327955,23.815916],[90.327944,23.816096],[90.327885,23.816399],[90.327879,23.816432]]]}},{"type":"Feature","properties":{"survey":"bds","sheet":"017","dag":"8029","label_bn":"8029","area_sqm":1260.1},"geometry":{"type":"Polygon","coordinates":[[[90.326396,23.817048],[90.326385,23.817075],[90.32619,23.816974],[90.325972,23.816893],[90.326013,23.816716],[90.326022,23.816673],[90.326025,23.816672],[90.326041,23.816665],[90.326274,23.816717],[90.32635,23.816736],[90.326315,23.816841],[90.326461,23.816888],[90.326396,23.817048]]]}},{"type":"Feature","properties":{"survey":"bds","sheet":"017","dag":"8038","label_bn":"8038","area_sqm":2830.4},"geometry":{"type":"Polygon","coordinates":[[[90.328078,23.817063],[90.328027,23.817141],[90.327996,23.81712],[90.327908,23.817062],[90.327759,23.817023],[90.327879,23.816432],[90.328137,23.81646],[90.328251,23.816473],[90.328216,23.816606],[90.328216,23.816608],[90.328218,23.81663],[90.328221,23.816634],[90.328245,23.816662],[90.328321,23.816695],[90.328078,23.817063]]]}},{"type":"Feature","properties":{"survey":"bds","sheet":"017","dag":"8033","label_bn":"8033","area_sqm":894.3},"geometry":{"type":"Polygon","coordinates":[[[90.327505,23.816975],[90.327485,23.81716],[90.327093,23.817064],[90.327047,23.817053],[90.327114,23.816909],[90.327156,23.816908],[90.327263,23.816907],[90.327307,23.816906],[90.327505,23.816975]]]}},{"type":"Feature","properties":{"survey":"bds","sheet":"017","dag":"8037","label_bn":"8037","area_sqm":2624.8},"geometry":{"type":"Polygon","coordinates":[[[90.328388,23.817103],[90.328338,23.817228],[90.328078,23.817063],[90.328321,23.816695],[90.328355,23.816683],[90.328386,23.816687],[90.328458,23.816696],[90.328612,23.816668],[90.328669,23.816673],[90.328699,23.816675],[90.328754,23.81668],[90.328753,23.816757],[90.328753,23.816785],[90.328751,23.817006],[90.328751,23.817027],[90.328564,23.817065],[90.328507,23.81705],[90.328459,23.817049],[90.328424,23.817059],[90.328396,23.817085],[90.328388,23.817103]]]}},{"type":"Feature","properties":{"survey":"bds","sheet":"017","dag":"8034","label_bn":"8034","area_sqm":1502.9},"geometry":{"type":"Polygon","coordinates":[[[90.327698,23.817217],[90.327608,23.817424],[90.327394,23.817355],[90.327485,23.81716],[90.327505,23.816975],[90.327535,23.816986],[90.327713,23.817016],[90.327759,23.817023],[90.327908,23.817062],[90.327912,23.817146],[90.327912,23.817149],[90.327908,23.817274],[90.327757,23.817233],[90.327698,23.817217]]]}},{"type":"Feature","properties":{"survey":"bds","sheet":"017","dag":"8028","label_bn":"8028","area_sqm":2068.7},"geometry":{"type":"Polygon","coordinates":[[[90.326274,23.817285],[90.326213,23.81744],[90.325841,23.817299],[90.325822,23.817292],[90.325813,23.817289],[90.325968,23.816912],[90.325972,23.816893],[90.32619,23.816974],[90.326385,23.817075],[90.326378,23.817093],[90.326274,23.817285]]]}},{"type":"Feature","properties":{"survey":"bds","sheet":"017","dag":"8031","label_bn":"8031","area_sqm":3889.0},"geometry":{"type":"Polygon","coordinates":[[[90.326876,23.817412],[90.326844,23.817452],[90.326613,23.817371],[90.326285,23.817287],[90.326274,23.817285],[90.326378,23.817093],[90.326385,23.817075],[90.326396,23.817048],[90.326461,23.816888],[90.326502,23.816785],[90.326543,23.816792],[90.326937,23.816865],[90.327114,23.816909],[90.327047,23.817053],[90.32688,23.817407],[90.326876,23.817412]]]}},{"type":"Feature","properties":{"survey":"bds","sheet":"017","dag":"8032","label_bn":"8032","area_sqm":1954.0},"geometry":{"type":"Polygon","coordinates":[[[90.327394,23.817355],[90.32732,23.817511],[90.326932,23.817419],[90.32688,23.817407],[90.327047,23.817053],[90.327093,23.817064],[90.327485,23.81716],[90.327394,23.817355]]]}},{"type":"Feature","properties":{"survey":"bds","sheet":"017","dag":"8035","label_bn":"8035","area_sqm":2748.4},"geometry":{"type":"Polygon","coordinates":[[[90.328362,23.8175],[90.328416,23.81768],[90.327813,23.817583],[90.327908,23.817274],[90.327912,23.817149],[90.327912,23.817146],[90.327908,23.817062],[90.327996,23.81712],[90.328027,23.817141],[90.328078,23.817063],[90.328338,23.817228],[90.328344,23.817428],[90.328362,23.8175]]]}},{"type":"Feature","properties":{"survey":"bds","sheet":"017","dag":"8027","label_bn":"8027","area_sqm":3286.8},"geometry":{"type":"Polygon","coordinates":[[[90.326698,23.81786],[90.32668,23.817914],[90.326425,23.817831],[90.326421,23.817829],[90.32612,23.817707],[90.326099,23.817699],[90.326213,23.81744],[90.326274,23.817285],[90.326285,23.817287],[90.326613,23.817371],[90.326844,23.817452],[90.326714,23.81781],[90.326712,23.817815],[90.326698,23.81786]]]}},{"type":"Feature","properties":{"survey":"bds","sheet":"017","dag":"8026","label_bn":"8026","area_sqm":2269.5},"geometry":{"type":"Polygon","coordinates":[[[90.32732,23.817511],[90.327144,23.817926],[90.326714,23.81781],[90.326844,23.817452],[90.326876,23.817412],[90.32688,23.817407],[90.326932,23.817419],[90.32732,23.817511]]]}},{"type":"Feature","properties":{"survey":"bds","sheet":"017","dag":"8036","label_bn":"8036","area_sqm":5737.3},"geometry":{"type":"Polygon","coordinates":[[[90.328665,23.817923],[90.328606,23.817935],[90.328586,23.81792],[90.328457,23.817819],[90.328416,23.81768],[90.328362,23.8175],[90.328344,23.817428],[90.328338,23.817228],[90.328388,23.817103],[90.328396,23.817085],[90.328424,23.817059],[90.328459,23.817049],[90.328507,23.81705],[90.328564,23.817065],[90.328751,23.817027],[90.328818,23.817024],[90.328876,23.817053],[90.3289,23.817065],[90.328985,23.817284],[90.329018,23.817405],[90.329018,23.817469],[90.329018,23.817482],[90.329024,23.817563],[90.328975,23.817801],[90.328972,23.817859],[90.328917,23.817867],[90.328852,23.817885],[90.328665,23.817923]]]}},{"type":"Feature","properties":{"survey":"bds","sheet":"017","dag":"8020","label_bn":"8020","area_sqm":2633.8},"geometry":{"type":"Polygon","coordinates":[[[90.328606,23.817935],[90.327666,23.817953],[90.327724,23.817812],[90.327754,23.817737],[90.327767,23.817689],[90.327813,23.817583],[90.328416,23.81768],[90.328457,23.817819],[90.328586,23.81792],[90.328606,23.817935]]]}},{"type":"Feature","properties":{"survey":"bds","sheet":"017","dag":"8025","label_bn":"8025","area_sqm":842.1},"geometry":{"type":"Polygon","coordinates":[[[90.327144,23.817926],[90.327072,23.818094],[90.326682,23.817969],[90.32668,23.817914],[90.326698,23.81786],[90.326712,23.817815],[90.326714,23.81781],[90.327144,23.817926]]]}},{"type":"Feature","properties":{"survey":"bds","sheet":"017","dag":"8022","label_bn":"8022","area_sqm":2073.4},"geometry":{"type":"Polygon","coordinates":[[[90.327608,23.817424],[90.327286,23.818165],[90.327252,23.818151],[90.327072,23.818094],[90.327144,23.817926],[90.32732,23.817511],[90.327394,23.817355],[90.327608,23.817424]]]}},{"type":"Feature","properties":{"survey":"bds","sheet":"017","dag":"8024","label_bn":"8024","area_sqm":670.7},"geometry":{"type":"Polygon","coordinates":[[[90.326621,23.817949],[90.326651,23.818169],[90.326424,23.818097],[90.326421,23.817829],[90.326425,23.817831],[90.32668,23.817914],[90.326682,23.817969],[90.326621,23.817949]]]}},{"type":"Feature","properties":{"survey":"bds","sheet":"017","dag":"8021","label_bn":"8021","area_sqm":2848.2},"geometry":{"type":"Polygon","coordinates":[[[90.327498,23.818182],[90.327458,23.818232],[90.327286,23.818165],[90.327608,23.817424],[90.327698,23.817217],[90.327757,23.817233],[90.327908,23.817274],[90.327813,23.817583],[90.327767,23.817689],[90.327754,23.817737],[90.327724,23.817812],[90.327666,23.817953],[90.327536,23.818133],[90.32752,23.818155],[90.327498,23.818182]]]}},{"type":"Feature","properties":{"survey":"bds","sheet":"017","dag":"8002","label_bn":"8002","area_sqm":2442.2},"geometry":{"type":"Polygon","coordinates":[[[90.326324,23.818274],[90.326323,23.818275],[90.326165,23.818214],[90.326035,23.818164],[90.32583,23.818084],[90.325828,23.818084],[90.326069,23.817725],[90.326099,23.817699],[90.32612,23.817707],[90.326421,23.817829],[90.326424,23.818097],[90.326324,23.818274]]]}},{"type":"Feature","properties":{"survey":"bds","sheet":"017","dag":"8023","label_bn":"8023","area_sqm":1626.6},"geometry":{"type":"Polygon","coordinates":[[[90.327335,23.818327],[90.327335,23.818356],[90.326877,23.818233],[90.326716,23.818189],[90.326651,23.818169],[90.326621,23.817949],[90.326682,23.817969],[90.327072,23.818094],[90.327252,23.818151],[90.327286,23.818165],[90.327458,23.818232],[90.327397,23.818258],[90.327363,23.818283],[90.327335,23.818327]]]}},{"type":"Feature","properties":{"survey":"bds","sheet":"017","dag":"8009","label_bn":"8009","area_sqm":283.5},"geometry":{"type":"Polygon","coordinates":[[[90.327271,23.818569],[90.32696,23.818508],[90.326952,23.818506],[90.326884,23.818493],[90.326884,23.818493],[90.326839,23.818484],[90.326843,23.818475],[90.326851,23.818454],[90.326868,23.818423],[90.326893,23.818428],[90.327013,23.818466],[90.327148,23.818519],[90.327187,23.818531],[90.327236,23.818542],[90.327248,23.818531],[90.327278,23.818487],[90.327317,23.818437],[90.327356,23.818386],[90.327356,23.818386],[90.327357,23.818386],[90.327359,23.818388],[90.327371,23.81841],[90.327355,23.818453],[90.327271,23.818569]]]}},{"type":"Feature","properties":{"survey":"bds","sheet":"017","dag":"8003","label_bn":"8003","area_sqm":1145.8},"geometry":{"type":"Polygon","coordinates":[[[90.326877,23.818233],[90.326792,23.818455],[90.326762,23.818422],[90.326362,23.818288],[90.326354,23.818286],[90.326323,23.818275],[90.326324,23.818274],[90.326424,23.818097],[90.326651,23.818169],[90.326716,23.818189],[90.326877,23.818233]]]}},{"type":"Feature","properties":{"survey":"bds","sheet":"017","dag":"8019","label_bn":"8019","area_sqm":4756.4},"geometry":{"type":"Polygon","coordinates":[[[90.328665,23.817923],[90.328764,23.818492],[90.328028,23.818285],[90.327985,23.818272],[90.327536,23.818133],[90.327666,23.817953],[90.328606,23.817935],[90.328665,23.817923]]]}},{"type":"Feature","properties":{"survey":"bds","sheet":"017","dag":"8013","label_bn":"8013","area_sqm":1109.1},"geometry":{"type":"Polygon","coordinates":[[[90.327985,23.818272],[90.327884,23.8185],[90.327877,23.818499],[90.327851,23.8185],[90.327839,23.818497],[90.327827,23.81849],[90.327813,23.818471],[90.327794,23.81845],[90.327779,23.818419],[90.327762,23.818388],[90.327739,23.818363],[90.327688,23.818335],[90.32765,23.818321],[90.327587,23.818311],[90.327541,23.818302],[90.327473,23.818297],[90.327448,23.818298],[90.32744,23.8183],[90.327428,23.818308],[90.327369,23.81837],[90.327356,23.818386],[90.327335,23.818356],[90.327335,23.818327],[90.327363,23.818283],[90.327397,23.818258],[90.327458,23.818232],[90.327498,23.818182],[90.32752,23.818155],[90.327536,23.818133],[90.327985,23.818272]]]}},{"type":"Feature","properties":{"survey":"bds","sheet":"017","dag":"8011","label_bn":"8011","area_sqm":120.6},"geometry":{"type":"Polygon","coordinates":[[[90.327764,23.818501],[90.327763,23.818504],[90.327713,23.818486],[90.327707,23.818466],[90.327662,23.818435],[90.327546,23.818357],[90.327508,23.818355],[90.327433,23.818365],[90.327438,23.818361],[90.327452,23.818357],[90.327508,23.818351],[90.327598,23.818345],[90.327699,23.818409],[90.327744,23.81844],[90.327755,23.81845],[90.327759,23.818458],[90.327764,23.818501]]]}},{"type":"Feature","properties":{"survey":"bds","sheet":"017","dag":"8001","label_bn":"8001","area_sqm":1016.5},"geometry":{"type":"Polygon","coordinates":[[[90.326035,23.818164],[90.325881,23.818507],[90.325679,23.818402],[90.325674,23.8184],[90.325782,23.81809],[90.325787,23.818077],[90.325812,23.818081],[90.325828,23.818084],[90.32583,23.818084],[90.326035,23.818164]]]}},{"type":"Feature","properties":{"survey":"bds","sheet":"017","dag":"8018","label_bn":"8018","area_sqm":556.1},"geometry":{"type":"Polygon","coordinates":[[[90.328794,23.818491],[90.32879,23.818524],[90.328776,23.818523],[90.328764,23.818492],[90.328665,23.817923],[90.328852,23.817885],[90.328827,23.817955],[90.32881,23.818019],[90.328795,23.818094],[90.328789,23.818135],[90.328779,23.818248],[90.32878,23.818341],[90.328788,23.818401],[90.328794,23.818491]]]}},{"type":"Feature","properties":{"survey":"bds","sheet":"017","dag":"8012","label_bn":"8012","area_sqm":297.8},"geometry":{"type":"Polygon","coordinates":[[[90.327884,23.8185],[90.327873,23.818526],[90.327793,23.818515],[90.327763,23.818504],[90.327764,23.818501],[90.327759,23.818458],[90.327755,23.81845],[90.327744,23.81844],[90.327699,23.818409],[90.327598,23.818345],[90.327508,23.818351],[90.327452,23.818357],[90.327438,23.818361],[90.327433,23.818365],[90.327421,23.818367],[90.327359,23.818388],[90.327357,23.818386],[90.327356,23.818386],[90.327369,23.81837],[90.327428,23.818308],[90.32744,23.8183],[90.327448,23.818298],[90.327473,23.818297],[90.327541,23.818302],[90.327587,23.818311],[90.32765,23.818321],[90.327688,23.818335],[90.327739,23.818363],[90.327762,23.818388],[90.327779,23.818419],[90.327794,23.81845],[90.327813,23.818471],[90.327827,23.81849],[90.327839,23.818497],[90.327851,23.8185],[90.327877,23.818499],[90.327884,23.8185]]]}},{"type":"Feature","properties":{"survey":"bds","sheet":"017","dag":"8017","label_bn":"8017","area_sqm":726.0},"geometry":{"type":"Polygon","coordinates":[[[90.328871,23.818289],[90.328925,23.818531],[90.32879,23.818524],[90.328794,23.818491],[90.328788,23.818401],[90.32878,23.818341],[90.328779,23.818248],[90.328789,23.818135],[90.328795,23.818094],[90.32881,23.818019],[90.328827,23.817955],[90.328852,23.817885],[90.328917,23.817867],[90.328972,23.817859],[90.328962,23.818013],[90.328918,23.81803],[90.328838,23.818076],[90.328823,23.818094],[90.328871,23.818289]]]}},{"type":"Feature","properties":{"survey":"bds","sheet":"017","dag":"8010","label_bn":"8010","area_sqm":1097.5},"geometry":{"type":"Polygon","coordinates":[[[90.327248,23.818531],[90.327236,23.818542],[90.327187,23.818531],[90.327148,23.818519],[90.327013,23.818466],[90.326893,23.818428],[90.326868,23.818423],[90.326851,23.818454],[90.326843,23.818475],[90.326839,23.818484],[90.326838,23.818483],[90.326813,23.818478],[90.326792,23.818455],[90.326877,23.818233],[90.327335,23.818356],[90.327356,23.818386],[90.327356,23.818386],[90.327317,23.818437],[90.327278,23.818487],[90.327248,23.818531]]]}},{"type":"Feature","properties":{"survey":"bds","sheet":"017","dag":"8008","label_bn":"8008","area_sqm":51.6},"geometry":{"type":"Polygon","coordinates":[[[90.327265,23.818589],[90.327258,23.818597],[90.327157,23.818564],[90.327017,23.818526],[90.326952,23.818506],[90.32696,23.818508],[90.327271,23.818569],[90.327265,23.818589],[90.327265,23.818589]]]}},{"type":"Feature","properties":{"survey":"bds","sheet":"017","dag":"8014","label_bn":"8014","area_sqm":35.9},"geometry":{"type":"Polygon","coordinates":[[[90.32799,23.818576],[90.328005,23.818605],[90.328005,23.818605],[90.327948,23.818556],[90.32793,23.818544],[90.327911,23.818532],[90.327909,23.81853],[90.327905,23.81853],[90.327904,23.81853],[90.327873,23.818526],[90.327884,23.8185],[90.327896,23.818502],[90.327928,23.818514],[90.327948,23.818523],[90.327965,23.818538],[90.32799,23.818576]]]}},{"type":"Feature","properties":{"survey":"bds","sheet":"017","dag":"8015","label_bn":"8015","area_sqm":2446.3},"geometry":{"type":"Polygon","coordinates":[[[90.328656,23.818681],[90.328634,23.818692],[90.328479,23.818642],[90.328373,23.818615],[90.328045,23.81864],[90.328005,23.818605],[90.32799,23.818576],[90.327965,23.818538],[90.327948,23.818523],[90.327928,23.818514],[90.327896,23.818502],[90.327884,23.8185],[90.327985,23.818272],[90.328028,23.818285],[90.328764,23.818492],[90.328776,23.818523],[90.328778,23.818608],[90.328771,23.81863],[90.328656,23.818681]]]}},{"type":"Feature","properties":{"survey":"bds","sheet":"017","dag":"8016","label_bn":"8016","area_sqm":73.8},"geometry":{"type":"Polygon","coordinates":[[[90.328779,23.818675],[90.328724,23.818721],[90.328635,23.818692],[90.328634,23.818692],[90.328656,23.818681],[90.328771,23.81863],[90.328778,23.818608],[90.328779,23.818675]]]}},{"type":"Feature","properties":{"survey":"bds","sheet":"017","dag":"8005","label_bn":"8005","area_sqm":79.1},"geometry":{"type":"Polygon","coordinates":[[[90.326666,23.818756],[90.326639,23.818782],[90.326813,23.818478],[90.326838,23.818483],[90.326839,23.818484],[90.326832,23.8185],[90.326799,23.818559],[90.326758,23.81862],[90.326726,23.81867],[90.326703,23.818701],[90.326666,23.818756]]]}},{"type":"Feature","properties":{"survey":"bds","sheet":"017","dag":"8004","label_bn":"8004","area_sqm":3970.9},"geometry":{"type":"Polygon","coordinates":[[[90.3266,23.818844],[90.326589,23.818856],[90.326564,23.818848],[90.326417,23.8188],[90.326181,23.818666],[90.326145,23.818643],[90.325881,23.818507],[90.326035,23.818164],[90.326165,23.818214],[90.326323,23.818275],[90.326354,23.818286],[90.326362,23.818288],[90.326762,23.818422],[90.326792,23.818455],[90.326813,23.818478],[90.326639,23.818782],[90.326627,23.818794],[90.326606,23.818821],[90.326598,23.818842],[90.3266,23.818844]]]}},{"type":"Feature","properties":{"survey":"bds","sheet":"017","dag":"8006","label_bn":"8006","area_sqm":242.0},"geometry":{"type":"Polygon","coordinates":[[[90.326624,23.818858],[90.326603,23.818866],[90.326602,23.818846],[90.3266,23.818844],[90.326598,23.818842],[90.326606,23.818821],[90.326627,23.818794],[90.326639,23.818782],[90.326666,23.818756],[90.326703,23.818701],[90.326726,23.81867],[90.326758,23.81862],[90.326799,23.818559],[90.326832,23.8185],[90.326839,23.818484],[90.326884,23.818493],[90.326884,23.818493],[90.326768,23.818692],[90.32672,23.818775],[90.326693,23.818815],[90.326661,23.818837],[90.326624,23.818858]]]}},{"type":"Feature","properties":{"survey":"bds","sheet":"017","dag":"8007","label_bn":"8007","area_sqm":2390.9},"geometry":{"type":"Polygon","coordinates":[[[90.327216,23.818697],[90.326994,23.819061],[90.326579,23.81892],[90.326539,23.818908],[90.326589,23.818856],[90.3266,23.818844],[90.326602,23.818846],[90.326603,23.818866],[90.326624,23.818858],[90.326661,23.818837],[90.326693,23.818815],[90.32672,23.818775],[90.326768,23.818692],[90.326884,23.818493],[90.326952,23.818506],[90.327017,23.818526],[90.327157,23.818564],[90.327258,23.818597],[90.327265,23.818589],[90.32725,23.81864],[90.327216,23.818697]]]}}]}