{"type":"FeatureCollection","features":[{"type":"Feature","properties":{"survey":"bds","sheet":"018","dag":"8546","label_bn":"8546","area_sqm":548.1},"geometry":{"type":"Polygon","coordinates":[[[90.327996,23.818694],[90.327985,23.818694],[90.327897,23.818572],[90.327785,23.818548],[90.32776,23.818543],[90.327724,23.818535],[90.327712,23.81852],[90.327684,23.818514],[90.327655,23.818472],[90.327608,23.818431],[90.327554,23.818397],[90.327487,23.81839],[90.327412,23.818397],[90.327389,23.818399],[90.327371,23.81841],[90.327359,23.818388],[90.327421,23.818367],[90.327433,23.818365],[90.327508,23.818355],[90.327546,23.818357],[90.327662,23.818435],[90.327707,23.818466],[90.327713,23.818486],[90.327763,23.818504],[90.327793,23.818515],[90.327904,23.81853],[90.327905,23.81853],[90.327909,23.81853],[90.327911,23.818532],[90.32793,23.818544],[90.327948,23.818556],[90.328005,23.818605],[90.328045,23.81864],[90.328373,23.818615],[90.328373,23.818666],[90.328048,23.81869],[90.328048,23.81869],[90.327996,23.818694]]]}},{"type":"Feature","properties":{"survey":"bds","sheet":"018","dag":"8545","label_bn":"8545","area_sqm":2328.5},"geometry":{"type":"Polygon","coordinates":[[[90.327985,23.818694],[90.32792,23.818866],[90.327665,23.818814],[90.327488,23.818759],[90.32725,23.81864],[90.327265,23.818589],[90.327265,23.818589],[90.327271,23.818569],[90.327355,23.818453],[90.327371,23.81841],[90.327389,23.818399],[90.327412,23.818397],[90.327487,23.81839],[90.327554,23.818397],[90.327608,23.818431],[90.327655,23.818472],[90.327684,23.818514],[90.327712,23.81852],[90.327724,23.818535],[90.32776,23.818543],[90.327785,23.818548],[90.327897,23.818572],[90.327985,23.818694]]]}},{"type":"Feature","properties":{"survey":"bds","sheet":"018","dag":"8552","label_bn":"8552","area_sqm":1273.1},"geometry":{"type":"Polygon","coordinates":[[[90.329268,23.818738],[90.329183,23.818919],[90.328883,23.81883],[90.328914,23.818726],[90.328925,23.818531],[90.329017,23.818534],[90.329297,23.81861],[90.329268,23.818738]]]}},{"type":"Feature","properties":{"survey":"bds","sheet":"018","dag":"8547","label_bn":"8547","area_sqm":974.9},"geometry":{"type":"Polygon","coordinates":[[[90.328166,23.81897],[90.328151,23.818971],[90.328151,23.818948],[90.328147,23.818909],[90.328145,23.818909],[90.32792,23.818866],[90.327985,23.818694],[90.327996,23.818694],[90.328048,23.81869],[90.328048,23.81869],[90.328373,23.818666],[90.328292,23.818762],[90.32829,23.818849],[90.328319,23.818962],[90.328201,23.818968],[90.328166,23.81897]]]}},{"type":"Feature","properties":{"survey":"bds","sheet":"018","dag":"8544","label_bn":"8544","area_sqm":3030.3},"geometry":{"type":"Polygon","coordinates":[[[90.327578,23.819148],[90.327549,23.819324],[90.326986,23.819085],[90.326994,23.819061],[90.32725,23.81864],[90.327488,23.818759],[90.327665,23.818814],[90.327578,23.819148]]]}},{"type":"Feature","properties":{"survey":"bds","sheet":"018","dag":"8551","label_bn":"8551","area_sqm":4037.5},"geometry":{"type":"Polygon","coordinates":[[[90.329092,23.819365],[90.328979,23.819499],[90.328625,23.819443],[90.328582,23.819436],[90.328602,23.819392],[90.328609,23.819374],[90.328632,23.819316],[90.328638,23.819247],[90.32862,23.819191],[90.328616,23.819179],[90.328589,23.819098],[90.328533,23.819016],[90.328531,23.819013],[90.328423,23.81888],[90.328423,23.818828],[90.328436,23.818797],[90.328468,23.818771],[90.328508,23.818765],[90.328531,23.818771],[90.328581,23.818784],[90.328621,23.818815],[90.328624,23.818818],[90.328679,23.818866],[90.328759,23.818869],[90.328831,23.818855],[90.328883,23.81883],[90.329183,23.818919],[90.329146,23.819127],[90.329144,23.819256],[90.329092,23.819365]]]}},{"type":"Feature","properties":{"survey":"bds","sheet":"018","dag":"8537","label_bn":"8537","area_sqm":2741.1},"geometry":{"type":"Polygon","coordinates":[[[90.326986,23.819085],[90.326833,23.819517],[90.326542,23.819391],[90.326375,23.81929],[90.326319,23.819235],[90.326539,23.818908],[90.326579,23.81892],[90.326994,23.819061],[90.326986,23.819085]]]}},{"type":"Feature","properties":{"survey":"bds","sheet":"018","dag":"8543","label_bn":"8543","area_sqm":2100.3},"geometry":{"type":"Polygon","coordinates":[[[90.327836,23.819315],[90.327795,23.819524],[90.327712,23.819513],[90.327518,23.819469],[90.327549,23.819324],[90.327578,23.819148],[90.327665,23.818814],[90.32792,23.818866],[90.327849,23.819211],[90.327836,23.819315]]]}},{"type":"Feature","properties":{"survey":"bds","sheet":"018","dag":"8542","label_bn":"8542","area_sqm":1721.0},"geometry":{"type":"Polygon","coordinates":[[[90.328061,23.819543],[90.328029,23.819549],[90.327984,23.819514],[90.327968,23.819513],[90.327948,23.819518],[90.327921,23.819531],[90.327795,23.819524],[90.327836,23.819315],[90.327849,23.819211],[90.32792,23.818866],[90.328145,23.818909],[90.328147,23.818909],[90.328151,23.818948],[90.328151,23.818971],[90.328133,23.819011],[90.328057,23.819101],[90.328046,23.819134],[90.328045,23.819154],[90.328044,23.81917],[90.328053,23.819212],[90.328078,23.819252],[90.328105,23.819277],[90.328061,23.819543]]]}},{"type":"Feature","properties":{"survey":"bds","sheet":"018","dag":"8538","label_bn":"8538","area_sqm":3336.2},"geometry":{"type":"Polygon","coordinates":[[[90.327518,23.819469],[90.327426,23.819746],[90.32733,23.819739],[90.327104,23.819653],[90.326833,23.819517],[90.326986,23.819085],[90.327549,23.819324],[90.327518,23.819469]]]}},{"type":"Feature","properties":{"survey":"bds","sheet":"018","dag":"8541","label_bn":"8541","area_sqm":2801.7},"geometry":{"type":"Polygon","coordinates":[[[90.328313,23.819757],[90.328288,23.819789],[90.328226,23.819775],[90.328197,23.819755],[90.328195,23.819754],[90.328164,23.819704],[90.328098,23.819553],[90.328061,23.819543],[90.328105,23.819277],[90.328078,23.819252],[90.328053,23.819212],[90.328044,23.81917],[90.328045,23.819154],[90.328046,23.819134],[90.328057,23.819101],[90.328133,23.819011],[90.328151,23.818971],[90.328166,23.81897],[90.328201,23.818968],[90.328319,23.818962],[90.328469,23.819162],[90.328494,23.819203],[90.3285,23.819262],[90.328473,23.819332],[90.328394,23.819444],[90.328366,23.819501],[90.328364,23.819532],[90.328361,23.819572],[90.328369,23.819632],[90.328369,23.819633],[90.328354,23.819714],[90.328313,23.819757]]]}},{"type":"Feature","properties":{"survey":"bds","sheet":"018","dag":"8535","label_bn":"8535","area_sqm":652.7},"geometry":{"type":"Polygon","coordinates":[[[90.326528,23.819879],[90.32645,23.819908],[90.326332,23.819796],[90.326434,23.819581],[90.326558,23.819659],[90.326657,23.81969],[90.326528,23.819879]]]}},{"type":"Feature","properties":{"survey":"bds","sheet":"018","dag":"8536","label_bn":"8536","area_sqm":2481.7},"geometry":{"type":"Polygon","coordinates":[[[90.327433,23.8198],[90.327388,23.819984],[90.327003,23.819829],[90.326657,23.81969],[90.326558,23.819659],[90.326434,23.819581],[90.326525,23.819415],[90.326542,23.819391],[90.326833,23.819517],[90.327104,23.819653],[90.32733,23.819739],[90.327426,23.819746],[90.327433,23.8198]]]}},{"type":"Feature","properties":{"survey":"bds","sheet":"018","dag":"8550","label_bn":"8550","area_sqm":3203.0},"geometry":{"type":"Polygon","coordinates":[[[90.328989,23.819905],[90.328954,23.820057],[90.328406,23.819971],[90.32837,23.81991],[90.328392,23.819882],[90.328444,23.819846],[90.328483,23.819789],[90.328513,23.819705],[90.328517,23.819632],[90.328501,23.819565],[90.3285,23.819538],[90.328505,23.819528],[90.328523,23.819494],[90.328553,23.819461],[90.328582,23.819436],[90.328625,23.819443],[90.328979,23.819499],[90.328981,23.819576],[90.328997,23.819739],[90.328989,23.819905]]]}},{"type":"Feature","properties":{"survey":"bds","sheet":"018","dag":"8534","label_bn":"8534","area_sqm":1053.7},"geometry":{"type":"Polygon","coordinates":[[[90.327003,23.819829],[90.326885,23.820057],[90.326528,23.819879],[90.326657,23.81969],[90.327003,23.819829]]]}},{"type":"Feature","properties":{"survey":"bds","sheet":"018","dag":"8540","label_bn":"8540","area_sqm":1706.6},"geometry":{"type":"Polygon","coordinates":[[[90.327947,23.820172],[90.32793,23.820172],[90.327902,23.820095],[90.327915,23.819878],[90.32792,23.819789],[90.32796,23.819699],[90.328029,23.819549],[90.328061,23.819543],[90.328098,23.819553],[90.328164,23.819704],[90.328195,23.819754],[90.328197,23.819755],[90.328226,23.819775],[90.328288,23.819789],[90.328235,23.819859],[90.328122,23.820166],[90.327947,23.820172]]]}},{"type":"Feature","properties":{"survey":"bds","sheet":"018","dag":"8539","label_bn":"8539","area_sqm":3918.4},"geometry":{"type":"Polygon","coordinates":[[[90.327669,23.820173],[90.327338,23.820183],[90.327394,23.820065],[90.327384,23.82002],[90.327388,23.819984],[90.327433,23.8198],[90.327426,23.819746],[90.327518,23.819469],[90.327712,23.819513],[90.327795,23.819524],[90.327921,23.819531],[90.327948,23.819518],[90.327968,23.819513],[90.327984,23.819514],[90.328029,23.819549],[90.32796,23.819699],[90.32792,23.819789],[90.327915,23.819878],[90.327902,23.820095],[90.32793,23.820172],[90.32792,23.820172],[90.327669,23.820173]]]}},{"type":"Feature","properties":{"survey":"bds","sheet":"018","dag":"8533","label_bn":"8533","area_sqm":1237.8},"geometry":{"type":"Polygon","coordinates":[[[90.327338,23.820183],[90.327334,23.820208],[90.326885,23.820057],[90.327003,23.819829],[90.327388,23.819984],[90.327384,23.82002],[90.327394,23.820065],[90.327338,23.820183]]]}},{"type":"Feature","properties":{"survey":"bds","sheet":"018","dag":"8548","label_bn":"8548","area_sqm":3595.2},"geometry":{"type":"Polygon","coordinates":[[[90.328231,23.820243],[90.328229,23.820261],[90.328127,23.82025],[90.328122,23.820166],[90.328235,23.819859],[90.328288,23.819789],[90.328313,23.819757],[90.328354,23.819714],[90.328369,23.819633],[90.328369,23.819632],[90.328361,23.819572],[90.328364,23.819532],[90.328366,23.819501],[90.328394,23.819444],[90.328473,23.819332],[90.3285,23.819262],[90.328494,23.819203],[90.328469,23.819162],[90.328319,23.818962],[90.32829,23.818849],[90.328292,23.818762],[90.328373,23.818666],[90.328479,23.818642],[90.328724,23.818721],[90.328779,23.818675],[90.328778,23.818608],[90.328776,23.818523],[90.32879,23.818524],[90.328925,23.818531],[90.328914,23.818726],[90.328883,23.81883],[90.328831,23.818855],[90.328759,23.818869],[90.328679,23.818866],[90.328624,23.818818],[90.328621,23.818815],[90.328581,23.818784],[90.328531,23.818771],[90.328508,23.818765],[90.328468,23.818771],[90.328436,23.818797],[90.328423,23.818828],[90.328423,23.81888],[90.328531,23.819013],[90.328533,23.819016],[90.328589,23.819098],[90.328616,23.819179],[90.32862,23.819191],[90.328638,23.819247],[90.328632,23.819316],[90.328609,23.819374],[90.328602,23.819392],[90.328582,23.819436],[90.328553,23.819461],[90.328523,23.819494],[90.328505,23.819528],[90.3285,23.819538],[90.328501,23.819565],[90.328517,23.819632],[90.328513,23.819705],[90.328483,23.819789],[90.328444,23.819846],[90.328392,23.819882],[90.32837,23.81991],[90.328305,23.819949],[90.328277,23.819992],[90.328257,23.820056],[90.32825,23.820114],[90.328231,23.820243]]]}},{"type":"Feature","properties":{"survey":"bds","sheet":"018","dag":"8532","label_bn":"8532","area_sqm":3187.8},"geometry":{"type":"Polygon","coordinates":[[[90.327226,23.820416],[90.327189,23.820419],[90.327143,23.820418],[90.326824,23.820373],[90.326786,23.820358],[90.326724,23.820323],[90.326322,23.820124],[90.32645,23.819908],[90.326528,23.819879],[90.326885,23.820057],[90.327334,23.820208],[90.327325,23.820271],[90.327248,23.820407],[90.327226,23.820416]]]}},{"type":"Feature","properties":{"survey":"bds","sheet":"018","dag":"8549","label_bn":"8549","area_sqm":2791.4},"geometry":{"type":"Polygon","coordinates":[[[90.328954,23.820057],[90.328832,23.820465],[90.328413,23.820331],[90.328231,23.820243],[90.32825,23.820114],[90.328257,23.820056],[90.328277,23.819992],[90.328305,23.819949],[90.32837,23.81991],[90.328406,23.819971],[90.328954,23.820057]]]}},{"type":"Feature","properties":{"survey":"bds","sheet":"018","dag":"8531","label_bn":"8531","area_sqm":2837.6},"geometry":{"type":"Polygon","coordinates":[[[90.328029,23.820539],[90.328013,23.820568],[90.327627,23.820485],[90.327514,23.820441],[90.327262,23.820405],[90.327248,23.820407],[90.327325,23.820271],[90.327334,23.820208],[90.327338,23.820183],[90.327669,23.820173],[90.32792,23.820172],[90.32793,23.820172],[90.327947,23.820172],[90.328122,23.820166],[90.328127,23.82025],[90.328086,23.820397],[90.328046,23.820508],[90.328029,23.820539]]]}},{"type":"Feature","properties":{"survey":"bds","sheet":"018","dag":"8511","label_bn":"8511","area_sqm":2602.5},"geometry":{"type":"Polygon","coordinates":[[[90.328013,23.820568],[90.327896,23.820779],[90.327145,23.820762],[90.327195,23.820594],[90.327241,23.820427],[90.327248,23.820407],[90.327262,23.820405],[90.327514,23.820441],[90.327627,23.820485],[90.328013,23.820568]]]}},{"type":"Feature","properties":{"survey":"bds","sheet":"018","dag":"8529","label_bn":"8529","area_sqm":2656.4},"geometry":{"type":"Polygon","coordinates":[[[90.328552,23.820753],[90.328388,23.82078],[90.328169,23.820704],[90.328098,23.820679],[90.328093,23.820677],[90.328109,23.820647],[90.328166,23.82053],[90.328184,23.820488],[90.328205,23.820441],[90.328202,23.820394],[90.328217,23.820343],[90.328229,23.820261],[90.328231,23.820243],[90.328413,23.820331],[90.328832,23.820465],[90.328831,23.820476],[90.328779,23.820616],[90.328552,23.820753]]]}},{"type":"Feature","properties":{"survey":"bds","sheet":"018","dag":"8510","label_bn":"8510","area_sqm":2677.4},"geometry":{"type":"Polygon","coordinates":[[[90.327145,23.820762],[90.327108,23.820855],[90.326894,23.820814],[90.326518,23.820615],[90.326528,23.820602],[90.326646,23.820431],[90.326724,23.820323],[90.326786,23.820358],[90.326824,23.820373],[90.327143,23.820418],[90.327189,23.820419],[90.327226,23.820416],[90.327248,23.820407],[90.327241,23.820427],[90.327195,23.820594],[90.327145,23.820762]]]}},{"type":"Feature","properties":{"survey":"bds","sheet":"018","dag":"8530","label_bn":"8530","area_sqm":1258.0},"geometry":{"type":"Polygon","coordinates":[[[90.328101,23.821081],[90.327988,23.821112],[90.327913,23.82095],[90.327886,23.820876],[90.327896,23.820779],[90.328013,23.820568],[90.328029,23.820539],[90.328046,23.820508],[90.328086,23.820397],[90.328127,23.82025],[90.328229,23.820261],[90.328217,23.820343],[90.328202,23.820394],[90.328205,23.820441],[90.328184,23.820488],[90.328166,23.82053],[90.328109,23.820647],[90.328093,23.820677],[90.328039,23.820754],[90.328037,23.820794],[90.328033,23.8209],[90.328042,23.820918],[90.328101,23.821081]]]}},{"type":"Feature","properties":{"survey":"bds","sheet":"018","dag":"8528","label_bn":"8528","area_sqm":4165.1},"geometry":{"type":"Polygon","coordinates":[[[90.328959,23.820992],[90.328871,23.821142],[90.328097,23.820933],[90.328042,23.820918],[90.328033,23.8209],[90.328037,23.820794],[90.328039,23.820754],[90.328093,23.820677],[90.328098,23.820679],[90.328169,23.820704],[90.328388,23.82078],[90.328552,23.820753],[90.328779,23.820616],[90.328831,23.820476],[90.329085,23.82056],[90.329138,23.820589],[90.328959,23.820992]]]}},{"type":"Feature","properties":{"survey":"bds","sheet":"018","dag":"8508","label_bn":"8508","area_sqm":2115.1},"geometry":{"type":"Polygon","coordinates":[[[90.326894,23.820814],[90.326638,23.821187],[90.32628,23.820953],[90.326359,23.820817],[90.326518,23.820615],[90.326894,23.820814]]]}},{"type":"Feature","properties":{"survey":"bds","sheet":"018","dag":"8509","label_bn":"8509","area_sqm":1395.7},"geometry":{"type":"Polygon","coordinates":[[[90.326997,23.821228],[90.326982,23.821271],[90.326865,23.821243],[90.326638,23.821187],[90.326894,23.820814],[90.327108,23.820855],[90.327067,23.820976],[90.327033,23.821141],[90.326997,23.821228]]]}},{"type":"Feature","properties":{"survey":"bds","sheet":"018","dag":"8512","label_bn":"8512","area_sqm":4888.5},"geometry":{"type":"Polygon","coordinates":[[[90.327565,23.821287],[90.327468,23.821377],[90.327349,23.821349],[90.327193,23.821301],[90.327107,23.821263],[90.326997,23.821228],[90.327033,23.821141],[90.327067,23.820976],[90.327108,23.820855],[90.327145,23.820762],[90.327896,23.820779],[90.327886,23.820876],[90.327913,23.82095],[90.327988,23.821112],[90.327839,23.821162],[90.327691,23.821227],[90.327624,23.821255],[90.327565,23.821287]]]}},{"type":"Feature","properties":{"survey":"bds","sheet":"018","dag":"8554","label_bn":"8554","area_sqm":796.1},"geometry":{"type":"Polygon","coordinates":[[[90.326865,23.821243],[90.326764,23.821508],[90.326482,23.821396],[90.326537,23.821337],[90.326638,23.821187],[90.326865,23.821243]]]}},{"type":"Feature","properties":{"survey":"bds","sheet":"018","dag":"8527","label_bn":"8527","area_sqm":3177.2},"geometry":{"type":"Polygon","coordinates":[[[90.328791,23.82132],[90.328852,23.821626],[90.328741,23.821599],[90.328655,23.821597],[90.328523,23.821606],[90.328516,23.821607],[90.328522,23.821586],[90.328546,23.821514],[90.328545,23.821458],[90.328508,23.821391],[90.328434,23.821333],[90.328344,23.8213],[90.328262,23.82128],[90.32822,23.821269],[90.328174,23.821236],[90.328101,23.821081],[90.328042,23.820918],[90.328097,23.820933],[90.328871,23.821142],[90.328799,23.821284],[90.328791,23.82132]]]}},{"type":"Feature","properties":{"survey":"bds","sheet":"018","dag":"8507","label_bn":"8507","area_sqm":2776.3},"geometry":{"type":"Polygon","coordinates":[[[90.326465,23.821415],[90.326259,23.821651],[90.325958,23.821339],[90.326131,23.821107],[90.326194,23.821033],[90.326232,23.820995],[90.32628,23.820953],[90.326638,23.821187],[90.326537,23.821337],[90.326482,23.821396],[90.326465,23.821415]]]}},{"type":"Feature","properties":{"survey":"bds","sheet":"018","dag":"8553","label_bn":"8553","area_sqm":1368.6},"geometry":{"type":"Polygon","coordinates":[[[90.326689,23.821705],[90.326468,23.821806],[90.326267,23.821658],[90.326259,23.821651],[90.326465,23.821415],[90.326482,23.821396],[90.326764,23.821508],[90.326689,23.821705]]]}},{"type":"Feature","properties":{"survey":"bds","sheet":"018","dag":"8514","label_bn":"8514","area_sqm":2663.3},"geometry":{"type":"Polygon","coordinates":[[[90.328192,23.821848],[90.328148,23.821852],[90.32805,23.821825],[90.327929,23.821832],[90.327912,23.821837],[90.327869,23.821711],[90.327806,23.821678],[90.327787,23.821653],[90.327761,23.821599],[90.327763,23.821573],[90.327865,23.821444],[90.32793,23.821385],[90.327983,23.821325],[90.328043,23.821286],[90.328084,23.821339],[90.328127,23.821377],[90.328319,23.821418],[90.328327,23.82142],[90.328387,23.821432],[90.328419,23.82146],[90.328415,23.821498],[90.328414,23.821506],[90.328381,23.821566],[90.328294,23.821729],[90.328262,23.821805],[90.328265,23.82183],[90.328192,23.821848]]]}},{"type":"Feature","properties":{"survey":"bds","sheet":"018","dag":"8526","label_bn":"8526","area_sqm":2724.4},"geometry":{"type":"Polygon","coordinates":[[[90.328899,23.821843],[90.328868,23.821933],[90.328435,23.821893],[90.328417,23.821836],[90.328418,23.821811],[90.328422,23.821737],[90.328516,23.821607],[90.328523,23.821606],[90.328655,23.821597],[90.328741,23.821599],[90.328852,23.821626],[90.329407,23.821686],[90.329407,23.821878],[90.32922,23.821862],[90.329062,23.821851],[90.328899,23.821843]]]}},{"type":"Feature","properties":{"survey":"bds","sheet":"018","dag":"8506","label_bn":"8506","area_sqm":1987.8},"geometry":{"type":"Polygon","coordinates":[[[90.326978,23.821792],[90.32657,23.821944],[90.326498,23.821844],[90.32647,23.821808],[90.326468,23.821806],[90.326689,23.821705],[90.326764,23.821508],[90.326865,23.821243],[90.326982,23.821271],[90.326995,23.821281],[90.327005,23.821301],[90.327001,23.821611],[90.326998,23.82172],[90.326988,23.821776],[90.326978,23.821792]]]}},{"type":"Feature","properties":{"survey":"bds","sheet":"018","dag":"8525","label_bn":"8525","area_sqm":244.0},"geometry":{"type":"Polygon","coordinates":[[[90.329062,23.821851],[90.329031,23.821979],[90.328969,23.821974],[90.328857,23.821965],[90.328868,23.821933],[90.328899,23.821843],[90.329062,23.821851]]]}},{"type":"Feature","properties":{"survey":"bds","sheet":"018","dag":"8524","label_bn":"8524","area_sqm":244.6},"geometry":{"type":"Polygon","coordinates":[[[90.32922,23.821862],[90.329202,23.821993],[90.329084,23.821983],[90.329031,23.821979],[90.329062,23.821851],[90.32922,23.821862]]]}},{"type":"Feature","properties":{"survey":"bds","sheet":"018","dag":"8523","label_bn":"8523","area_sqm":288.0},"geometry":{"type":"Polygon","coordinates":[[[90.329407,23.821878],[90.329408,23.822004],[90.329229,23.821995],[90.329202,23.821993],[90.32922,23.821862],[90.329407,23.821878]]]}},{"type":"Feature","properties":{"survey":"bds","sheet":"018","dag":"8513","label_bn":"8513","area_sqm":6332.6},"geometry":{"type":"Polygon","coordinates":[[[90.327737,23.821988],[90.327692,23.822057],[90.327294,23.821858],[90.326998,23.82172],[90.327001,23.821611],[90.327005,23.821301],[90.326995,23.821281],[90.326982,23.821271],[90.326997,23.821228],[90.327107,23.821263],[90.327193,23.821301],[90.327349,23.821349],[90.327468,23.821377],[90.327565,23.821287],[90.327624,23.821255],[90.327691,23.821227],[90.327839,23.821162],[90.327988,23.821112],[90.328008,23.821199],[90.328043,23.821286],[90.327983,23.821325],[90.32793,23.821385],[90.327865,23.821444],[90.327763,23.821573],[90.327761,23.821599],[90.327787,23.821653],[90.327806,23.821678],[90.327869,23.821711],[90.327912,23.821837],[90.327814,23.821903],[90.327737,23.821988]]]}},{"type":"Feature","properties":{"survey":"bds","sheet":"018","dag":"8519","label_bn":"8519","area_sqm":162.8},"geometry":{"type":"Polygon","coordinates":[[[90.328969,23.821974],[90.328939,23.822094],[90.328815,23.822084],[90.328856,23.821968],[90.328857,23.821965],[90.328969,23.821974]]]}},{"type":"Feature","properties":{"survey":"bds","sheet":"018","dag":"8520","label_bn":"8520","area_sqm":162.7},"geometry":{"type":"Polygon","coordinates":[[[90.329084,23.821983],[90.329061,23.822102],[90.328939,23.822094],[90.328969,23.821974],[90.329031,23.821979],[90.329084,23.821983]]]}},{"type":"Feature","properties":{"survey":"bds","sheet":"018","dag":"8521","label_bn":"8521","area_sqm":203.2},"geometry":{"type":"Polygon","coordinates":[[[90.329229,23.821997],[90.329217,23.822113],[90.329184,23.82211],[90.329063,23.822102],[90.329061,23.822102],[90.329084,23.821983],[90.329202,23.821993],[90.329229,23.821995],[90.329229,23.821997]]]}},{"type":"Feature","properties":{"survey":"bds","sheet":"018","dag":"8522","label_bn":"8522","area_sqm":246.4},"geometry":{"type":"Polygon","coordinates":[[[90.329408,23.822011],[90.329408,23.82212],[90.329217,23.822113],[90.329229,23.821997],[90.329229,23.821995],[90.329408,23.822004],[90.329408,23.822011]]]}},{"type":"Feature","properties":{"survey":"bds","sheet":"018","dag":"8518","label_bn":"8518","area_sqm":1060.9},"geometry":{"type":"Polygon","coordinates":[[[90.329415,23.822263],[90.328808,23.822265],[90.328818,23.822225],[90.328836,23.822158],[90.328815,23.822084],[90.328939,23.822094],[90.329061,23.822102],[90.329063,23.822102],[90.329184,23.82211],[90.329217,23.822113],[90.329408,23.82212],[90.329409,23.822131],[90.329415,23.822263]]]}},{"type":"Feature","properties":{"survey":"bds","sheet":"018","dag":"8517","label_bn":"8517","area_sqm":1345.2},"geometry":{"type":"Polygon","coordinates":[[[90.328808,23.822265],[90.328808,23.822267],[90.328471,23.822239],[90.328483,23.822196],[90.328504,23.822117],[90.328505,23.822066],[90.328492,23.822024],[90.328467,23.821959],[90.328435,23.821893],[90.328868,23.821933],[90.328857,23.821965],[90.328856,23.821968],[90.328815,23.822084],[90.328836,23.822158],[90.328818,23.822225],[90.328808,23.822265]]]}},{"type":"Feature","properties":{"survey":"bds","sheet":"018","dag":"8501","label_bn":"8501","area_sqm":1051.4},"geometry":{"type":"Polygon","coordinates":[[[90.326709,23.822422],[90.326682,23.822441],[90.326668,23.822441],[90.326424,23.822178],[90.326636,23.822094],[90.326636,23.822095],[90.326744,23.822091],[90.326828,23.822139],[90.326908,23.822197],[90.326709,23.822422]]]}},{"type":"Feature","properties":{"survey":"bds","sheet":"018","dag":"8505","label_bn":"8505","area_sqm":5626.2},"geometry":{"type":"Polygon","coordinates":[[[90.327542,23.822595],[90.32752,23.822616],[90.3275,23.822603],[90.327177,23.822394],[90.326908,23.822197],[90.326828,23.822139],[90.326744,23.822091],[90.326636,23.822095],[90.326636,23.822094],[90.32657,23.821944],[90.326978,23.821792],[90.326988,23.821776],[90.326998,23.82172],[90.327294,23.821858],[90.327692,23.822057],[90.327662,23.822191],[90.327626,23.822364],[90.327612,23.822477],[90.327574,23.822564],[90.327542,23.822595]]]}},{"type":"Feature","properties":{"survey":"bds","sheet":"018","dag":"8515","label_bn":"8515","area_sqm":2718.4},"geometry":{"type":"Polygon","coordinates":[[[90.328435,23.822451],[90.32841,23.822629],[90.328261,23.822613],[90.328273,23.822575],[90.32828,23.822486],[90.328307,23.822365],[90.328309,23.822359],[90.328342,23.822264],[90.328346,23.822246],[90.328367,23.822171],[90.328381,23.822112],[90.328352,23.822017],[90.328349,23.82201],[90.328295,23.821907],[90.328291,23.821899],[90.328265,23.82183],[90.328262,23.821805],[90.328294,23.821729],[90.328381,23.821566],[90.328414,23.821506],[90.328415,23.821498],[90.328419,23.82146],[90.328387,23.821432],[90.328327,23.82142],[90.328319,23.821418],[90.328127,23.821377],[90.328084,23.821339],[90.328043,23.821286],[90.328008,23.821199],[90.327988,23.821112],[90.328101,23.821081],[90.328174,23.821236],[90.32822,23.821269],[90.328262,23.82128],[90.328344,23.8213],[90.328434,23.821333],[90.328508,23.821391],[90.328545,23.821458],[90.328546,23.821514],[90.328522,23.821586],[90.328516,23.821607],[90.328422,23.821737],[90.328418,23.821811],[90.328417,23.821836],[90.328435,23.821893],[90.328467,23.821959],[90.328492,23.822024],[90.328505,23.822066],[90.328504,23.822117],[90.328483,23.822196],[90.328471,23.822239],[90.328435,23.822451]]]}},{"type":"Feature","properties":{"survey":"bds","sheet":"018","dag":"8504","label_bn":"8504","area_sqm":5878.8},"geometry":{"type":"Polygon","coordinates":[[[90.328154,23.822671],[90.328124,23.822677],[90.328033,23.822658],[90.327875,23.82262],[90.327548,23.822616],[90.32752,23.822616],[90.327542,23.822595],[90.327574,23.822564],[90.327612,23.822477],[90.327626,23.822364],[90.327662,23.822191],[90.327692,23.822057],[90.327737,23.821988],[90.327814,23.821903],[90.327912,23.821837],[90.327929,23.821832],[90.32805,23.821825],[90.328148,23.821852],[90.328192,23.821848],[90.328265,23.82183],[90.328291,23.821899],[90.328295,23.821907],[90.328349,23.82201],[90.328352,23.822017],[90.328381,23.822112],[90.328367,23.822171],[90.328346,23.822246],[90.328342,23.822264],[90.328309,23.822359],[90.328307,23.822365],[90.32828,23.822486],[90.328273,23.822575],[90.328261,23.822613],[90.328239,23.822639],[90.328239,23.822639],[90.328231,23.822648],[90.328213,23.822657],[90.328182,23.822667],[90.328154,23.822671]]]}},{"type":"Feature","properties":{"survey":"bds","sheet":"018","dag":"8502","label_bn":"8502","area_sqm":2168.0},"geometry":{"type":"Polygon","coordinates":[[[90.327082,23.82267],[90.326994,23.822689],[90.326972,23.822669],[90.326764,23.822482],[90.326709,23.822422],[90.326908,23.822197],[90.327177,23.822394],[90.3275,23.822603],[90.32752,23.822616],[90.327476,23.822633],[90.327409,23.822647],[90.327244,23.822662],[90.327082,23.82267]]]}},{"type":"Feature","properties":{"survey":"bds","sheet":"018","dag":"8516","label_bn":"8516","area_sqm":5118.8},"geometry":{"type":"Polygon","coordinates":[[[90.328591,23.822774],[90.328517,23.822816],[90.328436,23.822798],[90.328388,23.822787],[90.328397,23.822721],[90.32841,23.822629],[90.328435,23.822451],[90.328471,23.822239],[90.328808,23.822267],[90.328808,23.822265],[90.329415,23.822263],[90.329415,23.822265],[90.329432,23.822627],[90.329192,23.822675],[90.328949,23.822697],[90.328804,23.822717],[90.328591,23.822774]]]}},{"type":"Feature","properties":{"survey":"bds","sheet":"018","dag":"8503","label_bn":"8503","area_sqm":2454.4},"geometry":{"type":"Polygon","coordinates":[[[90.327115,23.822847],[90.32704,23.822896],[90.326994,23.822689],[90.327082,23.82267],[90.327244,23.822662],[90.327409,23.822647],[90.327476,23.822633],[90.32752,23.822616],[90.327548,23.822616],[90.327875,23.82262],[90.328033,23.822658],[90.328124,23.822677],[90.328154,23.822671],[90.328182,23.822667],[90.328213,23.822657],[90.328231,23.822648],[90.328239,23.822639],[90.328239,23.822639],[90.328261,23.822613],[90.32841,23.822629],[90.328397,23.822721],[90.328388,23.822787],[90.328333,23.822794],[90.328284,23.822824],[90.328227,23.822826],[90.32817,23.822834],[90.328034,23.822807],[90.327852,23.822747],[90.32778,23.822735],[90.327683,23.822763],[90.327568,23.822788],[90.327403,23.822792],[90.327332,23.822797],[90.327207,23.822808],[90.327115,23.822847]]]}}]}