{"type":"FeatureCollection","features":[{"type":"Feature","properties":{"survey":"bds","sheet":"020","dag":"9588","label_bn":"9588","area_sqm":609.3},"geometry":{"type":"Polygon","coordinates":[[[90.331425,23.814828],[90.331436,23.815106],[90.331354,23.815098],[90.331196,23.815084],[90.331251,23.814937],[90.331231,23.814818],[90.33136,23.814831],[90.331425,23.814828]]]}},{"type":"Feature","properties":{"survey":"bds","sheet":"020","dag":"9590","label_bn":"9590","area_sqm":650.4},"geometry":{"type":"Polygon","coordinates":[[[90.331608,23.814843],[90.331657,23.815127],[90.331436,23.815106],[90.331425,23.814828],[90.33151,23.814824],[90.331608,23.814843]]]}},{"type":"Feature","properties":{"survey":"bds","sheet":"020","dag":"9567","label_bn":"9567","area_sqm":1194.1},"geometry":{"type":"Polygon","coordinates":[[[90.328873,23.814928],[90.328766,23.815307],[90.328749,23.815301],[90.328735,23.815258],[90.32848,23.81517],[90.328569,23.814854],[90.328623,23.814855],[90.328648,23.81486],[90.328741,23.814908],[90.328767,23.814936],[90.328804,23.814953],[90.328838,23.814953],[90.328873,23.814928]]]}},{"type":"Feature","properties":{"survey":"bds","sheet":"020","dag":"9586","label_bn":"9586","area_sqm":2727.3},"geometry":{"type":"Polygon","coordinates":[[[90.331005,23.815138],[90.330893,23.815359],[90.330765,23.815252],[90.330706,23.815214],[90.330658,23.815168],[90.330633,23.815077],[90.330645,23.814912],[90.330678,23.81482],[90.330709,23.814796],[90.330769,23.814767],[90.330857,23.814761],[90.330952,23.814737],[90.331106,23.814788],[90.331231,23.814818],[90.331251,23.814937],[90.331196,23.815084],[90.331005,23.815075],[90.331005,23.815138]]]}},{"type":"Feature","properties":{"survey":"bds","sheet":"020","dag":"9568","label_bn":"9568","area_sqm":1362.0},"geometry":{"type":"Polygon","coordinates":[[[90.32916,23.815049],[90.329059,23.815416],[90.329052,23.815414],[90.32878,23.815312],[90.328766,23.815307],[90.328873,23.814928],[90.32916,23.815049]]]}},{"type":"Feature","properties":{"survey":"bds","sheet":"020","dag":"9570","label_bn":"9570","area_sqm":659.2},"geometry":{"type":"Polygon","coordinates":[[[90.329313,23.815084],[90.329211,23.81544],[90.329103,23.815431],[90.329066,23.815419],[90.329059,23.815416],[90.32916,23.815049],[90.329163,23.81505],[90.329166,23.815052],[90.329206,23.815069],[90.329313,23.815084]]]}},{"type":"Feature","properties":{"survey":"bds","sheet":"020","dag":"9571","label_bn":"9571","area_sqm":691.1},"geometry":{"type":"Polygon","coordinates":[[[90.329473,23.815108],[90.329367,23.815482],[90.329302,23.815464],[90.329288,23.81546],[90.329253,23.81545],[90.329218,23.815442],[90.329212,23.81544],[90.329211,23.81544],[90.329313,23.815084],[90.329316,23.815085],[90.329321,23.815085],[90.329361,23.815091],[90.329362,23.815091],[90.329473,23.815108]]]}},{"type":"Feature","properties":{"survey":"bds","sheet":"020","dag":"9576","label_bn":"9576","area_sqm":930.1},"geometry":{"type":"Polygon","coordinates":[[[90.330005,23.815217],[90.329895,23.815524],[90.329653,23.815463],[90.329748,23.815149],[90.329798,23.815149],[90.329857,23.815203],[90.330005,23.815217]]]}},{"type":"Feature","properties":{"survey":"bds","sheet":"020","dag":"9572","label_bn":"9572","area_sqm":1219.6},"geometry":{"type":"Polygon","coordinates":[[[90.329653,23.815463],[90.329625,23.815558],[90.329624,23.815557],[90.329597,23.815522],[90.329597,23.815522],[90.329512,23.81551],[90.329481,23.815504],[90.329399,23.815489],[90.329384,23.815487],[90.329367,23.815482],[90.329473,23.815108],[90.329687,23.815141],[90.329746,23.815149],[90.329748,23.815149],[90.329653,23.815463]]]}},{"type":"Feature","properties":{"survey":"bds","sheet":"020","dag":"9573","label_bn":"9573","area_sqm":285.4},"geometry":{"type":"Polygon","coordinates":[[[90.329481,23.815504],[90.329453,23.815638],[90.329271,23.8156],[90.329302,23.815464],[90.329367,23.815482],[90.329384,23.815487],[90.329399,23.815489],[90.329481,23.815504]]]}},{"type":"Feature","properties":{"survey":"bds","sheet":"020","dag":"9591","label_bn":"9591","area_sqm":349.6},"geometry":{"type":"Polygon","coordinates":[[[90.329891,23.815533],[90.32985,23.815649],[90.329716,23.81561],[90.32969,23.815606],[90.329632,23.815568],[90.329625,23.815558],[90.329653,23.815463],[90.329895,23.815524],[90.329891,23.815533]]]}},{"type":"Feature","properties":{"survey":"bds","sheet":"020","dag":"9566","label_bn":"9566","area_sqm":1168.5},"geometry":{"type":"Polygon","coordinates":[[[90.329103,23.815431],[90.329045,23.815694],[90.329025,23.815688],[90.329024,23.815687],[90.328939,23.815653],[90.32892,23.815645],[90.328666,23.815545],[90.328667,23.815524],[90.32875,23.815302],[90.328749,23.815301],[90.328766,23.815307],[90.32878,23.815312],[90.329052,23.815414],[90.329059,23.815416],[90.329066,23.815419],[90.329103,23.815431]]]}},{"type":"Feature","properties":{"survey":"bds","sheet":"020","dag":"9569","label_bn":"9569","area_sqm":650.6},"geometry":{"type":"Polygon","coordinates":[[[90.329271,23.8156],[90.329237,23.815749],[90.329222,23.815746],[90.329172,23.815731],[90.329045,23.815694],[90.329103,23.815431],[90.329211,23.81544],[90.329212,23.81544],[90.329218,23.815442],[90.329253,23.81545],[90.329288,23.81546],[90.329302,23.815464],[90.329271,23.8156]]]}},{"type":"Feature","properties":{"survey":"bds","sheet":"020","dag":"9589","label_bn":"9589","area_sqm":2836.5},"geometry":{"type":"Polygon","coordinates":[[[90.331706,23.815729],[90.331579,23.815784],[90.331557,23.815735],[90.331327,23.815411],[90.331196,23.815084],[90.331354,23.815098],[90.331436,23.815106],[90.331657,23.815127],[90.331674,23.815163],[90.331802,23.815462],[90.331807,23.815472],[90.331817,23.815502],[90.331772,23.815575],[90.331765,23.81572],[90.331706,23.815729]]]}},{"type":"Feature","properties":{"survey":"bds","sheet":"020","dag":"9574","label_bn":"9574","area_sqm":326.4},"geometry":{"type":"Polygon","coordinates":[[[90.329453,23.815638],[90.329421,23.815791],[90.329392,23.815785],[90.329391,23.815785],[90.329333,23.815769],[90.329315,23.815764],[90.329237,23.815749],[90.329271,23.8156],[90.329453,23.815638]]]}},{"type":"Feature","properties":{"survey":"bds","sheet":"020","dag":"9575","label_bn":"9575","area_sqm":1357.6},"geometry":{"type":"Polygon","coordinates":[[[90.32985,23.815649],[90.329911,23.815925],[90.329788,23.81589],[90.329607,23.815839],[90.329522,23.815816],[90.329455,23.815798],[90.329421,23.815791],[90.329453,23.815638],[90.329481,23.815504],[90.329512,23.81551],[90.329597,23.815522],[90.329597,23.815522],[90.329624,23.815557],[90.329625,23.815558],[90.329632,23.815568],[90.32969,23.815606],[90.329716,23.81561],[90.32985,23.815649]]]}},{"type":"Feature","properties":{"survey":"bds","sheet":"020","dag":"9565","label_bn":"9565","area_sqm":1057.2},"geometry":{"type":"Polygon","coordinates":[[[90.328897,23.815801],[90.328875,23.815956],[90.32875,23.815943],[90.328666,23.815865],[90.328628,23.815826],[90.328599,23.815787],[90.328574,23.815744],[90.328597,23.815727],[90.328607,23.815705],[90.328666,23.815545],[90.32892,23.815645],[90.328897,23.815801]]]}},{"type":"Feature","properties":{"survey":"bds","sheet":"020","dag":"9564","label_bn":"9564","area_sqm":813.0},"geometry":{"type":"Polygon","coordinates":[[[90.329146,23.815855],[90.329119,23.815982],[90.328875,23.815956],[90.328897,23.815801],[90.32892,23.815645],[90.328939,23.815653],[90.329024,23.815687],[90.329025,23.815688],[90.329045,23.815694],[90.329172,23.815731],[90.329146,23.815855],[90.329146,23.815855]]]}},{"type":"Feature","properties":{"survey":"bds","sheet":"020","dag":"9577","label_bn":"9577","area_sqm":6292.7},"geometry":{"type":"Polygon","coordinates":[[[90.330499,23.815981],[90.330479,23.815996],[90.3304,23.815936],[90.330363,23.815917],[90.330266,23.81587],[90.330174,23.815834],[90.330146,23.815829],[90.330122,23.815831],[90.329937,23.815894],[90.32992,23.815928],[90.329911,23.815925],[90.32985,23.815649],[90.329891,23.815533],[90.329895,23.815524],[90.330005,23.815217],[90.330089,23.815204],[90.330234,23.815205],[90.330513,23.815202],[90.330552,23.815215],[90.330622,23.815195],[90.330738,23.815288],[90.330842,23.815355],[90.330836,23.815514],[90.330784,23.815565],[90.330631,23.815681],[90.330591,23.815812],[90.330583,23.815865],[90.330499,23.815981]]]}},{"type":"Feature","properties":{"survey":"bds","sheet":"020","dag":"9563","label_bn":"9563","area_sqm":406.4},"geometry":{"type":"Polygon","coordinates":[[[90.329289,23.815883],[90.329264,23.815996],[90.329264,23.815996],[90.329243,23.815995],[90.329241,23.815995],[90.329119,23.815982],[90.329146,23.815855],[90.329146,23.815855],[90.329172,23.815731],[90.329222,23.815746],[90.329237,23.815749],[90.329315,23.815764],[90.329289,23.815883]]]}},{"type":"Feature","properties":{"survey":"bds","sheet":"020","dag":"9562","label_bn":"9562","area_sqm":203.8},"geometry":{"type":"Polygon","coordinates":[[[90.329391,23.815785],[90.329344,23.816],[90.329319,23.815999],[90.329264,23.815996],[90.329289,23.815883],[90.329315,23.815764],[90.329333,23.815769],[90.329391,23.815785]]]}},{"type":"Feature","properties":{"survey":"bds","sheet":"020","dag":"9561","label_bn":"9561","area_sqm":327.0},"geometry":{"type":"Polygon","coordinates":[[[90.329522,23.815816],[90.329477,23.816019],[90.329344,23.816],[90.329391,23.815785],[90.329392,23.815785],[90.329421,23.815791],[90.329455,23.815798],[90.329522,23.815816]]]}},{"type":"Feature","properties":{"survey":"bds","sheet":"020","dag":"9560","label_bn":"9560","area_sqm":202.5},"geometry":{"type":"Polygon","coordinates":[[[90.329607,23.815839],[90.329562,23.816034],[90.329477,23.816019],[90.329522,23.815816],[90.329607,23.815839]]]}},{"type":"Feature","properties":{"survey":"bds","sheet":"020","dag":"9559","label_bn":"9559","area_sqm":418.3},"geometry":{"type":"Polygon","coordinates":[[[90.329788,23.81589],[90.329763,23.816067],[90.329562,23.816034],[90.329562,23.816034],[90.329607,23.815839],[90.329788,23.81589]]]}},{"type":"Feature","properties":{"survey":"bds","sheet":"020","dag":"9558","label_bn":"9558","area_sqm":312.9},"geometry":{"type":"Polygon","coordinates":[[[90.32992,23.815928],[90.329949,23.816099],[90.329763,23.816067],[90.329788,23.81589],[90.329911,23.815925],[90.32992,23.815928]]]}},{"type":"Feature","properties":{"survey":"bds","sheet":"020","dag":"9557","label_bn":"9557","area_sqm":1410.2},"geometry":{"type":"Polygon","coordinates":[[[90.330431,23.816034],[90.330291,23.816161],[90.329954,23.8161],[90.329949,23.816099],[90.32992,23.815928],[90.329937,23.815894],[90.330122,23.815831],[90.330146,23.815829],[90.330174,23.815834],[90.330266,23.81587],[90.330363,23.815917],[90.3304,23.815936],[90.330479,23.815996],[90.330431,23.816034]]]}},{"type":"Feature","properties":{"survey":"bds","sheet":"020","dag":"9551","label_bn":"9551","area_sqm":1175.8},"geometry":{"type":"Polygon","coordinates":[[[90.329247,23.816174],[90.329242,23.816224],[90.328811,23.816189],[90.328813,23.816177],[90.328816,23.816159],[90.328818,23.81615],[90.328817,23.815998],[90.328804,23.815994],[90.328793,23.815982],[90.32875,23.815943],[90.328875,23.815956],[90.329119,23.815982],[90.329241,23.815995],[90.329243,23.815995],[90.329264,23.815996],[90.329264,23.815996],[90.329247,23.816174]]]}},{"type":"Feature","properties":{"survey":"bds","sheet":"020","dag":"9585","label_bn":"9585","area_sqm":7661.6},"geometry":{"type":"Polygon","coordinates":[[[90.331183,23.816167],[90.331138,23.81625],[90.331076,23.816237],[90.330533,23.816005],[90.330581,23.815964],[90.330628,23.815905],[90.330642,23.815856],[90.330642,23.815822],[90.33065,23.815748],[90.330675,23.815691],[90.330742,23.815649],[90.330878,23.815545],[90.330893,23.815359],[90.331005,23.815138],[90.331005,23.815075],[90.331196,23.815084],[90.331327,23.815411],[90.331557,23.815735],[90.331579,23.815784],[90.331441,23.816059],[90.331398,23.816102],[90.331343,23.816117],[90.33124,23.816185],[90.331183,23.816167]]]}},{"type":"Feature","properties":{"survey":"bds","sheet":"020","dag":"9552","label_bn":"9552","area_sqm":1544.7},"geometry":{"type":"Polygon","coordinates":[[[90.329954,23.8161],[90.329896,23.816329],[90.329786,23.816296],[90.329608,23.816218],[90.329603,23.816239],[90.329247,23.816174],[90.329264,23.815996],[90.329319,23.815999],[90.329344,23.816],[90.329477,23.816019],[90.329562,23.816034],[90.329562,23.816034],[90.329763,23.816067],[90.329949,23.816099],[90.329954,23.8161]]]}},{"type":"Feature","properties":{"survey":"bds","sheet":"020","dag":"9555","label_bn":"9555","area_sqm":163.0},"geometry":{"type":"Polygon","coordinates":[[[90.329786,23.816296],[90.329769,23.816368],[90.32959,23.816291],[90.329603,23.816239],[90.329608,23.816218],[90.329786,23.816296]]]}},{"type":"Feature","properties":{"survey":"bds","sheet":"020","dag":"9550","label_bn":"9550","area_sqm":823.4},"geometry":{"type":"Polygon","coordinates":[[[90.329242,23.816224],[90.329225,23.816391],[90.32878,23.81635],[90.328793,23.816306],[90.328811,23.816189],[90.329242,23.816224]]]}},{"type":"Feature","properties":{"survey":"bds","sheet":"020","dag":"9579","label_bn":"9579","area_sqm":498.9},"geometry":{"type":"Polygon","coordinates":[[[90.330451,23.816331],[90.330433,23.816446],[90.330265,23.816415],[90.330291,23.816247],[90.330351,23.816141],[90.330419,23.8161],[90.330451,23.816331]]]}},{"type":"Feature","properties":{"survey":"bds","sheet":"020","dag":"9553","label_bn":"9553","area_sqm":853.6},"geometry":{"type":"Polygon","coordinates":[[[90.32959,23.816291],[90.329544,23.81647],[90.329527,23.816462],[90.329449,23.816428],[90.329272,23.816396],[90.329225,23.816391],[90.329242,23.816224],[90.329247,23.816174],[90.329603,23.816239],[90.32959,23.816291]]]}},{"type":"Feature","properties":{"survey":"bds","sheet":"020","dag":"9584","label_bn":"9584","area_sqm":2163.6},"geometry":{"type":"Polygon","coordinates":[[[90.331133,23.816438],[90.331121,23.816478],[90.330451,23.816331],[90.330419,23.8161],[90.330428,23.816094],[90.330478,23.816057],[90.330533,23.816005],[90.331076,23.816237],[90.331138,23.81625],[90.33106,23.816367],[90.331133,23.816438]]]}},{"type":"Feature","properties":{"survey":"bds","sheet":"020","dag":"9583","label_bn":"9583","area_sqm":2125.2},"geometry":{"type":"Polygon","coordinates":[[[90.331489,23.816537],[90.331486,23.816543],[90.331121,23.816478],[90.331133,23.816438],[90.33106,23.816367],[90.331138,23.81625],[90.331183,23.816167],[90.33124,23.816185],[90.331343,23.816117],[90.331398,23.816102],[90.331662,23.816158],[90.33175,23.816166],[90.331584,23.816387],[90.33156,23.81642],[90.331489,23.816537]]]}},{"type":"Feature","properties":{"survey":"bds","sheet":"020","dag":"9554","label_bn":"9554","area_sqm":406.3},"geometry":{"type":"Polygon","coordinates":[[[90.329769,23.816368],[90.329727,23.816548],[90.329544,23.81647],[90.32959,23.816291],[90.329769,23.816368]]]}},{"type":"Feature","properties":{"survey":"bds","sheet":"020","dag":"9556","label_bn":"9556","area_sqm":2319.7},"geometry":{"type":"Polygon","coordinates":[[[90.3302,23.816543],[90.330168,23.816693],[90.329727,23.816548],[90.329769,23.816368],[90.329786,23.816296],[90.329896,23.816329],[90.329954,23.8161],[90.330291,23.816161],[90.330241,23.816258],[90.3302,23.816543]]]}},{"type":"Feature","properties":{"survey":"bds","sheet":"020","dag":"9582","label_bn":"9582","area_sqm":939.9},"geometry":{"type":"Polygon","coordinates":[[[90.331548,23.816751],[90.331498,23.816815],[90.331387,23.816738],[90.331068,23.816652],[90.331121,23.816478],[90.331486,23.816543],[90.331458,23.816619],[90.331451,23.816652],[90.331456,23.816668],[90.331548,23.816751]]]}},{"type":"Feature","properties":{"survey":"bds","sheet":"020","dag":"9578","label_bn":"9578","area_sqm":972.7},"geometry":{"type":"Polygon","coordinates":[[[90.330193,23.816736],[90.330148,23.816874],[90.33012,23.816869],[90.330168,23.816693],[90.3302,23.816543],[90.330241,23.816258],[90.330291,23.816161],[90.330431,23.816034],[90.330479,23.815996],[90.330499,23.815981],[90.330583,23.815865],[90.330591,23.815812],[90.330631,23.815681],[90.330784,23.815565],[90.330836,23.815514],[90.330842,23.815355],[90.330738,23.815288],[90.330622,23.815195],[90.330658,23.815168],[90.330706,23.815214],[90.330765,23.815252],[90.330893,23.815359],[90.330878,23.815545],[90.330742,23.815649],[90.330675,23.815691],[90.33065,23.815748],[90.330642,23.815822],[90.330642,23.815856],[90.330628,23.815905],[90.330581,23.815964],[90.330533,23.816005],[90.330478,23.816057],[90.330428,23.816094],[90.330419,23.8161],[90.330351,23.816141],[90.330291,23.816247],[90.330265,23.816415],[90.330262,23.816431],[90.330193,23.816736]]]}},{"type":"Feature","properties":{"survey":"bds","sheet":"020","dag":"9549","label_bn":"9549","area_sqm":4506.3},"geometry":{"type":"Polygon","coordinates":[[[90.32975,23.816806],[90.329758,23.816906],[90.32966,23.816887],[90.329593,23.816878],[90.32956,23.816873],[90.329465,23.81685],[90.329383,23.816839],[90.329369,23.816837],[90.329273,23.816815],[90.329272,23.816815],[90.329179,23.8168],[90.329088,23.816772],[90.328984,23.816757],[90.328969,23.816754],[90.328868,23.81674],[90.328754,23.816717],[90.328754,23.81668],[90.328699,23.816675],[90.328702,23.816618],[90.32878,23.81635],[90.329225,23.816391],[90.329272,23.816396],[90.329449,23.816428],[90.329527,23.816462],[90.329544,23.81647],[90.329727,23.816548],[90.32975,23.816806]]]}},{"type":"Feature","properties":{"survey":"bds","sheet":"020","dag":"9536","label_bn":"9536","area_sqm":406.4},"geometry":{"type":"Polygon","coordinates":[[[90.328984,23.81692],[90.328984,23.816927],[90.328969,23.816923],[90.328864,23.816892],[90.328753,23.816859],[90.328754,23.816717],[90.328868,23.81674],[90.328969,23.816754],[90.328984,23.816757],[90.328984,23.81692]]]}},{"type":"Feature","properties":{"survey":"bds","sheet":"020","dag":"9548","label_bn":"9548","area_sqm":1381.5},"geometry":{"type":"Polygon","coordinates":[[[90.33012,23.816869],[90.330098,23.816949],[90.329815,23.816913],[90.329758,23.816906],[90.32975,23.816806],[90.329727,23.816548],[90.330168,23.816693],[90.33012,23.816869]]]}},{"type":"Feature","properties":{"survey":"bds","sheet":"020","dag":"9580","label_bn":"9580","area_sqm":4254.2},"geometry":{"type":"Polygon","coordinates":[[[90.331068,23.816652],[90.330976,23.816958],[90.330959,23.816952],[90.33095,23.816949],[90.330934,23.816945],[90.33092,23.816941],[90.330912,23.816939],[90.330897,23.816934],[90.330838,23.816918],[90.330827,23.816915],[90.330804,23.816908],[90.330705,23.81688],[90.330698,23.816878],[90.330676,23.816872],[90.330475,23.816816],[90.330462,23.816812],[90.330454,23.81681],[90.330319,23.816772],[90.330193,23.816736],[90.330262,23.816431],[90.330265,23.816415],[90.330433,23.816446],[90.330451,23.816331],[90.331121,23.816478],[90.331068,23.816652]]]}},{"type":"Feature","properties":{"survey":"bds","sheet":"020","dag":"9537","label_bn":"9537","area_sqm":406.9},"geometry":{"type":"Polygon","coordinates":[[[90.329179,23.8168],[90.329191,23.816981],[90.329095,23.816957],[90.328984,23.816928],[90.328984,23.816927],[90.328984,23.81692],[90.328984,23.816757],[90.329088,23.816772],[90.329179,23.8168]]]}},{"type":"Feature","properties":{"survey":"bds","sheet":"020","dag":"9540","label_bn":"9540","area_sqm":204.3},"geometry":{"type":"Polygon","coordinates":[[[90.329272,23.816815],[90.3293,23.816995],[90.329202,23.816983],[90.329191,23.816981],[90.329179,23.8168],[90.329272,23.816815]]]}},{"type":"Feature","properties":{"survey":"bds","sheet":"020","dag":"9541","label_bn":"9541","area_sqm":203.2},"geometry":{"type":"Polygon","coordinates":[[[90.329383,23.816839],[90.329397,23.817014],[90.329305,23.816996],[90.329303,23.816995],[90.3293,23.816995],[90.329272,23.816815],[90.329273,23.816815],[90.329369,23.816837],[90.329383,23.816839]]]}},{"type":"Feature","properties":{"survey":"bds","sheet":"020","dag":"9544","label_bn":"9544","area_sqm":407.5},"geometry":{"type":"Polygon","coordinates":[[[90.329593,23.816878],[90.329604,23.817047],[90.329593,23.817046],[90.329499,23.817034],[90.329402,23.817015],[90.329397,23.817014],[90.329383,23.816839],[90.329465,23.81685],[90.32956,23.816873],[90.329593,23.816878]]]}},{"type":"Feature","properties":{"survey":"bds","sheet":"020","dag":"9531","label_bn":"9531","area_sqm":500.7},"geometry":{"type":"Polygon","coordinates":[[[90.330319,23.816772],[90.330261,23.81706],[90.330099,23.817024],[90.330148,23.816874],[90.330193,23.816736],[90.330319,23.816772]]]}},{"type":"Feature","properties":{"survey":"bds","sheet":"020","dag":"9545","label_bn":"9545","area_sqm":406.7},"geometry":{"type":"Polygon","coordinates":[[[90.329815,23.816913],[90.329815,23.817078],[90.329797,23.817076],[90.329698,23.817059],[90.329611,23.817048],[90.329604,23.817047],[90.329593,23.816878],[90.32966,23.816887],[90.329758,23.816906],[90.329815,23.816913]]]}},{"type":"Feature","properties":{"survey":"bds","sheet":"020","dag":"9535","label_bn":"9535","area_sqm":407.0},"geometry":{"type":"Polygon","coordinates":[[[90.328984,23.816927],[90.328976,23.817085],[90.328919,23.81707],[90.3289,23.817065],[90.328818,23.817024],[90.328751,23.817027],[90.328753,23.816859],[90.328864,23.816892],[90.328969,23.816923],[90.328984,23.816927]]]}},{"type":"Feature","properties":{"survey":"bds","sheet":"020","dag":"9530","label_bn":"9530","area_sqm":457.3},"geometry":{"type":"Polygon","coordinates":[[[90.330454,23.81681],[90.330396,23.81709],[90.330261,23.81706],[90.330319,23.816772],[90.330454,23.81681]]]}},{"type":"Feature","properties":{"survey":"bds","sheet":"020","dag":"9529","label_bn":"9529","area_sqm":731.8},"geometry":{"type":"Polygon","coordinates":[[[90.330676,23.816872],[90.330623,23.81714],[90.330417,23.817095],[90.330406,23.817092],[90.330396,23.81709],[90.330454,23.81681],[90.330462,23.816812],[90.330475,23.816816],[90.330676,23.816872]]]}},{"type":"Feature","properties":{"survey":"bds","sheet":"020","dag":"9538","label_bn":"9538","area_sqm":407.7},"geometry":{"type":"Polygon","coordinates":[[[90.329202,23.816983],[90.329209,23.817146],[90.329198,23.817143],[90.329059,23.817106],[90.328976,23.817085],[90.328984,23.816927],[90.328984,23.816928],[90.329095,23.816957],[90.329191,23.816981],[90.329202,23.816983]]]}},{"type":"Feature","properties":{"survey":"bds","sheet":"020","dag":"9528","label_bn":"9528","area_sqm":406.7},"geometry":{"type":"Polygon","coordinates":[[[90.330804,23.816908],[90.330753,23.817169],[90.330653,23.817147],[90.330645,23.817145],[90.330623,23.81714],[90.330676,23.816872],[90.330698,23.816878],[90.330705,23.81688],[90.330804,23.816908]]]}},{"type":"Feature","properties":{"survey":"bds","sheet":"020","dag":"9539","label_bn":"9539","area_sqm":203.4},"geometry":{"type":"Polygon","coordinates":[[[90.329305,23.816996],[90.329319,23.817173],[90.329305,23.817171],[90.329209,23.817146],[90.329202,23.816983],[90.3293,23.816995],[90.329303,23.816995],[90.329305,23.816996]]]}},{"type":"Feature","properties":{"survey":"bds","sheet":"020","dag":"9527","label_bn":"9527","area_sqm":331.0},"geometry":{"type":"Polygon","coordinates":[[[90.330912,23.816939],[90.330861,23.817193],[90.330846,23.817189],[90.330846,23.817189],[90.330788,23.817177],[90.330776,23.817174],[90.330753,23.817169],[90.330804,23.816908],[90.330827,23.816915],[90.330838,23.816918],[90.330897,23.816934],[90.330912,23.816939]]]}},{"type":"Feature","properties":{"survey":"bds","sheet":"020","dag":"9542","label_bn":"9542","area_sqm":202.9},"geometry":{"type":"Polygon","coordinates":[[[90.329402,23.817015],[90.329426,23.817195],[90.329332,23.817176],[90.329319,23.817173],[90.329305,23.816996],[90.329397,23.817014],[90.329402,23.817015]]]}},{"type":"Feature","properties":{"survey":"bds","sheet":"020","dag":"9581","label_bn":"9581","area_sqm":2956.5},"geometry":{"type":"Polygon","coordinates":[[[90.33181,23.816948],[90.33173,23.817213],[90.331659,23.817189],[90.331624,23.817177],[90.331481,23.817129],[90.331475,23.817127],[90.331065,23.816988],[90.331057,23.816985],[90.331049,23.816983],[90.331032,23.816977],[90.330976,23.816958],[90.331068,23.816652],[90.331387,23.816738],[90.331498,23.816815],[90.331548,23.816751],[90.331687,23.816858],[90.33181,23.816948]]]}},{"type":"Feature","properties":{"survey":"bds","sheet":"020","dag":"9526","label_bn":"9526","area_sqm":406.4},"geometry":{"type":"Polygon","coordinates":[[[90.331049,23.816983],[90.330998,23.817223],[90.330982,23.81722],[90.330883,23.817197],[90.330869,23.817194],[90.330861,23.817193],[90.330912,23.816939],[90.33092,23.816941],[90.330934,23.816945],[90.33095,23.816949],[90.330959,23.816952],[90.330976,23.816958],[90.331032,23.816977],[90.331049,23.816983]]]}},{"type":"Feature","properties":{"survey":"bds","sheet":"020","dag":"9543","label_bn":"9543","area_sqm":407.3},"geometry":{"type":"Polygon","coordinates":[[[90.329611,23.817048],[90.329628,23.817224],[90.329594,23.81722],[90.32953,23.817213],[90.329426,23.817195],[90.329402,23.817015],[90.329499,23.817034],[90.329593,23.817046],[90.329604,23.817047],[90.329611,23.817048]]]}},{"type":"Feature","properties":{"survey":"bds","sheet":"020","dag":"9546","label_bn":"9546","area_sqm":366.1},"geometry":{"type":"Polygon","coordinates":[[[90.329815,23.817079],[90.329804,23.817249],[90.329728,23.81723],[90.329628,23.817224],[90.329611,23.817048],[90.329698,23.817059],[90.329797,23.817076],[90.329815,23.817078],[90.329815,23.817079]]]}},{"type":"Feature","properties":{"survey":"bds","sheet":"020","dag":"9547","label_bn":"9547","area_sqm":908.5},"geometry":{"type":"Polygon","coordinates":[[[90.329987,23.817249],[90.329959,23.817317],[90.329917,23.817299],[90.329844,23.817259],[90.329821,23.817253],[90.329804,23.817249],[90.329815,23.817079],[90.329815,23.817078],[90.329815,23.816913],[90.330098,23.816949],[90.330082,23.817001],[90.330051,23.817071],[90.329987,23.817249]]]}},{"type":"Feature","properties":{"survey":"bds","sheet":"020","dag":"9525","label_bn":"9525","area_sqm":1180.7},"geometry":{"type":"Polygon","coordinates":[[[90.331475,23.817127],[90.331417,23.817347],[90.331027,23.817229],[90.331018,23.817227],[90.331007,23.817225],[90.330998,23.817223],[90.331049,23.816983],[90.331057,23.816985],[90.331065,23.816988],[90.331475,23.817127]]]}},{"type":"Feature","properties":{"survey":"bds","sheet":"020","dag":"9524","label_bn":"9524","area_sqm":394.3},"geometry":{"type":"Polygon","coordinates":[[[90.331624,23.817177],[90.331564,23.817391],[90.331425,23.817349],[90.331417,23.817347],[90.331475,23.817127],[90.331481,23.817129],[90.331624,23.817177]]]}},{"type":"Feature","properties":{"survey":"bds","sheet":"020","dag":"9523","label_bn":"9523","area_sqm":284.7},"geometry":{"type":"Polygon","coordinates":[[[90.331681,23.817407],[90.331676,23.817433],[90.33164,23.817414],[90.331577,23.817395],[90.331564,23.817391],[90.331624,23.817177],[90.331659,23.817189],[90.33173,23.817213],[90.331701,23.817313],[90.331681,23.817407]]]}},{"type":"Feature","properties":{"survey":"bds","sheet":"020","dag":"9522","label_bn":"9522","area_sqm":2526.7},"geometry":{"type":"Polygon","coordinates":[[[90.33165,23.817479],[90.331614,23.817549],[90.331549,23.817527],[90.331437,23.817491],[90.330741,23.817315],[90.330624,23.817284],[90.330338,23.817205],[90.330061,23.817141],[90.330099,23.817024],[90.330261,23.81706],[90.330396,23.81709],[90.330406,23.817092],[90.330417,23.817095],[90.330623,23.81714],[90.330645,23.817145],[90.330653,23.817147],[90.330753,23.817169],[90.330776,23.817174],[90.330788,23.817177],[90.330846,23.817189],[90.330846,23.817189],[90.330861,23.817193],[90.330869,23.817194],[90.330883,23.817197],[90.330982,23.81722],[90.330998,23.817223],[90.331007,23.817225],[90.331018,23.817227],[90.331027,23.817229],[90.331417,23.817347],[90.331425,23.817349],[90.331564,23.817391],[90.331577,23.817395],[90.33164,23.817414],[90.331676,23.817433],[90.33165,23.817479]]]}},{"type":"Feature","properties":{"survey":"bds","sheet":"020","dag":"9521","label_bn":"9521","area_sqm":2784.5},"geometry":{"type":"Polygon","coordinates":[[[90.331593,23.817591],[90.331568,23.817688],[90.331555,23.817683],[90.331483,23.817652],[90.331476,23.817649],[90.33138,23.817639],[90.331354,23.817633],[90.33123,23.817603],[90.331198,23.817594],[90.331195,23.817593],[90.331081,23.81756],[90.331047,23.81755],[90.331038,23.817548],[90.330935,23.817517],[90.330898,23.817507],[90.330885,23.817503],[90.330796,23.817479],[90.330751,23.817469],[90.330736,23.817465],[90.330649,23.817445],[90.330606,23.817435],[90.330606,23.817435],[90.330589,23.817431],[90.330463,23.817402],[90.330446,23.8174],[90.330165,23.817327],[90.330164,23.817327],[90.330013,23.81729],[90.330061,23.817141],[90.330338,23.817205],[90.330624,23.817284],[90.330741,23.817315],[90.331437,23.817491],[90.331549,23.817527],[90.331614,23.817549],[90.331614,23.817549],[90.331593,23.817591]]]}},{"type":"Feature","properties":{"survey":"bds","sheet":"020","dag":"9534","label_bn":"9534","area_sqm":5143.1},"geometry":{"type":"Polygon","coordinates":[[[90.32981,23.817764],[90.329798,23.817779],[90.329018,23.81759],[90.329024,23.817563],[90.329024,23.817563],[90.329018,23.817482],[90.329018,23.817405],[90.329011,23.817378],[90.328985,23.817284],[90.328955,23.817217],[90.32891,23.817094],[90.3289,23.817065],[90.328919,23.81707],[90.328976,23.817085],[90.329059,23.817106],[90.329198,23.817143],[90.329209,23.817146],[90.329305,23.817171],[90.329319,23.817173],[90.329332,23.817176],[90.329426,23.817195],[90.32953,23.817213],[90.329594,23.81722],[90.329628,23.817224],[90.329728,23.81723],[90.329804,23.817249],[90.329821,23.817253],[90.329844,23.817259],[90.329917,23.817299],[90.329959,23.817317],[90.329885,23.817549],[90.32981,23.817764]]]}},{"type":"Feature","properties":{"survey":"bds","sheet":"020","dag":"9533","label_bn":"9533","area_sqm":2482.2},"geometry":{"type":"Polygon","coordinates":[[[90.329584,23.818042],[90.329577,23.81805],[90.329518,23.81804],[90.329465,23.818021],[90.329351,23.81797],[90.329275,23.817941],[90.329206,23.817923],[90.329038,23.817861],[90.328978,23.817858],[90.328972,23.817859],[90.328975,23.817801],[90.328982,23.817758],[90.329018,23.81759],[90.329798,23.817779],[90.329764,23.817869],[90.329746,23.817907],[90.329713,23.817954],[90.329654,23.818009],[90.329612,23.818034],[90.329584,23.818042]]]}},{"type":"Feature","properties":{"survey":"bds","sheet":"020","dag":"9520","label_bn":"9520","area_sqm":5209.4},"geometry":{"type":"Polygon","coordinates":[[[90.330606,23.817435],[90.330553,23.81806],[90.330547,23.818058],[90.33034,23.818049],[90.330324,23.818052],[90.329789,23.817943],[90.329815,23.817883],[90.32984,23.817826],[90.32992,23.817563],[90.32997,23.817394],[90.32998,23.817368],[90.330013,23.81729],[90.330164,23.817327],[90.330165,23.817327],[90.330446,23.8174],[90.330463,23.817402],[90.330589,23.817431],[90.330606,23.817435],[90.330606,23.817435]]]}},{"type":"Feature","properties":{"survey":"bds","sheet":"020","dag":"9532","label_bn":"9532","area_sqm":567.3},"geometry":{"type":"Polygon","coordinates":[[[90.329683,23.818019],[90.329631,23.818074],[90.329577,23.81805],[90.329584,23.818042],[90.329612,23.818034],[90.329654,23.818009],[90.329713,23.817954],[90.329746,23.817907],[90.329764,23.817869],[90.329798,23.817779],[90.32981,23.817764],[90.329885,23.817549],[90.329959,23.817317],[90.329987,23.817249],[90.330051,23.817071],[90.330082,23.817001],[90.330098,23.816949],[90.33012,23.816869],[90.330148,23.816874],[90.330099,23.817024],[90.330061,23.817141],[90.330013,23.81729],[90.32998,23.817368],[90.32997,23.817394],[90.32992,23.817563],[90.32984,23.817826],[90.329815,23.817883],[90.329789,23.817943],[90.329742,23.81797],[90.329683,23.818019]]]}},{"type":"Feature","properties":{"survey":"bds","sheet":"020","dag":"9519","label_bn":"9519","area_sqm":1052.2},"geometry":{"type":"Polygon","coordinates":[[[90.330736,23.817465],[90.330718,23.818086],[90.330717,23.818086],[90.330579,23.818066],[90.330573,23.818065],[90.33057,23.818064],[90.330553,23.81806],[90.330606,23.817435],[90.330649,23.817445],[90.330736,23.817465]]]}},{"type":"Feature","properties":{"survey":"bds","sheet":"020","dag":"9518","label_bn":"9518","area_sqm":1053.7},"geometry":{"type":"Polygon","coordinates":[[[90.330885,23.817503],[90.330867,23.81812],[90.330725,23.818087],[90.330721,23.818086],[90.330718,23.818086],[90.330736,23.817465],[90.330751,23.817469],[90.330796,23.817479],[90.330885,23.817503]]]}},{"type":"Feature","properties":{"survey":"bds","sheet":"020","dag":"9517","label_bn":"9517","area_sqm":1057.4},"geometry":{"type":"Polygon","coordinates":[[[90.331038,23.817548],[90.33102,23.818142],[90.330979,23.818134],[90.33087,23.81812],[90.330867,23.81812],[90.330885,23.817503],[90.330898,23.817507],[90.330935,23.817517],[90.331038,23.817548]]]}},{"type":"Feature","properties":{"survey":"bds","sheet":"020","dag":"9516","label_bn":"9516","area_sqm":1053.8},"geometry":{"type":"Polygon","coordinates":[[[90.331195,23.817593],[90.331178,23.818169],[90.331154,23.818165],[90.331022,23.818142],[90.33102,23.818142],[90.331038,23.817548],[90.331047,23.81755],[90.331081,23.81756],[90.331195,23.817593]]]}},{"type":"Feature","properties":{"survey":"bds","sheet":"020","dag":"9515","label_bn":"9515","area_sqm":1056.9},"geometry":{"type":"Polygon","coordinates":[[[90.331354,23.817633],[90.331347,23.818194],[90.331335,23.818192],[90.331279,23.818184],[90.331178,23.818169],[90.331195,23.817593],[90.331198,23.817594],[90.33123,23.817603],[90.331354,23.817633]]]}},{"type":"Feature","properties":{"survey":"bds","sheet":"020","dag":"9514","label_bn":"9514","area_sqm":820.6},"geometry":{"type":"Polygon","coordinates":[[[90.331483,23.817652],[90.331476,23.818211],[90.331462,23.818209],[90.331347,23.818194],[90.331354,23.817633],[90.33138,23.817639],[90.331476,23.817649],[90.331483,23.817652]]]}},{"type":"Feature","properties":{"survey":"bds","sheet":"020","dag":"9513","label_bn":"9513","area_sqm":534.2},"geometry":{"type":"Polygon","coordinates":[[[90.331556,23.818209],[90.331557,23.818217],[90.33152,23.818215],[90.331476,23.818211],[90.331483,23.817652],[90.331555,23.817683],[90.331577,23.818095],[90.331556,23.818209]]]}},{"type":"Feature","properties":{"survey":"bds","sheet":"020","dag":"9509","label_bn":"9509","area_sqm":1862.7},"geometry":{"type":"Polygon","coordinates":[[[90.330288,23.818168],[90.330288,23.818292],[90.329982,23.818246],[90.329688,23.818215],[90.32967,23.818175],[90.329636,23.818117],[90.329631,23.818074],[90.329683,23.818019],[90.329742,23.81797],[90.329789,23.817943],[90.330324,23.818052],[90.330288,23.818168]]]}},{"type":"Feature","properties":{"survey":"bds","sheet":"020","dag":"9512","label_bn":"9512","area_sqm":5444.4},"geometry":{"type":"Polygon","coordinates":[[[90.332105,23.81819],[90.331973,23.818319],[90.331557,23.818217],[90.331556,23.818209],[90.331577,23.818095],[90.331555,23.817683],[90.331568,23.817688],[90.331593,23.817591],[90.331614,23.817549],[90.331614,23.817549],[90.33165,23.817479],[90.331676,23.817433],[90.331681,23.817407],[90.332159,23.817325],[90.332132,23.817574],[90.332122,23.817789],[90.33211,23.817958],[90.332105,23.81819]]]}},{"type":"Feature","properties":{"survey":"bds","sheet":"020","dag":"9510","label_bn":"9510","area_sqm":2665.7},"geometry":{"type":"Polygon","coordinates":[[[90.330993,23.818323],[90.33097,23.818514],[90.330747,23.818457],[90.330647,23.818427],[90.330453,23.818366],[90.330359,23.818319],[90.330288,23.818292],[90.330288,23.818168],[90.330324,23.818052],[90.33034,23.818049],[90.330547,23.818058],[90.330553,23.81806],[90.33057,23.818064],[90.330573,23.818065],[90.330579,23.818066],[90.330717,23.818086],[90.330718,23.818086],[90.330721,23.818086],[90.330725,23.818087],[90.330867,23.81812],[90.33087,23.81812],[90.330979,23.818134],[90.33102,23.818142],[90.331022,23.818142],[90.331008,23.81819],[90.330993,23.818323]]]}},{"type":"Feature","properties":{"survey":"bds","sheet":"020","dag":"9501","label_bn":"9501","area_sqm":252.8},"geometry":{"type":"Polygon","coordinates":[[[90.328932,23.81843],[90.328927,23.818532],[90.328925,23.818532],[90.328871,23.818289],[90.328823,23.818094],[90.328838,23.818076],[90.328918,23.81803],[90.328962,23.818013],[90.32903,23.818002],[90.329036,23.818001],[90.329111,23.818005],[90.329063,23.81801],[90.328983,23.818025],[90.32892,23.818054],[90.328898,23.818076],[90.328901,23.818246],[90.328905,23.818269],[90.328932,23.81843]]]}},{"type":"Feature","properties":{"survey":"bds","sheet":"020","dag":"9502","label_bn":"9502","area_sqm":2745.5},"geometry":{"type":"Polygon","coordinates":[[[90.329318,23.818476],[90.329283,23.818606],[90.329017,23.818534],[90.328968,23.818532],[90.328927,23.818532],[90.328932,23.81843],[90.328905,23.818269],[90.328901,23.818246],[90.328898,23.818076],[90.32892,23.818054],[90.328983,23.818025],[90.329063,23.81801],[90.329111,23.818005],[90.32914,23.818004],[90.329174,23.818014],[90.329296,23.818073],[90.329435,23.818148],[90.329474,23.818172],[90.329379,23.818331],[90.329351,23.818393],[90.329318,23.818476]]]}},{"type":"Feature","properties":{"survey":"bds","sheet":"020","dag":"9511","label_bn":"9511","area_sqm":4661.1},"geometry":{"type":"Polygon","coordinates":[[[90.331798,23.818727],[90.331759,23.81876],[90.331037,23.818531],[90.33097,23.818514],[90.330993,23.818323],[90.331008,23.81819],[90.331022,23.818142],[90.331154,23.818165],[90.331178,23.818169],[90.331279,23.818184],[90.331335,23.818192],[90.331347,23.818194],[90.331462,23.818209],[90.331476,23.818211],[90.33152,23.818215],[90.331557,23.818217],[90.331973,23.818319],[90.33197,23.818323],[90.331958,23.818394],[90.331903,23.818618],[90.331885,23.818704],[90.331826,23.818717],[90.331798,23.818727]]]}},{"type":"Feature","properties":{"survey":"bds","sheet":"020","dag":"9503","label_bn":"9503","area_sqm":1739.5},"geometry":{"type":"Polygon","coordinates":[[[90.329633,23.81845],[90.329589,23.818786],[90.32956,23.818764],[90.329527,23.818777],[90.32951,23.818774],[90.329268,23.818738],[90.329286,23.81866],[90.329297,23.81861],[90.329283,23.818606],[90.329318,23.818476],[90.329351,23.818393],[90.329379,23.818331],[90.329474,23.818172],[90.329484,23.818178],[90.329507,23.8182],[90.329544,23.818236],[90.329604,23.818293],[90.329633,23.818358],[90.329633,23.81845]]]}},{"type":"Feature","properties":{"survey":"bds","sheet":"020","dag":"9508","label_bn":"9508","area_sqm":3980.1},"geometry":{"type":"Polygon","coordinates":[[[90.33175,23.81878],[90.331734,23.818826],[90.331659,23.818805],[90.331298,23.81872],[90.331098,23.818685],[90.33087,23.818649],[90.330767,23.818631],[90.330492,23.818579],[90.330372,23.818559],[90.329991,23.818495],[90.329774,23.81846],[90.329741,23.818461],[90.329741,23.818461],[90.329724,23.818337],[90.329712,23.81827],[90.329688,23.818215],[90.329982,23.818246],[90.330288,23.818292],[90.330359,23.818319],[90.330453,23.818366],[90.330647,23.818427],[90.330747,23.818457],[90.33097,23.818514],[90.331037,23.818531],[90.331759,23.81876],[90.331756,23.818763],[90.331755,23.818763],[90.33175,23.81878]]]}},{"type":"Feature","properties":{"survey":"bds","sheet":"020","dag":"9505","label_bn":"9505","area_sqm":82.5},"geometry":{"type":"Polygon","coordinates":[[[90.329888,23.818866],[90.329889,23.818866],[90.329879,23.818863],[90.329823,23.81885],[90.329754,23.818792],[90.329721,23.818747],[90.329716,23.818721],[90.329693,23.818626],[90.32971,23.818553],[90.329718,23.818529],[90.329716,23.818553],[90.329714,23.818613],[90.329721,23.818719],[90.329803,23.818798],[90.329876,23.818858],[90.329888,23.818866]]]}},{"type":"Feature","properties":{"survey":"bds","sheet":"020","dag":"9506","label_bn":"9506","area_sqm":1009.3},"geometry":{"type":"Polygon","coordinates":[[[90.329991,23.818495],[90.329956,23.818887],[90.329919,23.818875],[90.329889,23.818866],[90.329888,23.818866],[90.329876,23.818858],[90.329803,23.818798],[90.329721,23.818719],[90.329714,23.818613],[90.329716,23.818553],[90.329718,23.818529],[90.329741,23.818461],[90.329741,23.818461],[90.329774,23.81846],[90.329991,23.818495]]]}},{"type":"Feature","properties":{"survey":"bds","sheet":"020","dag":"9507","label_bn":"9507","area_sqm":1638.1},"geometry":{"type":"Polygon","coordinates":[[[90.330241,23.818884],[90.33016,23.818963],[90.330077,23.818926],[90.329956,23.818887],[90.329991,23.818495],[90.330372,23.818559],[90.330393,23.818669],[90.330351,23.818741],[90.330319,23.818792],[90.330241,23.818884]]]}},{"type":"Feature","properties":{"survey":"bds","sheet":"020","dag":"9504","label_bn":"9504","area_sqm":2415.6},"geometry":{"type":"Polygon","coordinates":[[[90.33016,23.818963],[90.330057,23.81901],[90.32985,23.819002],[90.329747,23.818943],[90.329676,23.818893],[90.329648,23.818852],[90.329618,23.818807],[90.329589,23.818786],[90.329633,23.81845],[90.329633,23.818358],[90.329604,23.818293],[90.329544,23.818236],[90.329507,23.8182],[90.329484,23.818178],[90.329474,23.818172],[90.329435,23.818148],[90.329296,23.818073],[90.329174,23.818014],[90.32914,23.818004],[90.329111,23.818005],[90.329036,23.818001],[90.32903,23.818002],[90.328962,23.818013],[90.328972,23.817859],[90.328978,23.817858],[90.329038,23.817861],[90.329206,23.817923],[90.329275,23.817941],[90.329351,23.81797],[90.329465,23.818021],[90.329518,23.81804],[90.329577,23.81805],[90.329631,23.818074],[90.329636,23.818117],[90.32967,23.818175],[90.329688,23.818215],[90.329712,23.81827],[90.329724,23.818337],[90.329741,23.818461],[90.329718,23.818529],[90.32971,23.818553],[90.329693,23.818626],[90.329716,23.818721],[90.329721,23.818747],[90.329754,23.818792],[90.329823,23.81885],[90.329879,23.818863],[90.329889,23.818866],[90.329919,23.818875],[90.329956,23.818887],[90.330077,23.818926],[90.33016,23.818963]]]}}]}