{"type":"FeatureCollection","features":[{"type":"Feature","properties":{"survey":"bds","sheet":"022","dag":"10095","label_bn":"10095","area_sqm":406.4},"geometry":{"type":"Polygon","coordinates":[[[90.334286,23.814787],[90.334181,23.814986],[90.334005,23.81494],[90.334086,23.814783],[90.334286,23.814787]]]}},{"type":"Feature","properties":{"survey":"bds","sheet":"022","dag":"10096","label_bn":"10096","area_sqm":406.6},"geometry":{"type":"Polygon","coordinates":[[[90.334451,23.81479],[90.334325,23.815024],[90.334181,23.814986],[90.334286,23.814787],[90.334451,23.81479]]]}},{"type":"Feature","properties":{"survey":"bds","sheet":"022","dag":"10079","label_bn":"10079","area_sqm":668.3},"geometry":{"type":"Polygon","coordinates":[[[90.331945,23.815072],[90.331657,23.815127],[90.331608,23.814843],[90.331783,23.814863],[90.331945,23.815072]]]}},{"type":"Feature","properties":{"survey":"bds","sheet":"022","dag":"10093","label_bn":"10093","area_sqm":790.1},"geometry":{"type":"Polygon","coordinates":[[[90.334005,23.81494],[90.333903,23.815139],[90.33374,23.815097],[90.333773,23.814933],[90.333777,23.814929],[90.333798,23.814898],[90.333798,23.814898],[90.333819,23.814876],[90.33384,23.814853],[90.33387,23.814819],[90.333903,23.814799],[90.333943,23.814777],[90.333993,23.814785],[90.334059,23.814782],[90.334086,23.814783],[90.334005,23.81494]]]}},{"type":"Feature","properties":{"survey":"bds","sheet":"022","dag":"10100","label_bn":"10100","area_sqm":529.6},"geometry":{"type":"Polygon","coordinates":[[[90.334876,23.814998],[90.334937,23.815147],[90.334572,23.814997],[90.334651,23.814851],[90.334759,23.814905],[90.334876,23.814998]]]}},{"type":"Feature","properties":{"survey":"bds","sheet":"022","dag":"10094","label_bn":"10094","area_sqm":813.1},"geometry":{"type":"Polygon","coordinates":[[[90.334325,23.815024],[90.334218,23.815222],[90.334172,23.81521],[90.333903,23.815139],[90.334005,23.81494],[90.334181,23.814986],[90.334325,23.815024]]]}},{"type":"Feature","properties":{"survey":"bds","sheet":"022","dag":"10097","label_bn":"10097","area_sqm":498.8},"geometry":{"type":"Polygon","coordinates":[[[90.334538,23.814824],[90.334306,23.815246],[90.334218,23.815222],[90.334325,23.815024],[90.334451,23.81479],[90.334538,23.814824]]]}},{"type":"Feature","properties":{"survey":"bds","sheet":"022","dag":"10087","label_bn":"10087","area_sqm":3267.2},"geometry":{"type":"Polygon","coordinates":[[[90.33374,23.815097],[90.333696,23.81527],[90.333435,23.815205],[90.333362,23.815175],[90.333328,23.815161],[90.332822,23.814942],[90.332898,23.81489],[90.332898,23.81489],[90.333193,23.814691],[90.333355,23.814767],[90.333518,23.814842],[90.33357,23.814864],[90.333623,23.814886],[90.333698,23.814909],[90.333773,23.814933],[90.33374,23.815097]]]}},{"type":"Feature","properties":{"survey":"bds","sheet":"022","dag":"10098","label_bn":"10098","area_sqm":624.8},"geometry":{"type":"Polygon","coordinates":[[[90.334475,23.815178],[90.334421,23.815276],[90.334306,23.815246],[90.334538,23.814824],[90.334651,23.814851],[90.334572,23.814997],[90.334475,23.815178]]]}},{"type":"Feature","properties":{"survey":"bds","sheet":"022","dag":"10080","label_bn":"10080","area_sqm":1546.5},"geometry":{"type":"Polygon","coordinates":[[[90.332345,23.815284],[90.332243,23.815352],[90.332234,23.815342],[90.332081,23.815224],[90.332069,23.815242],[90.332048,23.815218],[90.332008,23.815173],[90.331964,23.815098],[90.331945,23.815072],[90.331783,23.814863],[90.331784,23.814863],[90.332106,23.814864],[90.332181,23.814859],[90.332243,23.815006],[90.332268,23.815156],[90.332345,23.815284]]]}},{"type":"Feature","properties":{"survey":"bds","sheet":"022","dag":"10082","label_bn":"10082","area_sqm":3678.2},"geometry":{"type":"Polygon","coordinates":[[[90.332618,23.815271],[90.332414,23.815364],[90.332372,23.815329],[90.332345,23.815284],[90.332268,23.815156],[90.332243,23.815006],[90.332181,23.814859],[90.332516,23.814574],[90.332898,23.81489],[90.332822,23.814942],[90.332799,23.815052],[90.332649,23.815257],[90.332632,23.815264],[90.332618,23.815271]]]}},{"type":"Feature","properties":{"survey":"bds","sheet":"022","dag":"10099","label_bn":"10099","area_sqm":1356.0},"geometry":{"type":"Polygon","coordinates":[[[90.334892,23.815285],[90.334855,23.815389],[90.334421,23.815276],[90.334475,23.815178],[90.334572,23.814997],[90.334937,23.815147],[90.334904,23.81525],[90.334892,23.815285]]]}},{"type":"Feature","properties":{"survey":"bds","sheet":"022","dag":"10081","label_bn":"10081","area_sqm":147.1},"geometry":{"type":"Polygon","coordinates":[[[90.332414,23.815364],[90.332321,23.815439],[90.332243,23.815352],[90.332345,23.815284],[90.332372,23.815329],[90.332414,23.815364]]]}},{"type":"Feature","properties":{"survey":"bds","sheet":"022","dag":"10078","label_bn":"10078","area_sqm":1135.2},"geometry":{"type":"Polygon","coordinates":[[[90.331866,23.815487],[90.331817,23.815502],[90.331807,23.815472],[90.331802,23.815462],[90.331674,23.815163],[90.331657,23.815127],[90.331945,23.815072],[90.331964,23.815098],[90.332008,23.815173],[90.332048,23.815218],[90.332069,23.815242],[90.332013,23.815321],[90.331866,23.815487]]]}},{"type":"Feature","properties":{"survey":"bds","sheet":"022","dag":"10086","label_bn":"10086","area_sqm":2860.3},"geometry":{"type":"Polygon","coordinates":[[[90.333362,23.815175],[90.33319,23.815591],[90.333082,23.815538],[90.332947,23.815475],[90.332632,23.815264],[90.332649,23.815257],[90.332799,23.815052],[90.332822,23.814942],[90.333328,23.815161],[90.333362,23.815175]]]}},{"type":"Feature","properties":{"survey":"bds","sheet":"022","dag":"10092","label_bn":"10092","area_sqm":2108.4},"geometry":{"type":"Polygon","coordinates":[[[90.334172,23.81521],[90.334079,23.815613],[90.333645,23.815502],[90.333696,23.81527],[90.33374,23.815097],[90.333903,23.815139],[90.334172,23.81521]]]}},{"type":"Feature","properties":{"survey":"bds","sheet":"022","dag":"10077","label_bn":"10077","area_sqm":1779.0},"geometry":{"type":"Polygon","coordinates":[[[90.331845,23.815707],[90.331765,23.81572],[90.331772,23.815575],[90.331817,23.815502],[90.331866,23.815487],[90.332013,23.815321],[90.332069,23.815242],[90.332081,23.815224],[90.332234,23.815342],[90.332243,23.815352],[90.332321,23.815439],[90.332282,23.815471],[90.332255,23.815493],[90.332223,23.81561],[90.332251,23.815636],[90.332073,23.815684],[90.331914,23.815715],[90.331917,23.815695],[90.331887,23.815701],[90.331845,23.815707]]]}},{"type":"Feature","properties":{"survey":"bds","sheet":"022","dag":"10088","label_bn":"10088","area_sqm":2113.7},"geometry":{"type":"Polygon","coordinates":[[[90.333607,23.815667],[90.333582,23.815775],[90.333415,23.815699],[90.333282,23.815632],[90.333251,23.815622],[90.333237,23.815614],[90.33319,23.815591],[90.333362,23.815175],[90.333435,23.815205],[90.333696,23.81527],[90.333645,23.815502],[90.333607,23.815667]]]}},{"type":"Feature","properties":{"survey":"bds","sheet":"022","dag":"10091","label_bn":"10091","area_sqm":3222.6},"geometry":{"type":"Polygon","coordinates":[[[90.334855,23.815389],[90.334727,23.815783],[90.334079,23.815613],[90.334172,23.81521],[90.334218,23.815222],[90.334306,23.815246],[90.334421,23.815276],[90.334855,23.815389]]]}},{"type":"Feature","properties":{"survey":"bds","sheet":"022","dag":"10083","label_bn":"10083","area_sqm":3188.7},"geometry":{"type":"Polygon","coordinates":[[[90.332947,23.815475],[90.332667,23.815921],[90.332395,23.815831],[90.332398,23.81575],[90.332325,23.815707],[90.332251,23.815636],[90.332223,23.81561],[90.332255,23.815493],[90.332282,23.815471],[90.332321,23.815439],[90.332414,23.815364],[90.332618,23.815271],[90.332632,23.815264],[90.332947,23.815475]]]}},{"type":"Feature","properties":{"survey":"bds","sheet":"022","dag":"10090","label_bn":"10090","area_sqm":2179.8},"geometry":{"type":"Polygon","coordinates":[[[90.334721,23.815819],[90.33468,23.81595],[90.333607,23.815667],[90.333645,23.815502],[90.334079,23.815613],[90.334727,23.815783],[90.334721,23.815819]]]}},{"type":"Feature","properties":{"survey":"bds","sheet":"022","dag":"10084","label_bn":"10084","area_sqm":528.6},"geometry":{"type":"Polygon","coordinates":[[[90.332576,23.816068],[90.332567,23.816082],[90.332499,23.816077],[90.332429,23.816053],[90.332386,23.816056],[90.332395,23.815831],[90.332667,23.815921],[90.332576,23.816068]]]}},{"type":"Feature","properties":{"survey":"bds","sheet":"022","dag":"10102","label_bn":"10102","area_sqm":1836.8},"geometry":{"type":"Polygon","coordinates":[[[90.331914,23.815715],[90.331855,23.81618],[90.331763,23.81617],[90.33175,23.816166],[90.331662,23.816158],[90.331398,23.816102],[90.331441,23.816059],[90.331579,23.815784],[90.331706,23.815729],[90.331765,23.81572],[90.331845,23.815707],[90.331887,23.815701],[90.331917,23.815695],[90.331914,23.815715]]]}},{"type":"Feature","properties":{"survey":"bds","sheet":"022","dag":"10085","label_bn":"10085","area_sqm":5246.6},"geometry":{"type":"Polygon","coordinates":[[[90.333597,23.81599],[90.333579,23.816203],[90.332954,23.816119],[90.332576,23.816068],[90.332667,23.815921],[90.332947,23.815475],[90.333082,23.815538],[90.33319,23.815591],[90.333237,23.815614],[90.333251,23.815622],[90.333282,23.815632],[90.333415,23.815699],[90.333582,23.815775],[90.33359,23.815801],[90.333597,23.81599]]]}},{"type":"Feature","properties":{"survey":"bds","sheet":"022","dag":"10076","label_bn":"10076","area_sqm":2968.5},"geometry":{"type":"Polygon","coordinates":[[[90.332358,23.816172],[90.332343,23.816235],[90.331855,23.81618],[90.331914,23.815715],[90.332073,23.815684],[90.332251,23.815636],[90.332325,23.815707],[90.332398,23.81575],[90.332395,23.815831],[90.332386,23.816056],[90.332358,23.816172]]]}},{"type":"Feature","properties":{"survey":"bds","sheet":"022","dag":"10073","label_bn":"10073","area_sqm":833.6},"geometry":{"type":"Polygon","coordinates":[[[90.332954,23.816119],[90.332927,23.816251],[90.332903,23.816247],[90.332781,23.816226],[90.332631,23.81621],[90.332578,23.816203],[90.332524,23.816196],[90.332487,23.816195],[90.332358,23.816172],[90.332386,23.816056],[90.332429,23.816053],[90.332499,23.816077],[90.332567,23.816082],[90.332576,23.816068],[90.332954,23.816119]]]}},{"type":"Feature","properties":{"survey":"bds","sheet":"022","dag":"10072","label_bn":"10072","area_sqm":1058.1},"geometry":{"type":"Polygon","coordinates":[[[90.333578,23.816206],[90.333506,23.816375],[90.333396,23.816341],[90.333276,23.81632],[90.333201,23.816298],[90.333092,23.816283],[90.33298,23.816261],[90.332927,23.816251],[90.332954,23.816119],[90.333579,23.816203],[90.333578,23.816206]]]}},{"type":"Feature","properties":{"survey":"bds","sheet":"022","dag":"10071","label_bn":"10071","area_sqm":194.6},"geometry":{"type":"Polygon","coordinates":[[[90.333664,23.816227],[90.333592,23.81641],[90.333506,23.816375],[90.333578,23.816206],[90.333663,23.816227],[90.333664,23.816227]]]}},{"type":"Feature","properties":{"survey":"bds","sheet":"022","dag":"10089","label_bn":"10089","area_sqm":6115.7},"geometry":{"type":"Polygon","coordinates":[[[90.334511,23.816409],[90.334498,23.816439],[90.334318,23.816393],[90.33391,23.81629],[90.333908,23.816289],[90.333765,23.816253],[90.333664,23.816227],[90.333663,23.816227],[90.333578,23.816206],[90.333579,23.816203],[90.333597,23.81599],[90.33359,23.815801],[90.333582,23.815775],[90.333607,23.815667],[90.33468,23.81595],[90.334651,23.816028],[90.3346,23.816146],[90.334571,23.816233],[90.334572,23.816242],[90.334511,23.816409]]]}},{"type":"Feature","properties":{"survey":"bds","sheet":"022","dag":"10070","label_bn":"10070","area_sqm":245.5},"geometry":{"type":"Polygon","coordinates":[[[90.333765,23.816253],[90.333694,23.816451],[90.333594,23.81641],[90.333592,23.81641],[90.333664,23.816227],[90.333765,23.816253]]]}},{"type":"Feature","properties":{"survey":"bds","sheet":"022","dag":"10069","label_bn":"10069","area_sqm":367.4},"geometry":{"type":"Polygon","coordinates":[[[90.333908,23.816289],[90.333831,23.816506],[90.333694,23.816451],[90.333765,23.816253],[90.333908,23.816289]]]}},{"type":"Feature","properties":{"survey":"bds","sheet":"022","dag":"10066","label_bn":"10066","area_sqm":406.8},"geometry":{"type":"Polygon","coordinates":[[[90.334419,23.816618],[90.334414,23.816629],[90.33425,23.816574],[90.33425,23.816574],[90.33425,23.816572],[90.334318,23.816393],[90.334498,23.816439],[90.334428,23.816599],[90.334419,23.816618]]]}},{"type":"Feature","properties":{"survey":"bds","sheet":"022","dag":"10068","label_bn":"10068","area_sqm":1220.1},"geometry":{"type":"Polygon","coordinates":[[[90.334249,23.816575],[90.334203,23.816657],[90.333831,23.816506],[90.333908,23.816289],[90.33391,23.81629],[90.334318,23.816393],[90.33425,23.816572],[90.33425,23.816574],[90.33425,23.816574],[90.334249,23.816575]]]}},{"type":"Feature","properties":{"survey":"bds","sheet":"022","dag":"10065","label_bn":"10065","area_sqm":616.4},"geometry":{"type":"Polygon","coordinates":[[[90.334761,23.816481],[90.334729,23.816658],[90.334428,23.816599],[90.334498,23.816439],[90.334511,23.816409],[90.334761,23.816481]]]}},{"type":"Feature","properties":{"survey":"bds","sheet":"022","dag":"10075","label_bn":"10075","area_sqm":3502.4},"geometry":{"type":"Polygon","coordinates":[[[90.332273,23.816498],[90.332225,23.816721],[90.331489,23.816537],[90.33156,23.81642],[90.33175,23.816166],[90.331763,23.81617],[90.331855,23.81618],[90.332343,23.816235],[90.332322,23.816324],[90.332273,23.816498]]]}},{"type":"Feature","properties":{"survey":"bds","sheet":"022","dag":"10067","label_bn":"10067","area_sqm":200.2},"geometry":{"type":"Polygon","coordinates":[[[90.334413,23.816632],[90.334371,23.816725],[90.334204,23.816658],[90.334203,23.816657],[90.334249,23.816575],[90.33425,23.816574],[90.334414,23.816629],[90.334413,23.816632]]]}},{"type":"Feature","properties":{"survey":"bds","sheet":"022","dag":"10064","label_bn":"10064","area_sqm":674.8},"geometry":{"type":"Polygon","coordinates":[[[90.334773,23.81667],[90.334664,23.816862],[90.33454,23.8168],[90.33442,23.816749],[90.334411,23.816745],[90.334372,23.816726],[90.334371,23.816725],[90.334413,23.816632],[90.334414,23.816629],[90.334419,23.816618],[90.334428,23.816599],[90.334729,23.816658],[90.334773,23.81667]]]}},{"type":"Feature","properties":{"survey":"bds","sheet":"022","dag":"10017","label_bn":"10017","area_sqm":540.9},"geometry":{"type":"Polygon","coordinates":[[[90.333055,23.81701],[90.332876,23.81701],[90.332899,23.816881],[90.332923,23.816746],[90.333082,23.816704],[90.333066,23.816912],[90.333055,23.81701]]]}},{"type":"Feature","properties":{"survey":"bds","sheet":"022","dag":"10008","label_bn":"10008","area_sqm":2756.8},"geometry":{"type":"Polygon","coordinates":[[[90.332262,23.816951],[90.332231,23.817062],[90.33181,23.816948],[90.331687,23.816858],[90.331548,23.816751],[90.331456,23.816668],[90.331451,23.816652],[90.331458,23.816619],[90.331486,23.816543],[90.331489,23.816537],[90.331489,23.816537],[90.332225,23.816721],[90.332348,23.816751],[90.332262,23.816951]]]}},{"type":"Feature","properties":{"survey":"bds","sheet":"022","dag":"10016","label_bn":"10016","area_sqm":339.9},"geometry":{"type":"Polygon","coordinates":[[[90.332801,23.817083],[90.332733,23.817085],[90.33276,23.816848],[90.332899,23.816881],[90.332876,23.81701],[90.332866,23.817065],[90.332866,23.817082],[90.332801,23.817083]]]}},{"type":"Feature","properties":{"survey":"bds","sheet":"022","dag":"10074","label_bn":"10074","area_sqm":11732.5},"geometry":{"type":"Polygon","coordinates":[[[90.334265,23.817148],[90.334128,23.81715],[90.333777,23.81694],[90.333416,23.816795],[90.33321,23.816682],[90.333082,23.816704],[90.332923,23.816746],[90.332899,23.816881],[90.33276,23.816848],[90.332737,23.816843],[90.332348,23.816751],[90.332225,23.816721],[90.332273,23.816498],[90.332322,23.816324],[90.332343,23.816235],[90.332358,23.816172],[90.332487,23.816195],[90.332524,23.816196],[90.332578,23.816203],[90.332631,23.81621],[90.332781,23.816226],[90.332903,23.816247],[90.332927,23.816251],[90.33298,23.816261],[90.333092,23.816283],[90.333201,23.816298],[90.333276,23.81632],[90.333396,23.816341],[90.333506,23.816375],[90.333592,23.81641],[90.333594,23.81641],[90.333694,23.816451],[90.333831,23.816506],[90.334203,23.816657],[90.334204,23.816658],[90.334371,23.816725],[90.334372,23.816726],[90.334411,23.816745],[90.33442,23.816749],[90.334418,23.816756],[90.334401,23.81682],[90.334386,23.816858],[90.334338,23.816982],[90.334283,23.817121],[90.334268,23.817149],[90.334265,23.817148]]]}},{"type":"Feature","properties":{"survey":"bds","sheet":"022","dag":"10015","label_bn":"10015","area_sqm":177.3},"geometry":{"type":"Polygon","coordinates":[[[90.332801,23.817083],[90.332803,23.817185],[90.33264,23.817178],[90.332645,23.817081],[90.332733,23.817085],[90.332801,23.817083]]]}},{"type":"Feature","properties":{"survey":"bds","sheet":"022","dag":"10060","label_bn":"10060","area_sqm":365.9},"geometry":{"type":"Polygon","coordinates":[[[90.334128,23.81715],[90.334125,23.817188],[90.33397,23.817139],[90.333761,23.817074],[90.333777,23.81694],[90.334128,23.81715]]]}},{"type":"Feature","properties":{"survey":"bds","sheet":"022","dag":"10014","label_bn":"10014","area_sqm":73.1},"geometry":{"type":"Polygon","coordinates":[[[90.332866,23.817082],[90.332862,23.817188],[90.332803,23.817185],[90.332801,23.817083],[90.332866,23.817082]]]}},{"type":"Feature","properties":{"survey":"bds","sheet":"022","dag":"10020","label_bn":"10020","area_sqm":1434.4},"geometry":{"type":"Polygon","coordinates":[[[90.333761,23.817074],[90.333745,23.81721],[90.333379,23.817207],[90.333416,23.816795],[90.333777,23.81694],[90.333761,23.817074]]]}},{"type":"Feature","properties":{"survey":"bds","sheet":"022","dag":"10059","label_bn":"10059","area_sqm":304.9},"geometry":{"type":"Polygon","coordinates":[[[90.33397,23.817139],[90.33395,23.817252],[90.333934,23.817249],[90.333745,23.81721],[90.333761,23.817074],[90.33397,23.817139]]]}},{"type":"Feature","properties":{"survey":"bds","sheet":"022","dag":"10061","label_bn":"10061","area_sqm":203.3},"geometry":{"type":"Polygon","coordinates":[[[90.334122,23.817223],[90.334127,23.817289],[90.33395,23.817252],[90.33397,23.817139],[90.334125,23.817188],[90.334122,23.817223]]]}},{"type":"Feature","properties":{"survey":"bds","sheet":"022","dag":"10063","label_bn":"10063","area_sqm":2012.2},"geometry":{"type":"Polygon","coordinates":[[[90.3349,23.817189],[90.334892,23.817327],[90.33481,23.817325],[90.334409,23.817185],[90.334268,23.817149],[90.334283,23.817121],[90.334338,23.816982],[90.334386,23.816858],[90.334401,23.81682],[90.334418,23.816756],[90.33442,23.816749],[90.33454,23.8168],[90.334664,23.816862],[90.334729,23.816895],[90.334687,23.817076],[90.334675,23.817142],[90.334676,23.817156],[90.334698,23.817165],[90.3349,23.817189]]]}},{"type":"Feature","properties":{"survey":"bds","sheet":"022","dag":"10021","label_bn":"10021","area_sqm":616.8},"geometry":{"type":"Polygon","coordinates":[[[90.333748,23.817346],[90.333366,23.817363],[90.333379,23.817207],[90.333745,23.81721],[90.333748,23.817346]]]}},{"type":"Feature","properties":{"survey":"bds","sheet":"022","dag":"10009","label_bn":"10009","area_sqm":2904.4},"geometry":{"type":"Polygon","coordinates":[[[90.33264,23.817178],[90.332615,23.817364],[90.332328,23.817357],[90.332159,23.817325],[90.332231,23.817062],[90.332262,23.816951],[90.332348,23.816751],[90.332737,23.816843],[90.33276,23.816848],[90.332733,23.817085],[90.332645,23.817081],[90.33264,23.817178]]]}},{"type":"Feature","properties":{"survey":"bds","sheet":"022","dag":"10013","label_bn":"10013","area_sqm":488.5},"geometry":{"type":"Polygon","coordinates":[[[90.33286,23.817275],[90.332864,23.817374],[90.332639,23.817361],[90.332615,23.817364],[90.33264,23.817178],[90.332803,23.817185],[90.332862,23.817188],[90.33286,23.817275]]]}},{"type":"Feature","properties":{"survey":"bds","sheet":"022","dag":"10058","label_bn":"10058","area_sqm":325.2},"geometry":{"type":"Polygon","coordinates":[[[90.33395,23.817252],[90.333929,23.817392],[90.333748,23.817365],[90.333748,23.817346],[90.333745,23.81721],[90.333934,23.817249],[90.33395,23.817252]]]}},{"type":"Feature","properties":{"survey":"bds","sheet":"022","dag":"10007","label_bn":"10007","area_sqm":1874.6},"geometry":{"type":"Polygon","coordinates":[[[90.332159,23.817325],[90.331681,23.817407],[90.331701,23.817313],[90.33173,23.817213],[90.33181,23.816948],[90.332231,23.817062],[90.332159,23.817325]]]}},{"type":"Feature","properties":{"survey":"bds","sheet":"022","dag":"10057","label_bn":"10057","area_sqm":305.2},"geometry":{"type":"Polygon","coordinates":[[[90.334145,23.817416],[90.334147,23.817424],[90.333945,23.817394],[90.333929,23.817392],[90.33395,23.817252],[90.334127,23.817289],[90.33413,23.817325],[90.334145,23.817416]]]}},{"type":"Feature","properties":{"survey":"bds","sheet":"022","dag":"10019","label_bn":"10019","area_sqm":2743.1},"geometry":{"type":"Polygon","coordinates":[[[90.333366,23.817363],[90.333358,23.817431],[90.333011,23.817422],[90.333055,23.81701],[90.333066,23.816912],[90.333082,23.816704],[90.33321,23.816682],[90.333416,23.816795],[90.333379,23.817207],[90.333366,23.817363]]]}},{"type":"Feature","properties":{"survey":"bds","sheet":"022","dag":"10018","label_bn":"10018","area_sqm":854.3},"geometry":{"type":"Polygon","coordinates":[[[90.333007,23.817456],[90.333007,23.817462],[90.332865,23.81746],[90.332865,23.817444],[90.332864,23.817418],[90.332864,23.817374],[90.33286,23.817275],[90.332862,23.817188],[90.332866,23.817082],[90.332866,23.817065],[90.332876,23.81701],[90.333055,23.81701],[90.333011,23.817422],[90.333007,23.817456]]]}},{"type":"Feature","properties":{"survey":"bds","sheet":"022","dag":"10101","label_bn":"10101","area_sqm":527.8},"geometry":{"type":"Polygon","coordinates":[[[90.333748,23.817365],[90.333748,23.817475],[90.333353,23.817474],[90.333358,23.817431],[90.333366,23.817363],[90.333748,23.817346],[90.333748,23.817365]]]}},{"type":"Feature","properties":{"survey":"bds","sheet":"022","dag":"10055","label_bn":"10055","area_sqm":304.9},"geometry":{"type":"Polygon","coordinates":[[[90.333945,23.817394],[90.333945,23.817525],[90.333748,23.817506],[90.333748,23.817486],[90.333748,23.817486],[90.333748,23.817475],[90.333748,23.817365],[90.333929,23.817392],[90.333945,23.817394]]]}},{"type":"Feature","properties":{"survey":"bds","sheet":"022","dag":"10056","label_bn":"10056","area_sqm":304.8},"geometry":{"type":"Polygon","coordinates":[[[90.334147,23.817424],[90.334171,23.817547],[90.333945,23.817525],[90.333945,23.817394],[90.334147,23.817424]]]}},{"type":"Feature","properties":{"survey":"bds","sheet":"022","dag":"10010","label_bn":"10010","area_sqm":747.6},"geometry":{"type":"Polygon","coordinates":[[[90.332639,23.817361],[90.332626,23.817576],[90.332317,23.81757],[90.332328,23.817357],[90.332615,23.817364],[90.332639,23.817361]]]}},{"type":"Feature","properties":{"survey":"bds","sheet":"022","dag":"10012","label_bn":"10012","area_sqm":556.5},"geometry":{"type":"Polygon","coordinates":[[[90.332865,23.81746],[90.332867,23.81758],[90.332626,23.817576],[90.332639,23.817361],[90.332864,23.817374],[90.332864,23.817418],[90.332865,23.817444],[90.332865,23.81746]]]}},{"type":"Feature","properties":{"survey":"bds","sheet":"022","dag":"10062","label_bn":"10062","area_sqm":2708.2},"geometry":{"type":"Polygon","coordinates":[[[90.334744,23.8175],[90.33468,23.817626],[90.334635,23.817594],[90.334474,23.817587],[90.334197,23.81761],[90.334175,23.817567],[90.334171,23.817547],[90.334147,23.817424],[90.334145,23.817416],[90.33413,23.817325],[90.334127,23.817289],[90.334122,23.817223],[90.334125,23.817188],[90.334128,23.81715],[90.334265,23.817148],[90.334268,23.817149],[90.334409,23.817185],[90.33481,23.817325],[90.334744,23.8175]]]}},{"type":"Feature","properties":{"survey":"bds","sheet":"022","dag":"10054","label_bn":"10054","area_sqm":631.5},"geometry":{"type":"Polygon","coordinates":[[[90.334184,23.81765],[90.333747,23.81766],[90.333748,23.817506],[90.333945,23.817525],[90.334171,23.817547],[90.334175,23.817567],[90.334197,23.81761],[90.334184,23.81765]]]}},{"type":"Feature","properties":{"survey":"bds","sheet":"022","dag":"10022","label_bn":"10022","area_sqm":874.0},"geometry":{"type":"Polygon","coordinates":[[[90.33369,23.817661],[90.333332,23.81767],[90.333353,23.817481],[90.333353,23.817474],[90.333748,23.817475],[90.333748,23.817486],[90.333748,23.817486],[90.333748,23.817506],[90.333747,23.81766],[90.33369,23.817661]]]}},{"type":"Feature","properties":{"survey":"bds","sheet":"022","dag":"10023","label_bn":"10023","area_sqm":981.3},"geometry":{"type":"Polygon","coordinates":[[[90.333332,23.81767],[90.332975,23.817678],[90.333004,23.81751],[90.333007,23.817462],[90.333007,23.817456],[90.333011,23.817422],[90.333358,23.817431],[90.333353,23.817474],[90.333353,23.817481],[90.333332,23.81767]]]}},{"type":"Feature","properties":{"survey":"bds","sheet":"022","dag":"10024","label_bn":"10024","area_sqm":317.7},"geometry":{"type":"Polygon","coordinates":[[[90.332975,23.817678],[90.332859,23.817681],[90.332867,23.81758],[90.332867,23.81758],[90.332865,23.81746],[90.333007,23.817462],[90.333004,23.81751],[90.332975,23.817678]]]}},{"type":"Feature","properties":{"survey":"bds","sheet":"022","dag":"10053","label_bn":"10053","area_sqm":1426.9},"geometry":{"type":"Polygon","coordinates":[[[90.334789,23.817807],[90.334808,23.817826],[90.334331,23.817805],[90.334185,23.817802],[90.334174,23.81768],[90.334184,23.81765],[90.334197,23.81761],[90.334474,23.817587],[90.334635,23.817594],[90.33468,23.817626],[90.334749,23.817671],[90.334842,23.817726],[90.33484,23.81774],[90.334798,23.817762],[90.334779,23.817788],[90.334789,23.817807]]]}},{"type":"Feature","properties":{"survey":"bds","sheet":"022","dag":"10011","label_bn":"10011","area_sqm":1539.8},"geometry":{"type":"Polygon","coordinates":[[[90.332858,23.817691],[90.332799,23.817866],[90.332642,23.817845],[90.332607,23.817838],[90.332295,23.817774],[90.332317,23.81757],[90.332626,23.817576],[90.332867,23.81758],[90.332867,23.81758],[90.332859,23.817681],[90.332858,23.817691]]]}},{"type":"Feature","properties":{"survey":"bds","sheet":"022","dag":"10025","label_bn":"10025","area_sqm":1287.3},"geometry":{"type":"Polygon","coordinates":[[[90.333327,23.817716],[90.333318,23.817942],[90.333233,23.817925],[90.33313,23.81791],[90.332982,23.817896],[90.332799,23.817866],[90.332858,23.817691],[90.332859,23.817681],[90.332975,23.817678],[90.333332,23.81767],[90.333327,23.817716]]]}},{"type":"Feature","properties":{"survey":"bds","sheet":"022","dag":"10026","label_bn":"10026","area_sqm":1378.4},"geometry":{"type":"Polygon","coordinates":[[[90.33369,23.817661],[90.33373,23.818013],[90.333632,23.818008],[90.333565,23.817983],[90.333498,23.817979],[90.333451,23.817967],[90.33334,23.817947],[90.333318,23.817942],[90.333327,23.817716],[90.333332,23.81767],[90.33369,23.817661]]]}},{"type":"Feature","properties":{"survey":"bds","sheet":"022","dag":"10050","label_bn":"10050","area_sqm":1982.4},"geometry":{"type":"Polygon","coordinates":[[[90.334185,23.817802],[90.334184,23.818038],[90.33373,23.818013],[90.33369,23.817661],[90.333747,23.81766],[90.334184,23.81765],[90.334174,23.81768],[90.334185,23.817802]]]}},{"type":"Feature","properties":{"survey":"bds","sheet":"022","dag":"10006","label_bn":"10006","area_sqm":2379.1},"geometry":{"type":"Polygon","coordinates":[[[90.332607,23.817838],[90.332602,23.818076],[90.332108,23.818049],[90.33211,23.817958],[90.332132,23.817574],[90.332159,23.817325],[90.332328,23.817357],[90.332317,23.81757],[90.332295,23.817774],[90.332607,23.817838]]]}},{"type":"Feature","properties":{"survey":"bds","sheet":"022","dag":"10051","label_bn":"10051","area_sqm":407.5},"geometry":{"type":"Polygon","coordinates":[[[90.334331,23.817805],[90.334315,23.818085],[90.334184,23.818038],[90.334185,23.817802],[90.334331,23.817805]]]}},{"type":"Feature","properties":{"survey":"bds","sheet":"022","dag":"10052","label_bn":"10052","area_sqm":1752.1},"geometry":{"type":"Polygon","coordinates":[[[90.334601,23.818158],[90.334595,23.818186],[90.334315,23.818085],[90.334331,23.817805],[90.334808,23.817826],[90.334889,23.817835],[90.334736,23.818102],[90.334629,23.818146],[90.334601,23.818158]]]}},{"type":"Feature","properties":{"survey":"bds","sheet":"022","dag":"10005","label_bn":"10005","area_sqm":1780.0},"geometry":{"type":"Polygon","coordinates":[[[90.332656,23.818316],[90.332604,23.818318],[90.332602,23.818076],[90.332607,23.817838],[90.332642,23.817845],[90.332799,23.817866],[90.332982,23.817896],[90.333019,23.817982],[90.333029,23.818038],[90.33302,23.818094],[90.333,23.818131],[90.332896,23.81821],[90.332841,23.81825],[90.332836,23.818278],[90.332656,23.818316]]]}},{"type":"Feature","properties":{"survey":"bds","sheet":"022","dag":"10027","label_bn":"10027","area_sqm":1559.5},"geometry":{"type":"Polygon","coordinates":[[[90.333726,23.818037],[90.333645,23.81835],[90.333302,23.818326],[90.333318,23.817942],[90.33334,23.817947],[90.333451,23.817967],[90.333498,23.817979],[90.333565,23.817983],[90.333632,23.818008],[90.33373,23.818013],[90.333726,23.818037]]]}},{"type":"Feature","properties":{"survey":"bds","sheet":"022","dag":"10004","label_bn":"10004","area_sqm":1707.3},"geometry":{"type":"Polygon","coordinates":[[[90.332599,23.818329],[90.331964,23.818355],[90.33197,23.818323],[90.332105,23.81819],[90.332108,23.818049],[90.332602,23.818076],[90.332604,23.818318],[90.332599,23.818329]]]}},{"type":"Feature","properties":{"survey":"bds","sheet":"022","dag":"10028","label_bn":"10028","area_sqm":1937.9},"geometry":{"type":"Polygon","coordinates":[[[90.333302,23.818326],[90.333298,23.818428],[90.333118,23.818404],[90.333118,23.818398],[90.333083,23.818388],[90.332907,23.818335],[90.332847,23.818329],[90.332836,23.818278],[90.332841,23.81825],[90.332896,23.81821],[90.333,23.818131],[90.33302,23.818094],[90.333029,23.818038],[90.333019,23.817982],[90.332982,23.817896],[90.33313,23.81791],[90.333233,23.817925],[90.333318,23.817942],[90.333302,23.818326]]]}},{"type":"Feature","properties":{"survey":"bds","sheet":"022","dag":"10048","label_bn":"10048","area_sqm":361.1},"geometry":{"type":"Polygon","coordinates":[[[90.334724,23.818351],[90.33472,23.818498],[90.334691,23.818496],[90.334587,23.818486],[90.334489,23.818478],[90.33453,23.818329],[90.33456,23.818333],[90.334643,23.818342],[90.334673,23.818345],[90.334724,23.818351]]]}},{"type":"Feature","properties":{"survey":"bds","sheet":"022","dag":"10047","label_bn":"10047","area_sqm":199.7},"geometry":{"type":"Polygon","coordinates":[[[90.334843,23.818364],[90.334843,23.818507],[90.334786,23.818503],[90.33472,23.818498],[90.334724,23.818351],[90.334784,23.818357],[90.334808,23.81836],[90.334843,23.818364]]]}},{"type":"Feature","properties":{"survey":"bds","sheet":"022","dag":"10046","label_bn":"10046","area_sqm":200.2},"geometry":{"type":"Polygon","coordinates":[[[90.334969,23.818376],[90.334966,23.818516],[90.334905,23.818512],[90.334843,23.818507],[90.334843,23.818364],[90.334891,23.818369],[90.334931,23.818373],[90.334955,23.818375],[90.334969,23.818376]]]}},{"type":"Feature","properties":{"survey":"bds","sheet":"022","dag":"10045","label_bn":"10045","area_sqm":119.8},"geometry":{"type":"Polygon","coordinates":[[[90.335044,23.818383],[90.335042,23.818522],[90.335022,23.818521],[90.334966,23.818516],[90.334969,23.818376],[90.335022,23.818381],[90.335044,23.818383]]]}},{"type":"Feature","properties":{"survey":"bds","sheet":"022","dag":"10044","label_bn":"10044","area_sqm":120.3},"geometry":{"type":"Polygon","coordinates":[[[90.335119,23.818476],[90.335119,23.818528],[90.335042,23.818522],[90.335044,23.818383],[90.335046,23.818383],[90.33512,23.81839],[90.335121,23.818408],[90.335119,23.818476]]]}},{"type":"Feature","properties":{"survey":"bds","sheet":"022","dag":"10003","label_bn":"10003","area_sqm":1773.3},"geometry":{"type":"Polygon","coordinates":[[[90.331935,23.818612],[90.331904,23.818613],[90.331958,23.818394],[90.331964,23.818355],[90.332599,23.818329],[90.332458,23.818602],[90.332423,23.818606],[90.33232,23.818608],[90.332218,23.81861],[90.332115,23.81861],[90.332012,23.81861],[90.331935,23.818612]]]}},{"type":"Feature","properties":{"survey":"bds","sheet":"022","dag":"10029","label_bn":"10029","area_sqm":645.8},"geometry":{"type":"Polygon","coordinates":[[[90.333358,23.818436],[90.333385,23.818617],[90.333082,23.818613],[90.333083,23.818411],[90.333083,23.818388],[90.333118,23.818398],[90.333118,23.818404],[90.333298,23.818428],[90.333331,23.818433],[90.333358,23.818436]]]}},{"type":"Feature","properties":{"survey":"bds","sheet":"022","dag":"10049","label_bn":"10049","area_sqm":4837.8},"geometry":{"type":"Polygon","coordinates":[[[90.334449,23.818624],[90.334449,23.818627],[90.334383,23.818615],[90.334365,23.818612],[90.334225,23.818586],[90.334221,23.818585],[90.334079,23.818559],[90.333739,23.818495],[90.333668,23.818476],[90.333645,23.81835],[90.333726,23.818037],[90.33373,23.818013],[90.334184,23.818038],[90.334315,23.818085],[90.334595,23.818186],[90.33456,23.818333],[90.33453,23.818329],[90.334489,23.818478],[90.334449,23.818624]]]}},{"type":"Feature","properties":{"survey":"bds","sheet":"022","dag":"10030","label_bn":"10030","area_sqm":984.7},"geometry":{"type":"Polygon","coordinates":[[[90.333668,23.818476],[90.333629,23.818631],[90.333385,23.818617],[90.333358,23.818436],[90.333331,23.818433],[90.333298,23.818428],[90.333302,23.818326],[90.333645,23.81835],[90.333668,23.818476]]]}},{"type":"Feature","properties":{"survey":"bds","sheet":"022","dag":"10038","label_bn":"10038","area_sqm":190.2},"geometry":{"type":"Polygon","coordinates":[[[90.334587,23.818486],[90.334568,23.818637],[90.334484,23.818634],[90.334449,23.818627],[90.334449,23.818624],[90.334489,23.818478],[90.334587,23.818486]]]}},{"type":"Feature","properties":{"survey":"bds","sheet":"022","dag":"10039","label_bn":"10039","area_sqm":190.3},"geometry":{"type":"Polygon","coordinates":[[[90.334691,23.818496],[90.334689,23.818643],[90.334642,23.818639],[90.334568,23.818637],[90.334587,23.818486],[90.334691,23.818496]]]}},{"type":"Feature","properties":{"survey":"bds","sheet":"022","dag":"10040","label_bn":"10040","area_sqm":160.3},"geometry":{"type":"Polygon","coordinates":[[[90.334786,23.818503],[90.334786,23.818651],[90.334689,23.818643],[90.334691,23.818496],[90.33472,23.818498],[90.334786,23.818503]]]}},{"type":"Feature","properties":{"survey":"bds","sheet":"022","dag":"10041","label_bn":"10041","area_sqm":200.1},"geometry":{"type":"Polygon","coordinates":[[[90.334905,23.818512],[90.334905,23.818661],[90.334786,23.818651],[90.334786,23.818503],[90.334843,23.818507],[90.334905,23.818512]]]}},{"type":"Feature","properties":{"survey":"bds","sheet":"022","dag":"10042","label_bn":"10042","area_sqm":200.2},"geometry":{"type":"Polygon","coordinates":[[[90.335022,23.818521],[90.335024,23.818671],[90.334905,23.818661],[90.334905,23.818512],[90.334966,23.818516],[90.335022,23.818521]]]}},{"type":"Feature","properties":{"survey":"bds","sheet":"022","dag":"10043","label_bn":"10043","area_sqm":159.7},"geometry":{"type":"Polygon","coordinates":[[[90.335114,23.818655],[90.335117,23.818678],[90.335024,23.818671],[90.335022,23.818521],[90.335042,23.818522],[90.335119,23.818528],[90.335117,23.81863],[90.335114,23.818655]]]}},{"type":"Feature","properties":{"survey":"bds","sheet":"022","dag":"10001","label_bn":"10001","area_sqm":879.1},"geometry":{"type":"Polygon","coordinates":[[[90.33246,23.818619],[90.332486,23.818769],[90.332464,23.818767],[90.332322,23.818759],[90.332182,23.818749],[90.331945,23.818713],[90.331885,23.818704],[90.331903,23.818618],[90.331904,23.818613],[90.331935,23.818612],[90.332012,23.81861],[90.332115,23.81861],[90.332218,23.81861],[90.33232,23.818608],[90.332423,23.818606],[90.332458,23.818602],[90.33246,23.818619]]]}},{"type":"Feature","properties":{"survey":"bds","sheet":"022","dag":"10002","label_bn":"10002","area_sqm":3030.5},"geometry":{"type":"Polygon","coordinates":[[[90.333082,23.818757],[90.333077,23.818821],[90.332977,23.818808],[90.332837,23.818795],[90.332631,23.818777],[90.332526,23.818771],[90.332486,23.818769],[90.33246,23.818619],[90.332458,23.818602],[90.332599,23.818329],[90.332604,23.818318],[90.332656,23.818316],[90.332836,23.818278],[90.332847,23.818329],[90.332907,23.818335],[90.333083,23.818388],[90.333083,23.818411],[90.333082,23.818613],[90.333082,23.818757]]]}},{"type":"Feature","properties":{"survey":"bds","sheet":"022","dag":"10033","label_bn":"10033","area_sqm":1557.8},"geometry":{"type":"Polygon","coordinates":[[[90.334079,23.818559],[90.334009,23.818907],[90.333642,23.818902],[90.3337,23.818633],[90.333739,23.818495],[90.334079,23.818559]]]}},{"type":"Feature","properties":{"survey":"bds","sheet":"022","dag":"10031","label_bn":"10031","area_sqm":1482.1},"geometry":{"type":"Polygon","coordinates":[[[90.333517,23.81891],[90.333491,23.818916],[90.33311,23.818826],[90.333077,23.818821],[90.333082,23.818757],[90.333082,23.818613],[90.333385,23.818617],[90.333629,23.818631],[90.333558,23.81888],[90.333517,23.81891]]]}},{"type":"Feature","properties":{"survey":"bds","sheet":"022","dag":"10034","label_bn":"10034","area_sqm":575.1},"geometry":{"type":"Polygon","coordinates":[[[90.334221,23.818585],[90.334158,23.818918],[90.334009,23.818907],[90.334079,23.818559],[90.334221,23.818585]]]}},{"type":"Feature","properties":{"survey":"bds","sheet":"022","dag":"10035","label_bn":"10035","area_sqm":566.9},"geometry":{"type":"Polygon","coordinates":[[[90.334365,23.818612],[90.334316,23.818927],[90.334158,23.818918],[90.334221,23.818585],[90.334225,23.818586],[90.334365,23.818612]]]}},{"type":"Feature","properties":{"survey":"bds","sheet":"022","dag":"10036","label_bn":"10036","area_sqm":331.5},"geometry":{"type":"Polygon","coordinates":[[[90.334424,23.818918],[90.334423,23.818937],[90.334316,23.818927],[90.334365,23.818612],[90.334383,23.818615],[90.334449,23.818627],[90.334429,23.818783],[90.334424,23.818918]]]}},{"type":"Feature","properties":{"survey":"bds","sheet":"022","dag":"10037","label_bn":"10037","area_sqm":2176.0},"geometry":{"type":"Polygon","coordinates":[[[90.334467,23.818929],[90.334455,23.818941],[90.334423,23.818937],[90.334424,23.818918],[90.334429,23.818783],[90.334449,23.818627],[90.334484,23.818634],[90.334568,23.818637],[90.334642,23.818639],[90.334689,23.818643],[90.334786,23.818651],[90.334905,23.818661],[90.335024,23.818671],[90.335117,23.818678],[90.335151,23.818921],[90.334467,23.818929]]]}},{"type":"Feature","properties":{"survey":"bds","sheet":"022","dag":"10032","label_bn":"10032","area_sqm":402.0},"geometry":{"type":"Polygon","coordinates":[[[90.333642,23.818902],[90.333623,23.818943],[90.33357,23.81892],[90.333517,23.81891],[90.333558,23.81888],[90.333629,23.818631],[90.333668,23.818476],[90.333739,23.818495],[90.3337,23.818633],[90.333642,23.818902]]]}}]}