{"type":"FeatureCollection","features":[{"type":"Feature","properties":{"survey":"bds","sheet":"023","dag":"11037","label_bn":"11037","area_sqm":1220.3},"geometry":{"type":"Polygon","coordinates":[[[90.336117,23.818789],[90.336026,23.818989],[90.335582,23.818944],[90.335579,23.818862],[90.335579,23.818856],[90.33557,23.818718],[90.336099,23.818787],[90.336117,23.818789]]]}},{"type":"Feature","properties":{"survey":"bds","sheet":"023","dag":"11038","label_bn":"11038","area_sqm":405.6},"geometry":{"type":"Polygon","coordinates":[[[90.336208,23.818945],[90.336181,23.819005],[90.336081,23.818995],[90.336046,23.818991],[90.336026,23.818989],[90.336117,23.818789],[90.336131,23.818759],[90.336155,23.818765],[90.336276,23.818792],[90.336208,23.818945]]]}},{"type":"Feature","properties":{"survey":"bds","sheet":"023","dag":"11034","label_bn":"11034","area_sqm":4162.8},"geometry":{"type":"Polygon","coordinates":[[[90.33521,23.819478],[90.334702,23.819526],[90.334581,23.819404],[90.334555,23.819291],[90.334533,23.819232],[90.334475,23.819069],[90.334455,23.818941],[90.334461,23.818935],[90.334467,23.818929],[90.334508,23.818928],[90.335034,23.818922],[90.335076,23.818922],[90.335151,23.818921],[90.335159,23.819089],[90.33511,23.819267],[90.33528,23.81946],[90.33525,23.819481],[90.335237,23.819476],[90.335225,23.819477],[90.33521,23.819478]]]}},{"type":"Feature","properties":{"survey":"bds","sheet":"023","dag":"11035","label_bn":"11035","area_sqm":4187.8},"geometry":{"type":"Polygon","coordinates":[[[90.335618,23.819427],[90.335523,23.819539],[90.335478,23.819525],[90.335447,23.819514],[90.33528,23.81946],[90.33511,23.819267],[90.335159,23.819089],[90.335151,23.818921],[90.335114,23.818655],[90.335117,23.81863],[90.335292,23.818636],[90.335514,23.818654],[90.335536,23.818656],[90.335566,23.818658],[90.33557,23.818718],[90.335579,23.818856],[90.335579,23.818862],[90.335582,23.818944],[90.335589,23.81915],[90.335618,23.819427]]]}},{"type":"Feature","properties":{"survey":"bds","sheet":"023","dag":"11032","label_bn":"11032","area_sqm":1041.9},"geometry":{"type":"Polygon","coordinates":[[[90.334723,23.819829],[90.334612,23.819842],[90.334611,23.81984],[90.334598,23.819801],[90.334569,23.81976],[90.33452,23.819712],[90.334439,23.819658],[90.334436,23.819649],[90.334481,23.819569],[90.334545,23.819452],[90.334564,23.819427],[90.334568,23.819421],[90.334581,23.819404],[90.334702,23.819526],[90.334781,23.819634],[90.334803,23.819711],[90.334803,23.819754],[90.334749,23.819819],[90.334748,23.81982],[90.334743,23.819827],[90.334729,23.819828],[90.334723,23.819829]]]}},{"type":"Feature","properties":{"survey":"bds","sheet":"023","dag":"11036","label_bn":"11036","area_sqm":3441.6},"geometry":{"type":"Polygon","coordinates":[[[90.33565,23.819882],[90.335327,23.81991],[90.335329,23.819906],[90.33536,23.819848],[90.335379,23.819813],[90.335415,23.819761],[90.335445,23.819699],[90.335469,23.81965],[90.335474,23.819639],[90.335523,23.819539],[90.335618,23.819427],[90.335589,23.81915],[90.335582,23.818944],[90.336026,23.818989],[90.335886,23.819228],[90.335803,23.819449],[90.335805,23.819704],[90.335796,23.819904],[90.335792,23.819904],[90.33565,23.819882]]]}},{"type":"Feature","properties":{"survey":"bds","sheet":"023","dag":"11033","label_bn":"11033","area_sqm":3111.9},"geometry":{"type":"Polygon","coordinates":[[[90.335297,23.819913],[90.335255,23.819916],[90.33523,23.819915],[90.335188,23.819912],[90.335083,23.819904],[90.335054,23.819904],[90.335046,23.819904],[90.335031,23.819904],[90.335016,23.819903],[90.334906,23.819902],[90.334826,23.819901],[90.33478,23.8199],[90.334777,23.8199],[90.334774,23.819893],[90.334743,23.819827],[90.334748,23.81982],[90.334749,23.819819],[90.334803,23.819754],[90.334803,23.819711],[90.334781,23.819634],[90.334702,23.819526],[90.33521,23.819478],[90.335225,23.819477],[90.335237,23.819476],[90.33525,23.819481],[90.33528,23.81946],[90.335447,23.819514],[90.335478,23.819525],[90.335523,23.819539],[90.335474,23.819639],[90.335469,23.81965],[90.335445,23.819699],[90.335415,23.819761],[90.335379,23.819813],[90.33536,23.819848],[90.335329,23.819906],[90.335327,23.81991],[90.335297,23.819913]]]}},{"type":"Feature","properties":{"survey":"bds","sheet":"023","dag":"11029","label_bn":"11029","area_sqm":487.9},"geometry":{"type":"Polygon","coordinates":[[[90.335255,23.819916],[90.33525,23.820098],[90.335005,23.820085],[90.335031,23.819904],[90.335046,23.819904],[90.335054,23.819904],[90.335083,23.819904],[90.335188,23.819912],[90.33523,23.819915],[90.335255,23.819916]]]}},{"type":"Feature","properties":{"survey":"bds","sheet":"023","dag":"11031","label_bn":"11031","area_sqm":1048.0},"geometry":{"type":"Polygon","coordinates":[[[90.334764,23.82003],[90.334732,23.820151],[90.334729,23.82015],[90.334631,23.820137],[90.334543,23.82013],[90.3344,23.819971],[90.334385,23.819954],[90.334385,23.819952],[90.334384,23.819905],[90.334415,23.819879],[90.334603,23.819844],[90.334612,23.819842],[90.334723,23.819829],[90.334729,23.819828],[90.334743,23.819827],[90.334774,23.819893],[90.334777,23.8199],[90.33477,23.819967],[90.334764,23.82003]]]}},{"type":"Feature","properties":{"survey":"bds","sheet":"023","dag":"11026","label_bn":"11026","area_sqm":450.1},"geometry":{"type":"Polygon","coordinates":[[[90.335794,23.819954],[90.335765,23.820177],[90.335634,23.82017],[90.33565,23.819882],[90.335792,23.819904],[90.335796,23.819904],[90.335794,23.819954]]]}},{"type":"Feature","properties":{"survey":"bds","sheet":"023","dag":"11039","label_bn":"11039","area_sqm":2055.2},"geometry":{"type":"Polygon","coordinates":[[[90.335942,23.819904],[90.335917,23.820177],[90.335765,23.820177],[90.335794,23.819954],[90.335796,23.819904],[90.335805,23.819704],[90.335803,23.819449],[90.335886,23.819228],[90.336026,23.818989],[90.336046,23.818991],[90.336081,23.818995],[90.336181,23.819005],[90.336162,23.819048],[90.336054,23.819231],[90.336019,23.81929],[90.336014,23.819305],[90.335945,23.819494],[90.33595,23.819598],[90.335954,23.819688],[90.335955,23.819704],[90.335954,23.819713],[90.335942,23.819896],[90.335942,23.819904]]]}},{"type":"Feature","properties":{"survey":"bds","sheet":"023","dag":"11030","label_bn":"11030","area_sqm":772.5},"geometry":{"type":"Polygon","coordinates":[[[90.335005,23.820085],[90.334998,23.820186],[90.334732,23.820151],[90.334764,23.82003],[90.33477,23.819967],[90.334777,23.8199],[90.33478,23.8199],[90.334826,23.819901],[90.334906,23.819902],[90.335016,23.819903],[90.335031,23.819904],[90.335005,23.820085]]]}},{"type":"Feature","properties":{"survey":"bds","sheet":"023","dag":"11027","label_bn":"11027","area_sqm":1260.3},"geometry":{"type":"Polygon","coordinates":[[[90.335634,23.82017],[90.335246,23.820199],[90.33525,23.820098],[90.335255,23.819916],[90.335297,23.819913],[90.335327,23.81991],[90.33565,23.819882],[90.335634,23.82017]]]}},{"type":"Feature","properties":{"survey":"bds","sheet":"023","dag":"11028","label_bn":"11028","area_sqm":284.5},"geometry":{"type":"Polygon","coordinates":[[[90.335246,23.820199],[90.335237,23.820199],[90.334998,23.820186],[90.335005,23.820085],[90.33525,23.820098],[90.335246,23.820199]]]}},{"type":"Feature","properties":{"survey":"bds","sheet":"023","dag":"11024","label_bn":"11024","area_sqm":336.2},"geometry":{"type":"Polygon","coordinates":[[[90.334295,23.820382],[90.33429,23.820386],[90.334283,23.820379],[90.334266,23.82036],[90.334235,23.820326],[90.334233,23.820323],[90.334224,23.820313],[90.33423,23.820302],[90.334232,23.820299],[90.334252,23.820264],[90.334268,23.820236],[90.334287,23.820203],[90.334324,23.820179],[90.33438,23.820176],[90.33441,23.820203],[90.334445,23.820221],[90.334477,23.820218],[90.334484,23.820217],[90.334492,23.820241],[90.334491,23.820242],[90.334489,23.820242],[90.334304,23.820376],[90.334295,23.820382]]]}},{"type":"Feature","properties":{"survey":"bds","sheet":"023","dag":"11040","label_bn":"11040","area_sqm":926.4},"geometry":{"type":"Polygon","coordinates":[[[90.335944,23.82072],[90.335928,23.820726],[90.335783,23.820494],[90.335755,23.820247],[90.335765,23.820177],[90.335917,23.820177],[90.335912,23.820237],[90.335911,23.820247],[90.335913,23.820267],[90.335914,23.820272],[90.335922,23.820348],[90.335937,23.820475],[90.335939,23.820494],[90.335952,23.820516],[90.336055,23.82068],[90.335947,23.820719],[90.335944,23.82072]]]}},{"type":"Feature","properties":{"survey":"bds","sheet":"023","dag":"11021","label_bn":"11021","area_sqm":210.8},"geometry":{"type":"Polygon","coordinates":[[[90.334781,23.820802],[90.334784,23.820827],[90.334779,23.820826],[90.334715,23.820813],[90.334702,23.820811],[90.334674,23.820798],[90.334664,23.820794],[90.334599,23.820764],[90.334562,23.820741],[90.33456,23.820739],[90.334549,23.820733],[90.334534,23.820724],[90.334494,23.820698],[90.334539,23.820701],[90.334691,23.820714],[90.334786,23.820735],[90.334784,23.820763],[90.334781,23.820802]]]}},{"type":"Feature","properties":{"survey":"bds","sheet":"023","dag":"11022","label_bn":"11022","area_sqm":357.7},"geometry":{"type":"Polygon","coordinates":[[[90.334897,23.820736],[90.334872,23.820837],[90.33487,23.820837],[90.334824,23.820832],[90.334784,23.820827],[90.334781,23.820802],[90.334784,23.820763],[90.334786,23.820735],[90.334691,23.820714],[90.334539,23.820701],[90.334494,23.820698],[90.334489,23.820695],[90.334444,23.820667],[90.334423,23.820646],[90.33441,23.820632],[90.334686,23.820664],[90.334736,23.820674],[90.334768,23.820682],[90.334859,23.820707],[90.334903,23.82071],[90.334897,23.820736]]]}},{"type":"Feature","properties":{"survey":"bds","sheet":"023","dag":"11023","label_bn":"11023","area_sqm":2145.0},"geometry":{"type":"Polygon","coordinates":[[[90.334912,23.8208],[90.334908,23.820842],[90.334905,23.820841],[90.334872,23.820837],[90.334897,23.820736],[90.334903,23.82071],[90.334859,23.820707],[90.334768,23.820682],[90.334736,23.820674],[90.334686,23.820664],[90.33441,23.820632],[90.33441,23.820632],[90.334378,23.8206],[90.334332,23.820486],[90.334315,23.820446],[90.3343,23.820409],[90.33429,23.820386],[90.334295,23.820382],[90.334304,23.820376],[90.334489,23.820242],[90.334491,23.820242],[90.334492,23.820241],[90.334494,23.820242],[90.334519,23.820262],[90.334713,23.820416],[90.33479,23.820454],[90.334967,23.820504],[90.335009,23.820516],[90.335,23.820541],[90.334968,23.820638],[90.334912,23.8208]]]}},{"type":"Feature","properties":{"survey":"bds","sheet":"023","dag":"11025","label_bn":"11025","area_sqm":7911.7},"geometry":{"type":"Polygon","coordinates":[[[90.33541,23.821059],[90.335371,23.8211],[90.335316,23.821011],[90.335208,23.820891],[90.335054,23.820844],[90.334932,23.820845],[90.334908,23.820842],[90.334912,23.8208],[90.334968,23.820638],[90.335,23.820541],[90.335009,23.820516],[90.334967,23.820504],[90.33479,23.820454],[90.334713,23.820416],[90.334519,23.820262],[90.334494,23.820242],[90.334492,23.820241],[90.334484,23.820217],[90.334539,23.820136],[90.334543,23.82013],[90.334631,23.820137],[90.334729,23.82015],[90.334732,23.820151],[90.334998,23.820186],[90.335237,23.820199],[90.335246,23.820199],[90.335634,23.82017],[90.335765,23.820177],[90.335755,23.820247],[90.335783,23.820494],[90.335928,23.820726],[90.335833,23.820761],[90.335561,23.820744],[90.33541,23.821059]]]}},{"type":"Feature","properties":{"survey":"bds","sheet":"023","dag":"11018","label_bn":"11018","area_sqm":1449.3},"geometry":{"type":"Polygon","coordinates":[[[90.336004,23.820847],[90.335542,23.821123],[90.33541,23.821059],[90.335561,23.820744],[90.335833,23.820761],[90.335928,23.820726],[90.336004,23.820847]]]}},{"type":"Feature","properties":{"survey":"bds","sheet":"023","dag":"11017","label_bn":"11017","area_sqm":724.5},"geometry":{"type":"Polygon","coordinates":[[[90.336025,23.820993],[90.33566,23.821206],[90.335654,23.821201],[90.335579,23.821141],[90.335542,23.821123],[90.336004,23.820847],[90.336023,23.820977],[90.336025,23.820993]]]}},{"type":"Feature","properties":{"survey":"bds","sheet":"023","dag":"11004","label_bn":"11004","area_sqm":1340.2},"geometry":{"type":"Polygon","coordinates":[[[90.334931,23.820978],[90.334859,23.821414],[90.334605,23.821374],[90.334619,23.821289],[90.334644,23.821132],[90.334687,23.820915],[90.3347,23.820918],[90.334764,23.820934],[90.33482,23.820944],[90.334836,23.820945],[90.334935,23.820952],[90.334931,23.820978]]]}},{"type":"Feature","properties":{"survey":"bds","sheet":"023","dag":"11019","label_bn":"11019","area_sqm":854.0},"geometry":{"type":"Polygon","coordinates":[[[90.335797,23.821314],[90.335629,23.821478],[90.335594,23.821451],[90.33559,23.821447],[90.335541,23.821387],[90.335503,23.821321],[90.335462,23.821239],[90.335418,23.821165],[90.335371,23.8211],[90.33541,23.821059],[90.335542,23.821123],[90.335579,23.821141],[90.335654,23.821201],[90.33566,23.821206],[90.335797,23.821314]]]}},{"type":"Feature","properties":{"survey":"bds","sheet":"023","dag":"11005","label_bn":"11005","area_sqm":317.8},"geometry":{"type":"Polygon","coordinates":[[[90.335458,23.821458],[90.335511,23.82152],[90.335499,23.821512],[90.335447,23.821469],[90.335435,23.82146],[90.335419,23.821443],[90.335367,23.82139],[90.335322,23.821329],[90.335277,23.821267],[90.335208,23.821135],[90.335156,23.821034],[90.335146,23.821016],[90.335136,23.821007],[90.335084,23.820991],[90.33506,23.820983],[90.335027,23.820974],[90.334944,23.820952],[90.334948,23.820952],[90.335045,23.82095],[90.33508,23.820953],[90.33509,23.820955],[90.335094,23.820956],[90.335134,23.82097],[90.335182,23.82101],[90.335213,23.821057],[90.335304,23.821215],[90.335378,23.821335],[90.335458,23.821458]]]}},{"type":"Feature","properties":{"survey":"bds","sheet":"023","dag":"11041","label_bn":"11041","area_sqm":1704.4},"geometry":{"type":"Polygon","coordinates":[[[90.336475,23.82166],[90.336422,23.821686],[90.336332,23.821538],[90.33612,23.821191],[90.336026,23.820996],[90.336025,23.820993],[90.336023,23.820977],[90.336004,23.820847],[90.335928,23.820726],[90.335944,23.82072],[90.335947,23.820719],[90.336055,23.82068],[90.336124,23.82079],[90.336129,23.820817],[90.336133,23.820842],[90.336138,23.820872],[90.336142,23.820891],[90.336175,23.820996],[90.33619,23.821022],[90.336214,23.821062],[90.336267,23.821153],[90.336438,23.821441],[90.336537,23.821608],[90.336547,23.821625],[90.336475,23.82166]]]}},{"type":"Feature","properties":{"survey":"bds","sheet":"023","dag":"11016","label_bn":"11016","area_sqm":3091.6},"geometry":{"type":"Polygon","coordinates":[[[90.336422,23.821686],[90.336322,23.821735],[90.336318,23.821731],[90.336286,23.821699],[90.336268,23.82168],[90.336206,23.821642],[90.336155,23.821617],[90.336069,23.821595],[90.335865,23.821572],[90.335863,23.821572],[90.335764,23.821558],[90.33571,23.821531],[90.335671,23.821511],[90.33567,23.821511],[90.335642,23.821489],[90.335629,23.821478],[90.335797,23.821314],[90.33566,23.821206],[90.336025,23.820993],[90.336026,23.820996],[90.33612,23.821191],[90.336332,23.821538],[90.336422,23.821686]]]}},{"type":"Feature","properties":{"survey":"bds","sheet":"023","dag":"11003","label_bn":"11003","area_sqm":1878.1},"geometry":{"type":"Polygon","coordinates":[[[90.334529,23.821856],[90.334371,23.821909],[90.334372,23.821895],[90.334378,23.821852],[90.334427,23.821445],[90.334487,23.820973],[90.334499,23.820949],[90.334505,23.820945],[90.334535,23.820924],[90.334536,23.820923],[90.334572,23.820872],[90.334653,23.820902],[90.334687,23.820915],[90.334644,23.821132],[90.334619,23.821289],[90.334605,23.821374],[90.334574,23.821577],[90.334536,23.82181],[90.33453,23.821849],[90.334529,23.821856]]]}},{"type":"Feature","properties":{"survey":"bds","sheet":"023","dag":"11043","label_bn":"11043","area_sqm":28052.4},"geometry":{"type":"Polygon","coordinates":[[[90.336982,23.821948],[90.336851,23.822035],[90.336729,23.821862],[90.336555,23.821636],[90.336551,23.821631],[90.336547,23.821625],[90.336537,23.821608],[90.336438,23.821441],[90.336267,23.821153],[90.336214,23.821062],[90.33619,23.821022],[90.336175,23.820996],[90.336142,23.820891],[90.336138,23.820872],[90.336133,23.820842],[90.336129,23.820817],[90.336124,23.82079],[90.336055,23.82068],[90.335952,23.820516],[90.335939,23.820494],[90.335937,23.820475],[90.335922,23.820348],[90.335914,23.820272],[90.335913,23.820267],[90.335911,23.820247],[90.335912,23.820237],[90.335917,23.820177],[90.335942,23.819904],[90.335942,23.819896],[90.335954,23.819713],[90.335955,23.819704],[90.335954,23.819688],[90.33595,23.819598],[90.335945,23.819494],[90.336014,23.819305],[90.336019,23.81929],[90.336054,23.819231],[90.336162,23.819048],[90.336181,23.819005],[90.336208,23.818945],[90.336276,23.818792],[90.336482,23.818838],[90.336516,23.818846],[90.336909,23.818933],[90.336938,23.81894],[90.337059,23.818967],[90.337044,23.818996],[90.33698,23.819123],[90.336905,23.819261],[90.336853,23.819357],[90.336764,23.819539],[90.336703,23.819652],[90.336687,23.819685],[90.336679,23.819781],[90.33668,23.819935],[90.336676,23.820123],[90.336702,23.820251],[90.336748,23.820478],[90.336777,23.82054],[90.336784,23.820561],[90.336806,23.82062],[90.336828,23.820672],[90.336853,23.820718],[90.33693,23.820842],[90.336997,23.820944],[90.33704,23.821019],[90.337067,23.821047],[90.33711,23.821094],[90.33721,23.821215],[90.337231,23.821243],[90.337298,23.821312],[90.337423,23.82144],[90.337547,23.821573],[90.337394,23.821675],[90.337388,23.821679],[90.336985,23.821946],[90.336982,23.821948]]]}},{"type":"Feature","properties":{"survey":"bds","sheet":"023","dag":"11006","label_bn":"11006","area_sqm":202.4},"geometry":{"type":"Polygon","coordinates":[[[90.335901,23.822068],[90.335894,23.822076],[90.335895,23.822062],[90.335906,23.822047],[90.335988,23.82198],[90.336051,23.821922],[90.336117,23.821871],[90.336134,23.821851],[90.336141,23.82181],[90.336121,23.82175],[90.336118,23.821742],[90.336106,23.821727],[90.33613,23.821735],[90.336168,23.821777],[90.33619,23.821845],[90.336175,23.821886],[90.336175,23.821886],[90.336128,23.821935],[90.336102,23.821953],[90.336066,23.821977],[90.335966,23.822025],[90.335966,23.822025],[90.335901,23.822068]]]}},{"type":"Feature","properties":{"survey":"bds","sheet":"023","dag":"11042","label_bn":"11042","area_sqm":807.2},"geometry":{"type":"Polygon","coordinates":[[[90.336851,23.822035],[90.336737,23.822111],[90.336608,23.82193],[90.336422,23.821686],[90.336475,23.82166],[90.336547,23.821625],[90.336551,23.821631],[90.336555,23.821636],[90.336729,23.821862],[90.336851,23.822035]]]}},{"type":"Feature","properties":{"survey":"bds","sheet":"023","dag":"11015","label_bn":"11015","area_sqm":1929.8},"geometry":{"type":"Polygon","coordinates":[[[90.336737,23.822111],[90.336736,23.822197],[90.336607,23.822148],[90.336571,23.822149],[90.33657,23.822149],[90.336556,23.822142],[90.33641,23.822149],[90.336334,23.822159],[90.336222,23.822174],[90.336109,23.822173],[90.336009,23.822146],[90.336001,23.822145],[90.336002,23.822144],[90.336002,23.822143],[90.336026,23.822127],[90.336089,23.822089],[90.336159,23.822052],[90.336261,23.821959],[90.336288,23.821926],[90.336306,23.821882],[90.336321,23.821832],[90.336322,23.821735],[90.336422,23.821686],[90.336608,23.82193],[90.336737,23.822111]]]}},{"type":"Feature","properties":{"survey":"bds","sheet":"023","dag":"11014","label_bn":"11014","area_sqm":146.7},"geometry":{"type":"Polygon","coordinates":[[[90.336246,23.822197],[90.33606,23.822199],[90.336003,23.822192],[90.335984,23.822178],[90.335996,23.822155],[90.336001,23.822145],[90.336009,23.822146],[90.336109,23.822173],[90.336222,23.822174],[90.336334,23.822159],[90.33641,23.822149],[90.336556,23.822142],[90.33657,23.822149],[90.336481,23.822149],[90.336268,23.822197],[90.336267,23.822197],[90.336264,23.822197],[90.336246,23.822197]]]}},{"type":"Feature","properties":{"survey":"bds","sheet":"023","dag":"11020","label_bn":"11020","area_sqm":3395.5},"geometry":{"type":"Polygon","coordinates":[[[90.335876,23.822199],[90.335816,23.822212],[90.335826,23.822191],[90.335826,23.82219],[90.335859,23.822115],[90.335894,23.822076],[90.335901,23.822068],[90.335966,23.822025],[90.335966,23.822025],[90.336066,23.821977],[90.336102,23.821953],[90.336128,23.821935],[90.336175,23.821886],[90.336175,23.821886],[90.33619,23.821845],[90.336168,23.821777],[90.33613,23.821735],[90.336106,23.821727],[90.3361,23.821725],[90.336046,23.821706],[90.335874,23.82168],[90.335726,23.821656],[90.335625,23.821611],[90.335564,23.821564],[90.335521,23.821532],[90.335511,23.821521],[90.335511,23.82152],[90.335458,23.821458],[90.335378,23.821335],[90.335304,23.821215],[90.335213,23.821057],[90.335182,23.82101],[90.335134,23.82097],[90.335094,23.820956],[90.33509,23.820955],[90.33508,23.820953],[90.335045,23.82095],[90.334948,23.820952],[90.334944,23.820952],[90.334935,23.820952],[90.334836,23.820945],[90.33482,23.820944],[90.334764,23.820934],[90.3347,23.820918],[90.334687,23.820915],[90.334653,23.820902],[90.334572,23.820872],[90.334599,23.820764],[90.334664,23.820794],[90.334674,23.820798],[90.334702,23.820811],[90.334715,23.820813],[90.334779,23.820826],[90.334784,23.820827],[90.334824,23.820832],[90.33487,23.820837],[90.334872,23.820837],[90.334905,23.820841],[90.334908,23.820842],[90.334932,23.820845],[90.335054,23.820844],[90.335208,23.820891],[90.335316,23.821011],[90.335371,23.8211],[90.335418,23.821165],[90.335462,23.821239],[90.335503,23.821321],[90.335541,23.821387],[90.33559,23.821447],[90.335594,23.821451],[90.335629,23.821478],[90.335642,23.821489],[90.33567,23.821511],[90.335671,23.821511],[90.33571,23.821531],[90.335764,23.821558],[90.335863,23.821572],[90.335865,23.821572],[90.336069,23.821595],[90.336155,23.821617],[90.336206,23.821642],[90.336268,23.82168],[90.336286,23.821699],[90.336318,23.821731],[90.336322,23.821735],[90.336321,23.821832],[90.336306,23.821882],[90.336288,23.821926],[90.336261,23.821959],[90.336159,23.822052],[90.336089,23.822089],[90.336026,23.822127],[90.336002,23.822143],[90.336002,23.822144],[90.336001,23.822145],[90.335996,23.822155],[90.335984,23.822178],[90.335921,23.82219],[90.33591,23.822193],[90.335876,23.822199]]]}},{"type":"Feature","properties":{"survey":"bds","sheet":"023","dag":"11002","label_bn":"11002","area_sqm":2594.4},"geometry":{"type":"Polygon","coordinates":[[[90.334662,23.82191],[90.334632,23.822233],[90.334475,23.822231],[90.33403,23.822213],[90.334035,23.822126],[90.334033,23.821967],[90.334296,23.821923],[90.334371,23.821909],[90.334529,23.821856],[90.33453,23.821849],[90.334536,23.82181],[90.334574,23.821577],[90.334681,23.821601],[90.334681,23.821635],[90.334671,23.821693],[90.334662,23.821736],[90.334663,23.821819],[90.334701,23.821847],[90.334695,23.821856],[90.334679,23.821883],[90.334662,23.82191]]]}},{"type":"Feature","properties":{"survey":"bds","sheet":"023","dag":"11009","label_bn":"11009","area_sqm":615.3},"geometry":{"type":"Polygon","coordinates":[[[90.335147,23.822178],[90.335116,23.822244],[90.335075,23.822227],[90.335061,23.822221],[90.334852,23.822133],[90.334861,23.822122],[90.334933,23.822038],[90.334949,23.822032],[90.335042,23.822006],[90.335069,23.821995],[90.335098,23.821983],[90.335104,23.82198],[90.335181,23.822006],[90.335209,23.822048],[90.335187,23.822093],[90.335169,23.822131],[90.335156,23.822158],[90.335147,23.822178]]]}},{"type":"Feature","properties":{"survey":"bds","sheet":"023","dag":"11007","label_bn":"11007","area_sqm":158.7},"geometry":{"type":"Polygon","coordinates":[[[90.335536,23.822379],[90.335535,23.822379],[90.335749,23.82224],[90.335826,23.822191],[90.335816,23.822212],[90.335788,23.822253],[90.335758,23.822297],[90.335724,23.822343],[90.335691,23.822359],[90.335629,23.822368],[90.335597,23.822372],[90.335536,23.822379]]]}},{"type":"Feature","properties":{"survey":"bds","sheet":"023","dag":"11008","label_bn":"11008","area_sqm":11730.9},"geometry":{"type":"Polygon","coordinates":[[[90.335495,23.822383],[90.335424,23.82242],[90.335187,23.822093],[90.335209,23.822048],[90.335181,23.822006],[90.335104,23.82198],[90.335098,23.821983],[90.335069,23.821995],[90.335042,23.822006],[90.334949,23.822032],[90.334923,23.82201],[90.334888,23.821982],[90.334884,23.821979],[90.334828,23.821926],[90.334731,23.82186],[90.334701,23.821847],[90.334663,23.821819],[90.334662,23.821736],[90.334671,23.821693],[90.334681,23.821635],[90.334681,23.821601],[90.334574,23.821577],[90.334605,23.821374],[90.334859,23.821414],[90.334931,23.820978],[90.334935,23.820952],[90.334944,23.820952],[90.335027,23.820974],[90.33506,23.820983],[90.335084,23.820991],[90.335136,23.821007],[90.335146,23.821016],[90.335156,23.821034],[90.335208,23.821135],[90.335277,23.821267],[90.335322,23.821329],[90.335367,23.82139],[90.335419,23.821443],[90.335435,23.82146],[90.335447,23.821469],[90.335499,23.821512],[90.335511,23.82152],[90.335511,23.821521],[90.335521,23.821532],[90.335564,23.821564],[90.335625,23.821611],[90.335726,23.821656],[90.335874,23.82168],[90.336046,23.821706],[90.3361,23.821725],[90.336106,23.821727],[90.336118,23.821742],[90.336121,23.82175],[90.336141,23.82181],[90.336134,23.821851],[90.336117,23.821871],[90.336051,23.821922],[90.335988,23.82198],[90.335906,23.822047],[90.335895,23.822062],[90.335894,23.822076],[90.335859,23.822115],[90.335826,23.82219],[90.335826,23.822191],[90.335749,23.82224],[90.335535,23.822379],[90.335495,23.822383]]]}},{"type":"Feature","properties":{"survey":"bds","sheet":"023","dag":"11013","label_bn":"11013","area_sqm":1542.7},"geometry":{"type":"Polygon","coordinates":[[[90.335541,23.822463],[90.33549,23.822486],[90.335456,23.822452],[90.335441,23.822438],[90.335424,23.82242],[90.335495,23.822383],[90.335535,23.822379],[90.335536,23.822379],[90.335597,23.822372],[90.335629,23.822368],[90.335691,23.822359],[90.335724,23.822343],[90.335758,23.822297],[90.335788,23.822253],[90.335816,23.822212],[90.335876,23.822199],[90.33591,23.822193],[90.335921,23.82219],[90.335984,23.822178],[90.336003,23.822192],[90.33606,23.822199],[90.336246,23.822197],[90.336264,23.822197],[90.336267,23.822197],[90.336268,23.822197],[90.336481,23.822149],[90.33657,23.822149],[90.336571,23.822149],[90.336607,23.822148],[90.336736,23.822197],[90.336735,23.822236],[90.336735,23.82225],[90.336733,23.822358],[90.336733,23.82237],[90.336733,23.822372],[90.336722,23.822363],[90.336655,23.822307],[90.336597,23.822281],[90.336575,23.822277],[90.336564,23.822275],[90.336536,23.82227],[90.336445,23.822278],[90.336197,23.822283],[90.33616,23.822284],[90.33595,23.822288],[90.335874,23.822312],[90.335795,23.822393],[90.335746,23.822414],[90.335686,23.822429],[90.335627,23.822444],[90.335622,23.822445],[90.335602,23.822452],[90.335577,23.82246],[90.335541,23.822463]]]}},{"type":"Feature","properties":{"survey":"bds","sheet":"023","dag":"11001","label_bn":"11001","area_sqm":1369.3},"geometry":{"type":"Polygon","coordinates":[[[90.33465,23.8224],[90.334504,23.8225],[90.3345,23.822456],[90.334498,23.822438],[90.334475,23.822231],[90.334632,23.822233],[90.334662,23.82191],[90.334679,23.821883],[90.334695,23.821856],[90.334701,23.821847],[90.334731,23.82186],[90.334828,23.821926],[90.334884,23.821979],[90.334888,23.821982],[90.334923,23.82201],[90.334949,23.822032],[90.334933,23.822038],[90.334861,23.822122],[90.334852,23.822133],[90.33465,23.8224]]]}},{"type":"Feature","properties":{"survey":"bds","sheet":"023","dag":"11010","label_bn":"11010","area_sqm":1195.1},"geometry":{"type":"Polygon","coordinates":[[[90.335116,23.822244],[90.334982,23.822543],[90.334966,23.822536],[90.334946,23.822527],[90.33465,23.8224],[90.334852,23.822133],[90.335061,23.822221],[90.335075,23.822227],[90.335116,23.822244]]]}},{"type":"Feature","properties":{"survey":"bds","sheet":"023","dag":"11011","label_bn":"11011","area_sqm":1423.2},"geometry":{"type":"Polygon","coordinates":[[[90.335265,23.822598],[90.335258,23.8226],[90.3352,23.822599],[90.335129,23.822598],[90.335098,23.822597],[90.335094,23.822597],[90.335069,23.822597],[90.335064,23.822597],[90.335023,23.822592],[90.334962,23.822596],[90.334982,23.822543],[90.335116,23.822244],[90.335147,23.822178],[90.335156,23.822158],[90.335169,23.822131],[90.335187,23.822093],[90.335424,23.82242],[90.335403,23.822449],[90.335399,23.822456],[90.335381,23.822481],[90.335347,23.822508],[90.335265,23.822598]]]}},{"type":"Feature","properties":{"survey":"bds","sheet":"023","dag":"11012","label_bn":"11012","area_sqm":57.8},"geometry":{"type":"Polygon","coordinates":[[[90.335287,23.822609],[90.33524,23.822622],[90.335217,23.822619],[90.335067,23.822598],[90.335064,23.822597],[90.335069,23.822597],[90.335094,23.822597],[90.335098,23.822597],[90.335129,23.822598],[90.3352,23.822599],[90.335258,23.8226],[90.335265,23.822598],[90.335347,23.822508],[90.335381,23.822481],[90.33536,23.822511],[90.335352,23.822521],[90.335287,23.822609]]]}}]}