{"type":"FeatureCollection","features":[{"type":"Feature","properties":{"survey":"bds","sheet":"024","dag":"11600","label_bn":"11600","area_sqm":1422.0},"geometry":{"type":"Polygon","coordinates":[[[90.337529,23.815179],[90.337256,23.815378],[90.337226,23.815338],[90.337045,23.815097],[90.33706,23.815082],[90.337217,23.81492],[90.337276,23.814888],[90.337306,23.814872],[90.337331,23.8149],[90.337359,23.814933],[90.337371,23.814956],[90.337404,23.815018],[90.337425,23.815057],[90.337458,23.815118],[90.337474,23.815146],[90.337529,23.815179],[90.337529,23.815179],[90.337529,23.815179]]]}},{"type":"Feature","properties":{"survey":"bds","sheet":"024","dag":"11556","label_bn":"11556","area_sqm":1728.3},"geometry":{"type":"Polygon","coordinates":[[[90.33532,23.815453],[90.335238,23.815468],[90.335047,23.815436],[90.334855,23.815389],[90.334904,23.81525],[90.334931,23.815167],[90.334937,23.815147],[90.334999,23.815147],[90.33529,23.815192],[90.335311,23.815195],[90.335325,23.815206],[90.335362,23.815238],[90.335384,23.815257],[90.335468,23.81531],[90.335546,23.815333],[90.335537,23.815342],[90.335518,23.81544],[90.335455,23.815447],[90.335361,23.815451],[90.33532,23.815453]]]}},{"type":"Feature","properties":{"survey":"bds","sheet":"024","dag":"11561","label_bn":"11561","area_sqm":602.2},"geometry":{"type":"Polygon","coordinates":[[[90.336369,23.815527],[90.336321,23.815532],[90.336301,23.815528],[90.336292,23.815526],[90.336255,23.815507],[90.336188,23.815454],[90.336126,23.815412],[90.336079,23.81539],[90.33605,23.815367],[90.336047,23.815321],[90.336064,23.815285],[90.336067,23.81528],[90.336095,23.815247],[90.336114,23.815241],[90.336153,23.815249],[90.336189,23.815263],[90.336254,23.815304],[90.336278,23.815328],[90.336345,23.815401],[90.336368,23.815436],[90.33638,23.815481],[90.336379,23.815506],[90.336369,23.815527]]]}},{"type":"Feature","properties":{"survey":"bds","sheet":"024","dag":"11562","label_bn":"11562","area_sqm":2475.5},"geometry":{"type":"Polygon","coordinates":[[[90.33677,23.815544],[90.336752,23.815624],[90.336741,23.815621],[90.336735,23.815619],[90.336369,23.815527],[90.336379,23.815506],[90.33638,23.815481],[90.336368,23.815436],[90.336345,23.815401],[90.336385,23.815372],[90.336642,23.814995],[90.336974,23.81521],[90.336872,23.815357],[90.336816,23.815453],[90.33677,23.815544]]]}},{"type":"Feature","properties":{"survey":"bds","sheet":"024","dag":"11601","label_bn":"11601","area_sqm":1294.1},"geometry":{"type":"Polygon","coordinates":[[[90.337639,23.815444],[90.337602,23.815645],[90.337525,23.815621],[90.337418,23.815593],[90.337315,23.815456],[90.337256,23.815378],[90.337529,23.815179],[90.337656,23.81529],[90.337669,23.815301],[90.337639,23.815444]]]}},{"type":"Feature","properties":{"survey":"bds","sheet":"024","dag":"11560","label_bn":"11560","area_sqm":2235.4},"geometry":{"type":"Polygon","coordinates":[[[90.336369,23.815527],[90.336329,23.815724],[90.335582,23.815643],[90.335685,23.815366],[90.335711,23.815366],[90.335809,23.815363],[90.335818,23.815373],[90.335942,23.815405],[90.335958,23.815382],[90.33605,23.815367],[90.336079,23.81539],[90.336126,23.815412],[90.336188,23.815454],[90.336255,23.815507],[90.336292,23.815526],[90.336301,23.815528],[90.336321,23.815532],[90.336369,23.815527]]]}},{"type":"Feature","properties":{"survey":"bds","sheet":"024","dag":"11599","label_bn":"11599","area_sqm":1693.4},"geometry":{"type":"Polygon","coordinates":[[[90.337195,23.81538],[90.336915,23.815763],[90.336888,23.815712],[90.336857,23.815688],[90.336801,23.815685],[90.336774,23.815683],[90.336758,23.815656],[90.336754,23.815635],[90.336752,23.815624],[90.33677,23.815544],[90.336816,23.815453],[90.336872,23.815357],[90.336974,23.81521],[90.337014,23.815147],[90.337045,23.815097],[90.337226,23.815338],[90.337195,23.81538]]]}},{"type":"Feature","properties":{"survey":"bds","sheet":"024","dag":"11563","label_bn":"11563","area_sqm":823.7},"geometry":{"type":"Polygon","coordinates":[[[90.336736,23.815763],[90.336736,23.815777],[90.336329,23.815724],[90.336369,23.815527],[90.336735,23.815619],[90.336741,23.815621],[90.336752,23.815624],[90.336754,23.815635],[90.336758,23.815656],[90.336774,23.815683],[90.336754,23.815713],[90.336736,23.815763]]]}},{"type":"Feature","properties":{"survey":"bds","sheet":"024","dag":"11557","label_bn":"11557","area_sqm":1279.6},"geometry":{"type":"Polygon","coordinates":[[[90.335582,23.815643],[90.335502,23.815856],[90.335431,23.815839],[90.335297,23.815806],[90.335361,23.815451],[90.335455,23.815447],[90.335518,23.81544],[90.335537,23.815342],[90.335546,23.815333],[90.33561,23.815349],[90.335681,23.815366],[90.335685,23.815366],[90.335582,23.815643]]]}},{"type":"Feature","properties":{"survey":"bds","sheet":"024","dag":"11555","label_bn":"11555","area_sqm":1019.7},"geometry":{"type":"Polygon","coordinates":[[[90.335047,23.815436],[90.33492,23.81586],[90.334721,23.815819],[90.334727,23.815783],[90.334855,23.815389],[90.335047,23.815436]]]}},{"type":"Feature","properties":{"survey":"bds","sheet":"024","dag":"11597","label_bn":"11597","area_sqm":865.4},"geometry":{"type":"Polygon","coordinates":[[[90.337295,23.815881],[90.337283,23.815909],[90.33706,23.815901],[90.337093,23.815842],[90.337288,23.815502],[90.337315,23.815456],[90.337418,23.815593],[90.337411,23.81561],[90.337295,23.815881]]]}},{"type":"Feature","properties":{"survey":"bds","sheet":"024","dag":"11598","label_bn":"11598","area_sqm":1015.6},"geometry":{"type":"Polygon","coordinates":[[[90.337004,23.815926],[90.337002,23.815926],[90.336987,23.815877],[90.336987,23.815876],[90.336987,23.815843],[90.336987,23.815824],[90.336949,23.81579],[90.336915,23.815763],[90.337195,23.81538],[90.337226,23.815338],[90.337256,23.815378],[90.337315,23.815456],[90.337288,23.815502],[90.337093,23.815842],[90.33706,23.815901],[90.337004,23.815926]]]}},{"type":"Feature","properties":{"survey":"bds","sheet":"024","dag":"11596","label_bn":"11596","area_sqm":642.0},"geometry":{"type":"Polygon","coordinates":[[[90.337517,23.815936],[90.337483,23.815939],[90.33747,23.815937],[90.337283,23.815909],[90.337295,23.815881],[90.337411,23.81561],[90.337418,23.815593],[90.337525,23.815621],[90.337517,23.815936]]]}},{"type":"Feature","properties":{"survey":"bds","sheet":"024","dag":"11554","label_bn":"11554","area_sqm":1748.5},"geometry":{"type":"Polygon","coordinates":[[[90.335297,23.815806],[90.335273,23.815941],[90.33492,23.81586],[90.335047,23.815436],[90.335238,23.815468],[90.33532,23.815453],[90.335361,23.815451],[90.335297,23.815806]]]}},{"type":"Feature","properties":{"survey":"bds","sheet":"024","dag":"11595","label_bn":"11595","area_sqm":670.5},"geometry":{"type":"Polygon","coordinates":[[[90.33771,23.81587],[90.337683,23.815974],[90.337629,23.815961],[90.337626,23.815961],[90.337591,23.81596],[90.337546,23.81597],[90.337517,23.815936],[90.337525,23.815621],[90.337602,23.815645],[90.337617,23.815649],[90.33772,23.815681],[90.33771,23.81587]]]}},{"type":"Feature","properties":{"survey":"bds","sheet":"024","dag":"11558","label_bn":"11558","area_sqm":310.2},"geometry":{"type":"Polygon","coordinates":[[[90.335502,23.815856],[90.335454,23.815986],[90.335378,23.815967],[90.335273,23.815941],[90.335297,23.815806],[90.335431,23.815839],[90.335502,23.815856]]]}},{"type":"Feature","properties":{"survey":"bds","sheet":"024","dag":"11559","label_bn":"11559","area_sqm":1969.8},"geometry":{"type":"Polygon","coordinates":[[[90.335881,23.815886],[90.335633,23.816048],[90.335587,23.81603],[90.335576,23.816025],[90.335454,23.815986],[90.335502,23.815856],[90.335582,23.815643],[90.336329,23.815724],[90.336115,23.815828],[90.33596,23.815869],[90.335919,23.815871],[90.335886,23.815884],[90.335881,23.815886]]]}},{"type":"Feature","properties":{"survey":"bds","sheet":"024","dag":"11552","label_bn":"11552","area_sqm":571.9},"geometry":{"type":"Polygon","coordinates":[[[90.335915,23.81588],[90.335747,23.81621],[90.335525,23.816187],[90.335583,23.816125],[90.335633,23.816048],[90.335881,23.815886],[90.335886,23.815884],[90.335919,23.815871],[90.335915,23.81588]]]}},{"type":"Feature","properties":{"survey":"bds","sheet":"024","dag":"11553","label_bn":"11553","area_sqm":1853.2},"geometry":{"type":"Polygon","coordinates":[[[90.335525,23.816187],[90.335459,23.816243],[90.335367,23.81622],[90.334892,23.816097],[90.33492,23.81586],[90.335273,23.815941],[90.335378,23.815967],[90.335454,23.815986],[90.335576,23.816025],[90.335587,23.81603],[90.335633,23.816048],[90.335583,23.816125],[90.335525,23.816187]]]}},{"type":"Feature","properties":{"survey":"bds","sheet":"024","dag":"11593","label_bn":"11593","area_sqm":996.8},"geometry":{"type":"Polygon","coordinates":[[[90.337351,23.816239],[90.337117,23.816247],[90.337023,23.815985],[90.337002,23.815926],[90.337004,23.815926],[90.33706,23.815901],[90.337283,23.815909],[90.337351,23.816239]]]}},{"type":"Feature","properties":{"survey":"bds","sheet":"024","dag":"11594","label_bn":"11594","area_sqm":1019.0},"geometry":{"type":"Polygon","coordinates":[[[90.337546,23.81597],[90.337665,23.816273],[90.337539,23.81626],[90.337351,23.816239],[90.337283,23.815909],[90.33747,23.815937],[90.337483,23.815939],[90.337517,23.815936],[90.337546,23.81597]]]}},{"type":"Feature","properties":{"survey":"bds","sheet":"024","dag":"11564","label_bn":"11564","area_sqm":1850.7},"geometry":{"type":"Polygon","coordinates":[[[90.336218,23.816271],[90.335941,23.816301],[90.335942,23.816264],[90.33596,23.815876],[90.33596,23.815869],[90.336115,23.815828],[90.336329,23.815724],[90.336315,23.815853],[90.336273,23.816264],[90.336218,23.816271]]]}},{"type":"Feature","properties":{"survey":"bds","sheet":"024","dag":"11544","label_bn":"11544","area_sqm":1247.1},"geometry":{"type":"Polygon","coordinates":[[[90.33488,23.816138],[90.334826,23.816309],[90.334684,23.816272],[90.33468,23.816271],[90.334572,23.816242],[90.334571,23.816233],[90.3346,23.816146],[90.33463,23.816079],[90.334651,23.816028],[90.33468,23.81595],[90.334721,23.815819],[90.33492,23.81586],[90.334892,23.816097],[90.33488,23.816138]]]}},{"type":"Feature","properties":{"survey":"bds","sheet":"024","dag":"11565","label_bn":"11565","area_sqm":3699.5},"geometry":{"type":"Polygon","coordinates":[[[90.336896,23.816361],[90.336256,23.816379],[90.336273,23.816264],[90.336315,23.815853],[90.336329,23.815724],[90.336736,23.815777],[90.336735,23.815813],[90.336733,23.815869],[90.336778,23.815943],[90.336836,23.816092],[90.336872,23.816121],[90.336896,23.816361]]]}},{"type":"Feature","properties":{"survey":"bds","sheet":"024","dag":"11543","label_bn":"11543","area_sqm":226.2},"geometry":{"type":"Polygon","coordinates":[[[90.33468,23.816271],[90.334619,23.81644],[90.334511,23.816409],[90.334558,23.816281],[90.334572,23.816242],[90.33468,23.816271]]]}},{"type":"Feature","properties":{"survey":"bds","sheet":"024","dag":"11545","label_bn":"11545","area_sqm":1473.3},"geometry":{"type":"Polygon","coordinates":[[[90.335391,23.816443],[90.335382,23.816456],[90.335324,23.81644],[90.335315,23.816437],[90.335161,23.816396],[90.334965,23.816347],[90.334947,23.816342],[90.334826,23.816309],[90.33488,23.816138],[90.334892,23.816097],[90.335367,23.81622],[90.335459,23.816243],[90.335391,23.816443]]]}},{"type":"Feature","properties":{"survey":"bds","sheet":"024","dag":"11551","label_bn":"11551","area_sqm":1048.9},"geometry":{"type":"Polygon","coordinates":[[[90.335941,23.816301],[90.335919,23.816473],[90.335681,23.816406],[90.335747,23.81621],[90.335915,23.81588],[90.335919,23.815871],[90.33596,23.815869],[90.33596,23.815876],[90.335942,23.816264],[90.335941,23.816301]]]}},{"type":"Feature","properties":{"survey":"bds","sheet":"024","dag":"11542","label_bn":"11542","area_sqm":569.3},"geometry":{"type":"Polygon","coordinates":[[[90.334947,23.816342],[90.334882,23.816516],[90.334761,23.816481],[90.334622,23.816441],[90.334619,23.81644],[90.33468,23.816271],[90.334684,23.816272],[90.334826,23.816309],[90.334947,23.816342]]]}},{"type":"Feature","properties":{"survey":"bds","sheet":"024","dag":"11546","label_bn":"11546","area_sqm":919.3},"geometry":{"type":"Polygon","coordinates":[[[90.335657,23.81648],[90.335637,23.816543],[90.335391,23.816443],[90.335459,23.816243],[90.335525,23.816187],[90.335747,23.81621],[90.335681,23.816406],[90.335657,23.81648]]]}},{"type":"Feature","properties":{"survey":"bds","sheet":"024","dag":"11547","label_bn":"11547","area_sqm":457.7},"geometry":{"type":"Polygon","coordinates":[[[90.335904,23.816588],[90.335902,23.816606],[90.33573,23.816598],[90.335712,23.816587],[90.335637,23.816543],[90.335657,23.81648],[90.335681,23.816406],[90.335919,23.816473],[90.335911,23.816544],[90.335904,23.816588]]]}},{"type":"Feature","properties":{"survey":"bds","sheet":"024","dag":"11550","label_bn":"11550","area_sqm":1194.7},"geometry":{"type":"Polygon","coordinates":[[[90.336221,23.816573],[90.336211,23.816613],[90.335963,23.81661],[90.335902,23.816606],[90.335904,23.816588],[90.335911,23.816544],[90.335919,23.816473],[90.335941,23.816301],[90.336218,23.816271],[90.336273,23.816264],[90.336256,23.816379],[90.33625,23.81642],[90.336225,23.816558],[90.336221,23.816573]]]}},{"type":"Feature","properties":{"survey":"bds","sheet":"024","dag":"11541","label_bn":"11541","area_sqm":812.9},"geometry":{"type":"Polygon","coordinates":[[[90.335315,23.816437],[90.335218,23.816636],[90.335114,23.816582],[90.334882,23.816516],[90.334947,23.816342],[90.334965,23.816347],[90.335161,23.816396],[90.335315,23.816437]]]}},{"type":"Feature","properties":{"survey":"bds","sheet":"024","dag":"11567","label_bn":"11567","area_sqm":461.0},"geometry":{"type":"Polygon","coordinates":[[[90.336833,23.816733],[90.336769,23.81674],[90.336739,23.816535],[90.33688,23.816528],[90.336937,23.816525],[90.336944,23.816548],[90.336965,23.816732],[90.336909,23.816732],[90.336847,23.816733],[90.336833,23.816733]]]}},{"type":"Feature","properties":{"survey":"bds","sheet":"024","dag":"11568","label_bn":"11568","area_sqm":517.4},"geometry":{"type":"Polygon","coordinates":[[[90.336762,23.816741],[90.336539,23.816747],[90.33652,23.816546],[90.336739,23.816535],[90.336769,23.81674],[90.336762,23.816741]]]}},{"type":"Feature","properties":{"survey":"bds","sheet":"024","dag":"11566","label_bn":"11566","area_sqm":1742.3},"geometry":{"type":"Polygon","coordinates":[[[90.336502,23.816748],[90.336465,23.81675],[90.336373,23.816748],[90.33636,23.816748],[90.336348,23.816569],[90.336221,23.816573],[90.336225,23.816558],[90.33625,23.81642],[90.336256,23.816379],[90.336896,23.816361],[90.336899,23.816387],[90.336933,23.816512],[90.336937,23.816525],[90.33688,23.816528],[90.336739,23.816535],[90.33652,23.816546],[90.336539,23.816747],[90.336502,23.816748]]]}},{"type":"Feature","properties":{"survey":"bds","sheet":"024","dag":"11571","label_bn":"11571","area_sqm":285.6},"geometry":{"type":"Polygon","coordinates":[[[90.33636,23.816748],[90.336233,23.816758],[90.336214,23.816708],[90.336211,23.816613],[90.336221,23.816573],[90.336348,23.816569],[90.33636,23.816748]]]}},{"type":"Feature","properties":{"survey":"bds","sheet":"024","dag":"11539","label_bn":"11539","area_sqm":961.4},"geometry":{"type":"Polygon","coordinates":[[[90.335182,23.816763],[90.335176,23.816794],[90.335104,23.816772],[90.334773,23.81667],[90.334729,23.816658],[90.334758,23.816495],[90.334761,23.816481],[90.334882,23.816516],[90.335114,23.816582],[90.335218,23.816636],[90.335215,23.816641],[90.335182,23.816763]]]}},{"type":"Feature","properties":{"survey":"bds","sheet":"024","dag":"11592","label_bn":"11592","area_sqm":1674.6},"geometry":{"type":"Polygon","coordinates":[[[90.337485,23.816824],[90.337399,23.816825],[90.337221,23.816821],[90.33718,23.816615],[90.337155,23.816497],[90.337151,23.816488],[90.337132,23.816451],[90.337127,23.816381],[90.33713,23.816311],[90.337117,23.816247],[90.337351,23.816239],[90.337485,23.816824]]]}},{"type":"Feature","properties":{"survey":"bds","sheet":"024","dag":"11591","label_bn":"11591","area_sqm":2166.5},"geometry":{"type":"Polygon","coordinates":[[[90.337782,23.816591],[90.337828,23.816838],[90.337693,23.816835],[90.337652,23.816834],[90.337623,23.816832],[90.337611,23.816832],[90.337485,23.816824],[90.337351,23.816239],[90.337539,23.81626],[90.337665,23.816273],[90.337716,23.816449],[90.337742,23.816505],[90.337757,23.816538],[90.33778,23.816578],[90.337782,23.816591]]]}},{"type":"Feature","properties":{"survey":"bds","sheet":"024","dag":"11570","label_bn":"11570","area_sqm":163.5},"geometry":{"type":"Polygon","coordinates":[[[90.336477,23.816885],[90.336372,23.816886],[90.33636,23.816748],[90.336373,23.816748],[90.336465,23.81675],[90.336477,23.816885]]]}},{"type":"Feature","properties":{"survey":"bds","sheet":"024","dag":"11572","label_bn":"11572","area_sqm":204.6},"geometry":{"type":"Polygon","coordinates":[[[90.336372,23.816886],[90.33623,23.816889],[90.336233,23.816758],[90.33636,23.816748],[90.336372,23.816886]]]}},{"type":"Feature","properties":{"survey":"bds","sheet":"024","dag":"11548","label_bn":"11548","area_sqm":823.7},"geometry":{"type":"Polygon","coordinates":[[[90.335963,23.81661],[90.335849,23.816921],[90.335612,23.816877],[90.33573,23.816598],[90.335902,23.816606],[90.335963,23.81661]]]}},{"type":"Feature","properties":{"survey":"bds","sheet":"024","dag":"11538","label_bn":"11538","area_sqm":1071.9},"geometry":{"type":"Polygon","coordinates":[[[90.335066,23.816948],[90.334927,23.816948],[90.334832,23.816936],[90.334729,23.816895],[90.334664,23.816862],[90.334759,23.816695],[90.334773,23.81667],[90.335104,23.816772],[90.335176,23.816794],[90.335127,23.816947],[90.335066,23.816948]]]}},{"type":"Feature","properties":{"survey":"bds","sheet":"024","dag":"11569","label_bn":"11569","area_sqm":1205.3},"geometry":{"type":"Polygon","coordinates":[[[90.336862,23.816952],[90.336483,23.816955],[90.336479,23.816909],[90.336477,23.816885],[90.336465,23.81675],[90.336502,23.816748],[90.336539,23.816747],[90.336762,23.816741],[90.336769,23.81674],[90.336833,23.816733],[90.336847,23.816733],[90.336909,23.816732],[90.336965,23.816732],[90.33698,23.816951],[90.336862,23.816952]]]}},{"type":"Feature","properties":{"survey":"bds","sheet":"024","dag":"11549","label_bn":"11549","area_sqm":1276.7},"geometry":{"type":"Polygon","coordinates":[[[90.33623,23.816895],[90.336242,23.816983],[90.336134,23.816977],[90.335943,23.81694],[90.335849,23.816921],[90.335963,23.81661],[90.336211,23.816613],[90.336214,23.816708],[90.336233,23.816758],[90.33623,23.816889],[90.33623,23.816895]]]}},{"type":"Feature","properties":{"survey":"bds","sheet":"024","dag":"11573","label_bn":"11573","area_sqm":414.6},"geometry":{"type":"Polygon","coordinates":[[[90.33648,23.81703],[90.336249,23.817045],[90.336242,23.816983],[90.33623,23.816895],[90.33623,23.816889],[90.336372,23.816886],[90.336477,23.816885],[90.336479,23.816909],[90.336483,23.816955],[90.33648,23.81703]]]}},{"type":"Feature","properties":{"survey":"bds","sheet":"024","dag":"11540","label_bn":"11540","area_sqm":2515.4},"geometry":{"type":"Polygon","coordinates":[[[90.33551,23.816825],[90.33539,23.817053],[90.335271,23.817023],[90.335127,23.816986],[90.335127,23.816947],[90.335176,23.816794],[90.335182,23.816763],[90.335215,23.816641],[90.335218,23.816636],[90.335315,23.816437],[90.335324,23.81644],[90.335382,23.816456],[90.335391,23.816443],[90.335637,23.816543],[90.335712,23.816587],[90.33573,23.816598],[90.335612,23.816877],[90.33551,23.816825]]]}},{"type":"Feature","properties":{"survey":"bds","sheet":"024","dag":"11532","label_bn":"11532","area_sqm":348.0},"geometry":{"type":"Polygon","coordinates":[[[90.335529,23.817078],[90.335524,23.817094],[90.335451,23.817069],[90.33539,23.817053],[90.33551,23.816825],[90.335612,23.816877],[90.335529,23.817078]]]}},{"type":"Feature","properties":{"survey":"bds","sheet":"024","dag":"11574","label_bn":"11574","area_sqm":350.5},"geometry":{"type":"Polygon","coordinates":[[[90.336539,23.817136],[90.336261,23.817157],[90.336249,23.817045],[90.33648,23.81703],[90.336528,23.817027],[90.336539,23.817136]]]}},{"type":"Feature","properties":{"survey":"bds","sheet":"024","dag":"11575","label_bn":"11575","area_sqm":981.2},"geometry":{"type":"Polygon","coordinates":[[[90.336956,23.817009],[90.336921,23.817172],[90.3368,23.817159],[90.336696,23.817148],[90.336539,23.817136],[90.336528,23.817027],[90.33648,23.81703],[90.336483,23.816955],[90.336862,23.816952],[90.33698,23.816951],[90.336956,23.817009]]]}},{"type":"Feature","properties":{"survey":"bds","sheet":"024","dag":"11588","label_bn":"11588","area_sqm":844.4},"geometry":{"type":"Polygon","coordinates":[[[90.337867,23.817172],[90.337647,23.817186],[90.337623,23.816832],[90.337652,23.816834],[90.337693,23.816835],[90.337828,23.816838],[90.337833,23.816878],[90.33786,23.81705],[90.337866,23.81711],[90.337867,23.817121],[90.337867,23.817172]]]}},{"type":"Feature","properties":{"survey":"bds","sheet":"024","dag":"11537","label_bn":"11537","area_sqm":621.5},"geometry":{"type":"Polygon","coordinates":[[[90.334905,23.817156],[90.3349,23.817189],[90.334698,23.817165],[90.334676,23.817156],[90.334675,23.817142],[90.334687,23.817076],[90.334717,23.816947],[90.334729,23.816895],[90.334832,23.816936],[90.334927,23.816948],[90.334924,23.816977],[90.334905,23.817156]]]}},{"type":"Feature","properties":{"survey":"bds","sheet":"024","dag":"11589","label_bn":"11589","area_sqm":563.0},"geometry":{"type":"Polygon","coordinates":[[[90.337585,23.817191],[90.337511,23.817196],[90.337485,23.816824],[90.337611,23.816832],[90.337623,23.816832],[90.337647,23.817186],[90.337635,23.817187],[90.337585,23.817191]]]}},{"type":"Feature","properties":{"survey":"bds","sheet":"024","dag":"11533","label_bn":"11533","area_sqm":379.8},"geometry":{"type":"Polygon","coordinates":[[[90.335524,23.817094],[90.335496,23.817201],[90.33543,23.817195],[90.335266,23.817182],[90.335271,23.817023],[90.33539,23.817053],[90.335451,23.817069],[90.335524,23.817094]]]}},{"type":"Feature","properties":{"survey":"bds","sheet":"024","dag":"11590","label_bn":"11590","area_sqm":1056.9},"geometry":{"type":"Polygon","coordinates":[[[90.337511,23.817196],[90.337285,23.817211],[90.337221,23.816821],[90.337399,23.816825],[90.337485,23.816824],[90.337511,23.817196]]]}},{"type":"Feature","properties":{"survey":"bds","sheet":"024","dag":"11531","label_bn":"11531","area_sqm":1368.5},"geometry":{"type":"Polygon","coordinates":[[[90.335943,23.81694],[90.335825,23.817274],[90.335775,23.817263],[90.335757,23.817274],[90.335496,23.817201],[90.335524,23.817094],[90.335529,23.817078],[90.335612,23.816877],[90.335849,23.816921],[90.335943,23.81694]]]}},{"type":"Feature","properties":{"survey":"bds","sheet":"024","dag":"11534","label_bn":"11534","area_sqm":300.5},"geometry":{"type":"Polygon","coordinates":[[[90.335401,23.817316],[90.335262,23.817321],[90.335266,23.817182],[90.33543,23.817195],[90.335496,23.817201],[90.335451,23.817314],[90.335401,23.817316]]]}},{"type":"Feature","properties":{"survey":"bds","sheet":"024","dag":"11535","label_bn":"11535","area_sqm":616.3},"geometry":{"type":"Polygon","coordinates":[[[90.335086,23.817327],[90.33507,23.817327],[90.335127,23.816986],[90.335271,23.817023],[90.335266,23.817182],[90.335262,23.817321],[90.335206,23.817323],[90.335119,23.817326],[90.335086,23.817327]]]}},{"type":"Feature","properties":{"survey":"bds","sheet":"024","dag":"11536","label_bn":"11536","area_sqm":833.4},"geometry":{"type":"Polygon","coordinates":[[[90.335007,23.817327],[90.334892,23.817327],[90.3349,23.817189],[90.334905,23.817156],[90.334924,23.816977],[90.334927,23.816948],[90.335066,23.816948],[90.335127,23.816947],[90.335127,23.816986],[90.33507,23.817327],[90.335007,23.817327]]]}},{"type":"Feature","properties":{"survey":"bds","sheet":"024","dag":"11530","label_bn":"11530","area_sqm":1300.9},"geometry":{"type":"Polygon","coordinates":[[[90.336242,23.816983],[90.336156,23.817349],[90.336154,23.817348],[90.335825,23.817274],[90.335943,23.81694],[90.336134,23.816977],[90.336242,23.816983]]]}},{"type":"Feature","properties":{"survey":"bds","sheet":"024","dag":"11529","label_bn":"11529","area_sqm":282.7},"geometry":{"type":"Polygon","coordinates":[[[90.336261,23.817157],[90.336285,23.817378],[90.336156,23.817349],[90.336242,23.816983],[90.336249,23.817045],[90.336261,23.817157]]]}},{"type":"Feature","properties":{"survey":"bds","sheet":"024","dag":"11528","label_bn":"11528","area_sqm":529.5},"geometry":{"type":"Polygon","coordinates":[[[90.336285,23.817378],[90.336302,23.817531],[90.336208,23.817486],[90.336034,23.817402],[90.335943,23.817367],[90.335924,23.81736],[90.335811,23.817313],[90.335786,23.817306],[90.335748,23.817312],[90.335702,23.817307],[90.335757,23.817274],[90.335775,23.817263],[90.335825,23.817274],[90.336154,23.817348],[90.336156,23.817349],[90.336285,23.817378]]]}},{"type":"Feature","properties":{"survey":"bds","sheet":"024","dag":"11576","label_bn":"11576","area_sqm":2183.1},"geometry":{"type":"Polygon","coordinates":[[[90.336359,23.817498],[90.336302,23.817531],[90.336285,23.817378],[90.336261,23.817157],[90.336539,23.817136],[90.336696,23.817148],[90.3368,23.817159],[90.336921,23.817172],[90.336858,23.81742],[90.336827,23.817411],[90.336781,23.817397],[90.336733,23.817404],[90.336714,23.817414],[90.336649,23.817449],[90.336601,23.817485],[90.33657,23.817502],[90.336359,23.817498]]]}},{"type":"Feature","properties":{"survey":"bds","sheet":"024","dag":"11523","label_bn":"11523","area_sqm":759.8},"geometry":{"type":"Polygon","coordinates":[[[90.335656,23.817516],[90.33547,23.817565],[90.335442,23.817507],[90.335451,23.817314],[90.335496,23.817201],[90.335757,23.817274],[90.335702,23.817307],[90.335644,23.817374],[90.335626,23.817431],[90.335656,23.817516]]]}},{"type":"Feature","properties":{"survey":"bds","sheet":"024","dag":"11577","label_bn":"11577","area_sqm":1057.9},"geometry":{"type":"Polygon","coordinates":[[[90.336854,23.817654],[90.336847,23.817676],[90.336759,23.817657],[90.336286,23.817555],[90.336302,23.817531],[90.336359,23.817498],[90.33657,23.817502],[90.336601,23.817485],[90.336649,23.817449],[90.336714,23.817414],[90.336733,23.817404],[90.336781,23.817397],[90.336827,23.817411],[90.336858,23.81742],[90.336934,23.817426],[90.336854,23.817654]]]}},{"type":"Feature","properties":{"survey":"bds","sheet":"024","dag":"11524","label_bn":"11524","area_sqm":800.5},"geometry":{"type":"Polygon","coordinates":[[[90.335943,23.817367],[90.335764,23.817682],[90.335753,23.817678],[90.335739,23.817666],[90.335679,23.817613],[90.335669,23.817564],[90.335656,23.817516],[90.335626,23.817431],[90.335644,23.817374],[90.335702,23.817307],[90.335748,23.817312],[90.335786,23.817306],[90.335811,23.817313],[90.335924,23.81736],[90.335943,23.817367]]]}},{"type":"Feature","properties":{"survey":"bds","sheet":"024","dag":"11522","label_bn":"11522","area_sqm":2078.8},"geometry":{"type":"Polygon","coordinates":[[[90.335092,23.817511],[90.33507,23.817728],[90.334693,23.817601],[90.334744,23.8175],[90.334802,23.817346],[90.33481,23.817325],[90.334892,23.817327],[90.335007,23.817327],[90.33507,23.817327],[90.335086,23.817327],[90.335119,23.817326],[90.335206,23.817323],[90.335262,23.817321],[90.335401,23.817316],[90.335451,23.817314],[90.335442,23.817507],[90.335417,23.817507],[90.335221,23.81751],[90.335092,23.817511]]]}},{"type":"Feature","properties":{"survey":"bds","sheet":"024","dag":"11586","label_bn":"11586","area_sqm":1626.1},"geometry":{"type":"Polygon","coordinates":[[[90.337585,23.817191],[90.337622,23.817764],[90.33739,23.817645],[90.337331,23.817647],[90.337285,23.817211],[90.337511,23.817196],[90.337585,23.817191]]]}},{"type":"Feature","properties":{"survey":"bds","sheet":"024","dag":"11525","label_bn":"11525","area_sqm":415.7},"geometry":{"type":"Polygon","coordinates":[[[90.335616,23.817766],[90.335604,23.817775],[90.335574,23.817734],[90.335493,23.817621],[90.335483,23.817597],[90.33547,23.817565],[90.335656,23.817516],[90.335669,23.817564],[90.335679,23.817613],[90.335739,23.817666],[90.335616,23.817766]]]}},{"type":"Feature","properties":{"survey":"bds","sheet":"024","dag":"11587","label_bn":"11587","area_sqm":1794.9},"geometry":{"type":"Polygon","coordinates":[[[90.337862,23.817759],[90.337861,23.817812],[90.337622,23.817764],[90.337585,23.817191],[90.337635,23.817187],[90.337647,23.817186],[90.337867,23.817172],[90.337865,23.817549],[90.337863,23.817686],[90.337862,23.817759]]]}},{"type":"Feature","properties":{"survey":"bds","sheet":"024","dag":"11527","label_bn":"11527","area_sqm":1520.6},"geometry":{"type":"Polygon","coordinates":[[[90.336056,23.817797],[90.335965,23.817814],[90.335937,23.817778],[90.33592,23.817757],[90.335863,23.81772],[90.335771,23.817685],[90.335764,23.817682],[90.335943,23.817367],[90.336034,23.817402],[90.336208,23.817486],[90.336302,23.817531],[90.336286,23.817555],[90.336127,23.817756],[90.336056,23.817797]]]}},{"type":"Feature","properties":{"survey":"bds","sheet":"024","dag":"11521","label_bn":"11521","area_sqm":558.4},"geometry":{"type":"Polygon","coordinates":[[[90.33507,23.817728],[90.335073,23.817876],[90.334889,23.817835],[90.334808,23.817826],[90.334796,23.817814],[90.334789,23.817807],[90.334779,23.817788],[90.334798,23.817762],[90.334799,23.817762],[90.33484,23.81774],[90.334842,23.817726],[90.334749,23.817671],[90.33468,23.817626],[90.334693,23.817601],[90.33507,23.817728]]]}},{"type":"Feature","properties":{"survey":"bds","sheet":"024","dag":"11584","label_bn":"11584","area_sqm":99.1},"geometry":{"type":"Polygon","coordinates":[[[90.337861,23.817812],[90.337859,23.817885],[90.337622,23.817764],[90.337861,23.817812]]]}},{"type":"Feature","properties":{"survey":"bds","sheet":"024","dag":"11585","label_bn":"11585","area_sqm":840.0},"geometry":{"type":"Polygon","coordinates":[[[90.337419,23.817829],[90.337143,23.817919],[90.337175,23.817736],[90.337165,23.817686],[90.337159,23.817655],[90.337272,23.81765],[90.337331,23.817647],[90.33739,23.817645],[90.337622,23.817764],[90.33754,23.817791],[90.337419,23.817829]]]}},{"type":"Feature","properties":{"survey":"bds","sheet":"024","dag":"11520","label_bn":"11520","area_sqm":1936.8},"geometry":{"type":"Polygon","coordinates":[[[90.335574,23.817734],[90.335446,23.817938],[90.335325,23.817901],[90.335214,23.817894],[90.335212,23.817908],[90.335073,23.817876],[90.33507,23.817728],[90.335092,23.817511],[90.335221,23.81751],[90.335417,23.817507],[90.335442,23.817507],[90.33547,23.817565],[90.335483,23.817597],[90.335493,23.817621],[90.335574,23.817734]]]}},{"type":"Feature","properties":{"survey":"bds","sheet":"024","dag":"11526","label_bn":"11526","area_sqm":617.7},"geometry":{"type":"Polygon","coordinates":[[[90.335965,23.817814],[90.335843,23.817951],[90.335772,23.817904],[90.335686,23.817848],[90.33568,23.817843],[90.335615,23.817785],[90.335604,23.817775],[90.335616,23.817766],[90.335739,23.817666],[90.335753,23.817678],[90.335764,23.817682],[90.335771,23.817685],[90.335863,23.81772],[90.33592,23.817757],[90.335937,23.817778],[90.335965,23.817814]]]}},{"type":"Feature","properties":{"survey":"bds","sheet":"024","dag":"11519","label_bn":"11519","area_sqm":163.2},"geometry":{"type":"Polygon","coordinates":[[[90.335615,23.817785],[90.335514,23.817959],[90.335446,23.817938],[90.335574,23.817734],[90.335604,23.817775],[90.335615,23.817785]]]}},{"type":"Feature","properties":{"survey":"bds","sheet":"024","dag":"11583","label_bn":"11583","area_sqm":572.0},"geometry":{"type":"Polygon","coordinates":[[[90.337703,23.817922],[90.337463,23.817966],[90.337419,23.817829],[90.33754,23.817791],[90.337622,23.817764],[90.337859,23.817885],[90.337859,23.817888],[90.337859,23.817893],[90.337834,23.817898],[90.337703,23.817922]]]}},{"type":"Feature","properties":{"survey":"bds","sheet":"024","dag":"11518","label_bn":"11518","area_sqm":203.9},"geometry":{"type":"Polygon","coordinates":[[[90.335686,23.817849],[90.335601,23.818003],[90.335514,23.817959],[90.335615,23.817785],[90.33568,23.817843],[90.335686,23.817848],[90.335686,23.817849]]]}},{"type":"Feature","properties":{"survey":"bds","sheet":"024","dag":"11578","label_bn":"11578","area_sqm":2307.2},"geometry":{"type":"Polygon","coordinates":[[[90.336847,23.817676],[90.336641,23.818024],[90.336586,23.818003],[90.336056,23.817797],[90.336127,23.817756],[90.336286,23.817555],[90.336759,23.817657],[90.336847,23.817676]]]}},{"type":"Feature","properties":{"survey":"bds","sheet":"024","dag":"11582","label_bn":"11582","area_sqm":443.1},"geometry":{"type":"Polygon","coordinates":[[[90.33715,23.818024],[90.337121,23.818043],[90.337143,23.817919],[90.337419,23.817829],[90.337463,23.817966],[90.33715,23.818024]]]}},{"type":"Feature","properties":{"survey":"bds","sheet":"024","dag":"11579","label_bn":"11579","area_sqm":7860.4},"geometry":{"type":"Polygon","coordinates":[[[90.33675,23.818046],[90.336719,23.818074],[90.336635,23.818039],[90.336641,23.818024],[90.336847,23.817676],[90.336854,23.817654],[90.336934,23.817426],[90.336858,23.81742],[90.336921,23.817172],[90.336956,23.817009],[90.33698,23.816951],[90.336965,23.816732],[90.336944,23.816548],[90.336937,23.816525],[90.336933,23.816512],[90.336899,23.816387],[90.336896,23.816361],[90.336872,23.816121],[90.336836,23.816092],[90.336778,23.815943],[90.336733,23.815869],[90.336735,23.815813],[90.336736,23.815777],[90.336736,23.815763],[90.336754,23.815713],[90.336774,23.815683],[90.336801,23.815685],[90.336857,23.815688],[90.336888,23.815712],[90.336915,23.815763],[90.336949,23.81579],[90.336987,23.815824],[90.336987,23.815843],[90.336987,23.815876],[90.336987,23.815877],[90.337002,23.815926],[90.337023,23.815985],[90.337117,23.816247],[90.33713,23.816311],[90.337127,23.816381],[90.337132,23.816451],[90.337151,23.816488],[90.337155,23.816497],[90.33718,23.816615],[90.337221,23.816821],[90.337285,23.817211],[90.337331,23.817647],[90.337272,23.81765],[90.337159,23.817655],[90.337165,23.817686],[90.337175,23.817736],[90.337143,23.817919],[90.337089,23.817936],[90.33675,23.818046]]]}},{"type":"Feature","properties":{"survey":"bds","sheet":"024","dag":"11580","label_bn":"11580","area_sqm":464.5},"geometry":{"type":"Polygon","coordinates":[[[90.337085,23.818054],[90.336846,23.818128],[90.336719,23.818074],[90.33675,23.818046],[90.337089,23.817936],[90.337143,23.817919],[90.337121,23.818043],[90.337085,23.818054]]]}},{"type":"Feature","properties":{"survey":"bds","sheet":"024","dag":"11517","label_bn":"11517","area_sqm":426.9},"geometry":{"type":"Polygon","coordinates":[[[90.335843,23.817951],[90.335738,23.818138],[90.33568,23.818093],[90.335653,23.818072],[90.335623,23.818037],[90.335601,23.818003],[90.335686,23.817849],[90.335686,23.817848],[90.335772,23.817904],[90.335843,23.817951]]]}},{"type":"Feature","properties":{"survey":"bds","sheet":"024","dag":"11503","label_bn":"11503","area_sqm":1287.9},"geometry":{"type":"Polygon","coordinates":[[[90.335193,23.818006],[90.335164,23.818175],[90.335115,23.818171],[90.33492,23.818154],[90.334791,23.818132],[90.334762,23.818122],[90.334736,23.818102],[90.334889,23.817835],[90.335073,23.817876],[90.335212,23.817908],[90.335211,23.817913],[90.335193,23.818006]]]}},{"type":"Feature","properties":{"survey":"bds","sheet":"024","dag":"11504","label_bn":"11504","area_sqm":785.4},"geometry":{"type":"Polygon","coordinates":[[[90.335623,23.818037],[90.33555,23.818186],[90.335193,23.818006],[90.335211,23.817913],[90.335212,23.817908],[90.335214,23.817894],[90.335325,23.817901],[90.335446,23.817938],[90.335514,23.817959],[90.335601,23.818003],[90.335623,23.818037]]]}},{"type":"Feature","properties":{"survey":"bds","sheet":"024","dag":"11505","label_bn":"11505","area_sqm":258.8},"geometry":{"type":"Polygon","coordinates":[[[90.335742,23.81818],[90.335696,23.818252],[90.335628,23.818222],[90.335564,23.818193],[90.33555,23.818186],[90.335623,23.818037],[90.335653,23.818072],[90.33568,23.818093],[90.335738,23.818138],[90.335752,23.818164],[90.335742,23.81818]]]}},{"type":"Feature","properties":{"survey":"bds","sheet":"024","dag":"11507","label_bn":"11507","area_sqm":692.8},"geometry":{"type":"Polygon","coordinates":[[[90.335564,23.818193],[90.335536,23.818303],[90.335343,23.818246],[90.335159,23.81821],[90.335164,23.818175],[90.335193,23.818006],[90.33555,23.818186],[90.335564,23.818193]]]}},{"type":"Feature","properties":{"survey":"bds","sheet":"024","dag":"11516","label_bn":"11516","area_sqm":3168.0},"geometry":{"type":"Polygon","coordinates":[[[90.336326,23.818312],[90.336325,23.818317],[90.336293,23.818309],[90.33618,23.818279],[90.335752,23.818164],[90.335738,23.818138],[90.335843,23.817951],[90.335965,23.817814],[90.336056,23.817797],[90.336586,23.818003],[90.336641,23.818024],[90.336635,23.818039],[90.336621,23.818068],[90.336575,23.818172],[90.336565,23.818194],[90.336498,23.818202],[90.336358,23.818218],[90.336357,23.81822],[90.336326,23.818312]]]}},{"type":"Feature","properties":{"survey":"bds","sheet":"024","dag":"11501","label_bn":"11501","area_sqm":806.0},"geometry":{"type":"Polygon","coordinates":[[[90.33492,23.818154],[90.334891,23.818369],[90.334808,23.81836],[90.334673,23.818345],[90.33456,23.818333],[90.334601,23.818158],[90.334736,23.818102],[90.334762,23.818122],[90.334791,23.818132],[90.33492,23.818154]]]}},{"type":"Feature","properties":{"survey":"bds","sheet":"024","dag":"11502","label_bn":"11502","area_sqm":586.5},"geometry":{"type":"Polygon","coordinates":[[[90.335159,23.81821],[90.33512,23.81839],[90.335091,23.818388],[90.335046,23.818383],[90.334955,23.818375],[90.334891,23.818369],[90.33492,23.818154],[90.335115,23.818171],[90.335164,23.818175],[90.335159,23.81821]]]}},{"type":"Feature","properties":{"survey":"bds","sheet":"024","dag":"11515","label_bn":"11515","area_sqm":314.3},"geometry":{"type":"Polygon","coordinates":[[[90.336292,23.818432],[90.336286,23.818443],[90.336284,23.818442],[90.336325,23.818317],[90.336326,23.818312],[90.336357,23.81822],[90.336358,23.818218],[90.336498,23.818202],[90.336565,23.818194],[90.336575,23.818172],[90.336621,23.818068],[90.336635,23.818039],[90.336719,23.818074],[90.336695,23.818095],[90.336599,23.818182],[90.336569,23.818209],[90.336493,23.818251],[90.336406,23.818298],[90.336381,23.818328],[90.336292,23.818432]]]}},{"type":"Feature","properties":{"survey":"bds","sheet":"024","dag":"11514","label_bn":"11514","area_sqm":896.5},"geometry":{"type":"Polygon","coordinates":[[[90.336556,23.818386],[90.336423,23.818504],[90.336286,23.818443],[90.336292,23.818432],[90.336381,23.818328],[90.336406,23.818298],[90.336493,23.818251],[90.336569,23.818209],[90.336599,23.818182],[90.336695,23.818095],[90.336719,23.818074],[90.336846,23.818128],[90.33682,23.818151],[90.336725,23.818236],[90.336632,23.818318],[90.336556,23.818386]]]}},{"type":"Feature","properties":{"survey":"bds","sheet":"024","dag":"11508","label_bn":"11508","area_sqm":1006.4},"geometry":{"type":"Polygon","coordinates":[[[90.335595,23.818329],[90.335544,23.818507],[90.335528,23.818503],[90.335457,23.818485],[90.335284,23.818439],[90.335121,23.818408],[90.33512,23.81839],[90.335159,23.81821],[90.335343,23.818246],[90.335536,23.818303],[90.335586,23.818315],[90.335591,23.81832],[90.335594,23.818322],[90.335595,23.818329]]]}},{"type":"Feature","properties":{"survey":"bds","sheet":"024","dag":"11512","label_bn":"11512","area_sqm":1559.9},"geometry":{"type":"Polygon","coordinates":[[[90.336278,23.818457],[90.336244,23.818522],[90.336223,23.818517],[90.33588,23.818432],[90.335653,23.818381],[90.335696,23.818252],[90.335742,23.81818],[90.335752,23.818164],[90.33618,23.818279],[90.336293,23.818309],[90.336325,23.818317],[90.336284,23.818442],[90.336286,23.818443],[90.336278,23.818457]]]}},{"type":"Feature","properties":{"survey":"bds","sheet":"024","dag":"11506","label_bn":"11506","area_sqm":310.2},"geometry":{"type":"Polygon","coordinates":[[[90.335653,23.818381],[90.335599,23.818529],[90.335544,23.818507],[90.335595,23.818329],[90.335594,23.818322],[90.335591,23.81832],[90.335586,23.818315],[90.335536,23.818303],[90.335564,23.818193],[90.335628,23.818222],[90.335696,23.818252],[90.335653,23.818381]]]}},{"type":"Feature","properties":{"survey":"bds","sheet":"024","dag":"11509","label_bn":"11509","area_sqm":712.4},"geometry":{"type":"Polygon","coordinates":[[[90.335457,23.818485],[90.335419,23.818646],[90.335292,23.818636],[90.335117,23.81863],[90.335119,23.818476],[90.335121,23.818408],[90.335284,23.818439],[90.335457,23.818485]]]}},{"type":"Feature","properties":{"survey":"bds","sheet":"024","dag":"11510","label_bn":"11510","area_sqm":251.9},"geometry":{"type":"Polygon","coordinates":[[[90.335595,23.818539],[90.335566,23.818658],[90.335514,23.818654],[90.335419,23.818646],[90.335457,23.818485],[90.335528,23.818503],[90.335544,23.818507],[90.335599,23.818529],[90.335595,23.818539]]]}},{"type":"Feature","properties":{"survey":"bds","sheet":"024","dag":"11513","label_bn":"11513","area_sqm":309.5},"geometry":{"type":"Polygon","coordinates":[[[90.336332,23.818584],[90.336131,23.818759],[90.336208,23.818592],[90.336236,23.818539],[90.336244,23.818522],[90.336278,23.818457],[90.336286,23.818443],[90.336423,23.818504],[90.336332,23.818584]]]}},{"type":"Feature","properties":{"survey":"bds","sheet":"024","dag":"11511","label_bn":"11511","area_sqm":2131.1},"geometry":{"type":"Polygon","coordinates":[[[90.336131,23.818759],[90.336117,23.818789],[90.336099,23.818787],[90.33557,23.818718],[90.335566,23.818658],[90.335595,23.818539],[90.335599,23.818529],[90.335653,23.818381],[90.33588,23.818432],[90.336223,23.818517],[90.336244,23.818522],[90.336236,23.818539],[90.336208,23.818592],[90.336131,23.818759]]]}},{"type":"Feature","properties":{"survey":"bds","sheet":"024","dag":"11581","label_bn":"11581","area_sqm":11555.3},"geometry":{"type":"Polygon","coordinates":[[[90.33715,23.818859],[90.337059,23.818967],[90.336482,23.818838],[90.336131,23.818759],[90.336332,23.818584],[90.336423,23.818504],[90.336556,23.818386],[90.336632,23.818318],[90.336725,23.818236],[90.33682,23.818151],[90.336846,23.818128],[90.337085,23.818054],[90.337121,23.818043],[90.33715,23.818024],[90.337463,23.817966],[90.337703,23.817922],[90.337834,23.817898],[90.337859,23.817893],[90.337869,23.818102],[90.337887,23.818505],[90.337806,23.818517],[90.337708,23.818526],[90.337638,23.818544],[90.337524,23.818591],[90.337366,23.818656],[90.337271,23.818723],[90.337229,23.818765],[90.33715,23.818859]]]}}]}