{"type":"FeatureCollection","features":[{"type":"Feature","properties":{"survey":"bds","sheet":"025","dag":"12027","label_bn":"12027","area_sqm":737.0},"geometry":{"type":"Polygon","coordinates":[[[90.339002,23.815458],[90.338944,23.8155],[90.338823,23.81497],[90.338929,23.81491],[90.338992,23.815135],[90.339044,23.815446],[90.339002,23.815458]]]}},{"type":"Feature","properties":{"survey":"bds","sheet":"025","dag":"12026","label_bn":"12026","area_sqm":5415.5},"geometry":{"type":"Polygon","coordinates":[[[90.338544,23.815645],[90.338427,23.815659],[90.33832,23.815648],[90.338319,23.815648],[90.338243,23.815624],[90.338098,23.815516],[90.338041,23.815488],[90.337952,23.815477],[90.337778,23.815446],[90.337779,23.815442],[90.337776,23.815293],[90.337813,23.815275],[90.338011,23.815253],[90.338263,23.815177],[90.33837,23.815144],[90.338468,23.815116],[90.338628,23.815077],[90.338767,23.815],[90.338812,23.814976],[90.338815,23.814974],[90.338823,23.81497],[90.338944,23.8155],[90.338922,23.815515],[90.338921,23.815516],[90.338898,23.815553],[90.338871,23.81558],[90.338837,23.815597],[90.338778,23.815612],[90.338595,23.815644],[90.338544,23.815645]]]}},{"type":"Feature","properties":{"survey":"bds","sheet":"025","dag":"12020","label_bn":"12020","area_sqm":532.3},"geometry":{"type":"Polygon","coordinates":[[[90.337778,23.815446],[90.33772,23.815681],[90.337602,23.815645],[90.337639,23.815444],[90.337669,23.815301],[90.337776,23.815293],[90.337779,23.815442],[90.337778,23.815446]]]}},{"type":"Feature","properties":{"survey":"bds","sheet":"025","dag":"12024","label_bn":"12024","area_sqm":456.9},"geometry":{"type":"Polygon","coordinates":[[[90.339154,23.815836],[90.339076,23.815866],[90.338944,23.8155],[90.339002,23.815458],[90.339044,23.815446],[90.339091,23.815624],[90.339168,23.815831],[90.339154,23.815836]]]}},{"type":"Feature","properties":{"survey":"bds","sheet":"025","dag":"12025","label_bn":"12025","area_sqm":1546.7},"geometry":{"type":"Polygon","coordinates":[[[90.339033,23.815882],[90.338714,23.816002],[90.338631,23.81576],[90.338595,23.815644],[90.338778,23.815612],[90.338837,23.815597],[90.338871,23.81558],[90.338898,23.815553],[90.338921,23.815516],[90.338922,23.815515],[90.338944,23.8155],[90.339076,23.815866],[90.339033,23.815882]]]}},{"type":"Feature","properties":{"survey":"bds","sheet":"025","dag":"12019","label_bn":"12019","area_sqm":533.1},"geometry":{"type":"Polygon","coordinates":[[[90.337907,23.815949],[90.337898,23.816009],[90.337889,23.816008],[90.337862,23.816004],[90.337803,23.815991],[90.337772,23.815983],[90.337731,23.81597],[90.33769,23.815957],[90.337687,23.815956],[90.33771,23.81587],[90.33772,23.815681],[90.337788,23.815679],[90.337859,23.815808],[90.337863,23.815821],[90.337907,23.815949]]]}},{"type":"Feature","properties":{"survey":"bds","sheet":"025","dag":"12018","label_bn":"12018","area_sqm":812.9},"geometry":{"type":"Polygon","coordinates":[[[90.33822,23.81605],[90.33795,23.81605],[90.337939,23.816044],[90.337933,23.816033],[90.337935,23.816015],[90.337898,23.816009],[90.337907,23.815949],[90.337863,23.815821],[90.338175,23.815803],[90.33822,23.81605]]]}},{"type":"Feature","properties":{"survey":"bds","sheet":"025","dag":"12021","label_bn":"12021","area_sqm":3944.2},"geometry":{"type":"Polygon","coordinates":[[[90.338547,23.816205],[90.338404,23.816211],[90.338404,23.816205],[90.338342,23.816077],[90.338301,23.81605],[90.33822,23.81605],[90.338175,23.815803],[90.337863,23.815821],[90.337859,23.815808],[90.337788,23.815679],[90.33772,23.815681],[90.337778,23.815446],[90.337952,23.815477],[90.338041,23.815488],[90.338098,23.815516],[90.338243,23.815624],[90.338319,23.815648],[90.33832,23.815648],[90.338427,23.815659],[90.338544,23.815645],[90.338595,23.815644],[90.338631,23.81576],[90.338714,23.816002],[90.33856,23.816064],[90.338542,23.81608],[90.338532,23.816151],[90.338547,23.816205]]]}},{"type":"Feature","properties":{"survey":"bds","sheet":"025","dag":"12023","label_bn":"12023","area_sqm":530.9},"geometry":{"type":"Polygon","coordinates":[[[90.339317,23.816231],[90.339194,23.816257],[90.33919,23.816249],[90.339076,23.815866],[90.339154,23.815836],[90.339168,23.815831],[90.339314,23.816224],[90.339317,23.816231]]]}},{"type":"Feature","properties":{"survey":"bds","sheet":"025","dag":"12017","label_bn":"12017","area_sqm":1914.8},"geometry":{"type":"Polygon","coordinates":[[[90.338404,23.816205],[90.337665,23.816273],[90.337546,23.81597],[90.337591,23.81596],[90.337629,23.815961],[90.337683,23.815974],[90.337687,23.815956],[90.33769,23.815957],[90.337731,23.81597],[90.337772,23.815983],[90.337803,23.815991],[90.337862,23.816004],[90.337889,23.816008],[90.337898,23.816009],[90.337935,23.816015],[90.337933,23.816033],[90.337939,23.816044],[90.33795,23.81605],[90.33822,23.81605],[90.338301,23.81605],[90.338342,23.816077],[90.338404,23.816205]]]}},{"type":"Feature","properties":{"survey":"bds","sheet":"025","dag":"12022","label_bn":"12022","area_sqm":2441.1},"geometry":{"type":"Polygon","coordinates":[[[90.339141,23.816268],[90.338619,23.816379],[90.338547,23.816205],[90.338532,23.816151],[90.338542,23.81608],[90.33856,23.816064],[90.338714,23.816002],[90.339033,23.815882],[90.339076,23.815866],[90.33919,23.816249],[90.339194,23.816257],[90.339141,23.816268]]]}},{"type":"Feature","properties":{"survey":"bds","sheet":"025","dag":"12013","label_bn":"12013","area_sqm":383.1},"geometry":{"type":"Polygon","coordinates":[[[90.339374,23.816484],[90.339296,23.816497],[90.339194,23.816257],[90.339317,23.816231],[90.339428,23.816467],[90.3394,23.81648],[90.339374,23.816484]]]}},{"type":"Feature","properties":{"survey":"bds","sheet":"025","dag":"12014","label_bn":"12014","area_sqm":144.3},"geometry":{"type":"Polygon","coordinates":[[[90.339296,23.816497],[90.33925,23.816504],[90.339141,23.816268],[90.339194,23.816257],[90.339296,23.816497]]]}},{"type":"Feature","properties":{"survey":"bds","sheet":"025","dag":"12016","label_bn":"12016","area_sqm":2476.6},"geometry":{"type":"Polygon","coordinates":[[[90.338498,23.816479],[90.33778,23.816578],[90.337757,23.816538],[90.337716,23.816449],[90.337665,23.816273],[90.338404,23.816205],[90.338404,23.816211],[90.338408,23.816295],[90.338498,23.816479]]]}},{"type":"Feature","properties":{"survey":"bds","sheet":"025","dag":"12012","label_bn":"12012","area_sqm":307.6},"geometry":{"type":"Polygon","coordinates":[[[90.339465,23.816661],[90.339373,23.816676],[90.339296,23.816497],[90.339374,23.816484],[90.3394,23.81648],[90.339428,23.816467],[90.339518,23.816651],[90.339471,23.81666],[90.339465,23.816661]]]}},{"type":"Feature","properties":{"survey":"bds","sheet":"025","dag":"12010","label_bn":"12010","area_sqm":668.5},"geometry":{"type":"Polygon","coordinates":[[[90.339606,23.817068],[90.339564,23.81708],[90.339403,23.816746],[90.339373,23.816676],[90.339465,23.816661],[90.339471,23.81666],[90.339518,23.816651],[90.339564,23.816725],[90.339668,23.81705],[90.339606,23.817068]]]}},{"type":"Feature","properties":{"survey":"bds","sheet":"025","dag":"12015","label_bn":"12015","area_sqm":4797.0},"geometry":{"type":"Polygon","coordinates":[[[90.338756,23.816801],[90.338753,23.817231],[90.338593,23.817213],[90.338597,23.817037],[90.338537,23.816571],[90.338498,23.816479],[90.338408,23.816295],[90.338404,23.816211],[90.338547,23.816205],[90.338619,23.816379],[90.339141,23.816268],[90.33925,23.816504],[90.339296,23.816497],[90.339373,23.816676],[90.33936,23.816678],[90.339333,23.816683],[90.338764,23.816798],[90.338756,23.816801]]]}},{"type":"Feature","properties":{"survey":"bds","sheet":"025","dag":"12011","label_bn":"12011","area_sqm":3850.9},"geometry":{"type":"Polygon","coordinates":[[[90.338929,23.817249],[90.338754,23.817253],[90.338753,23.817231],[90.338756,23.816801],[90.338764,23.816798],[90.339333,23.816683],[90.33936,23.816678],[90.339373,23.816676],[90.339403,23.816746],[90.339564,23.81708],[90.339548,23.817084],[90.33953,23.817089],[90.339468,23.817111],[90.339394,23.817122],[90.339334,23.817132],[90.339288,23.817162],[90.339271,23.817179],[90.339249,23.817202],[90.33923,23.817211],[90.339126,23.817219],[90.339073,23.817222],[90.339034,23.817227],[90.338995,23.817233],[90.338929,23.817249]]]}},{"type":"Feature","properties":{"survey":"bds","sheet":"025","dag":"12009","label_bn":"12009","area_sqm":134.5},"geometry":{"type":"Polygon","coordinates":[[[90.339725,23.817256],[90.339654,23.817268],[90.339564,23.81708],[90.339606,23.817068],[90.339725,23.817256]]]}},{"type":"Feature","properties":{"survey":"bds","sheet":"025","dag":"12008","label_bn":"12008","area_sqm":4313.9},"geometry":{"type":"Polygon","coordinates":[[[90.339654,23.817268],[90.339628,23.817272],[90.339621,23.817273],[90.339597,23.817288],[90.339606,23.817557],[90.339417,23.81761],[90.339095,23.817654],[90.338793,23.817647],[90.338789,23.817598],[90.338763,23.817562],[90.338727,23.81752],[90.338731,23.817315],[90.338754,23.817253],[90.338929,23.817249],[90.338995,23.817233],[90.339034,23.817227],[90.339073,23.817222],[90.339126,23.817219],[90.33923,23.817211],[90.339249,23.817202],[90.339271,23.817179],[90.339288,23.817162],[90.339334,23.817132],[90.339394,23.817122],[90.339468,23.817111],[90.33953,23.817089],[90.339548,23.817084],[90.339564,23.81708],[90.339654,23.817268]]]}},{"type":"Feature","properties":{"survey":"bds","sheet":"025","dag":"12006","label_bn":"12006","area_sqm":436.7},"geometry":{"type":"Polygon","coordinates":[[[90.339829,23.817535],[90.339785,23.817539],[90.339654,23.817268],[90.339725,23.817256],[90.339985,23.817534],[90.339829,23.817535]]]}},{"type":"Feature","properties":{"survey":"bds","sheet":"025","dag":"12007","label_bn":"12007","area_sqm":377.2},"geometry":{"type":"Polygon","coordinates":[[[90.339744,23.817543],[90.339606,23.817557],[90.339597,23.817288],[90.339621,23.817273],[90.339628,23.817272],[90.339654,23.817268],[90.339785,23.817539],[90.339744,23.817543]]]}},{"type":"Feature","properties":{"survey":"bds","sheet":"025","dag":"12003","label_bn":"12003","area_sqm":12642.8},"geometry":{"type":"Polygon","coordinates":[[[90.338767,23.817934],[90.338765,23.81795],[90.338089,23.817862],[90.33786,23.817839],[90.337866,23.81755],[90.337867,23.817121],[90.33786,23.81705],[90.337833,23.816878],[90.337828,23.816838],[90.33778,23.816578],[90.338498,23.816479],[90.338537,23.816571],[90.338597,23.817037],[90.338593,23.817213],[90.338753,23.817231],[90.338754,23.817253],[90.338731,23.817315],[90.338727,23.81752],[90.338763,23.817562],[90.338789,23.817598],[90.338793,23.817647],[90.33877,23.8179],[90.338767,23.817934]]]}},{"type":"Feature","properties":{"survey":"bds","sheet":"025","dag":"12004","label_bn":"12004","area_sqm":3666.1},"geometry":{"type":"Polygon","coordinates":[[[90.339379,23.817976],[90.339098,23.817993],[90.338765,23.81795],[90.338767,23.817934],[90.33877,23.8179],[90.338793,23.817647],[90.339095,23.817654],[90.339417,23.81761],[90.339606,23.817557],[90.339744,23.817543],[90.339785,23.817539],[90.339697,23.817863],[90.339379,23.817976]]]}},{"type":"Feature","properties":{"survey":"bds","sheet":"025","dag":"12002","label_bn":"12002","area_sqm":1406.2},"geometry":{"type":"Polygon","coordinates":[[[90.338765,23.81795],[90.338753,23.818063],[90.337864,23.817996],[90.337859,23.817893],[90.33786,23.817839],[90.338089,23.817862],[90.338765,23.81795]]]}},{"type":"Feature","properties":{"survey":"bds","sheet":"025","dag":"12005","label_bn":"12005","area_sqm":2277.8},"geometry":{"type":"Polygon","coordinates":[[[90.33941,23.818113],[90.339153,23.818116],[90.338912,23.818095],[90.338753,23.818063],[90.338765,23.81795],[90.339098,23.817993],[90.339379,23.817976],[90.339697,23.817863],[90.339785,23.817539],[90.339829,23.817535],[90.339985,23.817534],[90.339902,23.817815],[90.339822,23.817923],[90.339574,23.81806],[90.33941,23.818113]]]}},{"type":"Feature","properties":{"survey":"bds","sheet":"025","dag":"12001","label_bn":"12001","area_sqm":49027.2},"geometry":{"type":"Polygon","coordinates":[[[90.339225,23.818767],[90.339196,23.81877],[90.339043,23.818719],[90.338865,23.818655],[90.338797,23.818637],[90.338599,23.818571],[90.33842,23.818523],[90.338348,23.818512],[90.338212,23.818491],[90.338043,23.818481],[90.337968,23.818492],[90.337887,23.818505],[90.337869,23.818099],[90.337864,23.817996],[90.338753,23.818063],[90.338912,23.818095],[90.339153,23.818116],[90.33941,23.818113],[90.339574,23.81806],[90.339822,23.817923],[90.339902,23.817815],[90.339985,23.817534],[90.339725,23.817256],[90.339606,23.817068],[90.339668,23.81705],[90.339564,23.816725],[90.339518,23.816651],[90.339428,23.816467],[90.339317,23.816231],[90.339314,23.816224],[90.339168,23.815831],[90.339091,23.815624],[90.339044,23.815446],[90.338992,23.815135],[90.338929,23.81491],[90.339071,23.814893],[90.33983,23.814803],[90.339848,23.815004],[90.33987,23.815136],[90.339898,23.815277],[90.339938,23.815523],[90.339969,23.815691],[90.340006,23.815757],[90.340032,23.815812],[90.340085,23.815923],[90.340167,23.816161],[90.340211,23.816273],[90.340332,23.816447],[90.340352,23.81647],[90.340444,23.816571],[90.340491,23.816625],[90.340548,23.816792],[90.340641,23.817048],[90.34067,23.817141],[90.340743,23.817372],[90.340794,23.817566],[90.340828,23.817656],[90.340905,23.817911],[90.340953,23.818087],[90.340928,23.818224],[90.340913,23.81833],[90.340859,23.818362],[90.34073,23.818291],[90.340465,23.818137],[90.340353,23.818215],[90.340287,23.818258],[90.340199,23.818316],[90.339989,23.818453],[90.33964,23.818651],[90.339579,23.818688],[90.339526,23.8187],[90.339375,23.818731],[90.339295,23.818753],[90.339225,23.818767]]]}}]}