{"type":"FeatureCollection","features":[{"type":"Feature","properties":{"survey":"bds","sheet":"026","dag":"12553","label_bn":"12553","area_sqm":2147.6},"geometry":{"type":"Polygon","coordinates":[[[90.337822,23.81122],[90.33781,23.811347],[90.33771,23.811298],[90.337677,23.811282],[90.337556,23.811224],[90.337097,23.811004],[90.337165,23.810931],[90.337221,23.810883],[90.337296,23.810826],[90.337303,23.810822],[90.337326,23.810811],[90.337329,23.81081],[90.337371,23.810792],[90.337411,23.810825],[90.337478,23.810869],[90.337614,23.810941],[90.337644,23.810961],[90.337701,23.811005],[90.337715,23.811016],[90.337769,23.811051],[90.337786,23.811063],[90.337833,23.811094],[90.337822,23.81122]]]}},{"type":"Feature","properties":{"survey":"bds","sheet":"026","dag":"12548","label_bn":"12548","area_sqm":2517.8},"geometry":{"type":"Polygon","coordinates":[[[90.336936,23.811307],[90.336828,23.811526],[90.33671,23.811502],[90.336557,23.81147],[90.336545,23.811467],[90.336544,23.811466],[90.336537,23.811453],[90.336506,23.8114],[90.336469,23.811325],[90.336429,23.811216],[90.33641,23.811123],[90.336403,23.811112],[90.336431,23.811047],[90.336505,23.810955],[90.336506,23.810954],[90.336509,23.810954],[90.336685,23.810949],[90.336667,23.811001],[90.336681,23.811023],[90.336736,23.811056],[90.336811,23.811079],[90.336917,23.811108],[90.336929,23.811112],[90.336985,23.811127],[90.336936,23.811307]]]}},{"type":"Feature","properties":{"survey":"bds","sheet":"026","dag":"12552","label_bn":"12552","area_sqm":2514.8},"geometry":{"type":"Polygon","coordinates":[[[90.337662,23.811461],[90.337629,23.811532],[90.33756,23.811502],[90.337529,23.811489],[90.337404,23.811453],[90.337246,23.811407],[90.336936,23.811307],[90.336985,23.811127],[90.337033,23.811068],[90.337097,23.811004],[90.337556,23.811224],[90.337677,23.811282],[90.33771,23.811298],[90.33781,23.811347],[90.337765,23.811379],[90.337732,23.811403],[90.33769,23.811433],[90.337662,23.811461]]]}},{"type":"Feature","properties":{"survey":"bds","sheet":"026","dag":"12551","label_bn":"12551","area_sqm":18.1},"geometry":{"type":"Polygon","coordinates":[[[90.337873,23.811527],[90.337873,23.811548],[90.337865,23.811528],[90.337858,23.811504],[90.33781,23.811347],[90.337873,23.811503],[90.337873,23.811527]]]}},{"type":"Feature","properties":{"survey":"bds","sheet":"026","dag":"12550","label_bn":"12550","area_sqm":990.9},"geometry":{"type":"Polygon","coordinates":[[[90.337874,23.811731],[90.337559,23.811749],[90.337558,23.811736],[90.337555,23.811685],[90.33756,23.811657],[90.337577,23.811616],[90.337601,23.811577],[90.337629,23.811532],[90.337662,23.811461],[90.33769,23.811433],[90.337732,23.811403],[90.337765,23.811379],[90.33781,23.811347],[90.337858,23.811504],[90.337865,23.811528],[90.337873,23.811548],[90.337874,23.811731]]]}},{"type":"Feature","properties":{"survey":"bds","sheet":"026","dag":"12549","label_bn":"12549","area_sqm":2610.8},"geometry":{"type":"Polygon","coordinates":[[[90.337559,23.811749],[90.337562,23.811823],[90.337484,23.8118],[90.337401,23.811776],[90.337185,23.811713],[90.336968,23.811646],[90.336803,23.811592],[90.336828,23.811526],[90.336936,23.811307],[90.337246,23.811407],[90.337404,23.811453],[90.337529,23.811489],[90.33756,23.811502],[90.337629,23.811532],[90.337601,23.811577],[90.337577,23.811616],[90.33756,23.811657],[90.337555,23.811685],[90.337558,23.811736],[90.337559,23.811749]]]}},{"type":"Feature","properties":{"survey":"bds","sheet":"026","dag":"12547","label_bn":"12547","area_sqm":1120.2},"geometry":{"type":"Polygon","coordinates":[[[90.336968,23.811646],[90.33692,23.811825],[90.336862,23.811817],[90.336801,23.811805],[90.336746,23.811794],[90.336603,23.81172],[90.336525,23.811669],[90.336545,23.811467],[90.336557,23.81147],[90.33671,23.811502],[90.336828,23.811526],[90.336803,23.811592],[90.336968,23.811646]]]}},{"type":"Feature","properties":{"survey":"bds","sheet":"026","dag":"12546","label_bn":"12546","area_sqm":1279.8},"geometry":{"type":"Polygon","coordinates":[[[90.337531,23.811969],[90.33752,23.811995],[90.337479,23.811984],[90.337357,23.811951],[90.337275,23.81193],[90.337141,23.811884],[90.337117,23.811882],[90.33692,23.811825],[90.336968,23.811646],[90.337185,23.811713],[90.337401,23.811776],[90.337484,23.8118],[90.337562,23.811823],[90.337531,23.811969]]]}},{"type":"Feature","properties":{"survey":"bds","sheet":"026","dag":"12545","label_bn":"12545","area_sqm":985.7},"geometry":{"type":"Polygon","coordinates":[[[90.337874,23.811735],[90.337934,23.812004],[90.33786,23.811997],[90.33766,23.811981],[90.337531,23.811969],[90.337562,23.811823],[90.337559,23.811749],[90.337874,23.811731],[90.337874,23.811735]]]}},{"type":"Feature","properties":{"survey":"bds","sheet":"026","dag":"12539","label_bn":"12539","area_sqm":373.4},"geometry":{"type":"Polygon","coordinates":[[[90.33766,23.811981],[90.337661,23.812165],[90.337595,23.812163],[90.33745,23.812161],[90.337479,23.812069],[90.33752,23.811995],[90.337531,23.811969],[90.33766,23.811981]]]}},{"type":"Feature","properties":{"survey":"bds","sheet":"026","dag":"12540","label_bn":"12540","area_sqm":317.5},"geometry":{"type":"Polygon","coordinates":[[[90.337745,23.812106],[90.33775,23.812167],[90.337661,23.812165],[90.33766,23.811981],[90.33786,23.811997],[90.33785,23.812105],[90.337745,23.812106]]]}},{"type":"Feature","properties":{"survey":"bds","sheet":"026","dag":"12544","label_bn":"12544","area_sqm":247.2},"geometry":{"type":"Polygon","coordinates":[[[90.338015,23.812242],[90.337943,23.812243],[90.33785,23.812105],[90.33786,23.811997],[90.337934,23.812004],[90.337954,23.812097],[90.338015,23.812242]]]}},{"type":"Feature","properties":{"survey":"bds","sheet":"026","dag":"12541","label_bn":"12541","area_sqm":152.2},"geometry":{"type":"Polygon","coordinates":[[[90.337752,23.812238],[90.337584,23.812258],[90.337595,23.812163],[90.337661,23.812165],[90.33775,23.812167],[90.337752,23.812238]]]}},{"type":"Feature","properties":{"survey":"bds","sheet":"026","dag":"12538","label_bn":"12538","area_sqm":188.6},"geometry":{"type":"Polygon","coordinates":[[[90.337584,23.812258],[90.337425,23.812277],[90.337435,23.812177],[90.33745,23.812161],[90.337595,23.812163],[90.337584,23.812258]]]}},{"type":"Feature","properties":{"survey":"bds","sheet":"026","dag":"12542","label_bn":"12542","area_sqm":292.9},"geometry":{"type":"Polygon","coordinates":[[[90.337752,23.812238],[90.337757,23.812412],[90.33766,23.812387],[90.337661,23.812386],[90.337617,23.812388],[90.337569,23.812391],[90.33757,23.812383],[90.337584,23.812258],[90.337752,23.812238]]]}},{"type":"Feature","properties":{"survey":"bds","sheet":"026","dag":"12537","label_bn":"12537","area_sqm":241.6},"geometry":{"type":"Polygon","coordinates":[[[90.337569,23.812391],[90.337405,23.812413],[90.337407,23.8124],[90.337425,23.812277],[90.337584,23.812258],[90.33757,23.812383],[90.337569,23.812391]]]}},{"type":"Feature","properties":{"survey":"bds","sheet":"026","dag":"12536","label_bn":"12536","area_sqm":2557.5},"geometry":{"type":"Polygon","coordinates":[[[90.337233,23.812474],[90.337131,23.812484],[90.337037,23.81247],[90.336964,23.81245],[90.33698,23.812342],[90.337044,23.812144],[90.3371,23.811942],[90.337117,23.811882],[90.337141,23.811884],[90.337275,23.81193],[90.337357,23.811951],[90.337479,23.811984],[90.33752,23.811995],[90.337479,23.812069],[90.33745,23.812161],[90.337435,23.812177],[90.337425,23.812277],[90.337407,23.8124],[90.337405,23.812413],[90.337414,23.812455],[90.337339,23.812463],[90.337233,23.812474]]]}},{"type":"Feature","properties":{"survey":"bds","sheet":"026","dag":"12543","label_bn":"12543","area_sqm":1282.8},"geometry":{"type":"Polygon","coordinates":[[[90.338084,23.812462],[90.338093,23.812611],[90.33791,23.812554],[90.337839,23.812532],[90.337832,23.812524],[90.337813,23.812502],[90.337776,23.81243],[90.337757,23.812412],[90.337752,23.812238],[90.33775,23.812167],[90.337745,23.812106],[90.33785,23.812105],[90.337943,23.812243],[90.338015,23.812242],[90.338032,23.812283],[90.338084,23.812462]]]}},{"type":"Feature","properties":{"survey":"bds","sheet":"026","dag":"12533","label_bn":"12533","area_sqm":118.9},"geometry":{"type":"Polygon","coordinates":[[[90.338073,23.81238],[90.338183,23.812656],[90.338093,23.812611],[90.338084,23.812462],[90.338032,23.812283],[90.338073,23.81238]]]}},{"type":"Feature","properties":{"survey":"bds","sheet":"026","dag":"12532","label_bn":"12532","area_sqm":342.0},"geometry":{"type":"Polygon","coordinates":[[[90.33827,23.812876],[90.338103,23.812877],[90.338095,23.812655],[90.338093,23.812611],[90.338183,23.812656],[90.338207,23.812716],[90.33827,23.812875],[90.33827,23.812876]]]}},{"type":"Feature","properties":{"survey":"bds","sheet":"026","dag":"12535","label_bn":"12535","area_sqm":3536.5},"geometry":{"type":"Polygon","coordinates":[[[90.33709,23.812962],[90.337046,23.812965],[90.336921,23.812952],[90.336889,23.812949],[90.336813,23.812944],[90.336652,23.812934],[90.336747,23.812739],[90.336748,23.812736],[90.336796,23.812583],[90.336964,23.81245],[90.337037,23.81247],[90.337131,23.812484],[90.337233,23.812474],[90.337339,23.812463],[90.337414,23.812455],[90.337415,23.812757],[90.337418,23.812913],[90.337414,23.812914],[90.337343,23.812931],[90.337337,23.812933],[90.337179,23.812957],[90.337128,23.81296],[90.33709,23.812962]]]}},{"type":"Feature","properties":{"survey":"bds","sheet":"026","dag":"12534","label_bn":"12534","area_sqm":3613.2},"geometry":{"type":"Polygon","coordinates":[[[90.338114,23.813012],[90.338047,23.813041],[90.338039,23.813035],[90.337872,23.812868],[90.337833,23.812878],[90.337711,23.812912],[90.337673,23.812925],[90.337663,23.812929],[90.337581,23.812963],[90.337542,23.812959],[90.337478,23.812923],[90.337473,23.81292],[90.337438,23.81291],[90.337418,23.812913],[90.337415,23.812757],[90.337414,23.812455],[90.337405,23.812413],[90.337569,23.812391],[90.337617,23.812388],[90.337661,23.812386],[90.33766,23.812387],[90.337757,23.812412],[90.337776,23.81243],[90.337813,23.812502],[90.337832,23.812524],[90.337839,23.812532],[90.33791,23.812554],[90.338093,23.812611],[90.338095,23.812655],[90.338103,23.812877],[90.338114,23.813012]]]}},{"type":"Feature","properties":{"survey":"bds","sheet":"026","dag":"12527","label_bn":"12527","area_sqm":329.4},"geometry":{"type":"Polygon","coordinates":[[[90.337128,23.81296],[90.337101,23.813115],[90.336909,23.813093],[90.336915,23.813029],[90.336917,23.812989],[90.336921,23.812952],[90.337046,23.812965],[90.33709,23.812962],[90.337128,23.81296]]]}},{"type":"Feature","properties":{"survey":"bds","sheet":"026","dag":"12531","label_bn":"12531","area_sqm":816.6},"geometry":{"type":"Polygon","coordinates":[[[90.338388,23.813201],[90.338237,23.813259],[90.338212,23.813207],[90.338167,23.813176],[90.338133,23.813147],[90.338114,23.813013],[90.338114,23.813012],[90.338103,23.812877],[90.33827,23.812876],[90.338384,23.813185],[90.338388,23.813201]]]}},{"type":"Feature","properties":{"survey":"bds","sheet":"026","dag":"12555","label_bn":"12555","area_sqm":311.6},"geometry":{"type":"Polygon","coordinates":[[[90.337101,23.813115],[90.337075,23.81326],[90.336896,23.813239],[90.336909,23.813093],[90.337101,23.813115]]]}},{"type":"Feature","properties":{"survey":"bds","sheet":"026","dag":"12530","label_bn":"12530","area_sqm":1394.3},"geometry":{"type":"Polygon","coordinates":[[[90.338036,23.8132],[90.337854,23.813319],[90.337816,23.813305],[90.337797,23.813298],[90.337769,23.813287],[90.337769,23.813287],[90.337745,23.813266],[90.337726,23.813223],[90.33773,23.813084],[90.337711,23.812912],[90.337833,23.812878],[90.337872,23.812868],[90.338039,23.813035],[90.338047,23.813041],[90.338114,23.813012],[90.338114,23.813013],[90.338133,23.813147],[90.338109,23.813163],[90.338064,23.813191],[90.338036,23.8132]]]}},{"type":"Feature","properties":{"survey":"bds","sheet":"026","dag":"12519","label_bn":"12519","area_sqm":195.8},"geometry":{"type":"Polygon","coordinates":[[[90.33825,23.813306],[90.338196,23.813341],[90.338161,23.813301],[90.338064,23.813191],[90.338109,23.813163],[90.338133,23.813147],[90.338167,23.813176],[90.338212,23.813207],[90.338237,23.813259],[90.33825,23.813306]]]}},{"type":"Feature","properties":{"survey":"bds","sheet":"026","dag":"12529","label_bn":"12529","area_sqm":1899.1},"geometry":{"type":"Polygon","coordinates":[[[90.337854,23.813319],[90.337889,23.813399],[90.337845,23.813398],[90.337803,23.813397],[90.337376,23.813391],[90.337375,23.813325],[90.337392,23.813192],[90.337402,23.813055],[90.337417,23.812916],[90.337418,23.812913],[90.337438,23.81291],[90.337473,23.81292],[90.337478,23.812923],[90.337542,23.812959],[90.337581,23.812963],[90.337663,23.812929],[90.337673,23.812925],[90.337711,23.812912],[90.33773,23.813084],[90.337726,23.813223],[90.337745,23.813266],[90.337769,23.813287],[90.337769,23.813287],[90.337797,23.813298],[90.337816,23.813305],[90.337854,23.813319]]]}},{"type":"Feature","properties":{"survey":"bds","sheet":"026","dag":"12518","label_bn":"12518","area_sqm":396.9},"geometry":{"type":"Polygon","coordinates":[[[90.338376,23.8134],[90.338273,23.813444],[90.338201,23.813363],[90.338196,23.813341],[90.33825,23.813306],[90.338237,23.813259],[90.338388,23.813201],[90.338434,23.813374],[90.338434,23.813375],[90.338376,23.8134]]]}},{"type":"Feature","properties":{"survey":"bds","sheet":"026","dag":"12528","label_bn":"12528","area_sqm":1539.8},"geometry":{"type":"Polygon","coordinates":[[[90.337376,23.813391],[90.337362,23.813556],[90.337265,23.813537],[90.337135,23.813512],[90.337152,23.813439],[90.337152,23.813358],[90.337157,23.813252],[90.337158,23.813222],[90.33717,23.81308],[90.337179,23.812957],[90.337337,23.812933],[90.337343,23.812931],[90.337414,23.812914],[90.337418,23.812913],[90.337417,23.812916],[90.337402,23.813055],[90.337392,23.813192],[90.337375,23.813325],[90.337376,23.813391]]]}},{"type":"Feature","properties":{"survey":"bds","sheet":"026","dag":"12517","label_bn":"12517","area_sqm":370.4},"geometry":{"type":"Polygon","coordinates":[[[90.338477,23.813583],[90.338376,23.813655],[90.338273,23.813444],[90.338376,23.8134],[90.338434,23.813375],[90.338477,23.813583]]]}},{"type":"Feature","properties":{"survey":"bds","sheet":"026","dag":"12526","label_bn":"12526","area_sqm":883.8},"geometry":{"type":"Polygon","coordinates":[[[90.33702,23.813626],[90.337013,23.813675],[90.336804,23.813622],[90.336864,23.813391],[90.336879,23.813326],[90.336894,23.81326],[90.336896,23.813239],[90.337075,23.81326],[90.337034,23.813494],[90.337033,23.813502],[90.337032,23.813507],[90.33703,23.813531],[90.337027,23.813561],[90.337024,23.813587],[90.33702,23.813626]]]}},{"type":"Feature","properties":{"survey":"bds","sheet":"026","dag":"12525","label_bn":"12525","area_sqm":965.4},"geometry":{"type":"Polygon","coordinates":[[[90.336804,23.813622],[90.336766,23.813734],[90.336629,23.813686],[90.336889,23.812949],[90.336921,23.812952],[90.336917,23.812989],[90.336915,23.813029],[90.336909,23.813093],[90.336896,23.813239],[90.336894,23.81326],[90.336879,23.813326],[90.336864,23.813391],[90.336804,23.813622]]]}},{"type":"Feature","properties":{"survey":"bds","sheet":"026","dag":"12520","label_bn":"12520","area_sqm":1794.6},"geometry":{"type":"Polygon","coordinates":[[[90.338212,23.813771],[90.338173,23.813802],[90.338161,23.81379],[90.338119,23.813731],[90.337942,23.81348],[90.337912,23.813491],[90.337889,23.813399],[90.337854,23.813319],[90.338036,23.8132],[90.338064,23.813191],[90.338161,23.813301],[90.338196,23.813341],[90.338201,23.813363],[90.338273,23.813444],[90.338376,23.813655],[90.338311,23.813701],[90.338212,23.813771]]]}},{"type":"Feature","properties":{"survey":"bds","sheet":"026","dag":"12524","label_bn":"12524","area_sqm":318.2},"geometry":{"type":"Polygon","coordinates":[[[90.336975,23.813788],[90.336967,23.813804],[90.336816,23.813751],[90.336776,23.813737],[90.336766,23.813734],[90.336804,23.813622],[90.337013,23.813675],[90.337012,23.813681],[90.337007,23.813723],[90.337006,23.81373],[90.337005,23.813735],[90.337003,23.813743],[90.337,23.813751],[90.336988,23.813769],[90.336975,23.813788]]]}},{"type":"Feature","properties":{"survey":"bds","sheet":"026","dag":"12556","label_bn":"12556","area_sqm":713.4},"geometry":{"type":"Polygon","coordinates":[[[90.337012,23.813809],[90.337009,23.813819],[90.337008,23.813818],[90.336967,23.813804],[90.336975,23.813788],[90.336988,23.813769],[90.337,23.813751],[90.337003,23.813743],[90.337005,23.813735],[90.337006,23.81373],[90.337007,23.813723],[90.337012,23.813681],[90.337013,23.813675],[90.33702,23.813626],[90.337024,23.813587],[90.337027,23.813561],[90.33703,23.813531],[90.337032,23.813507],[90.337033,23.813502],[90.337034,23.813494],[90.337075,23.81326],[90.337101,23.813115],[90.337128,23.81296],[90.337179,23.812957],[90.33717,23.81308],[90.337158,23.813222],[90.337157,23.813252],[90.337152,23.813358],[90.337152,23.813439],[90.337135,23.813512],[90.337113,23.813569],[90.337092,23.813618],[90.337043,23.813728],[90.337014,23.813806],[90.337012,23.813809]]]}},{"type":"Feature","properties":{"survey":"bds","sheet":"026","dag":"12516","label_bn":"12516","area_sqm":184.3},"geometry":{"type":"Polygon","coordinates":[[[90.338477,23.813583],[90.338531,23.813828],[90.338502,23.813825],[90.338464,23.813763],[90.338396,23.813685],[90.338376,23.813655],[90.338477,23.813583],[90.338477,23.813583]]]}},{"type":"Feature","properties":{"survey":"bds","sheet":"026","dag":"12523","label_bn":"12523","area_sqm":818.1},"geometry":{"type":"Polygon","coordinates":[[[90.337242,23.813787],[90.337194,23.813876],[90.337148,23.813858],[90.337014,23.813806],[90.337043,23.813728],[90.337092,23.813618],[90.337113,23.813569],[90.337135,23.813512],[90.337265,23.813537],[90.337362,23.813556],[90.337277,23.813736],[90.337242,23.813787]]]}},{"type":"Feature","properties":{"survey":"bds","sheet":"026","dag":"12522","label_bn":"12522","area_sqm":302.2},"geometry":{"type":"Polygon","coordinates":[[[90.337194,23.813876],[90.337123,23.814002],[90.337084,23.813987],[90.336956,23.813936],[90.337008,23.813818],[90.337009,23.813819],[90.337012,23.813809],[90.337014,23.813806],[90.337148,23.813858],[90.337194,23.813876]]]}},{"type":"Feature","properties":{"survey":"bds","sheet":"026","dag":"12515","label_bn":"12515","area_sqm":1477.5},"geometry":{"type":"Polygon","coordinates":[[[90.338446,23.814218],[90.338427,23.814218],[90.338316,23.814053],[90.338306,23.814019],[90.338196,23.813826],[90.338173,23.813802],[90.338212,23.813771],[90.338311,23.813701],[90.338376,23.813655],[90.338396,23.813685],[90.338464,23.813763],[90.338502,23.813825],[90.338531,23.813828],[90.338537,23.813854],[90.338558,23.813947],[90.338571,23.814007],[90.338599,23.814135],[90.338574,23.814157],[90.338556,23.814169],[90.338512,23.814199],[90.338489,23.81421],[90.338489,23.81421],[90.338469,23.814215],[90.338465,23.814216],[90.338446,23.814218]]]}},{"type":"Feature","properties":{"survey":"bds","sheet":"026","dag":"12521","label_bn":"12521","area_sqm":8040.6},"geometry":{"type":"Polygon","coordinates":[[[90.337683,23.814386],[90.337621,23.814466],[90.337596,23.814452],[90.337479,23.814382],[90.337269,23.814243],[90.337056,23.8141],[90.337123,23.814002],[90.337194,23.813876],[90.337242,23.813787],[90.337277,23.813736],[90.337362,23.813556],[90.337376,23.813391],[90.337803,23.813397],[90.337845,23.813398],[90.337889,23.813399],[90.337912,23.813491],[90.337942,23.81348],[90.338119,23.813731],[90.338161,23.81379],[90.338173,23.813802],[90.338148,23.813822],[90.338142,23.813829],[90.338008,23.813995],[90.337894,23.814132],[90.337774,23.814279],[90.337683,23.814386]]]}},{"type":"Feature","properties":{"survey":"bds","sheet":"026","dag":"12514","label_bn":"12514","area_sqm":756.7},"geometry":{"type":"Polygon","coordinates":[[[90.338524,23.814402],[90.338381,23.814475],[90.338298,23.814331],[90.338349,23.814286],[90.338396,23.814245],[90.338427,23.814218],[90.338446,23.814218],[90.338465,23.814216],[90.338469,23.814215],[90.338489,23.81421],[90.338489,23.81421],[90.338512,23.814199],[90.338556,23.814169],[90.338574,23.814157],[90.338599,23.814135],[90.338599,23.814137],[90.338603,23.814144],[90.338681,23.814304],[90.338681,23.814304],[90.338685,23.814319],[90.338579,23.814374],[90.338524,23.814402]]]}},{"type":"Feature","properties":{"survey":"bds","sheet":"026","dag":"12503","label_bn":"12503","area_sqm":1133.2},"geometry":{"type":"Polygon","coordinates":[[[90.337479,23.814382],[90.33736,23.814537],[90.337148,23.814402],[90.336945,23.814273],[90.337056,23.8141],[90.337269,23.814243],[90.337479,23.814382]]]}},{"type":"Feature","properties":{"survey":"bds","sheet":"026","dag":"12513","label_bn":"12513","area_sqm":333.3},"geometry":{"type":"Polygon","coordinates":[[[90.338692,23.814558],[90.338626,23.814584],[90.338555,23.814429],[90.338557,23.814427],[90.338557,23.814426],[90.338586,23.814398],[90.338579,23.814374],[90.338685,23.814319],[90.338705,23.814402],[90.338739,23.814539],[90.338692,23.814558]]]}},{"type":"Feature","properties":{"survey":"bds","sheet":"026","dag":"12501","label_bn":"12501","area_sqm":1230.6},"geometry":{"type":"Polygon","coordinates":[[[90.336775,23.814546],[90.336732,23.814605],[90.336714,23.814595],[90.336622,23.814545],[90.336602,23.814506],[90.336671,23.814413],[90.336732,23.814323],[90.336764,23.814279],[90.33686,23.814111],[90.336912,23.814034],[90.33694,23.813968],[90.336956,23.813936],[90.337084,23.813987],[90.337123,23.814002],[90.337056,23.8141],[90.336945,23.814273],[90.336886,23.814346],[90.336871,23.814367],[90.336835,23.814416],[90.336812,23.814455],[90.336802,23.814482],[90.336796,23.814498],[90.336775,23.814546]]]}},{"type":"Feature","properties":{"survey":"bds","sheet":"026","dag":"12504","label_bn":"12504","area_sqm":357.4},"geometry":{"type":"Polygon","coordinates":[[[90.337538,23.814567],[90.337496,23.81462],[90.337469,23.814603],[90.337397,23.81456],[90.33736,23.814537],[90.337479,23.814382],[90.337596,23.814452],[90.337621,23.814466],[90.337538,23.814567]]]}},{"type":"Feature","properties":{"survey":"bds","sheet":"026","dag":"12510","label_bn":"12510","area_sqm":74.1},"geometry":{"type":"Polygon","coordinates":[[[90.338057,23.814864],[90.337985,23.814902],[90.337943,23.814834],[90.338016,23.814797],[90.338057,23.814864]]]}},{"type":"Feature","properties":{"survey":"bds","sheet":"026","dag":"12502","label_bn":"12502","area_sqm":2839.5},"geometry":{"type":"Polygon","coordinates":[[[90.337276,23.814888],[90.337217,23.81492],[90.337204,23.814911],[90.337153,23.814875],[90.336872,23.814695],[90.336732,23.814605],[90.336775,23.814546],[90.336796,23.814498],[90.336802,23.814482],[90.336812,23.814455],[90.336835,23.814416],[90.336871,23.814367],[90.336886,23.814346],[90.336945,23.814273],[90.337148,23.814402],[90.33736,23.814537],[90.337397,23.81456],[90.337469,23.814603],[90.337496,23.81462],[90.33732,23.814829],[90.337306,23.814872],[90.337276,23.814888]]]}},{"type":"Feature","properties":{"survey":"bds","sheet":"026","dag":"12505","label_bn":"12505","area_sqm":2792.3},"geometry":{"type":"Polygon","coordinates":[[[90.337845,23.814475],[90.337359,23.814933],[90.337331,23.8149],[90.337306,23.814872],[90.33732,23.814829],[90.337496,23.81462],[90.337538,23.814567],[90.337621,23.814466],[90.337683,23.814386],[90.337774,23.814279],[90.337894,23.814132],[90.338008,23.813995],[90.338142,23.813829],[90.338148,23.813822],[90.338173,23.813802],[90.338196,23.813826],[90.338306,23.814019],[90.338316,23.814053],[90.338286,23.814075],[90.338265,23.81409],[90.338154,23.814191],[90.337845,23.814475]]]}},{"type":"Feature","properties":{"survey":"bds","sheet":"026","dag":"12554","label_bn":"12554","area_sqm":43833.2},"geometry":{"type":"Polygon","coordinates":[[[90.338929,23.81491],[90.338843,23.814959],[90.338752,23.814593],[90.338739,23.814539],[90.338705,23.814402],[90.338685,23.814319],[90.338681,23.814304],[90.338681,23.814304],[90.338603,23.814144],[90.338599,23.814137],[90.338599,23.814135],[90.338571,23.814007],[90.338558,23.813947],[90.338537,23.813854],[90.338531,23.813828],[90.338477,23.813583],[90.338477,23.813583],[90.338434,23.813375],[90.338434,23.813374],[90.338388,23.813201],[90.338384,23.813185],[90.33827,23.812876],[90.33827,23.812875],[90.338207,23.812716],[90.338183,23.812656],[90.338073,23.81238],[90.338032,23.812283],[90.338015,23.812242],[90.337954,23.812097],[90.337934,23.812004],[90.337874,23.811735],[90.337874,23.811731],[90.337873,23.811548],[90.337873,23.811527],[90.337873,23.811503],[90.33781,23.811347],[90.337822,23.81122],[90.337833,23.811094],[90.337858,23.811099],[90.33788,23.811104],[90.337913,23.811111],[90.337995,23.81111],[90.338494,23.811101],[90.338544,23.8111],[90.338557,23.811164],[90.338585,23.811349],[90.338649,23.811553],[90.338669,23.81163],[90.338717,23.81173],[90.338824,23.811954],[90.338892,23.812066],[90.338915,23.812105],[90.338918,23.81211],[90.339066,23.812354],[90.339225,23.812616],[90.339366,23.812897],[90.339456,23.813114],[90.339602,23.813465],[90.339696,23.813643],[90.339741,23.813728],[90.339796,23.814028],[90.339801,23.81411],[90.339807,23.814209],[90.339805,23.814401],[90.339815,23.814638],[90.33983,23.814803],[90.339066,23.814894],[90.338929,23.81491]]]}},{"type":"Feature","properties":{"survey":"bds","sheet":"026","dag":"12512","label_bn":"12512","area_sqm":363.2},"geometry":{"type":"Polygon","coordinates":[[[90.338829,23.814966],[90.338815,23.814974],[90.338812,23.814968],[90.338761,23.814856],[90.338746,23.814821],[90.338743,23.814816],[90.338626,23.814584],[90.338692,23.814558],[90.338739,23.814539],[90.338752,23.814593],[90.338843,23.814959],[90.338829,23.814966]]]}},{"type":"Feature","properties":{"survey":"bds","sheet":"026","dag":"12506","label_bn":"12506","area_sqm":2503.0},"geometry":{"type":"Polygon","coordinates":[[[90.337548,23.814939],[90.337425,23.815057],[90.337404,23.815018],[90.337371,23.814956],[90.337359,23.814933],[90.337845,23.814475],[90.338154,23.814191],[90.338265,23.81409],[90.338286,23.814075],[90.338316,23.814053],[90.338427,23.814218],[90.338396,23.814245],[90.338349,23.814286],[90.338298,23.814331],[90.337548,23.814939]]]}},{"type":"Feature","properties":{"survey":"bds","sheet":"026","dag":"12507","label_bn":"12507","area_sqm":2300.7},"geometry":{"type":"Polygon","coordinates":[[[90.337647,23.815038],[90.337474,23.815146],[90.337458,23.815118],[90.337425,23.815057],[90.337548,23.814939],[90.338298,23.814331],[90.338381,23.814475],[90.338524,23.814402],[90.338579,23.814374],[90.338586,23.814398],[90.338557,23.814426],[90.338557,23.814427],[90.338555,23.814429],[90.338533,23.814443],[90.33838,23.814545],[90.338312,23.814593],[90.338213,23.814664],[90.338135,23.814716],[90.338016,23.814797],[90.337943,23.814834],[90.337863,23.81489],[90.337647,23.815038]]]}},{"type":"Feature","properties":{"survey":"bds","sheet":"026","dag":"12511","label_bn":"12511","area_sqm":3240.0},"geometry":{"type":"Polygon","coordinates":[[[90.33837,23.815144],[90.338325,23.815158],[90.338135,23.814716],[90.338213,23.814664],[90.338312,23.814593],[90.33838,23.814545],[90.338533,23.814443],[90.338555,23.814429],[90.338626,23.814584],[90.338743,23.814816],[90.338746,23.814821],[90.338761,23.814856],[90.338812,23.814968],[90.338815,23.814974],[90.338628,23.815077],[90.338468,23.815116],[90.33837,23.815144]]]}},{"type":"Feature","properties":{"survey":"bds","sheet":"026","dag":"12509","label_bn":"12509","area_sqm":2378.2},"geometry":{"type":"Polygon","coordinates":[[[90.338011,23.815253],[90.337813,23.815275],[90.337792,23.815246],[90.337779,23.815227],[90.337647,23.815038],[90.337863,23.81489],[90.337943,23.814834],[90.337985,23.814902],[90.338057,23.814864],[90.338016,23.814797],[90.338135,23.814716],[90.338325,23.815158],[90.338191,23.815199],[90.338011,23.815253]]]}},{"type":"Feature","properties":{"survey":"bds","sheet":"026","dag":"12508","label_bn":"12508","area_sqm":499.7},"geometry":{"type":"Polygon","coordinates":[[[90.337702,23.815299],[90.337669,23.815301],[90.337655,23.81529],[90.337474,23.815146],[90.337647,23.815038],[90.337779,23.815227],[90.337792,23.815246],[90.337813,23.815275],[90.337776,23.815293],[90.337702,23.815299]]]}}]}