{"type":"FeatureCollection","features":[{"type":"Feature","properties":{"survey":"bds","sheet":"027","dag":"13062","label_bn":"13062","area_sqm":475.7},"geometry":{"type":"Polygon","coordinates":[[[90.334904,23.811202],[90.334759,23.811391],[90.334722,23.811358],[90.334624,23.811273],[90.334781,23.811072],[90.334831,23.811153],[90.334904,23.811202]]]}},{"type":"Feature","properties":{"survey":"bds","sheet":"027","dag":"13061","label_bn":"13061","area_sqm":683.9},"geometry":{"type":"Polygon","coordinates":[[[90.334624,23.811273],[90.334533,23.811391],[90.334433,23.811296],[90.334515,23.811182],[90.334631,23.811019],[90.334639,23.811],[90.334726,23.810995],[90.334757,23.810985],[90.334781,23.811072],[90.334624,23.811273]]]}},{"type":"Feature","properties":{"survey":"bds","sheet":"027","dag":"13063","label_bn":"13063","area_sqm":996.8},"geometry":{"type":"Polygon","coordinates":[[[90.334786,23.811651],[90.334786,23.811652],[90.334587,23.811524],[90.334759,23.811391],[90.334904,23.811202],[90.334941,23.81122],[90.335027,23.811258],[90.335064,23.811293],[90.334805,23.811625],[90.334786,23.811651]]]}},{"type":"Feature","properties":{"survey":"bds","sheet":"027","dag":"13068","label_bn":"13068","area_sqm":1366.9},"geometry":{"type":"Polygon","coordinates":[[[90.335824,23.811405],[90.335645,23.811716],[90.335645,23.811716],[90.33547,23.811603],[90.335358,23.811482],[90.335292,23.811428],[90.335746,23.811264],[90.335746,23.8113],[90.335753,23.811328],[90.33578,23.811372],[90.335795,23.81139],[90.335824,23.811405]]]}},{"type":"Feature","properties":{"survey":"bds","sheet":"027","dag":"13078","label_bn":"13078","area_sqm":3246.7},"geometry":{"type":"Polygon","coordinates":[[[90.336525,23.811669],[90.336483,23.81172],[90.336033,23.811657],[90.335929,23.811649],[90.335914,23.811483],[90.33588,23.811406],[90.335907,23.811376],[90.335912,23.811354],[90.335899,23.811264],[90.336161,23.811216],[90.336318,23.811144],[90.336403,23.811112],[90.33641,23.811123],[90.336429,23.811216],[90.336469,23.811325],[90.336506,23.8114],[90.336545,23.811467],[90.336525,23.811669]]]}},{"type":"Feature","properties":{"survey":"bds","sheet":"027","dag":"13067","label_bn":"13067","area_sqm":639.1},"geometry":{"type":"Polygon","coordinates":[[[90.33547,23.811603],[90.335349,23.811881],[90.335182,23.811816],[90.335358,23.811482],[90.33547,23.811603]]]}},{"type":"Feature","properties":{"survey":"bds","sheet":"027","dag":"13069","label_bn":"13069","area_sqm":1133.7},"geometry":{"type":"Polygon","coordinates":[[[90.33598,23.811806],[90.335915,23.811913],[90.335645,23.811716],[90.335824,23.811405],[90.33588,23.811406],[90.335914,23.811483],[90.335929,23.811649],[90.336033,23.811657],[90.33598,23.811806]]]}},{"type":"Feature","properties":{"survey":"bds","sheet":"027","dag":"13060","label_bn":"13060","area_sqm":2030.0},"geometry":{"type":"Polygon","coordinates":[[[90.334083,23.811918],[90.333964,23.812095],[90.333798,23.811997],[90.333816,23.811923],[90.333896,23.811814],[90.334037,23.811636],[90.334141,23.811533],[90.334174,23.811495],[90.334258,23.81142],[90.33433,23.811361],[90.334433,23.811296],[90.334533,23.811391],[90.3344,23.811522],[90.334273,23.81167],[90.334083,23.811918]]]}},{"type":"Feature","properties":{"survey":"bds","sheet":"027","dag":"13059","label_bn":"13059","area_sqm":1958.8},"geometry":{"type":"Polygon","coordinates":[[[90.334174,23.812127],[90.334124,23.81219],[90.333964,23.812095],[90.334083,23.811918],[90.334273,23.81167],[90.3344,23.811522],[90.334533,23.811391],[90.334624,23.811273],[90.334722,23.811358],[90.334759,23.811391],[90.334587,23.811524],[90.334411,23.811748],[90.334376,23.811814],[90.334174,23.812127]]]}},{"type":"Feature","properties":{"survey":"bds","sheet":"027","dag":"13077","label_bn":"13077","area_sqm":2813.4},"geometry":{"type":"Polygon","coordinates":[[[90.336279,23.812091],[90.336137,23.812311],[90.335818,23.812194],[90.335861,23.812089],[90.335915,23.811913],[90.33598,23.811806],[90.336033,23.811657],[90.336483,23.81172],[90.336391,23.811897],[90.336279,23.812091]]]}},{"type":"Feature","properties":{"survey":"bds","sheet":"027","dag":"13076","label_bn":"13076","area_sqm":1057.0},"geometry":{"type":"Polygon","coordinates":[[[90.336137,23.812311],[90.335997,23.81256],[90.335698,23.812453],[90.335814,23.812203],[90.335818,23.812194],[90.336137,23.812311]]]}},{"type":"Feature","properties":{"survey":"bds","sheet":"027","dag":"13064","label_bn":"13064","area_sqm":6508.0},"geometry":{"type":"Polygon","coordinates":[[[90.334962,23.812389],[90.334898,23.812565],[90.33434,23.812314],[90.334502,23.812062],[90.334636,23.811872],[90.334635,23.811872],[90.334786,23.811652],[90.334786,23.811651],[90.334805,23.811625],[90.335064,23.811293],[90.335292,23.811428],[90.335358,23.811482],[90.335182,23.811816],[90.33517,23.811844],[90.335072,23.81208],[90.335062,23.812131],[90.334962,23.812389]]]}},{"type":"Feature","properties":{"survey":"bds","sheet":"027","dag":"13066","label_bn":"13066","area_sqm":2103.0},"geometry":{"type":"Polygon","coordinates":[[[90.33537,23.8123],[90.335238,23.812579],[90.335077,23.812526],[90.335213,23.812188],[90.335313,23.811961],[90.335349,23.811881],[90.33547,23.811603],[90.335645,23.811716],[90.335492,23.812029],[90.33537,23.8123]]]}},{"type":"Feature","properties":{"survey":"bds","sheet":"027","dag":"13058","label_bn":"13058","area_sqm":2996.2},"geometry":{"type":"Polygon","coordinates":[[[90.33424,23.812462],[90.334143,23.812579],[90.334008,23.812443],[90.334047,23.812339],[90.334124,23.81219],[90.334174,23.812127],[90.334376,23.811814],[90.334411,23.811748],[90.334587,23.811524],[90.334786,23.811652],[90.334635,23.811872],[90.334636,23.811872],[90.334502,23.812062],[90.33434,23.812314],[90.334339,23.812314],[90.33424,23.812462]]]}},{"type":"Feature","properties":{"survey":"bds","sheet":"027","dag":"13079","label_bn":"13079","area_sqm":6352.6},"geometry":{"type":"Polygon","coordinates":[[[90.336726,23.812563],[90.33658,23.812603],[90.336137,23.812311],[90.336279,23.812091],[90.336391,23.811897],[90.336483,23.81172],[90.336525,23.811669],[90.336603,23.81172],[90.336746,23.811794],[90.336801,23.811805],[90.336862,23.811817],[90.33692,23.811825],[90.337117,23.811882],[90.337044,23.812144],[90.33698,23.812342],[90.336964,23.81245],[90.336796,23.812583],[90.336726,23.812563]]]}},{"type":"Feature","properties":{"survey":"bds","sheet":"027","dag":"13033","label_bn":"13033","area_sqm":64.2},"geometry":{"type":"Polygon","coordinates":[[[90.336747,23.812739],[90.336677,23.812772],[90.336638,23.812711],[90.336707,23.812676],[90.336747,23.812739]]]}},{"type":"Feature","properties":{"survey":"bds","sheet":"027","dag":"13070","label_bn":"13070","area_sqm":4147.2},"geometry":{"type":"Polygon","coordinates":[[[90.335698,23.812453],[90.335536,23.812793],[90.335206,23.812716],[90.335238,23.812579],[90.33537,23.8123],[90.335492,23.812029],[90.335645,23.811716],[90.335645,23.811716],[90.335915,23.811913],[90.335861,23.812089],[90.335818,23.812194],[90.335814,23.812203],[90.335698,23.812453]]]}},{"type":"Feature","properties":{"survey":"bds","sheet":"027","dag":"13075","label_bn":"13075","area_sqm":1294.2},"geometry":{"type":"Polygon","coordinates":[[[90.335997,23.81256],[90.335826,23.812884],[90.335536,23.812793],[90.335698,23.812453],[90.335997,23.81256]]]}},{"type":"Feature","properties":{"survey":"bds","sheet":"027","dag":"13057","label_bn":"13057","area_sqm":3107.5},"geometry":{"type":"Polygon","coordinates":[[[90.334692,23.812879],[90.334634,23.812938],[90.334421,23.812838],[90.334411,23.812843],[90.334197,23.81275],[90.334229,23.812654],[90.334143,23.812579],[90.33424,23.812462],[90.334339,23.812314],[90.33434,23.812314],[90.334898,23.812565],[90.334896,23.81257],[90.334848,23.812688],[90.334803,23.812754],[90.334785,23.812785],[90.334748,23.812867],[90.334692,23.812879]]]}},{"type":"Feature","properties":{"survey":"bds","sheet":"027","dag":"13034","label_bn":"13034","area_sqm":909.1},"geometry":{"type":"Polygon","coordinates":[[[90.336652,23.812934],[90.336632,23.812982],[90.336387,23.812858],[90.33654,23.812702],[90.33658,23.812603],[90.336726,23.812563],[90.336796,23.812583],[90.336747,23.812739],[90.336707,23.812676],[90.336638,23.812711],[90.336677,23.812772],[90.336747,23.812739],[90.336652,23.812934]]]}},{"type":"Feature","properties":{"survey":"bds","sheet":"027","dag":"13035","label_bn":"13035","area_sqm":284.2},"geometry":{"type":"Polygon","coordinates":[[[90.336632,23.812982],[90.336592,23.813066],[90.336354,23.812945],[90.336387,23.812858],[90.336632,23.812982]]]}},{"type":"Feature","properties":{"survey":"bds","sheet":"027","dag":"13043","label_bn":"13043","area_sqm":2671.2},"geometry":{"type":"Polygon","coordinates":[[[90.336055,23.813007],[90.335996,23.813135],[90.335764,23.813019],[90.335826,23.812884],[90.335997,23.81256],[90.336137,23.812311],[90.33658,23.812603],[90.33654,23.812702],[90.336247,23.81259],[90.336055,23.813007]]]}},{"type":"Feature","properties":{"survey":"bds","sheet":"027","dag":"13074","label_bn":"13074","area_sqm":1162.5},"geometry":{"type":"Polygon","coordinates":[[[90.335754,23.813044],[90.335679,23.813199],[90.335396,23.813093],[90.335536,23.812793],[90.335826,23.812884],[90.335764,23.813019],[90.335754,23.813044]]]}},{"type":"Feature","properties":{"survey":"bds","sheet":"027","dag":"13056","label_bn":"13056","area_sqm":1054.8},"geometry":{"type":"Polygon","coordinates":[[[90.334634,23.812938],[90.334426,23.813257],[90.334278,23.813161],[90.334112,23.813024],[90.334112,23.813024],[90.334225,23.813014],[90.334345,23.81299],[90.334397,23.812948],[90.334404,23.812912],[90.334392,23.81289],[90.334411,23.812843],[90.334421,23.812838],[90.334634,23.812938]]]}},{"type":"Feature","properties":{"survey":"bds","sheet":"027","dag":"13044","label_bn":"13044","area_sqm":1031.3},"geometry":{"type":"Polygon","coordinates":[[[90.335913,23.813298],[90.335842,23.81345],[90.335607,23.813342],[90.335679,23.813199],[90.335754,23.813044],[90.335764,23.813019],[90.335996,23.813135],[90.335989,23.81315],[90.335913,23.813298]]]}},{"type":"Feature","properties":{"survey":"bds","sheet":"027","dag":"13036","label_bn":"13036","area_sqm":1601.6},"geometry":{"type":"Polygon","coordinates":[[[90.336592,23.813066],[90.336344,23.81355],[90.33612,23.813436],[90.336354,23.812945],[90.336592,23.813066]]]}},{"type":"Feature","properties":{"survey":"bds","sheet":"027","dag":"13065","label_bn":"13065","area_sqm":6274.5},"geometry":{"type":"Polygon","coordinates":[[[90.334872,23.81357],[90.334862,23.813589],[90.334745,23.813527],[90.334654,23.813472],[90.334529,23.813369],[90.334529,23.813369],[90.334426,23.813257],[90.334634,23.812938],[90.334692,23.812879],[90.334748,23.812867],[90.334785,23.812785],[90.334803,23.812754],[90.334848,23.812688],[90.334896,23.81257],[90.334898,23.812565],[90.334962,23.812389],[90.335062,23.812131],[90.335072,23.81208],[90.33517,23.811844],[90.335182,23.811816],[90.335349,23.811881],[90.335313,23.811961],[90.335213,23.812188],[90.335077,23.812526],[90.335238,23.812579],[90.335206,23.812716],[90.335122,23.812919],[90.335083,23.812981],[90.335054,23.813],[90.33498,23.813138],[90.334953,23.813203],[90.33492,23.813311],[90.335065,23.813358],[90.335035,23.813442],[90.335033,23.813454],[90.335004,23.813529],[90.334998,23.813544],[90.334942,23.813552],[90.3349,23.813543],[90.334872,23.81357]]]}},{"type":"Feature","properties":{"survey":"bds","sheet":"027","dag":"13071","label_bn":"13071","area_sqm":2851.7},"geometry":{"type":"Polygon","coordinates":[[[90.335118,23.813571],[90.335076,23.813594],[90.334998,23.813544],[90.335004,23.813529],[90.335033,23.813454],[90.335035,23.813442],[90.335065,23.813358],[90.33492,23.813311],[90.334953,23.813203],[90.33498,23.813138],[90.335054,23.813],[90.335083,23.812981],[90.335122,23.812919],[90.335206,23.812716],[90.335536,23.812793],[90.335396,23.813093],[90.33515,23.813515],[90.335143,23.813534],[90.335118,23.813571]]]}},{"type":"Feature","properties":{"survey":"bds","sheet":"027","dag":"13037","label_bn":"13037","area_sqm":414.4},"geometry":{"type":"Polygon","coordinates":[[[90.336344,23.81355],[90.336276,23.813689],[90.336062,23.81356],[90.33612,23.813436],[90.336344,23.81355]]]}},{"type":"Feature","properties":{"survey":"bds","sheet":"027","dag":"13072","label_bn":"13072","area_sqm":248.7},"geometry":{"type":"Polygon","coordinates":[[[90.335131,23.813695],[90.335099,23.813749],[90.335061,23.813696],[90.33501,23.81366],[90.334946,23.81364],[90.334898,23.813618],[90.334862,23.813589],[90.334872,23.81357],[90.3349,23.813543],[90.334942,23.813552],[90.334998,23.813544],[90.335076,23.813594],[90.335065,23.813616],[90.335081,23.813654],[90.335131,23.813695]]]}},{"type":"Feature","properties":{"survey":"bds","sheet":"027","dag":"13045","label_bn":"13045","area_sqm":1041.8},"geometry":{"type":"Polygon","coordinates":[[[90.335842,23.81345],[90.335711,23.813773],[90.335653,23.813728],[90.33559,23.813701],[90.335458,23.813659],[90.335541,23.813466],[90.335607,23.813342],[90.335842,23.81345]]]}},{"type":"Feature","properties":{"survey":"bds","sheet":"027","dag":"13025","label_bn":"13025","area_sqm":68.2},"geometry":{"type":"Polygon","coordinates":[[[90.336959,23.813819],[90.336953,23.813831],[90.336802,23.813775],[90.336759,23.81376],[90.336766,23.813734],[90.336816,23.813751],[90.336967,23.813804],[90.336959,23.813819]]]}},{"type":"Feature","properties":{"survey":"bds","sheet":"027","dag":"13038","label_bn":"13038","area_sqm":477.0},"geometry":{"type":"Polygon","coordinates":[[[90.336276,23.813689],[90.336197,23.813835],[90.33599,23.813732],[90.336062,23.81356],[90.336276,23.813689]]]}},{"type":"Feature","properties":{"survey":"bds","sheet":"027","dag":"13073","label_bn":"13073","area_sqm":2423.8},"geometry":{"type":"Polygon","coordinates":[[[90.335367,23.813839],[90.335366,23.813842],[90.335159,23.813647],[90.335131,23.813695],[90.335081,23.813654],[90.335065,23.813616],[90.335076,23.813594],[90.335118,23.813571],[90.335143,23.813534],[90.33515,23.813515],[90.335396,23.813093],[90.335679,23.813199],[90.335607,23.813342],[90.335541,23.813466],[90.335458,23.813659],[90.335367,23.813839]]]}},{"type":"Feature","properties":{"survey":"bds","sheet":"027","dag":"13055","label_bn":"13055","area_sqm":2212.4},"geometry":{"type":"Polygon","coordinates":[[[90.334266,23.813772],[90.334201,23.813874],[90.33417,23.81386],[90.334128,23.813827],[90.334101,23.813799],[90.334076,23.813766],[90.334052,23.813743],[90.334036,23.813721],[90.334027,23.813702],[90.334019,23.813676],[90.334006,23.813643],[90.333995,23.813613],[90.333992,23.813594],[90.334182,23.813304],[90.334278,23.813161],[90.334426,23.813257],[90.334529,23.813369],[90.334529,23.813369],[90.334287,23.813738],[90.334266,23.813772]]]}},{"type":"Feature","properties":{"survey":"bds","sheet":"027","dag":"13051","label_bn":"13051","area_sqm":806.9},"geometry":{"type":"Polygon","coordinates":[[[90.334945,23.813774],[90.334891,23.813893],[90.33464,23.813738],[90.334745,23.813527],[90.334862,23.813589],[90.334898,23.813618],[90.334946,23.81364],[90.33501,23.81366],[90.334945,23.813774]]]}},{"type":"Feature","properties":{"survey":"bds","sheet":"027","dag":"13042","label_bn":"13042","area_sqm":3716.8},"geometry":{"type":"Polygon","coordinates":[[[90.33599,23.813732],[90.335897,23.813899],[90.335711,23.813773],[90.335842,23.81345],[90.335913,23.813298],[90.335989,23.81315],[90.335996,23.813135],[90.336055,23.813007],[90.336247,23.81259],[90.33654,23.812702],[90.336387,23.812858],[90.336354,23.812945],[90.33612,23.813436],[90.336062,23.81356],[90.33599,23.813732]]]}},{"type":"Feature","properties":{"survey":"bds","sheet":"027","dag":"13054","label_bn":"13054","area_sqm":1487.3},"geometry":{"type":"Polygon","coordinates":[[[90.33464,23.813738],[90.334555,23.813925],[90.33446,23.813893],[90.33443,23.813849],[90.334322,23.813766],[90.334287,23.813738],[90.334529,23.813369],[90.334654,23.813472],[90.334745,23.813527],[90.33464,23.813738]]]}},{"type":"Feature","properties":{"survey":"bds","sheet":"027","dag":"13080","label_bn":"13080","area_sqm":400.2},"geometry":{"type":"Polygon","coordinates":[[[90.335366,23.813842],[90.335309,23.813945],[90.335256,23.813884],[90.335199,23.813874],[90.335157,23.813836],[90.335106,23.813758],[90.335099,23.813749],[90.335131,23.813695],[90.335159,23.813647],[90.335366,23.813842]]]}},{"type":"Feature","properties":{"survey":"bds","sheet":"027","dag":"13024","label_bn":"13024","area_sqm":406.4},"geometry":{"type":"Polygon","coordinates":[[[90.336897,23.813947],[90.336866,23.814008],[90.336711,23.813941],[90.336716,23.813923],[90.336759,23.81376],[90.336802,23.813775],[90.336953,23.813831],[90.336942,23.813851],[90.336931,23.813872],[90.336914,23.81391],[90.336898,23.813944],[90.336897,23.813947]]]}},{"type":"Feature","properties":{"survey":"bds","sheet":"027","dag":"13039","label_bn":"13039","area_sqm":596.1},"geometry":{"type":"Polygon","coordinates":[[[90.336148,23.813947],[90.336078,23.814054],[90.335897,23.813899],[90.33599,23.813732],[90.336197,23.813835],[90.336148,23.813947]]]}},{"type":"Feature","properties":{"survey":"bds","sheet":"027","dag":"13046","label_bn":"13046","area_sqm":1085.9},"geometry":{"type":"Polygon","coordinates":[[[90.335711,23.813773],[90.335577,23.814068],[90.335511,23.814044],[90.335424,23.814001],[90.335371,23.813981],[90.335309,23.813945],[90.335366,23.813842],[90.335367,23.813839],[90.335458,23.813659],[90.33559,23.813701],[90.335653,23.813728],[90.335711,23.813773]]]}},{"type":"Feature","properties":{"survey":"bds","sheet":"027","dag":"13040","label_bn":"13040","area_sqm":228.1},"geometry":{"type":"Polygon","coordinates":[[[90.336078,23.814054],[90.336016,23.814127],[90.335858,23.81397],[90.335897,23.813899],[90.336078,23.814054]]]}},{"type":"Feature","properties":{"survey":"bds","sheet":"027","dag":"13050","label_bn":"13050","area_sqm":1054.1},"geometry":{"type":"Polygon","coordinates":[[[90.335199,23.813874],[90.335071,23.814139],[90.334836,23.814003],[90.334891,23.813893],[90.334945,23.813774],[90.33501,23.81366],[90.335061,23.813696],[90.335099,23.813749],[90.335106,23.813758],[90.335157,23.813836],[90.335199,23.813874]]]}},{"type":"Feature","properties":{"survey":"bds","sheet":"027","dag":"13041","label_bn":"13041","area_sqm":780.5},"geometry":{"type":"Polygon","coordinates":[[[90.33579,23.814095],[90.33575,23.814182],[90.335679,23.81414],[90.335627,23.814107],[90.335577,23.814068],[90.335711,23.813773],[90.335897,23.813899],[90.335858,23.81397],[90.33579,23.814095]]]}},{"type":"Feature","properties":{"survey":"bds","sheet":"027","dag":"13053","label_bn":"13053","area_sqm":967.6},"geometry":{"type":"Polygon","coordinates":[[[90.334555,23.813925],[90.334436,23.814184],[90.334292,23.814156],[90.334273,23.814146],[90.334267,23.814127],[90.33427,23.814107],[90.334286,23.814027],[90.334279,23.813969],[90.334269,23.81395],[90.334257,23.813932],[90.334232,23.813909],[90.334211,23.813892],[90.334201,23.813874],[90.334266,23.813772],[90.334287,23.813738],[90.334322,23.813766],[90.33443,23.813849],[90.33446,23.813893],[90.334555,23.813925]]]}},{"type":"Feature","properties":{"survey":"bds","sheet":"027","dag":"13052","label_bn":"13052","area_sqm":1495.8},"geometry":{"type":"Polygon","coordinates":[[[90.334739,23.8142],[90.334707,23.814267],[90.334644,23.814263],[90.334525,23.814217],[90.334459,23.814199],[90.334436,23.814184],[90.334555,23.813925],[90.33464,23.813738],[90.334891,23.813893],[90.334836,23.814003],[90.334802,23.814071],[90.334766,23.814147],[90.334739,23.8142]]]}},{"type":"Feature","properties":{"survey":"bds","sheet":"027","dag":"13031","label_bn":"13031","area_sqm":533.3},"geometry":{"type":"Polygon","coordinates":[[[90.336029,23.81414],[90.335935,23.814293],[90.335813,23.814219],[90.33575,23.814182],[90.33579,23.814095],[90.335858,23.81397],[90.336016,23.814127],[90.336029,23.81414]]]}},{"type":"Feature","properties":{"survey":"bds","sheet":"027","dag":"13023","label_bn":"13023","area_sqm":599.6},"geometry":{"type":"Polygon","coordinates":[[[90.336714,23.814315],[90.336714,23.814315],[90.336572,23.814245],[90.336579,23.814231],[90.33669,23.814015],[90.336692,23.814009],[90.336711,23.813941],[90.336866,23.814008],[90.336864,23.814013],[90.336847,23.814046],[90.33683,23.814079],[90.336824,23.814092],[90.336814,23.814111],[90.336786,23.814164],[90.33674,23.814255],[90.336715,23.814313],[90.336714,23.814315]]]}},{"type":"Feature","properties":{"survey":"bds","sheet":"027","dag":"13049","label_bn":"13049","area_sqm":835.8},"geometry":{"type":"Polygon","coordinates":[[[90.334751,23.814288],[90.334724,23.81433],[90.33469,23.814309],[90.334707,23.814267],[90.334739,23.8142],[90.334766,23.814147],[90.334802,23.814071],[90.334836,23.814003],[90.335071,23.814139],[90.335146,23.814181],[90.335011,23.814311],[90.334802,23.814249],[90.334774,23.814266],[90.334751,23.814288]]]}},{"type":"Feature","properties":{"survey":"bds","sheet":"027","dag":"13032","label_bn":"13032","area_sqm":4311.0},"geometry":{"type":"Polygon","coordinates":[[[90.336121,23.814418],[90.33612,23.814418],[90.33604,23.814362],[90.335935,23.814293],[90.336029,23.81414],[90.336016,23.814127],[90.336078,23.814054],[90.336148,23.813947],[90.336197,23.813835],[90.336276,23.813689],[90.336344,23.81355],[90.336592,23.813066],[90.336632,23.812982],[90.336652,23.812934],[90.336813,23.812944],[90.336812,23.812949],[90.336809,23.812961],[90.3368,23.812989],[90.33679,23.813016],[90.336778,23.813055],[90.336765,23.813094],[90.336736,23.81318],[90.336707,23.813266],[90.33669,23.813334],[90.336674,23.813401],[90.336656,23.813455],[90.336638,23.81351],[90.33663,23.813549],[90.336621,23.813588],[90.336606,23.813641],[90.336591,23.813694],[90.336578,23.813742],[90.336566,23.813789],[90.336549,23.813817],[90.336533,23.813844],[90.33651,23.813875],[90.336487,23.813906],[90.336459,23.813947],[90.336431,23.813988],[90.336401,23.814026],[90.336372,23.814065],[90.336331,23.814122],[90.336289,23.81418],[90.336265,23.814212],[90.336242,23.814244],[90.336206,23.8143],[90.33617,23.814356],[90.336145,23.814387],[90.336121,23.814418]]]}},{"type":"Feature","properties":{"survey":"bds","sheet":"027","dag":"13048","label_bn":"13048","area_sqm":342.7},"geometry":{"type":"Polygon","coordinates":[[[90.334951,23.814447],[90.334951,23.814448],[90.334724,23.81433],[90.334751,23.814288],[90.334774,23.814266],[90.334802,23.814249],[90.335011,23.814311],[90.334984,23.814359],[90.334951,23.814447]]]}},{"type":"Feature","properties":{"survey":"bds","sheet":"027","dag":"13028","label_bn":"13028","area_sqm":788.6},"geometry":{"type":"Polygon","coordinates":[[[90.336094,23.814518],[90.336051,23.814582],[90.335714,23.81437],[90.335813,23.814219],[90.335935,23.814293],[90.33604,23.814362],[90.33612,23.814418],[90.336123,23.81442],[90.336077,23.814508],[90.336093,23.814517],[90.336094,23.814518]]]}},{"type":"Feature","properties":{"survey":"bds","sheet":"027","dag":"13003","label_bn":"13003","area_sqm":590.4},"geometry":{"type":"Polygon","coordinates":[[[90.334985,23.814467],[90.334916,23.814613],[90.334623,23.814443],[90.334674,23.81434],[90.33469,23.814309],[90.334724,23.81433],[90.334951,23.814448],[90.334985,23.814467]]]}},{"type":"Feature","properties":{"survey":"bds","sheet":"027","dag":"13026","label_bn":"13026","area_sqm":3183.0},"geometry":{"type":"Polygon","coordinates":[[[90.336262,23.814592],[90.336244,23.814614],[90.336181,23.814569],[90.336171,23.814562],[90.336117,23.814532],[90.336094,23.814518],[90.336093,23.814517],[90.336077,23.814508],[90.336123,23.81442],[90.33612,23.814418],[90.336121,23.814418],[90.336145,23.814387],[90.33617,23.814356],[90.336206,23.8143],[90.336242,23.814244],[90.336265,23.814212],[90.336289,23.81418],[90.336331,23.814122],[90.336372,23.814065],[90.336401,23.814026],[90.336431,23.813988],[90.336459,23.813947],[90.336487,23.813906],[90.33651,23.813875],[90.336533,23.813844],[90.336549,23.813817],[90.336566,23.813789],[90.336578,23.813742],[90.336591,23.813694],[90.336606,23.813641],[90.336621,23.813588],[90.33663,23.813549],[90.336638,23.81351],[90.336656,23.813455],[90.336674,23.813401],[90.33669,23.813334],[90.336707,23.813266],[90.336736,23.81318],[90.336765,23.813094],[90.336778,23.813055],[90.33679,23.813016],[90.3368,23.812989],[90.336809,23.812961],[90.336812,23.812949],[90.336813,23.812944],[90.336889,23.812949],[90.336629,23.813686],[90.336766,23.813734],[90.336759,23.81376],[90.336716,23.813923],[90.336711,23.813941],[90.336692,23.814009],[90.33669,23.814015],[90.336579,23.814231],[90.336572,23.814245],[90.336567,23.814254],[90.336534,23.814306],[90.336509,23.814336],[90.336484,23.814365],[90.336432,23.814433],[90.336357,23.814504],[90.336338,23.814521],[90.336338,23.814521],[90.336333,23.814527],[90.336323,23.814536],[90.336321,23.814538],[90.336292,23.814564],[90.336262,23.814592]]]}},{"type":"Feature","properties":{"survey":"bds","sheet":"027","dag":"13081","label_bn":"13081","area_sqm":374.2},"geometry":{"type":"Polygon","coordinates":[[[90.336622,23.814545],[90.336517,23.814654],[90.336478,23.814651],[90.336517,23.814616],[90.336529,23.814607],[90.336541,23.814599],[90.336584,23.814526],[90.336618,23.814467],[90.33664,23.814425],[90.336661,23.814392],[90.336693,23.814345],[90.336714,23.814315],[90.336714,23.814315],[90.336715,23.814313],[90.33674,23.814255],[90.336786,23.814164],[90.336814,23.814111],[90.336824,23.814092],[90.33683,23.814079],[90.336847,23.814046],[90.336864,23.814013],[90.336866,23.814008],[90.336897,23.813947],[90.336898,23.813944],[90.336914,23.81391],[90.336931,23.813872],[90.336942,23.813851],[90.336953,23.813831],[90.336959,23.813819],[90.336967,23.813804],[90.337008,23.813818],[90.336956,23.813936],[90.33694,23.813967],[90.33694,23.813968],[90.336912,23.814034],[90.33686,23.814111],[90.336859,23.814112],[90.336764,23.814279],[90.336732,23.814323],[90.336671,23.814413],[90.336602,23.814506],[90.336622,23.814545]]]}},{"type":"Feature","properties":{"survey":"bds","sheet":"027","dag":"13004","label_bn":"13004","area_sqm":283.2},"geometry":{"type":"Polygon","coordinates":[[[90.335134,23.814544],[90.335072,23.814661],[90.334916,23.814613],[90.334985,23.814467],[90.335049,23.814489],[90.335134,23.814544]]]}},{"type":"Feature","properties":{"survey":"bds","sheet":"027","dag":"13047","label_bn":"13047","area_sqm":3521.4},"geometry":{"type":"Polygon","coordinates":[[[90.335546,23.814365],[90.335373,23.814665],[90.335318,23.814635],[90.335238,23.8146],[90.335134,23.814544],[90.335049,23.814489],[90.334985,23.814467],[90.334951,23.814448],[90.334951,23.814447],[90.334984,23.814359],[90.335011,23.814311],[90.335146,23.814181],[90.335071,23.814139],[90.335199,23.813874],[90.335256,23.813884],[90.335309,23.813945],[90.335371,23.813981],[90.335424,23.814001],[90.335511,23.814044],[90.335577,23.814068],[90.335627,23.814107],[90.335679,23.81414],[90.335546,23.814365]]]}},{"type":"Feature","properties":{"survey":"bds","sheet":"027","dag":"13002","label_bn":"13002","area_sqm":660.4},"geometry":{"type":"Polygon","coordinates":[[[90.334916,23.814613],[90.334847,23.814743],[90.334533,23.814619],[90.334623,23.814443],[90.334916,23.814613]]]}},{"type":"Feature","properties":{"survey":"bds","sheet":"027","dag":"13022","label_bn":"13022","area_sqm":1056.8},"geometry":{"type":"Polygon","coordinates":[[[90.336402,23.814717],[90.336349,23.814757],[90.336339,23.814734],[90.336327,23.814706],[90.336326,23.814706],[90.33632,23.814697],[90.336313,23.814688],[90.336304,23.814675],[90.336295,23.814662],[90.336287,23.814653],[90.336278,23.814645],[90.336261,23.814629],[90.336253,23.814622],[90.336244,23.814614],[90.336262,23.814592],[90.336292,23.814564],[90.336321,23.814538],[90.336323,23.814536],[90.336333,23.814527],[90.336338,23.814521],[90.336338,23.814521],[90.336357,23.814504],[90.336432,23.814433],[90.336484,23.814365],[90.336509,23.814336],[90.336534,23.814306],[90.336567,23.814254],[90.336572,23.814245],[90.336714,23.814315],[90.336693,23.814345],[90.336661,23.814392],[90.33664,23.814425],[90.336618,23.814467],[90.336584,23.814526],[90.336541,23.814599],[90.336529,23.814607],[90.336517,23.814616],[90.336478,23.814651],[90.336475,23.814653],[90.336402,23.814717]]]}},{"type":"Feature","properties":{"survey":"bds","sheet":"027","dag":"13030","label_bn":"13030","area_sqm":1004.4},"geometry":{"type":"Polygon","coordinates":[[[90.335714,23.81437],[90.335474,23.814756],[90.335433,23.814709],[90.335373,23.814665],[90.335546,23.814365],[90.335679,23.81414],[90.33575,23.814182],[90.335813,23.814219],[90.335714,23.81437]]]}},{"type":"Feature","properties":{"survey":"bds","sheet":"027","dag":"13005","label_bn":"13005","area_sqm":212.9},"geometry":{"type":"Polygon","coordinates":[[[90.335072,23.814661],[90.334967,23.814761],[90.334847,23.814743],[90.334916,23.814613],[90.335072,23.814661]]]}},{"type":"Feature","properties":{"survey":"bds","sheet":"027","dag":"13006","label_bn":"13006","area_sqm":274.8},"geometry":{"type":"Polygon","coordinates":[[[90.335238,23.8146],[90.335071,23.814783],[90.334967,23.814761],[90.335072,23.814661],[90.335134,23.814544],[90.335238,23.8146]]]}},{"type":"Feature","properties":{"survey":"bds","sheet":"027","dag":"13007","label_bn":"13007","area_sqm":311.0},"geometry":{"type":"Polygon","coordinates":[[[90.335318,23.814635],[90.335211,23.814838],[90.335071,23.814783],[90.335238,23.8146],[90.335318,23.814635]]]}},{"type":"Feature","properties":{"survey":"bds","sheet":"027","dag":"13001","label_bn":"13001","area_sqm":663.4},"geometry":{"type":"Polygon","coordinates":[[[90.334847,23.814743],[90.33476,23.8149],[90.334697,23.814866],[90.334651,23.814846],[90.334539,23.814816],[90.334451,23.81479],[90.334533,23.814619],[90.334847,23.814743]]]}},{"type":"Feature","properties":{"survey":"bds","sheet":"027","dag":"13008","label_bn":"13008","area_sqm":665.9},"geometry":{"type":"Polygon","coordinates":[[[90.334982,23.81496],[90.334876,23.814998],[90.334825,23.814947],[90.33476,23.8149],[90.334847,23.814743],[90.334967,23.814761],[90.335071,23.814783],[90.335211,23.814838],[90.335125,23.814856],[90.335061,23.814879],[90.335033,23.814903],[90.334982,23.81496]]]}},{"type":"Feature","properties":{"survey":"bds","sheet":"027","dag":"13029","label_bn":"13029","area_sqm":2231.7},"geometry":{"type":"Polygon","coordinates":[[[90.33589,23.814814],[90.335697,23.815028],[90.335667,23.815001],[90.335579,23.814952],[90.335602,23.81492],[90.335581,23.814897],[90.335474,23.814756],[90.335474,23.814756],[90.335714,23.81437],[90.336051,23.814582],[90.33589,23.814814]]]}},{"type":"Feature","properties":{"survey":"bds","sheet":"027","dag":"13010","label_bn":"13010","area_sqm":102.2},"geometry":{"type":"Polygon","coordinates":[[[90.335572,23.814959],[90.335463,23.81508],[90.335436,23.815053],[90.335475,23.814996],[90.335541,23.814929],[90.335581,23.814897],[90.335602,23.81492],[90.335579,23.814952],[90.335572,23.814959]]]}},{"type":"Feature","properties":{"survey":"bds","sheet":"027","dag":"13021","label_bn":"13021","area_sqm":1958.4},"geometry":{"type":"Polygon","coordinates":[[[90.337217,23.81492],[90.337045,23.815097],[90.336792,23.814916],[90.336766,23.814885],[90.336739,23.814864],[90.336695,23.814868],[90.336589,23.814848],[90.336492,23.814786],[90.336459,23.814742],[90.336457,23.814718],[90.336495,23.814705],[90.336517,23.814654],[90.336622,23.814545],[90.336732,23.814605],[90.337153,23.814875],[90.337217,23.81492]]]}},{"type":"Feature","properties":{"survey":"bds","sheet":"027","dag":"13011","label_bn":"13011","area_sqm":277.8},"geometry":{"type":"Polygon","coordinates":[[[90.335697,23.815028],[90.335599,23.815154],[90.335463,23.81508],[90.335572,23.814959],[90.335579,23.814952],[90.335667,23.815001],[90.335697,23.815028]]]}},{"type":"Feature","properties":{"survey":"bds","sheet":"027","dag":"13009","label_bn":"13009","area_sqm":2334.9},"geometry":{"type":"Polygon","coordinates":[[[90.335463,23.81508],[90.335311,23.815195],[90.334999,23.815147],[90.334937,23.815147],[90.334927,23.815081],[90.334876,23.814998],[90.334982,23.81496],[90.335033,23.814903],[90.335061,23.814879],[90.335125,23.814856],[90.335211,23.814838],[90.335318,23.814635],[90.335373,23.814665],[90.335433,23.814709],[90.335474,23.814756],[90.335474,23.814756],[90.335581,23.814897],[90.335541,23.814929],[90.335475,23.814996],[90.335436,23.815053],[90.335463,23.81508]]]}},{"type":"Feature","properties":{"survey":"bds","sheet":"027","dag":"13020","label_bn":"13020","area_sqm":665.8},"geometry":{"type":"Polygon","coordinates":[[[90.337045,23.815097],[90.336974,23.81521],[90.336642,23.814995],[90.336695,23.814868],[90.336739,23.814864],[90.336766,23.814885],[90.336792,23.814916],[90.337045,23.815097]]]}},{"type":"Feature","properties":{"survey":"bds","sheet":"027","dag":"13027","label_bn":"13027","area_sqm":2285.2},"geometry":{"type":"Polygon","coordinates":[[[90.336189,23.814906],[90.335973,23.815221],[90.335896,23.815181],[90.335791,23.815116],[90.335727,23.815047],[90.335697,23.815028],[90.33589,23.814814],[90.336051,23.814582],[90.336094,23.814518],[90.336117,23.814532],[90.336171,23.814562],[90.336181,23.814569],[90.336244,23.814614],[90.336253,23.814622],[90.336261,23.814629],[90.336278,23.814645],[90.336287,23.814653],[90.336295,23.814662],[90.336304,23.814675],[90.336313,23.814688],[90.33632,23.814697],[90.336326,23.814706],[90.336321,23.814711],[90.33628,23.814771],[90.336189,23.814906]]]}},{"type":"Feature","properties":{"survey":"bds","sheet":"027","dag":"13014","label_bn":"13014","area_sqm":314.6},"geometry":{"type":"Polygon","coordinates":[[[90.335791,23.815116],[90.335718,23.815259],[90.335597,23.815231],[90.335599,23.815154],[90.335697,23.815028],[90.335727,23.815047],[90.335791,23.815116]]]}},{"type":"Feature","properties":{"survey":"bds","sheet":"027","dag":"13015","label_bn":"13015","area_sqm":187.3},"geometry":{"type":"Polygon","coordinates":[[[90.335896,23.815181],[90.335849,23.815277],[90.335718,23.815259],[90.335791,23.815116],[90.335896,23.815181]]]}},{"type":"Feature","properties":{"survey":"bds","sheet":"027","dag":"13012","label_bn":"13012","area_sqm":492.8},"geometry":{"type":"Polygon","coordinates":[[[90.33558,23.815274],[90.335546,23.815333],[90.335468,23.81531],[90.335384,23.815257],[90.335325,23.815206],[90.335311,23.815195],[90.335463,23.81508],[90.335599,23.815154],[90.335597,23.815231],[90.33558,23.815274]]]}},{"type":"Feature","properties":{"survey":"bds","sheet":"027","dag":"13018","label_bn":"13018","area_sqm":224.2},"geometry":{"type":"Polygon","coordinates":[[[90.336047,23.815321],[90.33605,23.815367],[90.335849,23.815277],[90.335896,23.815181],[90.335973,23.815221],[90.336067,23.81528],[90.336047,23.815321]]]}},{"type":"Feature","properties":{"survey":"bds","sheet":"027","dag":"13013","label_bn":"13013","area_sqm":164.7},"geometry":{"type":"Polygon","coordinates":[[[90.335718,23.815259],[90.335681,23.815366],[90.335546,23.815333],[90.33558,23.815274],[90.335597,23.815231],[90.335718,23.815259]]]}},{"type":"Feature","properties":{"survey":"bds","sheet":"027","dag":"13016","label_bn":"13016","area_sqm":145.9},"geometry":{"type":"Polygon","coordinates":[[[90.335809,23.815363],[90.335681,23.815366],[90.335718,23.815259],[90.335849,23.815277],[90.335809,23.815363]]]}},{"type":"Feature","properties":{"survey":"bds","sheet":"027","dag":"13019","label_bn":"13019","area_sqm":2917.3},"geometry":{"type":"Polygon","coordinates":[[[90.336385,23.815372],[90.336345,23.815401],[90.336278,23.815328],[90.336254,23.815304],[90.336189,23.815263],[90.336153,23.815249],[90.336114,23.815241],[90.336095,23.815247],[90.336067,23.81528],[90.335973,23.815221],[90.336189,23.814906],[90.33628,23.814771],[90.336321,23.814711],[90.336326,23.814706],[90.336327,23.814706],[90.336339,23.814734],[90.336349,23.814757],[90.336402,23.814717],[90.336475,23.814653],[90.336478,23.814651],[90.336517,23.814654],[90.336495,23.814705],[90.336457,23.814718],[90.336459,23.814742],[90.336492,23.814786],[90.336589,23.814848],[90.336695,23.814868],[90.336642,23.814995],[90.336385,23.815372]]]}},{"type":"Feature","properties":{"survey":"bds","sheet":"027","dag":"13017","label_bn":"13017","area_sqm":167.9},"geometry":{"type":"Polygon","coordinates":[[[90.335958,23.815382],[90.335942,23.815405],[90.335818,23.815373],[90.335809,23.815363],[90.335849,23.815277],[90.33605,23.815367],[90.335958,23.815382]]]}}]}