{"type":"FeatureCollection","features":[{"type":"Feature","properties":{"survey":"bds","sheet":"028","dag":"13558","label_bn":"13558","area_sqm":596.3},"geometry":{"type":"Polygon","coordinates":[[[90.333042,23.811504],[90.332985,23.81152],[90.332951,23.811478],[90.332887,23.811417],[90.332988,23.811375],[90.333074,23.811352],[90.333081,23.81135],[90.333145,23.811329],[90.333216,23.81128],[90.33327,23.811236],[90.333395,23.811141],[90.333461,23.811167],[90.333318,23.811284],[90.333224,23.811375],[90.33316,23.811422],[90.333046,23.811485],[90.333042,23.811504]]]}},{"type":"Feature","properties":{"survey":"bds","sheet":"028","dag":"13557","label_bn":"13557","area_sqm":1636.9},"geometry":{"type":"Polygon","coordinates":[[[90.332954,23.811661],[90.332931,23.811665],[90.332875,23.811631],[90.332847,23.811613],[90.332697,23.811513],[90.332569,23.811417],[90.332485,23.811341],[90.332465,23.811316],[90.332463,23.811316],[90.332418,23.811225],[90.332518,23.811101],[90.33264,23.811091],[90.33271,23.811213],[90.332785,23.811317],[90.332887,23.811417],[90.332951,23.811478],[90.332985,23.81152],[90.333019,23.811562],[90.333017,23.811583],[90.332993,23.811615],[90.332962,23.811651],[90.332954,23.811661]]]}},{"type":"Feature","properties":{"survey":"bds","sheet":"028","dag":"13556","label_bn":"13556","area_sqm":351.7},"geometry":{"type":"Polygon","coordinates":[[[90.332916,23.811719],[90.332875,23.81172],[90.332863,23.811684],[90.332828,23.811635],[90.332698,23.81155],[90.332583,23.811466],[90.332498,23.811387],[90.332463,23.811316],[90.332465,23.811316],[90.332485,23.811341],[90.332569,23.811417],[90.332697,23.811513],[90.332847,23.811613],[90.332875,23.811631],[90.332931,23.811665],[90.332954,23.811661],[90.332962,23.811651],[90.332993,23.811615],[90.333017,23.811583],[90.333019,23.811562],[90.332985,23.81152],[90.333042,23.811504],[90.333056,23.811549],[90.333058,23.811572],[90.333055,23.811606],[90.333038,23.811645],[90.332997,23.811706],[90.332991,23.811707],[90.332948,23.81171],[90.332916,23.811719]]]}},{"type":"Feature","properties":{"survey":"bds","sheet":"028","dag":"13559","label_bn":"13559","area_sqm":3270.9},"geometry":{"type":"Polygon","coordinates":[[[90.333785,23.811632],[90.333657,23.811737],[90.333607,23.811589],[90.333055,23.811606],[90.333058,23.811572],[90.333056,23.811549],[90.333042,23.811504],[90.333046,23.811485],[90.33316,23.811422],[90.333224,23.811375],[90.333318,23.811284],[90.333461,23.811167],[90.333548,23.811156],[90.333677,23.811176],[90.333728,23.811211],[90.333758,23.811242],[90.33388,23.811362],[90.33394,23.811428],[90.333956,23.811454],[90.333908,23.811517],[90.33384,23.811569],[90.333785,23.811632]]]}},{"type":"Feature","properties":{"survey":"bds","sheet":"028","dag":"13531","label_bn":"13531","area_sqm":1783.0},"geometry":{"type":"Polygon","coordinates":[[[90.332216,23.811766],[90.332066,23.811776],[90.332066,23.811744],[90.33206,23.811663],[90.332054,23.811649],[90.332048,23.811634],[90.332056,23.811613],[90.332106,23.811571],[90.332194,23.811501],[90.332292,23.811505],[90.332443,23.811413],[90.3326,23.811567],[90.332792,23.811712],[90.332808,23.811723],[90.332788,23.811725],[90.332577,23.811741],[90.332439,23.811752],[90.332291,23.811759],[90.332216,23.811766]]]}},{"type":"Feature","properties":{"survey":"bds","sheet":"028","dag":"13528","label_bn":"13528","area_sqm":951.2},"geometry":{"type":"Polygon","coordinates":[[[90.331434,23.811644],[90.331442,23.811813],[90.331377,23.811802],[90.331348,23.811807],[90.331277,23.81179],[90.331281,23.811639],[90.331274,23.811606],[90.331267,23.811416],[90.33126,23.811269],[90.331415,23.811268],[90.331424,23.811453],[90.331434,23.811644]]]}},{"type":"Feature","properties":{"survey":"bds","sheet":"028","dag":"13529","label_bn":"13529","area_sqm":1566.3},"geometry":{"type":"Polygon","coordinates":[[[90.331527,23.811808],[90.331442,23.811813],[90.331434,23.811644],[90.331424,23.811453],[90.331415,23.811268],[90.331487,23.81127],[90.331551,23.811283],[90.331596,23.811296],[90.331643,23.811307],[90.331682,23.811323],[90.331724,23.81136],[90.331724,23.811403],[90.33171,23.81149],[90.331703,23.811567],[90.331684,23.811655],[90.331673,23.811726],[90.331667,23.81179],[90.33162,23.811795],[90.331527,23.811808]]]}},{"type":"Feature","properties":{"survey":"bds","sheet":"028","dag":"13534","label_bn":"13534","area_sqm":24.8},"geometry":{"type":"Polygon","coordinates":[[[90.332815,23.811957],[90.332785,23.811958],[90.332781,23.811948],[90.332811,23.811836],[90.332815,23.811957]]]}},{"type":"Feature","properties":{"survey":"bds","sheet":"028","dag":"13533","label_bn":"13533","area_sqm":163.1},"geometry":{"type":"Polygon","coordinates":[[[90.332785,23.811958],[90.332713,23.81196],[90.3327,23.811939],[90.332719,23.81189],[90.332781,23.811745],[90.332788,23.811725],[90.332808,23.811723],[90.332811,23.811836],[90.332781,23.811948],[90.332785,23.811958]]]}},{"type":"Feature","properties":{"survey":"bds","sheet":"028","dag":"13530","label_bn":"13530","area_sqm":2202.8},"geometry":{"type":"Polygon","coordinates":[[[90.33204,23.811914],[90.332025,23.811966],[90.331924,23.811939],[90.331879,23.811933],[90.331827,23.811939],[90.331811,23.811909],[90.331791,23.811871],[90.331771,23.811844],[90.331746,23.811819],[90.331718,23.811798],[90.331667,23.81179],[90.331673,23.811726],[90.331684,23.811655],[90.331703,23.811567],[90.33171,23.81149],[90.331724,23.811403],[90.331724,23.81136],[90.331751,23.811355],[90.331797,23.811372],[90.331864,23.811394],[90.331893,23.811411],[90.331938,23.81142],[90.332101,23.811464],[90.332194,23.811501],[90.332106,23.811571],[90.332056,23.811613],[90.332048,23.811634],[90.332054,23.811649],[90.33206,23.811663],[90.332066,23.811744],[90.332066,23.811776],[90.332061,23.811864],[90.33204,23.811914]]]}},{"type":"Feature","properties":{"survey":"bds","sheet":"028","dag":"13532","label_bn":"13532","area_sqm":1643.3},"geometry":{"type":"Polygon","coordinates":[[[90.332431,23.811965],[90.332025,23.811966],[90.33204,23.811914],[90.332061,23.811864],[90.332066,23.811776],[90.332216,23.811766],[90.332291,23.811759],[90.332439,23.811752],[90.332577,23.811741],[90.332788,23.811725],[90.332781,23.811745],[90.332719,23.81189],[90.3327,23.811939],[90.332713,23.81196],[90.332451,23.811965],[90.332431,23.811965]]]}},{"type":"Feature","properties":{"survey":"bds","sheet":"028","dag":"13535","label_bn":"13535","area_sqm":66.2},"geometry":{"type":"Polygon","coordinates":[[[90.332925,23.812078],[90.332875,23.812087],[90.33282,23.812015],[90.332789,23.811971],[90.332785,23.811958],[90.332815,23.811957],[90.332925,23.812078]]]}},{"type":"Feature","properties":{"survey":"bds","sheet":"028","dag":"13536","label_bn":"13536","area_sqm":108.4},"geometry":{"type":"Polygon","coordinates":[[[90.332875,23.812087],[90.332808,23.812099],[90.332773,23.812045],[90.332732,23.811989],[90.332713,23.81196],[90.332785,23.811958],[90.332789,23.811971],[90.33282,23.812015],[90.332875,23.812087]]]}},{"type":"Feature","properties":{"survey":"bds","sheet":"028","dag":"13537","label_bn":"13537","area_sqm":652.4},"geometry":{"type":"Polygon","coordinates":[[[90.332808,23.812099],[90.332436,23.812166],[90.332431,23.811965],[90.332451,23.811965],[90.332713,23.81196],[90.332732,23.811989],[90.332773,23.812045],[90.332808,23.812099]]]}},{"type":"Feature","properties":{"survey":"bds","sheet":"028","dag":"13541","label_bn":"13541","area_sqm":61.4},"geometry":{"type":"Polygon","coordinates":[[[90.332991,23.8122],[90.332967,23.812222],[90.332944,23.812178],[90.332887,23.812103],[90.332875,23.812087],[90.332925,23.812078],[90.332991,23.8122]]]}},{"type":"Feature","properties":{"survey":"bds","sheet":"028","dag":"13555","label_bn":"13555","area_sqm":3904.2},"geometry":{"type":"Polygon","coordinates":[[[90.333093,23.812232],[90.333046,23.812234],[90.333049,23.812229],[90.333056,23.812205],[90.333049,23.812176],[90.333041,23.812131],[90.333027,23.812064],[90.333013,23.81204],[90.332965,23.812006],[90.33294,23.811967],[90.332913,23.811933],[90.332892,23.811879],[90.332889,23.811759],[90.332875,23.81172],[90.332916,23.811719],[90.332948,23.81171],[90.332991,23.811707],[90.332997,23.811706],[90.333038,23.811645],[90.333055,23.811606],[90.333607,23.811589],[90.333657,23.811737],[90.333609,23.811819],[90.333587,23.811848],[90.333503,23.811976],[90.333443,23.812051],[90.33342,23.812083],[90.333395,23.812139],[90.333339,23.812176],[90.33331,23.812193],[90.333284,23.812205],[90.333254,23.812205],[90.333093,23.812232]]]}},{"type":"Feature","properties":{"survey":"bds","sheet":"028","dag":"13540","label_bn":"13540","area_sqm":133.6},"geometry":{"type":"Polygon","coordinates":[[[90.33296,23.812228],[90.332894,23.812246],[90.332858,23.812177],[90.332808,23.812099],[90.332875,23.812087],[90.332887,23.812103],[90.332944,23.812178],[90.332967,23.812222],[90.33296,23.812228]]]}},{"type":"Feature","properties":{"survey":"bds","sheet":"028","dag":"13543","label_bn":"13543","area_sqm":34.7},"geometry":{"type":"Polygon","coordinates":[[[90.333044,23.812315],[90.333026,23.81232],[90.333016,23.812271],[90.333033,23.812253],[90.333046,23.812234],[90.333093,23.812232],[90.333065,23.812265],[90.333051,23.812287],[90.333044,23.812315]]]}},{"type":"Feature","properties":{"survey":"bds","sheet":"028","dag":"13538","label_bn":"13538","area_sqm":995.6},"geometry":{"type":"Polygon","coordinates":[[[90.332439,23.812329],[90.332395,23.812335],[90.33235,23.812296],[90.332319,23.812255],[90.332278,23.812211],[90.332244,23.812187],[90.332189,23.812159],[90.332145,23.812115],[90.332094,23.812066],[90.332025,23.811966],[90.332431,23.811965],[90.332436,23.812166],[90.332439,23.812329]]]}},{"type":"Feature","properties":{"survey":"bds","sheet":"028","dag":"13539","label_bn":"13539","area_sqm":856.9},"geometry":{"type":"Polygon","coordinates":[[[90.332768,23.812279],[90.332592,23.812342],[90.332502,23.81233],[90.332439,23.812329],[90.332436,23.812166],[90.332808,23.812099],[90.332858,23.812177],[90.332894,23.812246],[90.332768,23.812279]]]}},{"type":"Feature","properties":{"survey":"bds","sheet":"028","dag":"13554","label_bn":"13554","area_sqm":2766.4},"geometry":{"type":"Polygon","coordinates":[[[90.333505,23.812328],[90.33348,23.812372],[90.333254,23.812205],[90.333284,23.812205],[90.33331,23.812193],[90.333339,23.812176],[90.333395,23.812139],[90.33342,23.812083],[90.333443,23.812051],[90.333503,23.811976],[90.333587,23.811848],[90.333609,23.811819],[90.333657,23.811737],[90.333785,23.811632],[90.33384,23.811569],[90.333908,23.811517],[90.333956,23.811454],[90.334059,23.811461],[90.334076,23.81147],[90.334141,23.811533],[90.334037,23.811636],[90.333896,23.811814],[90.333816,23.811923],[90.333798,23.811997],[90.333648,23.812192],[90.333622,23.812281],[90.333544,23.812323],[90.333505,23.812328]]]}},{"type":"Feature","properties":{"survey":"bds","sheet":"028","dag":"13542","label_bn":"13542","area_sqm":1223.7},"geometry":{"type":"Polygon","coordinates":[[[90.332731,23.812363],[90.332647,23.812403],[90.332614,23.812367],[90.332592,23.812342],[90.332768,23.812279],[90.332894,23.812246],[90.33296,23.812228],[90.332967,23.812222],[90.332991,23.8122],[90.332925,23.812078],[90.332815,23.811957],[90.332811,23.811836],[90.332808,23.811723],[90.332792,23.811712],[90.3326,23.811567],[90.332443,23.811413],[90.332461,23.811405],[90.332498,23.811387],[90.332583,23.811466],[90.332698,23.81155],[90.332828,23.811635],[90.332863,23.811684],[90.332875,23.81172],[90.332889,23.811759],[90.332892,23.811879],[90.332913,23.811933],[90.33294,23.811967],[90.332965,23.812006],[90.333013,23.81204],[90.333027,23.812064],[90.333041,23.812131],[90.333049,23.812176],[90.333056,23.812205],[90.333049,23.812229],[90.333046,23.812234],[90.333033,23.812253],[90.333016,23.812271],[90.332995,23.812286],[90.332939,23.812304],[90.332837,23.812319],[90.332731,23.812363]]]}},{"type":"Feature","properties":{"survey":"bds","sheet":"028","dag":"13544","label_bn":"13544","area_sqm":191.2},"geometry":{"type":"Polygon","coordinates":[[[90.332627,23.812424],[90.332623,23.812425],[90.332625,23.812419],[90.332647,23.812403],[90.332731,23.812363],[90.332837,23.812319],[90.332939,23.812304],[90.332995,23.812286],[90.333016,23.812271],[90.333026,23.81232],[90.332959,23.812338],[90.332848,23.812376],[90.332782,23.812393],[90.332701,23.812412],[90.332627,23.812424]]]}},{"type":"Feature","properties":{"survey":"bds","sheet":"028","dag":"13553","label_bn":"13553","area_sqm":1434.0},"geometry":{"type":"Polygon","coordinates":[[[90.334047,23.812339],[90.334008,23.812443],[90.333932,23.812436],[90.333844,23.812384],[90.333767,23.81233],[90.333666,23.812301],[90.333622,23.812281],[90.333648,23.812192],[90.333798,23.811997],[90.333964,23.812095],[90.334124,23.81219],[90.334047,23.812339]]]}},{"type":"Feature","properties":{"survey":"bds","sheet":"028","dag":"13525","label_bn":"13525","area_sqm":178.3},"geometry":{"type":"Polygon","coordinates":[[[90.3324,23.812462],[90.332311,23.812471],[90.332306,23.812425],[90.332352,23.812407],[90.332402,23.812393],[90.33244,23.812385],[90.332496,23.812381],[90.332559,23.812376],[90.332571,23.812374],[90.332568,23.812378],[90.332543,23.812437],[90.332543,23.812439],[90.33252,23.812443],[90.3324,23.812462]]]}},{"type":"Feature","properties":{"survey":"bds","sheet":"028","dag":"13527","label_bn":"13527","area_sqm":2240.3},"geometry":{"type":"Polygon","coordinates":[[[90.33164,23.812082],[90.331663,23.812487],[90.331522,23.812477],[90.331422,23.812469],[90.331406,23.812477],[90.33138,23.812435],[90.331339,23.812334],[90.331331,23.812279],[90.331332,23.812207],[90.331344,23.812093],[90.331346,23.812021],[90.331346,23.811917],[90.331348,23.811807],[90.331377,23.811802],[90.331442,23.811813],[90.331527,23.811808],[90.33162,23.811795],[90.331626,23.811938],[90.33164,23.812082]]]}},{"type":"Feature","properties":{"survey":"bds","sheet":"028","dag":"13526","label_bn":"13526","area_sqm":3753.6},"geometry":{"type":"Polygon","coordinates":[[[90.332013,23.812476],[90.331955,23.812519],[90.331941,23.812518],[90.33174,23.812497],[90.331739,23.812497],[90.331663,23.812487],[90.33164,23.812082],[90.331626,23.811938],[90.33162,23.811795],[90.331667,23.81179],[90.331718,23.811798],[90.331746,23.811819],[90.331771,23.811844],[90.331791,23.811871],[90.331811,23.811909],[90.331827,23.811939],[90.331879,23.811933],[90.331924,23.811939],[90.332025,23.811966],[90.332094,23.812066],[90.332145,23.812115],[90.332189,23.812159],[90.332244,23.812187],[90.332278,23.812211],[90.332319,23.812255],[90.33235,23.812296],[90.332395,23.812335],[90.332339,23.812392],[90.332288,23.812416],[90.332154,23.812435],[90.332013,23.812476]]]}},{"type":"Feature","properties":{"survey":"bds","sheet":"028","dag":"13545","label_bn":"13545","area_sqm":1765.2},"geometry":{"type":"Polygon","coordinates":[[[90.333101,23.812694],[90.332641,23.812753],[90.332628,23.812644],[90.332618,23.812521],[90.332612,23.812468],[90.332616,23.812439],[90.332623,23.812425],[90.332627,23.812424],[90.332701,23.812412],[90.332782,23.812393],[90.332848,23.812376],[90.332959,23.812338],[90.333026,23.81232],[90.333051,23.812442],[90.333101,23.812694]]]}},{"type":"Feature","properties":{"survey":"bds","sheet":"028","dag":"13552","label_bn":"13552","area_sqm":3332.9},"geometry":{"type":"Polygon","coordinates":[[[90.334225,23.813014],[90.334112,23.813024],[90.333997,23.812956],[90.333916,23.812873],[90.333817,23.812775],[90.33383,23.812725],[90.333547,23.812446],[90.33348,23.812372],[90.333505,23.812328],[90.333544,23.812323],[90.333622,23.812281],[90.333666,23.812301],[90.333767,23.81233],[90.333844,23.812384],[90.333932,23.812436],[90.334008,23.812443],[90.334143,23.812579],[90.334229,23.812654],[90.334197,23.81275],[90.334411,23.812843],[90.334392,23.81289],[90.334404,23.812912],[90.334397,23.812948],[90.334345,23.81299],[90.334225,23.813014]]]}},{"type":"Feature","properties":{"survey":"bds","sheet":"028","dag":"13546","label_bn":"13546","area_sqm":1479.4},"geometry":{"type":"Polygon","coordinates":[[[90.332865,23.813034],[90.332843,23.81305],[90.332801,23.813025],[90.33273,23.812999],[90.332683,23.812981],[90.332662,23.812965],[90.332652,23.812921],[90.332647,23.812822],[90.332641,23.812753],[90.333101,23.812694],[90.333147,23.812935],[90.333044,23.812966],[90.332865,23.813034]]]}},{"type":"Feature","properties":{"survey":"bds","sheet":"028","dag":"13524","label_bn":"13524","area_sqm":5188.1},"geometry":{"type":"Polygon","coordinates":[[[90.332185,23.813145],[90.332075,23.813182],[90.332053,23.813153],[90.331812,23.813105],[90.331955,23.812519],[90.332013,23.812476],[90.332154,23.812435],[90.332288,23.812416],[90.332339,23.812392],[90.332395,23.812335],[90.332439,23.812329],[90.332502,23.81233],[90.332592,23.812342],[90.332571,23.812374],[90.332559,23.812376],[90.332496,23.812381],[90.33244,23.812385],[90.332402,23.812393],[90.332352,23.812407],[90.332306,23.812425],[90.332311,23.812471],[90.3324,23.812462],[90.33252,23.812443],[90.332543,23.812439],[90.332546,23.812503],[90.33256,23.812578],[90.332583,23.812752],[90.33259,23.812866],[90.332583,23.812984],[90.332603,23.813003],[90.332355,23.813059],[90.332304,23.813099],[90.332239,23.813136],[90.332185,23.813145]]]}},{"type":"Feature","properties":{"survey":"bds","sheet":"028","dag":"13547","label_bn":"13547","area_sqm":743.7},"geometry":{"type":"Polygon","coordinates":[[[90.333088,23.813234],[90.33306,23.813238],[90.333033,23.813236],[90.333012,23.813232],[90.332993,23.813219],[90.332963,23.813169],[90.332939,23.813134],[90.332917,23.813109],[90.332868,23.81307],[90.332843,23.81305],[90.332865,23.813034],[90.333044,23.812966],[90.333147,23.812935],[90.333201,23.81323],[90.333162,23.813224],[90.333123,23.813226],[90.333088,23.813234]]]}},{"type":"Feature","properties":{"survey":"bds","sheet":"028","dag":"13523","label_bn":"13523","area_sqm":4613.3},"geometry":{"type":"Polygon","coordinates":[[[90.331522,23.812477],[90.331663,23.812487],[90.331739,23.812497],[90.33174,23.812497],[90.331941,23.812518],[90.331955,23.812519],[90.331812,23.813105],[90.331756,23.813281],[90.331703,23.813268],[90.331505,23.813204],[90.331415,23.813175],[90.331329,23.813142],[90.331267,23.813096],[90.331281,23.81299],[90.331311,23.812754],[90.331334,23.812578],[90.331371,23.812528],[90.331406,23.812477],[90.331422,23.812469],[90.331522,23.812477]]]}},{"type":"Feature","properties":{"survey":"bds","sheet":"028","dag":"13551","label_bn":"13551","area_sqm":8063.6},"geometry":{"type":"Polygon","coordinates":[[[90.334278,23.813161],[90.334182,23.813304],[90.334048,23.813259],[90.333899,23.813214],[90.333866,23.81321],[90.333755,23.813208],[90.333523,23.813224],[90.333416,23.813236],[90.333325,23.813251],[90.333302,23.813257],[90.333279,23.813279],[90.33326,23.813258],[90.333244,23.813242],[90.333201,23.81323],[90.333147,23.812935],[90.333101,23.812694],[90.333051,23.812442],[90.333026,23.81232],[90.333044,23.812315],[90.333051,23.812287],[90.333065,23.812265],[90.333093,23.812232],[90.333254,23.812205],[90.33348,23.812372],[90.333547,23.812446],[90.33383,23.812725],[90.333817,23.812775],[90.333916,23.812873],[90.333997,23.812956],[90.334112,23.813024],[90.334112,23.813024],[90.334278,23.813161]]]}},{"type":"Feature","properties":{"survey":"bds","sheet":"028","dag":"13504","label_bn":"13504","area_sqm":118.3},"geometry":{"type":"Polygon","coordinates":[[[90.331723,23.813352],[90.331721,23.813375],[90.331684,23.81337],[90.33164,23.813358],[90.331594,23.813339],[90.33152,23.813307],[90.33149,23.813289],[90.331441,23.813255],[90.331369,23.813213],[90.331358,23.813207],[90.331399,23.813218],[90.331489,23.813258],[90.331723,23.813352]]]}},{"type":"Feature","properties":{"survey":"bds","sheet":"028","dag":"13548","label_bn":"13548","area_sqm":1015.7},"geometry":{"type":"Polygon","coordinates":[[[90.333333,23.813435],[90.333292,23.813473],[90.333251,23.813415],[90.333224,23.813314],[90.33318,23.813311],[90.33315,23.813279],[90.333062,23.813286],[90.332979,23.813273],[90.332958,23.813253],[90.332949,23.813239],[90.332932,23.813219],[90.332912,23.813177],[90.332895,23.813149],[90.332871,23.813129],[90.332842,23.813111],[90.33282,23.813091],[90.332792,23.813076],[90.332769,23.813068],[90.332742,23.813053],[90.332689,23.81304],[90.332662,23.813031],[90.332638,23.813021],[90.332604,23.813003],[90.332603,23.813003],[90.332583,23.812984],[90.33259,23.812866],[90.332583,23.812752],[90.33256,23.812578],[90.332546,23.812503],[90.332543,23.812439],[90.332543,23.812437],[90.332568,23.812378],[90.332571,23.812374],[90.332592,23.812342],[90.332614,23.812367],[90.332647,23.812403],[90.332625,23.812419],[90.332623,23.812425],[90.332616,23.812439],[90.332612,23.812468],[90.332618,23.812521],[90.332628,23.812644],[90.332641,23.812753],[90.332647,23.812822],[90.332652,23.812921],[90.332662,23.812965],[90.332683,23.812981],[90.33273,23.812999],[90.332801,23.813025],[90.332843,23.81305],[90.332868,23.81307],[90.332917,23.813109],[90.332939,23.813134],[90.332963,23.813169],[90.332993,23.813219],[90.333012,23.813232],[90.333033,23.813236],[90.33306,23.813238],[90.333088,23.813234],[90.333123,23.813226],[90.333162,23.813224],[90.333201,23.81323],[90.333244,23.813242],[90.33326,23.813258],[90.333279,23.813279],[90.333293,23.813304],[90.333302,23.813333],[90.333298,23.813371],[90.333304,23.813398],[90.333314,23.813416],[90.333333,23.813435]]]}},{"type":"Feature","properties":{"survey":"bds","sheet":"028","dag":"13519","label_bn":"13519","area_sqm":1964.8},"geometry":{"type":"Polygon","coordinates":[[[90.332572,23.813325],[90.332554,23.813493],[90.332261,23.813417],[90.332065,23.813347],[90.332075,23.813182],[90.332185,23.813145],[90.332239,23.813136],[90.332304,23.813099],[90.332355,23.813059],[90.332603,23.813003],[90.332604,23.813003],[90.332572,23.813325]]]}},{"type":"Feature","properties":{"survey":"bds","sheet":"028","dag":"13549","label_bn":"13549","area_sqm":1523.2},"geometry":{"type":"Polygon","coordinates":[[[90.333809,23.813366],[90.333722,23.813518],[90.33362,23.813504],[90.333532,23.813491],[90.333461,23.813476],[90.333392,23.81346],[90.333357,23.813447],[90.333333,23.813435],[90.333314,23.813416],[90.333304,23.813398],[90.333298,23.813371],[90.333302,23.813333],[90.333293,23.813304],[90.333279,23.813279],[90.333302,23.813257],[90.333325,23.813251],[90.333416,23.813236],[90.333523,23.813224],[90.333755,23.813208],[90.333866,23.81321],[90.333899,23.813214],[90.333809,23.813366]]]}},{"type":"Feature","properties":{"survey":"bds","sheet":"028","dag":"13550","label_bn":"13550","area_sqm":1083.9},"geometry":{"type":"Polygon","coordinates":[[[90.334182,23.813304],[90.333992,23.813594],[90.333961,23.813582],[90.333943,23.813571],[90.333919,23.81356],[90.333894,23.81355],[90.333868,23.813543],[90.33383,23.813536],[90.333782,23.813529],[90.333781,23.813529],[90.333722,23.813518],[90.333809,23.813366],[90.333899,23.813214],[90.334048,23.813259],[90.334182,23.813304]]]}},{"type":"Feature","properties":{"survey":"bds","sheet":"028","dag":"13516","label_bn":"13516","area_sqm":547.0},"geometry":{"type":"Polygon","coordinates":[[[90.333231,23.813502],[90.333182,23.81364],[90.333085,23.813618],[90.3331,23.813522],[90.333097,23.813427],[90.333081,23.813345],[90.333062,23.813286],[90.33315,23.813279],[90.33318,23.813311],[90.333224,23.813314],[90.333251,23.813415],[90.333292,23.813473],[90.333231,23.813502]]]}},{"type":"Feature","properties":{"survey":"bds","sheet":"028","dag":"13517","label_bn":"13517","area_sqm":602.8},"geometry":{"type":"Polygon","coordinates":[[[90.333085,23.813618],[90.333002,23.813747],[90.33291,23.813685],[90.332952,23.813612],[90.332963,23.813554],[90.332976,23.813434],[90.332979,23.813273],[90.333062,23.813286],[90.333081,23.813345],[90.333097,23.813427],[90.3331,23.813522],[90.333085,23.813618]]]}},{"type":"Feature","properties":{"survey":"bds","sheet":"028","dag":"13503","label_bn":"13503","area_sqm":2022.4},"geometry":{"type":"Polygon","coordinates":[[[90.331346,23.813775],[90.331288,23.813811],[90.331221,23.813748],[90.331259,23.813502],[90.331266,23.813382],[90.33129,23.813191],[90.331335,23.813201],[90.331358,23.813207],[90.331369,23.813213],[90.331441,23.813255],[90.33149,23.813289],[90.33152,23.813307],[90.331594,23.813339],[90.33164,23.813358],[90.331684,23.81337],[90.331721,23.813375],[90.331723,23.813352],[90.331732,23.813356],[90.331732,23.813397],[90.331651,23.81349],[90.331605,23.813534],[90.331568,23.813581],[90.331554,23.813624],[90.331556,23.813683],[90.331513,23.813714],[90.331452,23.813748],[90.331346,23.813775]]]}},{"type":"Feature","properties":{"survey":"bds","sheet":"028","dag":"13515","label_bn":"13515","area_sqm":2018.0},"geometry":{"type":"Polygon","coordinates":[[[90.333954,23.813716],[90.333812,23.813938],[90.333657,23.813837],[90.333509,23.813776],[90.333425,23.813731],[90.333182,23.81364],[90.333231,23.813502],[90.333292,23.813473],[90.333471,23.813532],[90.333629,23.813557],[90.333765,23.813579],[90.333844,23.813597],[90.333895,23.813615],[90.333931,23.81364],[90.333954,23.813716]]]}},{"type":"Feature","properties":{"survey":"bds","sheet":"028","dag":"13518","label_bn":"13518","area_sqm":3893.5},"geometry":{"type":"Polygon","coordinates":[[[90.333009,23.81393],[90.332761,23.813942],[90.332574,23.813887],[90.332537,23.813877],[90.332531,23.813817],[90.33255,23.813537],[90.332554,23.813493],[90.332572,23.813325],[90.332604,23.813003],[90.332638,23.813021],[90.332662,23.813031],[90.332689,23.81304],[90.332742,23.813053],[90.332769,23.813068],[90.332792,23.813076],[90.33282,23.813091],[90.332842,23.813111],[90.332871,23.813129],[90.332895,23.813149],[90.332912,23.813177],[90.332932,23.813219],[90.332949,23.813239],[90.332958,23.813253],[90.332979,23.813273],[90.332976,23.813434],[90.332963,23.813554],[90.332952,23.813612],[90.33291,23.813685],[90.333002,23.813747],[90.332986,23.813862],[90.333009,23.81393]]]}},{"type":"Feature","properties":{"survey":"bds","sheet":"028","dag":"13522","label_bn":"13522","area_sqm":2313.7},"geometry":{"type":"Polygon","coordinates":[[[90.332001,23.813794],[90.331982,23.813997],[90.331819,23.813992],[90.331804,23.813833],[90.331782,23.813638],[90.33179,23.813452],[90.331814,23.813386],[90.331806,23.813338],[90.331787,23.81331],[90.331756,23.813281],[90.331812,23.813105],[90.332053,23.813153],[90.332075,23.813182],[90.332065,23.813347],[90.332052,23.813408],[90.332028,23.813574],[90.332017,23.813586],[90.332001,23.813794]]]}},{"type":"Feature","properties":{"survey":"bds","sheet":"028","dag":"13509","label_bn":"13509","area_sqm":1468.6},"geometry":{"type":"Polygon","coordinates":[[[90.333509,23.813776],[90.333326,23.814004],[90.333009,23.81393],[90.332986,23.813862],[90.333002,23.813747],[90.333085,23.813618],[90.333182,23.81364],[90.333425,23.813731],[90.333509,23.813776]]]}},{"type":"Feature","properties":{"survey":"bds","sheet":"028","dag":"13521","label_bn":"13521","area_sqm":1530.0},"geometry":{"type":"Polygon","coordinates":[[[90.33222,23.813918],[90.332212,23.814011],[90.332127,23.814006],[90.331982,23.813997],[90.332001,23.813794],[90.332017,23.813586],[90.332028,23.813574],[90.332052,23.813408],[90.332065,23.813347],[90.332261,23.813417],[90.332245,23.81346],[90.332218,23.813802],[90.33222,23.813918]]]}},{"type":"Feature","properties":{"survey":"bds","sheet":"028","dag":"13520","label_bn":"13520","area_sqm":2279.9},"geometry":{"type":"Polygon","coordinates":[[[90.332761,23.813942],[90.332749,23.814027],[90.332657,23.814024],[90.332558,23.814018],[90.332441,23.814014],[90.332411,23.814017],[90.332212,23.814011],[90.33222,23.813918],[90.332218,23.813802],[90.332245,23.81346],[90.332261,23.813417],[90.332554,23.813493],[90.33255,23.813537],[90.332531,23.813817],[90.332537,23.813877],[90.332574,23.813887],[90.332761,23.813942]]]}},{"type":"Feature","properties":{"survey":"bds","sheet":"028","dag":"13506","label_bn":"13506","area_sqm":767.7},"geometry":{"type":"Polygon","coordinates":[[[90.331794,23.814065],[90.33177,23.814075],[90.331736,23.814011],[90.331704,23.8139],[90.331675,23.813798],[90.331633,23.813708],[90.331619,23.813645],[90.331636,23.813597],[90.331687,23.813533],[90.33179,23.813452],[90.331782,23.813638],[90.331804,23.813833],[90.331819,23.813992],[90.331794,23.814065]]]}},{"type":"Feature","properties":{"survey":"bds","sheet":"028","dag":"13502","label_bn":"13502","area_sqm":986.0},"geometry":{"type":"Polygon","coordinates":[[[90.33163,23.813856],[90.331674,23.814085],[90.331546,23.814059],[90.331408,23.814008],[90.331384,23.813952],[90.331288,23.813811],[90.331346,23.813775],[90.331452,23.813748],[90.331513,23.813714],[90.331556,23.813683],[90.33163,23.813856]]]}},{"type":"Feature","properties":{"survey":"bds","sheet":"028","dag":"13508","label_bn":"13508","area_sqm":1661.9},"geometry":{"type":"Polygon","coordinates":[[[90.33322,23.814229],[90.332992,23.814234],[90.33277,23.814224],[90.332749,23.814027],[90.332761,23.813942],[90.333009,23.81393],[90.333326,23.814004],[90.333285,23.8141],[90.333246,23.814206],[90.33322,23.814229]]]}},{"type":"Feature","properties":{"survey":"bds","sheet":"028","dag":"13514","label_bn":"13514","area_sqm":1123.5},"geometry":{"type":"Polygon","coordinates":[[[90.334724,23.81433],[90.334674,23.81434],[90.334672,23.814339],[90.334597,23.814291],[90.334525,23.814263],[90.334345,23.814211],[90.334233,23.8142],[90.334223,23.814193],[90.334213,23.814187],[90.33421,23.814154],[90.334216,23.814106],[90.33423,23.814055],[90.334229,23.814013],[90.334184,23.813943],[90.334146,23.813908],[90.334102,23.813889],[90.334087,23.813857],[90.334045,23.813809],[90.334007,23.813768],[90.333954,23.813716],[90.333931,23.81364],[90.333895,23.813615],[90.333844,23.813597],[90.333765,23.813579],[90.333629,23.813557],[90.333471,23.813532],[90.333292,23.813473],[90.333333,23.813435],[90.333357,23.813447],[90.333392,23.81346],[90.333461,23.813476],[90.333532,23.813491],[90.33362,23.813504],[90.333722,23.813518],[90.333781,23.813529],[90.333782,23.813529],[90.33383,23.813536],[90.333868,23.813543],[90.333894,23.81355],[90.333919,23.81356],[90.333943,23.813571],[90.333961,23.813582],[90.333992,23.813594],[90.333995,23.813613],[90.334006,23.813643],[90.334019,23.813676],[90.334027,23.813702],[90.334036,23.813721],[90.334052,23.813743],[90.334076,23.813766],[90.334101,23.813799],[90.334128,23.813827],[90.33417,23.81386],[90.334201,23.813874],[90.334211,23.813892],[90.334232,23.813909],[90.334257,23.813932],[90.334269,23.81395],[90.334279,23.813969],[90.334286,23.814027],[90.33427,23.814107],[90.334267,23.814127],[90.334273,23.814146],[90.334292,23.814156],[90.334436,23.814184],[90.334459,23.814199],[90.334525,23.814217],[90.334644,23.814263],[90.334707,23.814267],[90.334724,23.81433]]]}},{"type":"Feature","properties":{"survey":"bds","sheet":"028","dag":"13510","label_bn":"13510","area_sqm":3116.7},"geometry":{"type":"Polygon","coordinates":[[[90.333519,23.814304],[90.333357,23.814451],[90.333207,23.814402],[90.332908,23.814375],[90.332785,23.814354],[90.33277,23.814224],[90.332992,23.814234],[90.33322,23.814229],[90.333246,23.814206],[90.333285,23.8141],[90.333326,23.814004],[90.333509,23.813776],[90.333657,23.813837],[90.333812,23.813938],[90.333519,23.814304]]]}},{"type":"Feature","properties":{"survey":"bds","sheet":"028","dag":"13501","label_bn":"13501","area_sqm":1832.2},"geometry":{"type":"Polygon","coordinates":[[[90.331236,23.814451],[90.331161,23.814468],[90.331064,23.814235],[90.331042,23.814124],[90.331131,23.814109],[90.331301,23.814055],[90.331408,23.814008],[90.331546,23.814059],[90.331674,23.814085],[90.331451,23.814333],[90.331381,23.814371],[90.331236,23.814451]]]}},{"type":"Feature","properties":{"survey":"bds","sheet":"028","dag":"13505","label_bn":"13505","area_sqm":1483.4},"geometry":{"type":"Polygon","coordinates":[[[90.331268,23.814496],[90.331184,23.814526],[90.331161,23.814468],[90.331236,23.814451],[90.331381,23.814371],[90.331451,23.814333],[90.331674,23.814085],[90.33163,23.813856],[90.331556,23.813683],[90.331554,23.813624],[90.331568,23.813581],[90.331605,23.813534],[90.331651,23.81349],[90.331732,23.813397],[90.331732,23.813356],[90.331723,23.813352],[90.331489,23.813258],[90.331399,23.813218],[90.331358,23.813207],[90.331335,23.813201],[90.33129,23.813191],[90.331302,23.813177],[90.331329,23.813142],[90.331415,23.813175],[90.331505,23.813204],[90.331703,23.813268],[90.331756,23.813281],[90.331787,23.81331],[90.331806,23.813338],[90.331814,23.813386],[90.33179,23.813452],[90.331687,23.813533],[90.331636,23.813597],[90.331619,23.813645],[90.331633,23.813708],[90.331675,23.813798],[90.331704,23.8139],[90.331736,23.814011],[90.33177,23.814075],[90.33177,23.814108],[90.331483,23.814377],[90.331413,23.814415],[90.331268,23.814496]]]}},{"type":"Feature","properties":{"survey":"bds","sheet":"028","dag":"13513","label_bn":"13513","area_sqm":2998.7},"geometry":{"type":"Polygon","coordinates":[[[90.334533,23.814619],[90.334451,23.81479],[90.334059,23.814782],[90.333993,23.814785],[90.334213,23.814187],[90.334223,23.814193],[90.334233,23.8142],[90.334345,23.814211],[90.334525,23.814263],[90.334597,23.814291],[90.334672,23.814339],[90.334674,23.81434],[90.334623,23.814443],[90.334533,23.814619]]]}},{"type":"Feature","properties":{"survey":"bds","sheet":"028","dag":"13511","label_bn":"13511","area_sqm":3541.8},"geometry":{"type":"Polygon","coordinates":[[[90.333652,23.814615],[90.333518,23.814842],[90.333193,23.814691],[90.333357,23.814451],[90.333519,23.814304],[90.333812,23.813938],[90.333954,23.813716],[90.334007,23.813768],[90.334045,23.813809],[90.334087,23.813857],[90.333652,23.814615]]]}},{"type":"Feature","properties":{"survey":"bds","sheet":"028","dag":"13507","label_bn":"13507","area_sqm":14614.1},"geometry":{"type":"Polygon","coordinates":[[[90.333193,23.814691],[90.332898,23.81489],[90.332516,23.814574],[90.332181,23.814859],[90.332106,23.814864],[90.331784,23.814863],[90.331608,23.814843],[90.33151,23.814824],[90.33136,23.814831],[90.331231,23.814818],[90.331106,23.814788],[90.330952,23.814737],[90.330899,23.814685],[90.330961,23.814621],[90.331029,23.814573],[90.331189,23.814538],[90.331184,23.814526],[90.331268,23.814496],[90.331413,23.814415],[90.331483,23.814377],[90.33177,23.814108],[90.33177,23.814075],[90.331794,23.814065],[90.331819,23.813992],[90.331982,23.813997],[90.332127,23.814006],[90.332212,23.814011],[90.332411,23.814017],[90.332441,23.814014],[90.332558,23.814018],[90.332657,23.814024],[90.332749,23.814027],[90.33277,23.814224],[90.332785,23.814354],[90.332908,23.814375],[90.333207,23.814402],[90.333357,23.814451],[90.333193,23.814691]]]}},{"type":"Feature","properties":{"survey":"bds","sheet":"028","dag":"13512","label_bn":"13512","area_sqm":3711.0},"geometry":{"type":"Polygon","coordinates":[[[90.333777,23.814929],[90.333773,23.814933],[90.333623,23.814886],[90.333518,23.814842],[90.333652,23.814615],[90.334087,23.813857],[90.334102,23.813889],[90.334146,23.813908],[90.334184,23.813943],[90.334229,23.814013],[90.33423,23.814055],[90.334216,23.814106],[90.33421,23.814154],[90.334213,23.814187],[90.333993,23.814785],[90.333943,23.814777],[90.333903,23.814799],[90.33387,23.814819],[90.33384,23.814853],[90.333798,23.814898],[90.333798,23.814898],[90.333777,23.814929]]]}}]}