{"type":"FeatureCollection","features":[{"type":"Feature","properties":{"survey":"bds","sheet":"029","dag":"14071","label_bn":"14071","area_sqm":56.5},"geometry":{"type":"Polygon","coordinates":[[[90.331193,23.811153],[90.331128,23.81119],[90.331205,23.811099],[90.331272,23.811102],[90.331283,23.811143],[90.331246,23.811141],[90.331193,23.811153]]]}},{"type":"Feature","properties":{"survey":"bds","sheet":"029","dag":"14067","label_bn":"14067","area_sqm":240.2},"geometry":{"type":"Polygon","coordinates":[[[90.330219,23.811327],[90.33006,23.811333],[90.329973,23.811298],[90.329989,23.811292],[90.330075,23.811258],[90.330101,23.811253],[90.33021,23.811257],[90.330307,23.811279],[90.330325,23.811288],[90.330351,23.811316],[90.330353,23.811328],[90.330321,23.811326],[90.330219,23.811327]]]}},{"type":"Feature","properties":{"survey":"bds","sheet":"029","dag":"14069","label_bn":"14069","area_sqm":65.5},"geometry":{"type":"Polygon","coordinates":[[[90.33084,23.811335],[90.330734,23.811349],[90.330733,23.811346],[90.330749,23.81131],[90.330808,23.811299],[90.330931,23.811298],[90.330939,23.811298],[90.330893,23.811319],[90.33084,23.811335]]]}},{"type":"Feature","properties":{"survey":"bds","sheet":"029","dag":"14068","label_bn":"14068","area_sqm":162.3},"geometry":{"type":"Polygon","coordinates":[[[90.330383,23.811405],[90.330354,23.811407],[90.330358,23.811366],[90.330578,23.811332],[90.330586,23.811327],[90.330595,23.81132],[90.330617,23.811323],[90.330673,23.81133],[90.330733,23.811346],[90.330734,23.811349],[90.330701,23.811353],[90.330608,23.811371],[90.330424,23.811399],[90.330383,23.811405]]]}},{"type":"Feature","properties":{"survey":"bds","sheet":"029","dag":"14066","label_bn":"14066","area_sqm":330.7},"geometry":{"type":"Polygon","coordinates":[[[90.330156,23.811411],[90.330068,23.811413],[90.330056,23.811402],[90.329948,23.811308],[90.329973,23.811298],[90.33006,23.811333],[90.330219,23.811327],[90.330321,23.811326],[90.330353,23.811328],[90.330358,23.811366],[90.330354,23.811407],[90.330322,23.811409],[90.330156,23.811411]]]}},{"type":"Feature","properties":{"survey":"bds","sheet":"029","dag":"14044","label_bn":"14044","area_sqm":23.0},"geometry":{"type":"Polygon","coordinates":[[[90.3295,23.811398],[90.329597,23.811416],[90.329482,23.811403],[90.329435,23.8114],[90.329435,23.811366],[90.329428,23.811351],[90.3295,23.811398]]]}},{"type":"Feature","properties":{"survey":"bds","sheet":"029","dag":"14045","label_bn":"14045","area_sqm":167.9},"geometry":{"type":"Polygon","coordinates":[[[90.329907,23.811368],[90.32996,23.81139],[90.329987,23.811417],[90.329947,23.811421],[90.329864,23.811426],[90.329804,23.81143],[90.329612,23.811418],[90.329608,23.811418],[90.329854,23.81136],[90.329907,23.811368]]]}},{"type":"Feature","properties":{"survey":"bds","sheet":"029","dag":"14064","label_bn":"14064","area_sqm":35.6},"geometry":{"type":"Polygon","coordinates":[[[90.330325,23.8115],[90.330305,23.811564],[90.330303,23.81156],[90.330304,23.811546],[90.330307,23.811502],[90.330313,23.811457],[90.330322,23.811409],[90.330354,23.811407],[90.330354,23.811417],[90.330325,23.8115]]]}},{"type":"Feature","properties":{"survey":"bds","sheet":"029","dag":"14065","label_bn":"14065","area_sqm":256.3},"geometry":{"type":"Polygon","coordinates":[[[90.330305,23.811564],[90.330303,23.811569],[90.330161,23.811497],[90.330068,23.811413],[90.330156,23.811411],[90.330322,23.811409],[90.330313,23.811457],[90.330307,23.811502],[90.330304,23.811546],[90.330303,23.81156],[90.330305,23.811564]]]}},{"type":"Feature","properties":{"survey":"bds","sheet":"029","dag":"14046","label_bn":"14046","area_sqm":3888.4},"geometry":{"type":"Polygon","coordinates":[[[90.330014,23.811445],[90.330064,23.811493],[90.330117,23.81154],[90.330187,23.811585],[90.330393,23.811687],[90.330434,23.811738],[90.330431,23.811749],[90.330164,23.811774],[90.330045,23.811798],[90.33001,23.811803],[90.329909,23.811821],[90.329804,23.811846],[90.329668,23.811869],[90.329433,23.811918],[90.329424,23.811786],[90.329396,23.811622],[90.329402,23.811334],[90.329428,23.811351],[90.329435,23.811366],[90.329435,23.8114],[90.329482,23.811403],[90.329597,23.811416],[90.329606,23.811418],[90.329608,23.811418],[90.329612,23.811418],[90.329804,23.81143],[90.329864,23.811426],[90.329947,23.811421],[90.329987,23.811417],[90.330014,23.811445]]]}},{"type":"Feature","properties":{"survey":"bds","sheet":"029","dag":"14063","label_bn":"14063","area_sqm":104.6},"geometry":{"type":"Polygon","coordinates":[[[90.33038,23.811595],[90.330382,23.811603],[90.330311,23.811573],[90.330303,23.811569],[90.330305,23.811564],[90.330325,23.8115],[90.330354,23.811417],[90.330354,23.811407],[90.330383,23.811405],[90.330375,23.811503],[90.33038,23.811595]]]}},{"type":"Feature","properties":{"survey":"bds","sheet":"029","dag":"14043","label_bn":"14043","area_sqm":888.6},"geometry":{"type":"Polygon","coordinates":[[[90.329402,23.811334],[90.329396,23.811622],[90.329298,23.811617],[90.329202,23.811619],[90.329191,23.811387],[90.329185,23.811199],[90.329236,23.81121],[90.329332,23.811253],[90.329386,23.811279],[90.329402,23.811334]]]}},{"type":"Feature","properties":{"survey":"bds","sheet":"029","dag":"14042","label_bn":"14042","area_sqm":2666.8},"geometry":{"type":"Polygon","coordinates":[[[90.328779,23.811664],[90.328735,23.811667],[90.328725,23.811589],[90.328704,23.811527],[90.328691,23.811496],[90.328664,23.811427],[90.328652,23.811357],[90.328662,23.811314],[90.328687,23.811246],[90.328745,23.81119],[90.328807,23.811161],[90.328871,23.811151],[90.328939,23.811157],[90.329106,23.811184],[90.329185,23.811199],[90.329191,23.811387],[90.329202,23.811619],[90.329145,23.811617],[90.329057,23.811627],[90.328893,23.811649],[90.328779,23.811664]]]}},{"type":"Feature","properties":{"survey":"bds","sheet":"029","dag":"14062","label_bn":"14062","area_sqm":983.5},"geometry":{"type":"Polygon","coordinates":[[[90.330629,23.811629],[90.330566,23.811684],[90.330476,23.811644],[90.330382,23.811603],[90.33038,23.811595],[90.330375,23.811503],[90.330383,23.811405],[90.330424,23.811399],[90.330608,23.811371],[90.330701,23.811353],[90.330734,23.811349],[90.330742,23.811376],[90.330729,23.811456],[90.330708,23.811526],[90.330668,23.811598],[90.330629,23.811629]]]}},{"type":"Feature","properties":{"survey":"bds","sheet":"029","dag":"14050","label_bn":"14050","area_sqm":8.5},"geometry":{"type":"Polygon","coordinates":[[[90.330441,23.811711],[90.330434,23.811738],[90.330393,23.811687],[90.330441,23.811711]]]}},{"type":"Feature","properties":{"survey":"bds","sheet":"029","dag":"14070","label_bn":"14070","area_sqm":3076.0},"geometry":{"type":"Polygon","coordinates":[[[90.331281,23.811639],[90.331277,23.81179],[90.331139,23.811769],[90.330989,23.811741],[90.330909,23.811726],[90.330765,23.811685],[90.330704,23.811671],[90.330658,23.811671],[90.330611,23.811724],[90.330566,23.811684],[90.330629,23.811629],[90.330668,23.811598],[90.330708,23.811526],[90.330729,23.811456],[90.330742,23.811376],[90.330734,23.811349],[90.33084,23.811335],[90.330893,23.811319],[90.330939,23.811298],[90.330981,23.811298],[90.331082,23.811244],[90.331128,23.81119],[90.331193,23.811153],[90.331246,23.811141],[90.331283,23.811143],[90.331285,23.811152],[90.33126,23.81116],[90.331258,23.811208],[90.33126,23.811269],[90.331267,23.811416],[90.331274,23.811606],[90.331281,23.811639]]]}},{"type":"Feature","properties":{"survey":"bds","sheet":"029","dag":"14051","label_bn":"14051","area_sqm":16.3},"geometry":{"type":"Polygon","coordinates":[[[90.330538,23.811749],[90.330555,23.811793],[90.330532,23.811774],[90.330487,23.811725],[90.330479,23.811717],[90.330501,23.81172],[90.330538,23.811749]]]}},{"type":"Feature","properties":{"survey":"bds","sheet":"029","dag":"14052","label_bn":"14052","area_sqm":133.5},"geometry":{"type":"Polygon","coordinates":[[[90.330576,23.811844],[90.3306,23.811916],[90.33056,23.811888],[90.330524,23.811861],[90.330499,23.811842],[90.330468,23.811779],[90.330457,23.811767],[90.330434,23.811738],[90.330441,23.811711],[90.330479,23.811717],[90.330487,23.811725],[90.330532,23.811774],[90.330555,23.811793],[90.330576,23.811844]]]}},{"type":"Feature","properties":{"survey":"bds","sheet":"029","dag":"14061","label_bn":"14061","area_sqm":1893.9},"geometry":{"type":"Polygon","coordinates":[[[90.331346,23.811917],[90.331346,23.812021],[90.331209,23.811999],[90.331107,23.811977],[90.33096,23.811953],[90.330829,23.811933],[90.330776,23.812015],[90.33074,23.811989],[90.330721,23.811975],[90.330679,23.811931],[90.330649,23.811877],[90.330647,23.811867],[90.330627,23.811767],[90.330611,23.811724],[90.330658,23.811671],[90.330704,23.811671],[90.330765,23.811685],[90.330909,23.811726],[90.330989,23.811741],[90.331139,23.811769],[90.331277,23.81179],[90.331348,23.811807],[90.331346,23.811917]]]}},{"type":"Feature","properties":{"survey":"bds","sheet":"029","dag":"14054","label_bn":"14054","area_sqm":8.8},"geometry":{"type":"Polygon","coordinates":[[[90.33076,23.812093],[90.330739,23.812096],[90.330688,23.812028],[90.33076,23.812093]]]}},{"type":"Feature","properties":{"survey":"bds","sheet":"029","dag":"14049","label_bn":"14049","area_sqm":1611.4},"geometry":{"type":"Polygon","coordinates":[[[90.330421,23.812083],[90.330398,23.812159],[90.330049,23.812134],[90.330045,23.811798],[90.330164,23.811774],[90.330431,23.811749],[90.330421,23.812083]]]}},{"type":"Feature","properties":{"survey":"bds","sheet":"029","dag":"14041","label_bn":"14041","area_sqm":3741.0},"geometry":{"type":"Polygon","coordinates":[[[90.329433,23.811918],[90.329382,23.81219],[90.329077,23.812145],[90.328863,23.812123],[90.328793,23.811899],[90.328762,23.811847],[90.328682,23.811783],[90.328706,23.81176],[90.328723,23.811728],[90.328735,23.811667],[90.328779,23.811664],[90.328893,23.811649],[90.329057,23.811627],[90.329145,23.811617],[90.329202,23.811619],[90.329298,23.811617],[90.329396,23.811622],[90.329424,23.811786],[90.329433,23.811918]]]}},{"type":"Feature","properties":{"survey":"bds","sheet":"029","dag":"14040","label_bn":"14040","area_sqm":1873.4},"geometry":{"type":"Polygon","coordinates":[[[90.328863,23.812123],[90.328769,23.812248],[90.328746,23.81223],[90.328708,23.812208],[90.328564,23.812167],[90.328431,23.812127],[90.328365,23.812091],[90.328321,23.812048],[90.328286,23.811988],[90.32829,23.811935],[90.328321,23.8119],[90.328365,23.811881],[90.32845,23.811861],[90.328535,23.81184],[90.328624,23.811809],[90.328682,23.811783],[90.328762,23.811847],[90.328793,23.811899],[90.328863,23.812123]]]}},{"type":"Feature","properties":{"survey":"bds","sheet":"029","dag":"14055","label_bn":"14055","area_sqm":53.5},"geometry":{"type":"Polygon","coordinates":[[[90.330851,23.812299],[90.330859,23.812325],[90.330849,23.812312],[90.330822,23.812257],[90.330793,23.812188],[90.330777,23.812146],[90.330739,23.812096],[90.33076,23.812093],[90.330801,23.812146],[90.330832,23.812216],[90.330851,23.812299]]]}},{"type":"Feature","properties":{"survey":"bds","sheet":"029","dag":"14047","label_bn":"14047","area_sqm":1910.6},"geometry":{"type":"Polygon","coordinates":[[[90.329836,23.81213],[90.329853,23.812325],[90.329713,23.812299],[90.32955,23.812263],[90.329385,23.812227],[90.329382,23.81219],[90.329433,23.811918],[90.329668,23.811869],[90.329804,23.811846],[90.329836,23.81213]]]}},{"type":"Feature","properties":{"survey":"bds","sheet":"029","dag":"14048","label_bn":"14048","area_sqm":1988.9},"geometry":{"type":"Polygon","coordinates":[[[90.330398,23.812159],[90.330335,23.812354],[90.330173,23.812329],[90.330099,23.812332],[90.330063,23.812343],[90.330037,23.812353],[90.329853,23.812325],[90.329836,23.81213],[90.329804,23.811846],[90.329909,23.811821],[90.33001,23.811803],[90.330045,23.811798],[90.330049,23.812134],[90.330398,23.812159]]]}},{"type":"Feature","properties":{"survey":"bds","sheet":"029","dag":"14039","label_bn":"14039","area_sqm":2120.3},"geometry":{"type":"Polygon","coordinates":[[[90.32938,23.81239],[90.329349,23.812557],[90.329151,23.8125],[90.328952,23.812432],[90.328801,23.81239],[90.328804,23.812349],[90.328796,23.812305],[90.328781,23.81227],[90.328769,23.812248],[90.328863,23.812123],[90.329077,23.812145],[90.329382,23.81219],[90.329385,23.812227],[90.329383,23.812288],[90.329383,23.812333],[90.32938,23.81239]]]}},{"type":"Feature","properties":{"survey":"bds","sheet":"029","dag":"14060","label_bn":"14060","area_sqm":2594.9},"geometry":{"type":"Polygon","coordinates":[[[90.331371,23.812528],[90.331334,23.812578],[90.331291,23.812528],[90.331214,23.81248],[90.331126,23.812452],[90.331048,23.812423],[90.330967,23.812384],[90.330963,23.812379],[90.330936,23.812351],[90.330911,23.812272],[90.33091,23.812267],[90.330889,23.812185],[90.330856,23.812116],[90.330776,23.812015],[90.330829,23.811933],[90.33096,23.811953],[90.331107,23.811977],[90.331209,23.811999],[90.331346,23.812021],[90.331344,23.812093],[90.331332,23.812207],[90.331331,23.812279],[90.331339,23.812334],[90.33138,23.812435],[90.331406,23.812477],[90.331371,23.812528]]]}},{"type":"Feature","properties":{"survey":"bds","sheet":"029","dag":"14058","label_bn":"14058","area_sqm":145.7},"geometry":{"type":"Polygon","coordinates":[[[90.331272,23.812656],[90.331267,23.812686],[90.331159,23.812593],[90.331071,23.812509],[90.331055,23.812492],[90.331163,23.812524],[90.331216,23.81255],[90.331255,23.812591],[90.331266,23.812619],[90.331272,23.812656]]]}},{"type":"Feature","properties":{"survey":"bds","sheet":"029","dag":"14053","label_bn":"14053","area_sqm":2108.7},"geometry":{"type":"Polygon","coordinates":[[[90.33062,23.812653],[90.330447,23.812708],[90.330413,23.812602],[90.330347,23.812443],[90.330335,23.812354],[90.330398,23.812159],[90.330421,23.812083],[90.330431,23.811749],[90.330434,23.811738],[90.330457,23.811767],[90.330468,23.811779],[90.330499,23.811842],[90.330524,23.811861],[90.33056,23.811888],[90.3306,23.811916],[90.330617,23.811964],[90.330688,23.812028],[90.330739,23.812096],[90.330608,23.812117],[90.330579,23.812421],[90.33062,23.812653]]]}},{"type":"Feature","properties":{"survey":"bds","sheet":"029","dag":"14057","label_bn":"14057","area_sqm":276.0},"geometry":{"type":"Polygon","coordinates":[[[90.331255,23.812762],[90.331244,23.812783],[90.331149,23.812682],[90.331073,23.812597],[90.331033,23.812545],[90.330948,23.812451],[90.331014,23.81248],[90.331055,23.812492],[90.331071,23.812509],[90.331159,23.812593],[90.331267,23.812686],[90.331255,23.812762]]]}},{"type":"Feature","properties":{"survey":"bds","sheet":"029","dag":"14038","label_bn":"14038","area_sqm":2206.2},"geometry":{"type":"Polygon","coordinates":[[[90.329349,23.812557],[90.329262,23.812927],[90.329142,23.812872],[90.329096,23.812845],[90.328942,23.812761],[90.328787,23.812685],[90.328694,23.812609],[90.328745,23.812507],[90.328788,23.812428],[90.328801,23.81239],[90.328952,23.812432],[90.329151,23.8125],[90.329349,23.812557]]]}},{"type":"Feature","properties":{"survey":"bds","sheet":"029","dag":"14056","label_bn":"14056","area_sqm":3916.1},"geometry":{"type":"Polygon","coordinates":[[[90.330852,23.812875],[90.330499,23.812929],[90.330466,23.812835],[90.330447,23.812708],[90.33062,23.812653],[90.330579,23.812421],[90.330608,23.812117],[90.330739,23.812096],[90.330777,23.812146],[90.330793,23.812188],[90.330822,23.812257],[90.330849,23.812312],[90.330859,23.812325],[90.330869,23.812359],[90.330908,23.812423],[90.330946,23.81245],[90.330948,23.812451],[90.331033,23.812545],[90.331073,23.812597],[90.331149,23.812682],[90.331244,23.812783],[90.33118,23.812907],[90.330931,23.812873],[90.330852,23.812875]]]}},{"type":"Feature","properties":{"survey":"bds","sheet":"029","dag":"14032","label_bn":"14032","area_sqm":1920.6},"geometry":{"type":"Polygon","coordinates":[[[90.330913,23.813156],[90.330851,23.813175],[90.330732,23.813154],[90.3306,23.813156],[90.330544,23.813155],[90.330541,23.81304],[90.330499,23.812929],[90.330852,23.812875],[90.330931,23.812873],[90.33118,23.812907],[90.331167,23.813084],[90.331172,23.813126],[90.331011,23.813166],[90.330913,23.813156]]]}},{"type":"Feature","properties":{"survey":"bds","sheet":"029","dag":"14059","label_bn":"14059","area_sqm":4835.9},"geometry":{"type":"Polygon","coordinates":[[[90.331329,23.813142],[90.33129,23.813191],[90.331237,23.813173],[90.331172,23.813126],[90.331167,23.813084],[90.33118,23.812907],[90.331244,23.812783],[90.331255,23.812762],[90.331267,23.812686],[90.331272,23.812656],[90.331266,23.812619],[90.331255,23.812591],[90.331216,23.81255],[90.331163,23.812524],[90.331055,23.812492],[90.331014,23.81248],[90.330948,23.812451],[90.330946,23.81245],[90.330908,23.812423],[90.330869,23.812359],[90.330859,23.812325],[90.330851,23.812299],[90.330832,23.812216],[90.330801,23.812146],[90.33076,23.812093],[90.330688,23.812028],[90.330617,23.811964],[90.3306,23.811916],[90.330576,23.811844],[90.330555,23.811793],[90.330538,23.811749],[90.330501,23.81172],[90.330479,23.811717],[90.330441,23.811711],[90.330393,23.811687],[90.330187,23.811585],[90.330117,23.81154],[90.330064,23.811493],[90.330014,23.811445],[90.329987,23.811417],[90.32996,23.81139],[90.329907,23.811368],[90.329854,23.81136],[90.329608,23.811418],[90.329606,23.811418],[90.329597,23.811416],[90.3295,23.811398],[90.329428,23.811351],[90.329402,23.811334],[90.329386,23.811279],[90.329332,23.811253],[90.329236,23.81121],[90.329185,23.811199],[90.329106,23.811184],[90.328939,23.811157],[90.328871,23.811151],[90.328807,23.811161],[90.328745,23.81119],[90.328687,23.811246],[90.328662,23.811314],[90.328652,23.811357],[90.328664,23.811427],[90.328691,23.811496],[90.328704,23.811527],[90.328725,23.811589],[90.328735,23.811667],[90.328723,23.811728],[90.328706,23.81176],[90.328682,23.811783],[90.328624,23.811809],[90.328535,23.81184],[90.32845,23.811861],[90.328365,23.811881],[90.328321,23.8119],[90.32829,23.811935],[90.328286,23.811988],[90.328321,23.812048],[90.328365,23.812091],[90.328431,23.812127],[90.328564,23.812167],[90.328708,23.812208],[90.328746,23.81223],[90.328769,23.812248],[90.328781,23.81227],[90.328796,23.812305],[90.328804,23.812349],[90.328801,23.81239],[90.328788,23.812428],[90.328745,23.812507],[90.328694,23.812609],[90.328634,23.812637],[90.328527,23.812668],[90.328452,23.81269],[90.328413,23.812634],[90.328521,23.812621],[90.328611,23.812592],[90.328652,23.812558],[90.328682,23.812521],[90.328704,23.812487],[90.328733,23.812425],[90.328745,23.812371],[90.328737,23.812311],[90.328707,23.812271],[90.328668,23.812247],[90.328602,23.812223],[90.328491,23.812197],[90.328406,23.812181],[90.328349,23.812154],[90.328301,23.812109],[90.328253,23.812057],[90.328214,23.811999],[90.328215,23.811928],[90.328241,23.811884],[90.328269,23.811859],[90.328312,23.811832],[90.328516,23.811784],[90.328623,23.81173],[90.328653,23.811689],[90.328667,23.811643],[90.328662,23.811572],[90.328589,23.811432],[90.328598,23.811239],[90.328678,23.811134],[90.328715,23.811109],[90.328792,23.811089],[90.328921,23.811089],[90.32906,23.811108],[90.329232,23.811139],[90.329372,23.811186],[90.32942,23.811156],[90.329507,23.811101],[90.329489,23.811238],[90.329525,23.811317],[90.329645,23.811339],[90.329869,23.81129],[90.329905,23.811294],[90.329948,23.811308],[90.330056,23.811402],[90.330068,23.811413],[90.330161,23.811497],[90.330303,23.811569],[90.330311,23.811573],[90.330382,23.811603],[90.330476,23.811644],[90.330566,23.811684],[90.330611,23.811724],[90.330627,23.811767],[90.330647,23.811867],[90.330649,23.811877],[90.330679,23.811931],[90.330721,23.811975],[90.33074,23.811989],[90.330776,23.812015],[90.330856,23.812116],[90.330889,23.812185],[90.33091,23.812267],[90.330911,23.812272],[90.330936,23.812351],[90.330963,23.812379],[90.330967,23.812384],[90.331048,23.812423],[90.331126,23.812452],[90.331214,23.81248],[90.331291,23.812528],[90.331334,23.812578],[90.331267,23.813099],[90.331329,23.813142]]]}},{"type":"Feature","properties":{"survey":"bds","sheet":"029","dag":"14037","label_bn":"14037","area_sqm":4153.7},"geometry":{"type":"Polygon","coordinates":[[[90.329237,23.813046],[90.329163,23.813283],[90.32889,23.813244],[90.328562,23.8132],[90.328507,23.813022],[90.328495,23.812964],[90.328465,23.812849],[90.328453,23.812798],[90.32845,23.812763],[90.328452,23.81269],[90.328527,23.812668],[90.328634,23.812637],[90.328694,23.812609],[90.328787,23.812685],[90.328942,23.812761],[90.329096,23.812845],[90.329142,23.812872],[90.329262,23.812927],[90.329237,23.813046]]]}},{"type":"Feature","properties":{"survey":"bds","sheet":"029","dag":"14033","label_bn":"14033","area_sqm":4164.8},"geometry":{"type":"Polygon","coordinates":[[[90.330106,23.813294],[90.329973,23.813302],[90.330013,23.813172],[90.33001,23.812973],[90.330029,23.812772],[90.33002,23.812628],[90.330037,23.812353],[90.330063,23.812343],[90.330099,23.812332],[90.330173,23.812329],[90.330335,23.812354],[90.330347,23.812443],[90.330413,23.812602],[90.330447,23.812708],[90.330466,23.812835],[90.330499,23.812929],[90.330541,23.81304],[90.330544,23.813155],[90.330409,23.813161],[90.330144,23.813162],[90.330106,23.813294]]]}},{"type":"Feature","properties":{"survey":"bds","sheet":"029","dag":"14034","label_bn":"14034","area_sqm":4198.4},"geometry":{"type":"Polygon","coordinates":[[[90.329803,23.81334],[90.329569,23.813381],[90.329636,23.812971],[90.329657,23.812831],[90.329685,23.812629],[90.329701,23.812458],[90.329713,23.812299],[90.329853,23.812325],[90.330037,23.812353],[90.33002,23.812628],[90.330029,23.812772],[90.33001,23.812973],[90.330013,23.813172],[90.329973,23.813302],[90.329803,23.81334]]]}},{"type":"Feature","properties":{"survey":"bds","sheet":"029","dag":"14035","label_bn":"14035","area_sqm":1979.7},"geometry":{"type":"Polygon","coordinates":[[[90.32953,23.813388],[90.329421,23.813392],[90.329398,23.813357],[90.329382,23.813346],[90.329377,23.813332],[90.329395,23.813308],[90.32942,23.81328],[90.32944,23.813265],[90.329456,23.813232],[90.329462,23.813106],[90.329469,23.813051],[90.3295,23.812953],[90.329501,23.81291],[90.3295,23.81284],[90.329511,23.812773],[90.329527,23.812703],[90.329528,23.812637],[90.329526,23.812526],[90.32953,23.812453],[90.32955,23.812263],[90.329713,23.812299],[90.329701,23.812458],[90.329685,23.812629],[90.329657,23.812831],[90.329636,23.812971],[90.329569,23.813381],[90.32953,23.813388]]]}},{"type":"Feature","properties":{"survey":"bds","sheet":"029","dag":"14036","label_bn":"14036","area_sqm":2632.1},"geometry":{"type":"Polygon","coordinates":[[[90.329421,23.813392],[90.329339,23.8134],[90.329319,23.813367],[90.32929,23.813338],[90.329163,23.813283],[90.329237,23.813046],[90.329262,23.812927],[90.329349,23.812557],[90.32938,23.81239],[90.329383,23.812333],[90.329383,23.812288],[90.329385,23.812227],[90.32955,23.812263],[90.32953,23.812453],[90.329526,23.812526],[90.329528,23.812637],[90.329527,23.812703],[90.329511,23.812773],[90.3295,23.81284],[90.329501,23.81291],[90.3295,23.812953],[90.329469,23.813051],[90.329462,23.813106],[90.329456,23.813232],[90.32944,23.813265],[90.32942,23.81328],[90.329395,23.813308],[90.329377,23.813332],[90.329382,23.813346],[90.329398,23.813357],[90.329421,23.813392]]]}},{"type":"Feature","properties":{"survey":"bds","sheet":"029","dag":"14024","label_bn":"14024","area_sqm":3578.8},"geometry":{"type":"Polygon","coordinates":[[[90.330591,23.813328],[90.330521,23.813578],[90.330189,23.813539],[90.329722,23.81357],[90.3296,23.813575],[90.3295,23.813552],[90.32953,23.813388],[90.329569,23.813381],[90.329803,23.81334],[90.329973,23.813302],[90.330106,23.813294],[90.330144,23.813162],[90.330409,23.813161],[90.330544,23.813155],[90.3306,23.813156],[90.330591,23.813328]]]}},{"type":"Feature","properties":{"survey":"bds","sheet":"029","dag":"14030","label_bn":"14030","area_sqm":1971.6},"geometry":{"type":"Polygon","coordinates":[[[90.330901,23.813603],[90.330865,23.813643],[90.330781,23.813633],[90.330521,23.813578],[90.330591,23.813328],[90.3306,23.813156],[90.330732,23.813154],[90.330851,23.813175],[90.330913,23.813156],[90.331011,23.813166],[90.330979,23.81321],[90.330974,23.813271],[90.330949,23.813423],[90.330901,23.813603]]]}},{"type":"Feature","properties":{"survey":"bds","sheet":"029","dag":"14028","label_bn":"14028","area_sqm":323.6},"geometry":{"type":"Polygon","coordinates":[[[90.330865,23.813643],[90.33083,23.813735],[90.330488,23.813643],[90.330521,23.813578],[90.330781,23.813633],[90.330865,23.813643]]]}},{"type":"Feature","properties":{"survey":"bds","sheet":"029","dag":"14031","label_bn":"14031","area_sqm":1837.6},"geometry":{"type":"Polygon","coordinates":[[[90.331259,23.813502],[90.331221,23.813748],[90.331112,23.81368],[90.330988,23.813621],[90.330901,23.813603],[90.330949,23.813423],[90.330974,23.813271],[90.330979,23.81321],[90.331011,23.813166],[90.331172,23.813126],[90.331237,23.813173],[90.33129,23.813191],[90.331266,23.813382],[90.331259,23.813502]]]}},{"type":"Feature","properties":{"survey":"bds","sheet":"029","dag":"14027","label_bn":"14027","area_sqm":777.9},"geometry":{"type":"Polygon","coordinates":[[[90.330763,23.813872],[90.330754,23.813925],[90.33046,23.813866],[90.330488,23.813643],[90.33083,23.813735],[90.330763,23.813872]]]}},{"type":"Feature","properties":{"survey":"bds","sheet":"029","dag":"14022","label_bn":"14022","area_sqm":5234.3},"geometry":{"type":"Polygon","coordinates":[[[90.32921,23.81382],[90.329167,23.814015],[90.329128,23.813999],[90.329034,23.813974],[90.328977,23.813959],[90.328882,23.813952],[90.328789,23.813938],[90.328699,23.813933],[90.32866,23.813936],[90.328637,23.813945],[90.328597,23.813871],[90.328586,23.813821],[90.328603,23.813731],[90.328623,23.81362],[90.32862,23.813542],[90.328596,23.813437],[90.328576,23.813341],[90.328569,23.813259],[90.328562,23.8132],[90.32889,23.813244],[90.329163,23.813283],[90.32929,23.813338],[90.329319,23.813367],[90.329339,23.8134],[90.329338,23.813415],[90.32931,23.813437],[90.329264,23.813539],[90.329262,23.81357],[90.329262,23.813605],[90.329246,23.813652],[90.32921,23.81382]]]}},{"type":"Feature","properties":{"survey":"bds","sheet":"029","dag":"14023","label_bn":"14023","area_sqm":1536.0},"geometry":{"type":"Polygon","coordinates":[[[90.329364,23.814034],[90.329355,23.814056],[90.329167,23.814015],[90.32921,23.81382],[90.329246,23.813652],[90.329262,23.813605],[90.329262,23.81357],[90.329264,23.813539],[90.32931,23.813437],[90.329338,23.813415],[90.329339,23.8134],[90.329421,23.813392],[90.32953,23.813388],[90.3295,23.813552],[90.329467,23.81366],[90.329426,23.813774],[90.329392,23.813871],[90.329364,23.814034]]]}},{"type":"Feature","properties":{"survey":"bds","sheet":"029","dag":"14029","label_bn":"14029","area_sqm":2449.8},"geometry":{"type":"Polygon","coordinates":[[[90.331131,23.814109],[90.331042,23.814124],[90.330942,23.814101],[90.330876,23.814078],[90.330853,23.81406],[90.330822,23.813955],[90.330754,23.813925],[90.330763,23.813872],[90.33083,23.813735],[90.330865,23.813643],[90.330901,23.813603],[90.330988,23.813621],[90.331112,23.81368],[90.331221,23.813748],[90.331288,23.813811],[90.331384,23.813952],[90.331408,23.814008],[90.331301,23.814055],[90.331131,23.814109]]]}},{"type":"Feature","properties":{"survey":"bds","sheet":"029","dag":"14025","label_bn":"14025","area_sqm":4904.7},"geometry":{"type":"Polygon","coordinates":[[[90.330151,23.81414],[90.330118,23.81414],[90.329826,23.814098],[90.329554,23.814067],[90.329364,23.814034],[90.329392,23.813871],[90.329426,23.813774],[90.329467,23.81366],[90.3295,23.813552],[90.3296,23.813575],[90.329722,23.81357],[90.330189,23.813539],[90.330521,23.813578],[90.330488,23.813643],[90.330188,23.813662],[90.330151,23.81414]]]}},{"type":"Feature","properties":{"survey":"bds","sheet":"029","dag":"14026","label_bn":"14026","area_sqm":1496.5},"geometry":{"type":"Polygon","coordinates":[[[90.330404,23.814026],[90.330296,23.814175],[90.330151,23.81414],[90.330188,23.813662],[90.330488,23.813643],[90.33046,23.813866],[90.330404,23.814026]]]}},{"type":"Feature","properties":{"survey":"bds","sheet":"029","dag":"14017","label_bn":"14017","area_sqm":1018.3},"geometry":{"type":"Polygon","coordinates":[[[90.329722,23.814245],[90.32948,23.814276],[90.329315,23.814256],[90.329355,23.814056],[90.329364,23.814034],[90.329554,23.814067],[90.329826,23.814098],[90.329772,23.814245],[90.329722,23.814245]]]}},{"type":"Feature","properties":{"survey":"bds","sheet":"029","dag":"14021","label_bn":"14021","area_sqm":1159.0},"geometry":{"type":"Polygon","coordinates":[[[90.328916,23.814281],[90.328912,23.814291],[90.328777,23.814221],[90.328566,23.814164],[90.328628,23.81406],[90.328643,23.814021],[90.328647,23.813986],[90.328637,23.813945],[90.32866,23.813936],[90.328699,23.813933],[90.328789,23.813938],[90.328882,23.813952],[90.328977,23.813959],[90.329034,23.813974],[90.328964,23.814123],[90.328933,23.814217],[90.328916,23.814281]]]}},{"type":"Feature","properties":{"survey":"bds","sheet":"029","dag":"14016","label_bn":"14016","area_sqm":650.4},"geometry":{"type":"Polygon","coordinates":[[[90.330118,23.81414],[90.330019,23.814346],[90.330008,23.814338],[90.329997,23.814337],[90.329963,23.814339],[90.329768,23.81427],[90.329772,23.814245],[90.329826,23.814098],[90.330118,23.81414]]]}},{"type":"Feature","properties":{"survey":"bds","sheet":"029","dag":"14020","label_bn":"14020","area_sqm":803.9},"geometry":{"type":"Polygon","coordinates":[[[90.328896,23.814325],[90.328856,23.81445],[90.328714,23.814412],[90.328511,23.814353],[90.328524,23.81428],[90.328558,23.814176],[90.328566,23.814164],[90.328777,23.814221],[90.328912,23.814291],[90.328896,23.814325]]]}},{"type":"Feature","properties":{"survey":"bds","sheet":"029","dag":"14010","label_bn":"14010","area_sqm":2657.8},"geometry":{"type":"Polygon","coordinates":[[[90.330564,23.814463],[90.330506,23.814498],[90.330296,23.814417],[90.33024,23.814369],[90.330275,23.814305],[90.330281,23.814253],[90.330296,23.814175],[90.330404,23.814026],[90.33046,23.813866],[90.330754,23.813925],[90.330822,23.813955],[90.330853,23.81406],[90.33078,23.81412],[90.330696,23.814338],[90.330564,23.814463]]]}},{"type":"Feature","properties":{"survey":"bds","sheet":"029","dag":"14019","label_bn":"14019","area_sqm":2141.0},"geometry":{"type":"Polygon","coordinates":[[[90.329315,23.814256],[90.32919,23.814554],[90.329028,23.81453],[90.328856,23.81445],[90.328896,23.814325],[90.328912,23.814291],[90.328916,23.814281],[90.328933,23.814217],[90.328964,23.814123],[90.329034,23.813974],[90.329128,23.813999],[90.329167,23.814015],[90.329355,23.814056],[90.329315,23.814256]]]}},{"type":"Feature","properties":{"survey":"bds","sheet":"029","dag":"14009","label_bn":"14009","area_sqm":77.7},"geometry":{"type":"Polygon","coordinates":[[[90.330642,23.814522],[90.330604,23.814572],[90.330506,23.814498],[90.330564,23.814463],[90.330642,23.814522]]]}},{"type":"Feature","properties":{"survey":"bds","sheet":"029","dag":"14008","label_bn":"14008","area_sqm":2597.6},"geometry":{"type":"Polygon","coordinates":[[[90.330961,23.814621],[90.330899,23.814682],[90.330796,23.814667],[90.330682,23.814638],[90.330604,23.814572],[90.330642,23.814522],[90.330564,23.814463],[90.330696,23.814338],[90.33078,23.81412],[90.330853,23.81406],[90.330876,23.814078],[90.330942,23.814101],[90.331042,23.814124],[90.331064,23.814235],[90.331161,23.814468],[90.331189,23.814538],[90.331029,23.814573],[90.330961,23.814621]]]}},{"type":"Feature","properties":{"survey":"bds","sheet":"029","dag":"14018","label_bn":"14018","area_sqm":2049.9},"geometry":{"type":"Polygon","coordinates":[[[90.329768,23.81427],[90.329645,23.814686],[90.329561,23.814683],[90.329445,23.814664],[90.32919,23.814554],[90.329315,23.814256],[90.32948,23.814276],[90.329722,23.814245],[90.329772,23.814245],[90.329768,23.81427]]]}},{"type":"Feature","properties":{"survey":"bds","sheet":"029","dag":"14012","label_bn":"14012","area_sqm":689.1},"geometry":{"type":"Polygon","coordinates":[[[90.330273,23.814702],[90.330242,23.814706],[90.330234,23.814642],[90.330233,23.81459],[90.330217,23.81455],[90.33018,23.814494],[90.330165,23.814455],[90.330165,23.814422],[90.330108,23.814402],[90.330019,23.814346],[90.330118,23.81414],[90.330151,23.81414],[90.330296,23.814175],[90.330281,23.814253],[90.330275,23.814305],[90.33024,23.814369],[90.33021,23.814389],[90.330189,23.814428],[90.330193,23.814464],[90.330217,23.8145],[90.330246,23.814536],[90.330264,23.814599],[90.330268,23.814666],[90.330273,23.814702]]]}},{"type":"Feature","properties":{"survey":"bds","sheet":"029","dag":"14015","label_bn":"14015","area_sqm":1218.6},"geometry":{"type":"Polygon","coordinates":[[[90.330019,23.814346],[90.329897,23.814727],[90.329753,23.814714],[90.329645,23.814686],[90.329768,23.81427],[90.329963,23.814339],[90.329997,23.814337],[90.330008,23.814338],[90.330019,23.814346]]]}},{"type":"Feature","properties":{"survey":"bds","sheet":"029","dag":"14014","label_bn":"14014","area_sqm":474.2},"geometry":{"type":"Polygon","coordinates":[[[90.330108,23.814402],[90.330012,23.814753],[90.329897,23.814727],[90.330019,23.814346],[90.330108,23.814402]]]}},{"type":"Feature","properties":{"survey":"bds","sheet":"029","dag":"14013","label_bn":"14013","area_sqm":595.9},"geometry":{"type":"Polygon","coordinates":[[[90.330242,23.814706],[90.330104,23.81478],[90.330012,23.814753],[90.330108,23.814402],[90.330165,23.814422],[90.330165,23.814455],[90.33018,23.814494],[90.330217,23.81455],[90.330233,23.81459],[90.330234,23.814642],[90.330242,23.814706]]]}},{"type":"Feature","properties":{"survey":"bds","sheet":"029","dag":"14011","label_bn":"14011","area_sqm":1493.5},"geometry":{"type":"Polygon","coordinates":[[[90.330663,23.814765],[90.3306,23.814821],[90.330273,23.814702],[90.330268,23.814666],[90.330264,23.814599],[90.330246,23.814536],[90.330217,23.8145],[90.330193,23.814464],[90.330189,23.814428],[90.33021,23.814389],[90.33024,23.814369],[90.330296,23.814417],[90.330506,23.814498],[90.330604,23.814572],[90.330682,23.814638],[90.330796,23.814667],[90.330899,23.814682],[90.330777,23.814716],[90.330768,23.81472],[90.330663,23.814765]]]}},{"type":"Feature","properties":{"survey":"bds","sheet":"029","dag":"14001","label_bn":"14001","area_sqm":1896.2},"geometry":{"type":"Polygon","coordinates":[[[90.329028,23.81453],[90.328877,23.814899],[90.328753,23.814875],[90.328742,23.814859],[90.328652,23.814845],[90.328648,23.81486],[90.328623,23.814855],[90.328569,23.814854],[90.328585,23.81481],[90.328626,23.814673],[90.328619,23.814573],[90.328616,23.814553],[90.328499,23.814424],[90.328502,23.814382],[90.328511,23.814353],[90.328714,23.814412],[90.328856,23.81445],[90.329028,23.81453]]]}},{"type":"Feature","properties":{"survey":"bds","sheet":"029","dag":"14002","label_bn":"14002","area_sqm":118.7},"geometry":{"type":"Polygon","coordinates":[[[90.328838,23.814953],[90.328804,23.814953],[90.328767,23.814936],[90.328741,23.814908],[90.328648,23.81486],[90.328652,23.814845],[90.328742,23.814859],[90.328753,23.814875],[90.328877,23.814899],[90.328873,23.814928],[90.328838,23.814953]]]}},{"type":"Feature","properties":{"survey":"bds","sheet":"029","dag":"14003","label_bn":"14003","area_sqm":4069.6},"geometry":{"type":"Polygon","coordinates":[[[90.329753,23.814714],[90.329687,23.815141],[90.329361,23.815091],[90.329206,23.815069],[90.328873,23.814928],[90.328877,23.814899],[90.329028,23.81453],[90.32919,23.814554],[90.329445,23.814664],[90.329561,23.814683],[90.329645,23.814686],[90.329753,23.814714]]]}},{"type":"Feature","properties":{"survey":"bds","sheet":"029","dag":"14004","label_bn":"14004","area_sqm":624.6},"geometry":{"type":"Polygon","coordinates":[[[90.329897,23.814727],[90.329798,23.815149],[90.329746,23.815149],[90.329687,23.815141],[90.329753,23.814714],[90.329897,23.814727]]]}},{"type":"Feature","properties":{"survey":"bds","sheet":"029","dag":"14007","label_bn":"14007","area_sqm":426.0},"geometry":{"type":"Polygon","coordinates":[[[90.330658,23.815168],[90.330622,23.815195],[90.330576,23.815076],[90.3306,23.814821],[90.330663,23.814765],[90.330768,23.81472],[90.330777,23.814716],[90.330899,23.814682],[90.330952,23.814737],[90.330857,23.814761],[90.330769,23.814767],[90.330709,23.814796],[90.330678,23.81482],[90.330645,23.814912],[90.330633,23.815077],[90.330658,23.815168]]]}},{"type":"Feature","properties":{"survey":"bds","sheet":"029","dag":"14006","label_bn":"14006","area_sqm":2480.6},"geometry":{"type":"Polygon","coordinates":[[[90.330622,23.815195],[90.330552,23.815215],[90.330513,23.815202],[90.330234,23.815205],[90.330089,23.815204],[90.330127,23.814939],[90.330107,23.814848],[90.330104,23.81478],[90.330242,23.814706],[90.330273,23.814702],[90.3306,23.814821],[90.330576,23.815076],[90.330622,23.815195]]]}},{"type":"Feature","properties":{"survey":"bds","sheet":"029","dag":"14005","label_bn":"14005","area_sqm":1384.7},"geometry":{"type":"Polygon","coordinates":[[[90.330089,23.815204],[90.330005,23.815217],[90.329857,23.815203],[90.329798,23.815149],[90.329897,23.814727],[90.330012,23.814753],[90.330104,23.81478],[90.330107,23.814848],[90.330127,23.814939],[90.330089,23.815204]]]}}]}