{"type":"FeatureCollection","features":[{"type":"Feature","properties":{"survey":"bds","sheet":"031","dag":"15063","label_bn":"15063","area_sqm":1151.8},"geometry":{"type":"Polygon","coordinates":[[[90.324829,23.811214],[90.324744,23.811273],[90.324717,23.811272],[90.32456,23.811195],[90.324583,23.81094],[90.324746,23.810959],[90.324984,23.810999],[90.324964,23.81109],[90.324906,23.811189],[90.324882,23.811217],[90.324829,23.811214]]]}},{"type":"Feature","properties":{"survey":"bds","sheet":"031","dag":"15044","label_bn":"15044","area_sqm":12.2},"geometry":{"type":"Polygon","coordinates":[[[90.323484,23.811262],[90.323473,23.811273],[90.323487,23.811168],[90.323497,23.811259],[90.323484,23.811262]]]}},{"type":"Feature","properties":{"survey":"bds","sheet":"031","dag":"15045","label_bn":"15045","area_sqm":2193.3},"geometry":{"type":"Polygon","coordinates":[[[90.323809,23.811282],[90.323782,23.811342],[90.323471,23.811292],[90.323473,23.811273],[90.323484,23.811262],[90.323497,23.811259],[90.323487,23.811168],[90.323493,23.811117],[90.323433,23.81082],[90.323521,23.810789],[90.323743,23.81079],[90.323817,23.810808],[90.323816,23.810851],[90.323841,23.810919],[90.323872,23.811014],[90.323872,23.811057],[90.323853,23.811141],[90.323809,23.811282]]]}},{"type":"Feature","properties":{"survey":"bds","sheet":"031","dag":"15041","label_bn":"15041","area_sqm":1708.4},"geometry":{"type":"Polygon","coordinates":[[[90.323272,23.81135],[90.323265,23.811383],[90.323258,23.811377],[90.323209,23.811359],[90.323035,23.811333],[90.323014,23.811317],[90.32301,23.81129],[90.323018,23.811191],[90.323062,23.811117],[90.323156,23.810958],[90.32321,23.810877],[90.323364,23.810892],[90.323382,23.810932],[90.323427,23.811035],[90.323431,23.811059],[90.323443,23.81114],[90.323442,23.811149],[90.323425,23.811198],[90.323403,23.811255],[90.32339,23.811271],[90.323363,23.811294],[90.323342,23.811312],[90.323313,23.811324],[90.323285,23.811334],[90.323272,23.81135]]]}},{"type":"Feature","properties":{"survey":"bds","sheet":"031","dag":"15042","label_bn":"15042","area_sqm":74.2},"geometry":{"type":"Polygon","coordinates":[[[90.323301,23.811383],[90.323282,23.811399],[90.323269,23.811387],[90.323265,23.811383],[90.323272,23.81135],[90.323285,23.811334],[90.323313,23.811324],[90.323342,23.811312],[90.323363,23.811294],[90.32339,23.811271],[90.323403,23.811255],[90.323425,23.811198],[90.323442,23.811149],[90.323436,23.8112],[90.323375,23.811324],[90.323301,23.811383]]]}},{"type":"Feature","properties":{"survey":"bds","sheet":"031","dag":"15064","label_bn":"15064","area_sqm":2426.2},"geometry":{"type":"Polygon","coordinates":[[[90.325537,23.811408],[90.325532,23.811419],[90.325462,23.811398],[90.324882,23.811217],[90.324906,23.811189],[90.324964,23.81109],[90.324984,23.810999],[90.324993,23.810975],[90.325661,23.811061],[90.325637,23.811179],[90.325571,23.811305],[90.325537,23.811408]]]}},{"type":"Feature","properties":{"survey":"bds","sheet":"031","dag":"15062","label_bn":"15062","area_sqm":5266.0},"geometry":{"type":"Polygon","coordinates":[[[90.324466,23.811437],[90.32436,23.811614],[90.324106,23.811514],[90.323944,23.811422],[90.323782,23.811342],[90.323809,23.811282],[90.323853,23.811141],[90.323872,23.811057],[90.323872,23.811014],[90.323841,23.810919],[90.323816,23.810851],[90.323817,23.810808],[90.324034,23.81077],[90.324227,23.810746],[90.324236,23.810884],[90.324456,23.810922],[90.324583,23.81094],[90.32456,23.811195],[90.324492,23.811282],[90.324466,23.811437]]]}},{"type":"Feature","properties":{"survey":"bds","sheet":"031","dag":"15061","label_bn":"15061","area_sqm":773.3},"geometry":{"type":"Polygon","coordinates":[[[90.324527,23.811581],[90.324539,23.811673],[90.324463,23.811658],[90.324394,23.811631],[90.32436,23.811614],[90.324466,23.811437],[90.324492,23.811282],[90.32456,23.811195],[90.324717,23.811272],[90.324674,23.81132],[90.324621,23.811393],[90.324527,23.811581]]]}},{"type":"Feature","properties":{"survey":"bds","sheet":"031","dag":"15037","label_bn":"15037","area_sqm":25.5},"geometry":{"type":"Polygon","coordinates":[[[90.323276,23.811757],[90.323315,23.811809],[90.323294,23.811792],[90.32325,23.811755],[90.323205,23.811718],[90.323171,23.811669],[90.323171,23.811667],[90.323276,23.811757]]]}},{"type":"Feature","properties":{"survey":"bds","sheet":"031","dag":"15040","label_bn":"15040","area_sqm":5584.3},"geometry":{"type":"Polygon","coordinates":[[[90.323031,23.81179],[90.322958,23.81186],[90.322944,23.811851],[90.322711,23.81177],[90.322444,23.81168],[90.322254,23.811626],[90.322327,23.811403],[90.322446,23.811063],[90.322587,23.811094],[90.32265,23.811107],[90.322832,23.811144],[90.323018,23.811191],[90.32301,23.81129],[90.323014,23.811317],[90.323035,23.811333],[90.323209,23.811359],[90.323258,23.811377],[90.323265,23.811383],[90.323269,23.811387],[90.323282,23.811399],[90.323238,23.811419],[90.323186,23.811442],[90.323203,23.811462],[90.323173,23.811509],[90.323138,23.811577],[90.323151,23.81165],[90.323073,23.811734],[90.323031,23.81179]]]}},{"type":"Feature","properties":{"survey":"bds","sheet":"031","dag":"15047","label_bn":"15047","area_sqm":266.0},"geometry":{"type":"Polygon","coordinates":[[[90.323579,23.811985],[90.323582,23.811994],[90.323434,23.811865],[90.323379,23.811808],[90.323245,23.811651],[90.323229,23.811586],[90.323247,23.811528],[90.323317,23.811461],[90.323366,23.811424],[90.323336,23.811466],[90.323323,23.811489],[90.323303,23.811509],[90.323281,23.811531],[90.323267,23.811557],[90.323264,23.811579],[90.323265,23.811601],[90.323273,23.811628],[90.323289,23.811658],[90.323323,23.811701],[90.323365,23.811736],[90.323403,23.811761],[90.323471,23.811827],[90.323549,23.81193],[90.323579,23.811985]]]}},{"type":"Feature","properties":{"survey":"bds","sheet":"031","dag":"15046","label_bn":"15046","area_sqm":3893.5},"geometry":{"type":"Polygon","coordinates":[[[90.323727,23.811905],[90.323595,23.812005],[90.323582,23.811994],[90.323579,23.811985],[90.323549,23.81193],[90.323471,23.811827],[90.323403,23.811761],[90.323365,23.811736],[90.323323,23.811701],[90.323289,23.811658],[90.323273,23.811628],[90.323265,23.811601],[90.323264,23.811579],[90.323267,23.811557],[90.323281,23.811531],[90.323303,23.811509],[90.323323,23.811489],[90.323336,23.811466],[90.323366,23.811424],[90.323406,23.811394],[90.323471,23.811292],[90.323782,23.811342],[90.323944,23.811422],[90.324106,23.811514],[90.324039,23.811614],[90.323947,23.81172],[90.323727,23.811905]]]}},{"type":"Feature","properties":{"survey":"bds","sheet":"031","dag":"15060","label_bn":"15060","area_sqm":5676.6},"geometry":{"type":"Polygon","coordinates":[[[90.324801,23.812087],[90.324715,23.812087],[90.324546,23.812023],[90.324452,23.811969],[90.324485,23.811878],[90.324535,23.811745],[90.324539,23.811673],[90.324527,23.811581],[90.324621,23.811393],[90.324674,23.81132],[90.324717,23.811272],[90.324744,23.811273],[90.324829,23.811214],[90.324882,23.811217],[90.325462,23.811398],[90.325359,23.811787],[90.325159,23.811738],[90.32495,23.811714],[90.324921,23.81175],[90.324801,23.812087]]]}},{"type":"Feature","properties":{"survey":"bds","sheet":"031","dag":"15039","label_bn":"15039","area_sqm":3132.5},"geometry":{"type":"Polygon","coordinates":[[[90.322876,23.812006],[90.322879,23.812139],[90.322593,23.812101],[90.322476,23.812107],[90.322294,23.812064],[90.322098,23.812023],[90.322168,23.81183],[90.322254,23.811626],[90.322444,23.81168],[90.322711,23.81177],[90.322944,23.811851],[90.32289,23.811937],[90.322876,23.812006]]]}},{"type":"Feature","properties":{"survey":"bds","sheet":"031","dag":"15036","label_bn":"15036","area_sqm":63.6},"geometry":{"type":"Polygon","coordinates":[[[90.323533,23.812183],[90.323481,23.812219],[90.323531,23.812129],[90.323533,23.812075],[90.323522,23.812042],[90.323496,23.811982],[90.323531,23.812016],[90.32357,23.812094],[90.323533,23.812183]]]}},{"type":"Feature","properties":{"survey":"bds","sheet":"031","dag":"15059","label_bn":"15059","area_sqm":3408.0},"geometry":{"type":"Polygon","coordinates":[[[90.325443,23.812008],[90.32542,23.812296],[90.324926,23.812246],[90.324801,23.812087],[90.324921,23.81175],[90.32495,23.811714],[90.325159,23.811738],[90.325359,23.811787],[90.325474,23.811822],[90.325443,23.812008]]]}},{"type":"Feature","properties":{"survey":"bds","sheet":"031","dag":"15038","label_bn":"15038","area_sqm":3125.3},"geometry":{"type":"Polygon","coordinates":[[[90.323241,23.812292],[90.323235,23.812319],[90.322894,23.81218],[90.322879,23.812139],[90.322876,23.812006],[90.32289,23.811937],[90.322944,23.811851],[90.322958,23.81186],[90.323031,23.81179],[90.323073,23.811734],[90.323151,23.81165],[90.323171,23.811667],[90.323171,23.811669],[90.323205,23.811718],[90.32325,23.811755],[90.323294,23.811792],[90.323315,23.811809],[90.323332,23.811831],[90.323393,23.811894],[90.323457,23.811943],[90.323496,23.811982],[90.323522,23.812042],[90.323533,23.812075],[90.323531,23.812129],[90.323481,23.812219],[90.323465,23.81223],[90.323455,23.812234],[90.323339,23.812264],[90.323261,23.812285],[90.323241,23.812292]]]}},{"type":"Feature","properties":{"survey":"bds","sheet":"031","dag":"15035","label_bn":"15035","area_sqm":45.0},"geometry":{"type":"Polygon","coordinates":[[[90.323359,23.812269],[90.32326,23.812329],[90.323235,23.812319],[90.323241,23.812292],[90.323261,23.812285],[90.323339,23.812264],[90.323455,23.812234],[90.323359,23.812269]]]}},{"type":"Feature","properties":{"survey":"bds","sheet":"031","dag":"15049","label_bn":"15049","area_sqm":29.7},"geometry":{"type":"Polygon","coordinates":[[[90.323396,23.81231],[90.323349,23.812334],[90.32339,23.812307],[90.323536,23.812249],[90.323577,23.812211],[90.323557,23.812265],[90.323483,23.812281],[90.323396,23.81231]]]}},{"type":"Feature","properties":{"survey":"bds","sheet":"031","dag":"15034","label_bn":"15034","area_sqm":13.3},"geometry":{"type":"Polygon","coordinates":[[[90.32326,23.812329],[90.323218,23.812405],[90.32322,23.812397],[90.323234,23.812323],[90.323235,23.812319],[90.32326,23.812329]]]}},{"type":"Feature","properties":{"survey":"bds","sheet":"031","dag":"15052","label_bn":"15052","area_sqm":16.2},"geometry":{"type":"Polygon","coordinates":[[[90.324053,23.812482],[90.324039,23.812488],[90.324039,23.812466],[90.324055,23.812393],[90.324069,23.81239],[90.324053,23.812482]]]}},{"type":"Feature","properties":{"survey":"bds","sheet":"031","dag":"15033","label_bn":"15033","area_sqm":847.1},"geometry":{"type":"Polygon","coordinates":[[[90.323218,23.812405],[90.323164,23.812507],[90.322842,23.812389],[90.322876,23.812269],[90.322894,23.81218],[90.323235,23.812319],[90.323234,23.812323],[90.32322,23.812397],[90.323218,23.812405]]]}},{"type":"Feature","properties":{"survey":"bds","sheet":"031","dag":"15058","label_bn":"15058","area_sqm":1443.4},"geometry":{"type":"Polygon","coordinates":[[[90.32542,23.812296],[90.325406,23.812536],[90.324906,23.812517],[90.324926,23.812246],[90.32542,23.812296]]]}},{"type":"Feature","properties":{"survey":"bds","sheet":"031","dag":"15048","label_bn":"15048","area_sqm":6935.4},"geometry":{"type":"Polygon","coordinates":[[[90.323678,23.812607],[90.323622,23.812631],[90.323587,23.812615],[90.323477,23.812562],[90.323372,23.812509],[90.3233,23.812481],[90.323297,23.812432],[90.323305,23.812365],[90.323306,23.812363],[90.323349,23.812334],[90.323396,23.81231],[90.323483,23.812281],[90.323557,23.812265],[90.323577,23.812211],[90.323613,23.812178],[90.323622,23.812094],[90.323595,23.812005],[90.323727,23.811905],[90.323947,23.81172],[90.324039,23.811614],[90.324106,23.811514],[90.32436,23.811614],[90.324394,23.811631],[90.324463,23.811658],[90.324539,23.811673],[90.324535,23.811745],[90.324485,23.811878],[90.324452,23.811969],[90.324315,23.812029],[90.324194,23.812127],[90.324147,23.812181],[90.324117,23.812257],[90.324061,23.81237],[90.324055,23.812393],[90.323972,23.812413],[90.323924,23.812421],[90.323877,23.812423],[90.323858,23.81244],[90.323832,23.812484],[90.323789,23.812525],[90.323714,23.81258],[90.323678,23.812607]]]}},{"type":"Feature","properties":{"survey":"bds","sheet":"031","dag":"15051","label_bn":"15051","area_sqm":205.9},"geometry":{"type":"Polygon","coordinates":[[[90.323759,23.812662],[90.323746,23.812667],[90.323774,23.812628],[90.323741,23.812603],[90.32381,23.812528],[90.323915,23.812487],[90.324039,23.812466],[90.324039,23.812488],[90.323979,23.812512],[90.323917,23.812546],[90.323879,23.812574],[90.323812,23.812634],[90.323759,23.812662]]]}},{"type":"Feature","properties":{"survey":"bds","sheet":"031","dag":"15050","label_bn":"15050","area_sqm":542.2},"geometry":{"type":"Polygon","coordinates":[[[90.323741,23.812603],[90.323648,23.812687],[90.323542,23.812669],[90.323274,23.812508],[90.323255,23.812482],[90.323275,23.812403],[90.323305,23.812365],[90.323297,23.812432],[90.3233,23.812481],[90.323372,23.812509],[90.323477,23.812562],[90.323587,23.812615],[90.323622,23.812631],[90.323678,23.812607],[90.323714,23.81258],[90.323789,23.812525],[90.323832,23.812484],[90.323858,23.81244],[90.323877,23.812423],[90.323924,23.812421],[90.323972,23.812413],[90.324055,23.812393],[90.324039,23.812466],[90.323915,23.812487],[90.32381,23.812528],[90.323741,23.812603]]]}},{"type":"Feature","properties":{"survey":"bds","sheet":"031","dag":"15030","label_bn":"15030","area_sqm":64.0},"geometry":{"type":"Polygon","coordinates":[[[90.323416,23.812634],[90.323481,23.812689],[90.323462,23.812679],[90.323317,23.812618],[90.323187,23.812559],[90.323188,23.812536],[90.323205,23.812556],[90.323304,23.812587],[90.323416,23.812634]]]}},{"type":"Feature","properties":{"survey":"bds","sheet":"031","dag":"15057","label_bn":"15057","area_sqm":1044.3},"geometry":{"type":"Polygon","coordinates":[[[90.325261,23.812706],[90.324879,23.812712],[90.324906,23.812517],[90.325406,23.812536],[90.325388,23.81271],[90.325261,23.812706]]]}},{"type":"Feature","properties":{"survey":"bds","sheet":"031","dag":"15043","label_bn":"15043","area_sqm":1822.8},"geometry":{"type":"Polygon","coordinates":[[[90.323698,23.812733],[90.323631,23.812746],[90.323552,23.812735],[90.323516,23.812718],[90.323481,23.812689],[90.323416,23.812634],[90.323304,23.812587],[90.323205,23.812556],[90.323188,23.812536],[90.323164,23.812507],[90.323218,23.812405],[90.32326,23.812329],[90.323359,23.812269],[90.323455,23.812234],[90.323465,23.81223],[90.323481,23.812219],[90.323533,23.812183],[90.32357,23.812094],[90.323531,23.812016],[90.323496,23.811982],[90.323457,23.811943],[90.323393,23.811894],[90.323332,23.811831],[90.323315,23.811809],[90.323276,23.811757],[90.323171,23.811667],[90.323151,23.81165],[90.323138,23.811577],[90.323173,23.811509],[90.323203,23.811462],[90.323186,23.811442],[90.323238,23.811419],[90.323282,23.811399],[90.323301,23.811383],[90.323375,23.811324],[90.323436,23.8112],[90.323442,23.811149],[90.323443,23.81114],[90.323431,23.811059],[90.323427,23.811035],[90.323382,23.810932],[90.323364,23.810892],[90.323433,23.81082],[90.323493,23.811117],[90.323487,23.811168],[90.323473,23.811273],[90.323471,23.811292],[90.323406,23.811394],[90.323366,23.811424],[90.323317,23.811461],[90.323247,23.811528],[90.323229,23.811586],[90.323245,23.811651],[90.323379,23.811808],[90.323434,23.811865],[90.323582,23.811994],[90.323595,23.812005],[90.323622,23.812094],[90.323613,23.812178],[90.323577,23.812211],[90.323536,23.812249],[90.32339,23.812307],[90.323349,23.812334],[90.323306,23.812363],[90.323305,23.812365],[90.323275,23.812403],[90.323255,23.812482],[90.323274,23.812508],[90.323542,23.812669],[90.323648,23.812687],[90.323741,23.812603],[90.323774,23.812628],[90.323746,23.812667],[90.323698,23.812733]]]}},{"type":"Feature","properties":{"survey":"bds","sheet":"031","dag":"15056","label_bn":"15056","area_sqm":806.6},"geometry":{"type":"Polygon","coordinates":[[[90.325309,23.812832],[90.324874,23.812839],[90.324879,23.812712],[90.325261,23.812706],[90.325388,23.81271],[90.325452,23.812717],[90.325442,23.812829],[90.325309,23.812832]]]}},{"type":"Feature","properties":{"survey":"bds","sheet":"031","dag":"15032","label_bn":"15032","area_sqm":3144.8},"geometry":{"type":"Polygon","coordinates":[[[90.322691,23.812737],[90.322664,23.812885],[90.322496,23.812828],[90.322307,23.812788],[90.322396,23.812558],[90.322415,23.812496],[90.322476,23.812107],[90.322593,23.812101],[90.322879,23.812139],[90.322894,23.81218],[90.322876,23.812269],[90.322842,23.812389],[90.322779,23.812489],[90.322711,23.812666],[90.322691,23.812737]]]}},{"type":"Feature","properties":{"survey":"bds","sheet":"031","dag":"15053","label_bn":"15053","area_sqm":3838.6},"geometry":{"type":"Polygon","coordinates":[[[90.324342,23.812803],[90.324254,23.812917],[90.324046,23.812794],[90.324039,23.812488],[90.324053,23.812482],[90.324069,23.81239],[90.324055,23.812393],[90.324061,23.81237],[90.324117,23.812257],[90.324147,23.812181],[90.324194,23.812127],[90.324315,23.812029],[90.324452,23.811969],[90.324546,23.812023],[90.324514,23.812337],[90.324537,23.812405],[90.324548,23.812473],[90.324508,23.812599],[90.324454,23.812673],[90.324409,23.812734],[90.324342,23.812803]]]}},{"type":"Feature","properties":{"survey":"bds","sheet":"031","dag":"15031","label_bn":"15031","area_sqm":2061.6},"geometry":{"type":"Polygon","coordinates":[[[90.323164,23.812507],[90.323017,23.812946],[90.322947,23.812927],[90.322664,23.812885],[90.322691,23.812737],[90.322711,23.812666],[90.322779,23.812489],[90.322842,23.812389],[90.323164,23.812507]]]}},{"type":"Feature","properties":{"survey":"bds","sheet":"031","dag":"15029","label_bn":"15029","area_sqm":1826.3},"geometry":{"type":"Polygon","coordinates":[[[90.323516,23.812718],[90.323424,23.813051],[90.323113,23.812972],[90.323017,23.812946],[90.323164,23.812507],[90.323188,23.812536],[90.323187,23.812559],[90.323317,23.812618],[90.323462,23.812679],[90.323481,23.812689],[90.323516,23.812718]]]}},{"type":"Feature","properties":{"survey":"bds","sheet":"031","dag":"15054","label_bn":"15054","area_sqm":5060.2},"geometry":{"type":"Polygon","coordinates":[[[90.324857,23.813099],[90.324427,23.813102],[90.324254,23.812917],[90.324342,23.812803],[90.324409,23.812734],[90.324454,23.812673],[90.324508,23.812599],[90.324548,23.812473],[90.324537,23.812405],[90.324514,23.812337],[90.324546,23.812023],[90.324715,23.812087],[90.324801,23.812087],[90.324926,23.812246],[90.324906,23.812517],[90.324879,23.812712],[90.324874,23.812839],[90.324866,23.812853],[90.324859,23.812966],[90.324857,23.813099]]]}},{"type":"Feature","properties":{"survey":"bds","sheet":"031","dag":"15055","label_bn":"15055","area_sqm":2373.7},"geometry":{"type":"Polygon","coordinates":[[[90.325442,23.812829],[90.325493,23.813219],[90.325395,23.813199],[90.325288,23.813182],[90.32513,23.813173],[90.32495,23.813176],[90.324894,23.813158],[90.324857,23.813099],[90.324859,23.812966],[90.324866,23.812853],[90.324874,23.812839],[90.325309,23.812832],[90.325442,23.812829]]]}},{"type":"Feature","properties":{"survey":"bds","sheet":"031","dag":"15028","label_bn":"15028","area_sqm":3394.6},"geometry":{"type":"Polygon","coordinates":[[[90.323401,23.813165],[90.323328,23.813383],[90.322974,23.8133],[90.322808,23.813288],[90.322537,23.813305],[90.322517,23.81319],[90.322557,23.813102],[90.322626,23.813019],[90.322657,23.812971],[90.322664,23.812885],[90.322947,23.812927],[90.323017,23.812946],[90.323113,23.812972],[90.323424,23.813051],[90.323401,23.813165]]]}},{"type":"Feature","properties":{"survey":"bds","sheet":"031","dag":"15019","label_bn":"15019","area_sqm":1485.2},"geometry":{"type":"Polygon","coordinates":[[[90.325493,23.813219],[90.325497,23.813458],[90.325367,23.813447],[90.325196,23.813426],[90.325062,23.813402],[90.324998,23.813389],[90.324973,23.813367],[90.324935,23.813348],[90.324907,23.813322],[90.324931,23.813306],[90.324961,23.813285],[90.324969,23.813268],[90.324949,23.813207],[90.32495,23.813176],[90.32513,23.813173],[90.325288,23.813182],[90.325395,23.813199],[90.325493,23.813219]]]}},{"type":"Feature","properties":{"survey":"bds","sheet":"031","dag":"15020","label_bn":"15020","area_sqm":2388.4},"geometry":{"type":"Polygon","coordinates":[[[90.324972,23.813449],[90.324963,23.813525],[90.324767,23.813502],[90.324556,23.813466],[90.324501,23.813411],[90.324423,23.813355],[90.324305,23.813241],[90.324427,23.813102],[90.324857,23.813099],[90.324894,23.813158],[90.32495,23.813176],[90.324949,23.813207],[90.324969,23.813268],[90.324961,23.813285],[90.324931,23.813306],[90.324907,23.813322],[90.324935,23.813348],[90.324973,23.813367],[90.324998,23.813389],[90.324972,23.813449]]]}},{"type":"Feature","properties":{"survey":"bds","sheet":"031","dag":"15018","label_bn":"15018","area_sqm":760.5},"geometry":{"type":"Polygon","coordinates":[[[90.325497,23.813458],[90.325491,23.813588],[90.32516,23.813547],[90.324963,23.813525],[90.324972,23.813449],[90.324998,23.813389],[90.325062,23.813402],[90.325196,23.813426],[90.325367,23.813447],[90.325497,23.813458]]]}},{"type":"Feature","properties":{"survey":"bds","sheet":"031","dag":"15022","label_bn":"15022","area_sqm":8077.5},"geometry":{"type":"Polygon","coordinates":[[[90.324423,23.813355],[90.32429,23.813615],[90.324195,23.813594],[90.324042,23.813504],[90.324021,23.81348],[90.323857,23.813466],[90.323731,23.81344],[90.323601,23.813431],[90.323463,23.813414],[90.323328,23.813383],[90.323401,23.813165],[90.323424,23.813051],[90.323516,23.812718],[90.323552,23.812735],[90.323631,23.812746],[90.323698,23.812733],[90.323746,23.812667],[90.323759,23.812662],[90.323812,23.812634],[90.323879,23.812574],[90.323917,23.812546],[90.323979,23.812512],[90.324039,23.812488],[90.324046,23.812794],[90.324254,23.812917],[90.324427,23.813102],[90.324305,23.813241],[90.324423,23.813355]]]}},{"type":"Feature","properties":{"survey":"bds","sheet":"031","dag":"15023","label_bn":"15023","area_sqm":263.5},"geometry":{"type":"Polygon","coordinates":[[[90.324021,23.81348],[90.323993,23.813627],[90.323833,23.813599],[90.323857,23.813466],[90.324021,23.81348]]]}},{"type":"Feature","properties":{"survey":"bds","sheet":"031","dag":"15012","label_bn":"15012","area_sqm":502.2},"geometry":{"type":"Polygon","coordinates":[[[90.324767,23.813502],[90.32472,23.813696],[90.324498,23.813665],[90.324556,23.813466],[90.324767,23.813502]]]}},{"type":"Feature","properties":{"survey":"bds","sheet":"031","dag":"15021","label_bn":"15021","area_sqm":594.6},"geometry":{"type":"Polygon","coordinates":[[[90.324498,23.813665],[90.324485,23.813704],[90.324342,23.813646],[90.32429,23.813615],[90.324423,23.813355],[90.324501,23.813411],[90.324556,23.813466],[90.324498,23.813665]]]}},{"type":"Feature","properties":{"survey":"bds","sheet":"031","dag":"15011","label_bn":"15011","area_sqm":235.0},"geometry":{"type":"Polygon","coordinates":[[[90.32472,23.813696],[90.32471,23.813793],[90.324562,23.813777],[90.324485,23.813704],[90.324498,23.813665],[90.32472,23.813696]]]}},{"type":"Feature","properties":{"survey":"bds","sheet":"031","dag":"15013","label_bn":"15013","area_sqm":706.5},"geometry":{"type":"Polygon","coordinates":[[[90.324942,23.81368],[90.324928,23.813816],[90.324748,23.813806],[90.32471,23.813793],[90.32472,23.813696],[90.324767,23.813502],[90.324963,23.813525],[90.324945,23.813538],[90.324947,23.813598],[90.324942,23.81368]]]}},{"type":"Feature","properties":{"survey":"bds","sheet":"031","dag":"15026","label_bn":"15026","area_sqm":1473.0},"geometry":{"type":"Polygon","coordinates":[[[90.323528,23.813617],[90.323421,23.813848],[90.323228,23.813814],[90.323096,23.813786],[90.323103,23.813761],[90.323135,23.813716],[90.323163,23.813691],[90.323277,23.813518],[90.323328,23.813383],[90.323463,23.813414],[90.323601,23.813431],[90.323528,23.813617]]]}},{"type":"Feature","properties":{"survey":"bds","sheet":"031","dag":"15027","label_bn":"15027","area_sqm":3408.6},"geometry":{"type":"Polygon","coordinates":[[[90.322971,23.813816],[90.322717,23.81387],[90.322659,23.813581],[90.322595,23.813437],[90.322537,23.813305],[90.322808,23.813288],[90.322974,23.8133],[90.323328,23.813383],[90.323277,23.813518],[90.323163,23.813691],[90.323135,23.813716],[90.323103,23.813761],[90.323096,23.813786],[90.322971,23.813816]]]}},{"type":"Feature","properties":{"survey":"bds","sheet":"031","dag":"15025","label_bn":"15025","area_sqm":790.3},"geometry":{"type":"Polygon","coordinates":[[[90.323672,23.813647],[90.323604,23.813887],[90.323421,23.813848],[90.323528,23.813617],[90.323601,23.813431],[90.323731,23.81344],[90.323672,23.813647]]]}},{"type":"Feature","properties":{"survey":"bds","sheet":"031","dag":"15024","label_bn":"15024","area_sqm":663.7},"geometry":{"type":"Polygon","coordinates":[[[90.323804,23.813675],[90.323699,23.813909],[90.323604,23.813887],[90.323672,23.813647],[90.323731,23.81344],[90.323857,23.813466],[90.323833,23.813599],[90.323804,23.813675]]]}},{"type":"Feature","properties":{"survey":"bds","sheet":"031","dag":"15017","label_bn":"15017","area_sqm":2329.5},"geometry":{"type":"Polygon","coordinates":[[[90.325491,23.813588],[90.325458,23.813974],[90.325318,23.813955],[90.325242,23.813938],[90.325087,23.813919],[90.324932,23.813904],[90.324928,23.813816],[90.324942,23.81368],[90.324947,23.813598],[90.324945,23.813538],[90.324963,23.813525],[90.32516,23.813547],[90.325491,23.813588]]]}},{"type":"Feature","properties":{"survey":"bds","sheet":"031","dag":"15006","label_bn":"15006","area_sqm":933.0},"geometry":{"type":"Polygon","coordinates":[[[90.324134,23.81379],[90.324098,23.813985],[90.323899,23.813939],[90.323993,23.813627],[90.324021,23.81348],[90.324042,23.813504],[90.324195,23.813594],[90.324134,23.81379]]]}},{"type":"Feature","properties":{"survey":"bds","sheet":"031","dag":"15010","label_bn":"15010","area_sqm":889.3},"geometry":{"type":"Polygon","coordinates":[[[90.324753,23.814044],[90.324726,23.814165],[90.324509,23.814144],[90.324533,23.813968],[90.324562,23.813777],[90.32471,23.813793],[90.324748,23.813806],[90.324753,23.814044]]]}},{"type":"Feature","properties":{"survey":"bds","sheet":"031","dag":"15015","label_bn":"15015","area_sqm":1420.6},"geometry":{"type":"Polygon","coordinates":[[[90.325318,23.813955],[90.325243,23.814296],[90.324901,23.814229],[90.324922,23.814046],[90.324932,23.813904],[90.325087,23.813919],[90.325242,23.813938],[90.325318,23.813955]]]}},{"type":"Feature","properties":{"survey":"bds","sheet":"031","dag":"15014","label_bn":"15014","area_sqm":1034.2},"geometry":{"type":"Polygon","coordinates":[[[90.324901,23.814229],[90.324863,23.814334],[90.324688,23.814298],[90.324726,23.814165],[90.324753,23.814044],[90.324748,23.813806],[90.324928,23.813816],[90.324932,23.813904],[90.324922,23.814046],[90.324901,23.814229]]]}},{"type":"Feature","properties":{"survey":"bds","sheet":"031","dag":"15009","label_bn":"15009","area_sqm":424.3},"geometry":{"type":"Polygon","coordinates":[[[90.324688,23.814298],[90.324668,23.814347],[90.324483,23.814319],[90.324509,23.814144],[90.324726,23.814165],[90.324688,23.814298]]]}},{"type":"Feature","properties":{"survey":"bds","sheet":"031","dag":"15016","label_bn":"15016","area_sqm":1498.6},"geometry":{"type":"Polygon","coordinates":[[[90.325689,23.814005],[90.325585,23.814373],[90.325438,23.814339],[90.325243,23.814296],[90.325318,23.813955],[90.325458,23.813974],[90.325578,23.813986],[90.325689,23.814005]]]}},{"type":"Feature","properties":{"survey":"bds","sheet":"031","dag":"15005","label_bn":"15005","area_sqm":1098.3},"geometry":{"type":"Polygon","coordinates":[[[90.324026,23.814281],[90.323992,23.814438],[90.32383,23.814417],[90.323837,23.81439],[90.323788,23.81438],[90.323822,23.814246],[90.323899,23.813939],[90.324098,23.813985],[90.324026,23.814281]]]}},{"type":"Feature","properties":{"survey":"bds","sheet":"031","dag":"15001","label_bn":"15001","area_sqm":4053.1},"geometry":{"type":"Polygon","coordinates":[[[90.323228,23.813814],[90.323078,23.814605],[90.322576,23.814424],[90.322639,23.814192],[90.322711,23.813944],[90.322714,23.813903],[90.322703,23.813875],[90.322717,23.81387],[90.322971,23.813816],[90.323096,23.813786],[90.323228,23.813814]]]}},{"type":"Feature","properties":{"survey":"bds","sheet":"031","dag":"15002","label_bn":"15002","area_sqm":4295.1},"geometry":{"type":"Polygon","coordinates":[[[90.323613,23.81434],[90.323553,23.814682],[90.323409,23.814635],[90.323353,23.814646],[90.323254,23.814631],[90.323185,23.814621],[90.323078,23.814605],[90.323228,23.813814],[90.323421,23.813848],[90.323604,23.813887],[90.323699,23.813909],[90.323613,23.81434]]]}},{"type":"Feature","properties":{"survey":"bds","sheet":"031","dag":"15007","label_bn":"15007","area_sqm":1996.7},"geometry":{"type":"Polygon","coordinates":[[[90.324014,23.8147],[90.324015,23.814705],[90.323991,23.814676],[90.323992,23.814438],[90.324026,23.814281],[90.324098,23.813985],[90.324134,23.81379],[90.324195,23.813594],[90.32429,23.813615],[90.324342,23.813646],[90.324192,23.814267],[90.324132,23.81467],[90.324126,23.814668],[90.324105,23.814697],[90.324037,23.814688],[90.324014,23.8147]]]}},{"type":"Feature","properties":{"survey":"bds","sheet":"031","dag":"15008","label_bn":"15008","area_sqm":3124.4},"geometry":{"type":"Polygon","coordinates":[[[90.324402,23.814662],[90.324299,23.814735],[90.324289,23.814714],[90.324132,23.81467],[90.324192,23.814267],[90.324342,23.813646],[90.324485,23.813704],[90.324562,23.813777],[90.324533,23.813968],[90.324509,23.814144],[90.324483,23.814319],[90.324455,23.814432],[90.324402,23.814662]]]}},{"type":"Feature","properties":{"survey":"bds","sheet":"031","dag":"15003","label_bn":"15003","area_sqm":2552.4},"geometry":{"type":"Polygon","coordinates":[[[90.323789,23.814572],[90.323746,23.814765],[90.323657,23.81475],[90.323553,23.814682],[90.323613,23.81434],[90.323699,23.813909],[90.323804,23.813675],[90.323833,23.813599],[90.323993,23.813627],[90.323899,23.813939],[90.323822,23.814246],[90.323788,23.81438],[90.323837,23.81439],[90.32383,23.814417],[90.323789,23.814572]]]}},{"type":"Feature","properties":{"survey":"bds","sheet":"031","dag":"15004","label_bn":"15004","area_sqm":823.7},"geometry":{"type":"Polygon","coordinates":[[[90.32401,23.814749],[90.323824,23.814785],[90.323746,23.814765],[90.323789,23.814572],[90.32383,23.814417],[90.323992,23.814438],[90.323991,23.814676],[90.324015,23.814705],[90.32402,23.81473],[90.32401,23.814749]]]}}]}