{"type":"FeatureCollection","features":[{"type":"Feature","properties":{"survey":"bds","sheet":"032","dag":"15525","label_bn":"15525","area_sqm":121.8},"geometry":{"type":"Polygon","coordinates":[[[90.320891,23.814659],[90.320892,23.814623],[90.321185,23.81463],[90.321184,23.814635],[90.321179,23.814668],[90.320891,23.814659]]]}},{"type":"Feature","properties":{"survey":"bds","sheet":"032","dag":"15506","label_bn":"15506","area_sqm":345.5},"geometry":{"type":"Polygon","coordinates":[[[90.31988,23.814544],[90.320026,23.814536],[90.320064,23.814725],[90.319978,23.814748],[90.319929,23.814779],[90.31988,23.814544]]]}},{"type":"Feature","properties":{"survey":"bds","sheet":"032","dag":"15505","label_bn":"15505","area_sqm":345.6},"geometry":{"type":"Polygon","coordinates":[[[90.320026,23.814536],[90.320198,23.814528],[90.3202,23.814555],[90.320215,23.814709],[90.320199,23.814712],[90.320119,23.814724],[90.320064,23.814725],[90.320026,23.814536]]]}},{"type":"Feature","properties":{"survey":"bds","sheet":"032","dag":"15508","label_bn":"15508","area_sqm":391.0},"geometry":{"type":"Polygon","coordinates":[[[90.319812,23.814222],[90.319889,23.814217],[90.319993,23.814225],[90.320005,23.814224],[90.320025,23.814399],[90.319853,23.814417],[90.319812,23.814222]]]}},{"type":"Feature","properties":{"survey":"bds","sheet":"032","dag":"15537","label_bn":"15537","area_sqm":528.3},"geometry":{"type":"Polygon","coordinates":[[[90.321637,23.814852],[90.321647,23.814347],[90.321754,23.814339],[90.32174,23.814383],[90.321729,23.814836],[90.321721,23.814836],[90.321637,23.814852]]]}},{"type":"Feature","properties":{"survey":"bds","sheet":"032","dag":"15524","label_bn":"15524","area_sqm":528.4},"geometry":{"type":"Polygon","coordinates":[[[90.320891,23.814834],[90.320891,23.814659],[90.321179,23.814668],[90.321151,23.814833],[90.321123,23.814833],[90.320891,23.814834]]]}},{"type":"Feature","properties":{"survey":"bds","sheet":"032","dag":"15530","label_bn":"15530","area_sqm":569.2},"geometry":{"type":"Polygon","coordinates":[[[90.321177,23.813323],[90.321282,23.812939],[90.321394,23.812958],[90.321342,23.813236],[90.321314,23.813336],[90.321177,23.813323]]]}},{"type":"Feature","properties":{"survey":"bds","sheet":"032","dag":"15517","label_bn":"15517","area_sqm":626.1},"geometry":{"type":"Polygon","coordinates":[[[90.319906,23.813719],[90.319977,23.81372],[90.320026,23.81372],[90.32003,23.813754],[90.320049,23.813911],[90.320095,23.814217],[90.320005,23.814224],[90.319993,23.814225],[90.319906,23.813719]]]}},{"type":"Feature","properties":{"survey":"bds","sheet":"032","dag":"15516","label_bn":"15516","area_sqm":636.9},"geometry":{"type":"Polygon","coordinates":[[[90.319784,23.813716],[90.319906,23.813719],[90.319993,23.814225],[90.319889,23.814217],[90.319784,23.813716]]]}},{"type":"Feature","properties":{"survey":"bds","sheet":"032","dag":"15515","label_bn":"15515","area_sqm":648.5},"geometry":{"type":"Polygon","coordinates":[[[90.319666,23.813721],[90.319784,23.813716],[90.319889,23.814217],[90.319812,23.814222],[90.319791,23.814195],[90.319777,23.814162],[90.319718,23.813987],[90.319702,23.813923],[90.31969,23.813831],[90.319666,23.813721]]]}},{"type":"Feature","properties":{"survey":"bds","sheet":"032","dag":"15531","label_bn":"15531","area_sqm":686.1},"geometry":{"type":"Polygon","coordinates":[[[90.321057,23.812901],[90.321071,23.812807],[90.321099,23.812653],[90.321248,23.812688],[90.321226,23.812811],[90.321333,23.812843],[90.321442,23.812875],[90.321417,23.812962],[90.321394,23.812958],[90.321282,23.812939],[90.321057,23.812901]]]}},{"type":"Feature","properties":{"survey":"bds","sheet":"032","dag":"15513","label_bn":"15513","area_sqm":694.9},"geometry":{"type":"Polygon","coordinates":[[[90.319972,23.813309],[90.320112,23.813307],[90.320113,23.813307],[90.320114,23.813322],[90.320127,23.813417],[90.320132,23.813453],[90.320156,23.813542],[90.320281,23.813579],[90.320289,23.813654],[90.320017,23.813649],[90.320012,23.813615],[90.319972,23.813309]]]}},{"type":"Feature","properties":{"survey":"bds","sheet":"032","dag":"15544","label_bn":"15544","area_sqm":788.6},"geometry":{"type":"Polygon","coordinates":[[[90.322056,23.814382],[90.322246,23.813884],[90.322412,23.813879],[90.322303,23.81411],[90.322186,23.814344],[90.32217,23.814374],[90.322161,23.814378],[90.322146,23.814378],[90.322056,23.814382]]]}},{"type":"Feature","properties":{"survey":"bds","sheet":"032","dag":"15504","label_bn":"15504","area_sqm":799.2},"geometry":{"type":"Polygon","coordinates":[[[90.320064,23.814725],[90.320119,23.814724],[90.320199,23.814712],[90.320204,23.814797],[90.320225,23.814823],[90.320243,23.814952],[90.320305,23.815174],[90.320256,23.815186],[90.320188,23.815202],[90.320141,23.815213],[90.320064,23.814725]]]}},{"type":"Feature","properties":{"survey":"bds","sheet":"032","dag":"15507","label_bn":"15507","area_sqm":813.4},"geometry":{"type":"Polygon","coordinates":[[[90.319853,23.814417],[90.320025,23.814399],[90.320005,23.814224],[90.320095,23.814217],[90.320169,23.814234],[90.320198,23.814528],[90.320026,23.814536],[90.31988,23.814544],[90.319853,23.814417]]]}},{"type":"Feature","properties":{"survey":"bds","sheet":"032","dag":"15546","label_bn":"15546","area_sqm":889.2},"geometry":{"type":"Polygon","coordinates":[[[90.32174,23.814383],[90.321754,23.814339],[90.321887,23.813907],[90.322061,23.813915],[90.321901,23.814376],[90.32174,23.814383]]]}},{"type":"Feature","properties":{"survey":"bds","sheet":"032","dag":"15545","label_bn":"15545","area_sqm":905.0},"geometry":{"type":"Polygon","coordinates":[[[90.321901,23.814376],[90.322061,23.813915],[90.322246,23.813884],[90.322056,23.814382],[90.322041,23.814387],[90.321937,23.814382],[90.321901,23.814376]]]}},{"type":"Feature","properties":{"survey":"bds","sheet":"032","dag":"15533","label_bn":"15533","area_sqm":914.9},"geometry":{"type":"Polygon","coordinates":[[[90.321272,23.813499],[90.321276,23.813482],[90.321305,23.813369],[90.321314,23.813336],[90.321342,23.813236],[90.321631,23.813302],[90.321572,23.81355],[90.321569,23.813559],[90.321272,23.813499]]]}},{"type":"Feature","properties":{"survey":"bds","sheet":"032","dag":"15538","label_bn":"15538","area_sqm":977.0},"geometry":{"type":"Polygon","coordinates":[[[90.321729,23.814836],[90.32174,23.814383],[90.321901,23.814376],[90.321937,23.814382],[90.321921,23.814678],[90.321899,23.814836],[90.321779,23.814841],[90.321729,23.814836]]]}},{"type":"Feature","properties":{"survey":"bds","sheet":"032","dag":"15521","label_bn":"15521","area_sqm":1055.9},"geometry":{"type":"Polygon","coordinates":[[[90.320199,23.814712],[90.320215,23.814709],[90.3202,23.814555],[90.320501,23.81455],[90.320526,23.81455],[90.320535,23.814859],[90.320478,23.814852],[90.320225,23.814823],[90.320204,23.814797],[90.320199,23.814712]]]}},{"type":"Feature","properties":{"survey":"bds","sheet":"032","dag":"15511","label_bn":"15511","area_sqm":1056.1},"geometry":{"type":"Polygon","coordinates":[[[90.3197,23.813022],[90.319707,23.812739],[90.320069,23.812797],[90.320067,23.812861],[90.320076,23.813021],[90.3197,23.813022]]]}},{"type":"Feature","properties":{"survey":"bds","sheet":"032","dag":"15542","label_bn":"15542","area_sqm":1056.8},"geometry":{"type":"Polygon","coordinates":[[[90.322397,23.814386],[90.322565,23.81388],[90.322703,23.813875],[90.322714,23.813903],[90.322711,23.813944],[90.322639,23.814192],[90.322576,23.814424],[90.322472,23.814409],[90.322397,23.814386]]]}},{"type":"Feature","properties":{"survey":"bds","sheet":"032","dag":"15536","label_bn":"15536","area_sqm":1057.2},"geometry":{"type":"Polygon","coordinates":[[[90.321448,23.814888],[90.321463,23.814398],[90.321468,23.814396],[90.321532,23.814368],[90.321612,23.814354],[90.321615,23.814353],[90.321647,23.814347],[90.321637,23.814852],[90.321455,23.814887],[90.321448,23.814888]]]}},{"type":"Feature","properties":{"survey":"bds","sheet":"032","dag":"15543","label_bn":"15543","area_sqm":1076.4},"geometry":{"type":"Polygon","coordinates":[[[90.32217,23.814374],[90.322186,23.814344],[90.322303,23.81411],[90.322412,23.813879],[90.322565,23.81388],[90.322397,23.814386],[90.322384,23.814382],[90.32217,23.814374]]]}},{"type":"Feature","properties":{"survey":"bds","sheet":"032","dag":"15510","label_bn":"15510","area_sqm":1157.9},"geometry":{"type":"Polygon","coordinates":[[[90.319367,23.812851],[90.319386,23.812696],[90.319502,23.812707],[90.319707,23.812739],[90.3197,23.813022],[90.31938,23.813023],[90.319371,23.813008],[90.319367,23.81298],[90.319367,23.812923],[90.319367,23.812851]]]}},{"type":"Feature","properties":{"survey":"bds","sheet":"032","dag":"15523","label_bn":"15523","area_sqm":1220.2},"geometry":{"type":"Polygon","coordinates":[[[90.320526,23.81455],[90.320892,23.814559],[90.320892,23.814623],[90.320891,23.814659],[90.320891,23.814834],[90.320878,23.814834],[90.320609,23.814868],[90.320535,23.814859],[90.320526,23.81455]]]}},{"type":"Feature","properties":{"survey":"bds","sheet":"032","dag":"15528","label_bn":"15528","area_sqm":1236.9},"geometry":{"type":"Polygon","coordinates":[[[90.321162,23.8139],[90.32122,23.813681],[90.321272,23.813499],[90.321569,23.813559],[90.321502,23.81384],[90.321162,23.8139]]]}},{"type":"Feature","properties":{"survey":"bds","sheet":"032","dag":"15541","label_bn":"15541","area_sqm":1453.0},"geometry":{"type":"Polygon","coordinates":[[[90.322672,23.814939],[90.322768,23.814494],[90.322835,23.814518],[90.323078,23.814605],[90.323088,23.814607],[90.32292,23.814994],[90.32275,23.814951],[90.322708,23.814945],[90.322672,23.814939]]]}},{"type":"Feature","properties":{"survey":"bds","sheet":"032","dag":"15532","label_bn":"15532","area_sqm":1524.3},"geometry":{"type":"Polygon","coordinates":[[[90.321342,23.813236],[90.321394,23.812958],[90.321417,23.812962],[90.321442,23.812875],[90.32149,23.812712],[90.321524,23.812733],[90.321545,23.812759],[90.321555,23.812795],[90.321562,23.812837],[90.321585,23.812869],[90.321729,23.812947],[90.321729,23.812947],[90.321747,23.812936],[90.321753,23.812934],[90.321764,23.812931],[90.32175,23.81303],[90.32174,23.813025],[90.32172,23.813013],[90.321701,23.81301],[90.321631,23.813302],[90.321342,23.813236]]]}},{"type":"Feature","properties":{"survey":"bds","sheet":"032","dag":"15526","label_bn":"15526","area_sqm":1586.0},"geometry":{"type":"Polygon","coordinates":[[[90.32113,23.814956],[90.321151,23.814833],[90.321179,23.814668],[90.321184,23.814635],[90.321185,23.81463],[90.321223,23.814404],[90.321349,23.814427],[90.321457,23.814399],[90.321463,23.814398],[90.321448,23.814888],[90.321338,23.814906],[90.321223,23.814939],[90.321177,23.814945],[90.32113,23.814956]]]}},{"type":"Feature","properties":{"survey":"bds","sheet":"032","dag":"15502","label_bn":"15502","area_sqm":1725.0},"geometry":{"type":"Polygon","coordinates":[[[90.319373,23.814844],[90.319456,23.814846],[90.319522,23.81484],[90.319582,23.814862],[90.319658,23.814867],[90.319816,23.815293],[90.319757,23.81531],[90.31971,23.81532],[90.319585,23.815352],[90.319503,23.815369],[90.319451,23.815227],[90.319373,23.814844]]]}},{"type":"Feature","properties":{"survey":"bds","sheet":"032","dag":"15540","label_bn":"15540","area_sqm":1857.1},"geometry":{"type":"Polygon","coordinates":[[[90.322317,23.814889],[90.322378,23.814657],[90.322391,23.814654],[90.322472,23.814409],[90.322576,23.814424],[90.322768,23.814494],[90.322672,23.814939],[90.322593,23.814932],[90.322317,23.814889]]]}},{"type":"Feature","properties":{"survey":"bds","sheet":"032","dag":"15514","label_bn":"15514","area_sqm":1873.8},"geometry":{"type":"Polygon","coordinates":[[[90.319535,23.813316],[90.319972,23.813309],[90.320012,23.813615],[90.320017,23.813649],[90.320026,23.81372],[90.319977,23.81372],[90.319906,23.813719],[90.319784,23.813716],[90.319666,23.813721],[90.319632,23.813624],[90.31961,23.813588],[90.31959,23.813544],[90.319535,23.813316]]]}},{"type":"Feature","properties":{"survey":"bds","sheet":"032","dag":"15527","label_bn":"15527","area_sqm":1967.2},"geometry":{"type":"Polygon","coordinates":[[[90.321162,23.8139],[90.321502,23.81384],[90.321504,23.813957],[90.321508,23.814208],[90.321532,23.814368],[90.321468,23.814396],[90.321463,23.814398],[90.321457,23.814399],[90.321349,23.814427],[90.321223,23.814404],[90.321199,23.814353],[90.321189,23.81432],[90.321191,23.814191],[90.321187,23.814029],[90.321191,23.813962],[90.321162,23.8139]]]}},{"type":"Feature","properties":{"survey":"bds","sheet":"032","dag":"15503","label_bn":"15503","area_sqm":2002.3},"geometry":{"type":"Polygon","coordinates":[[[90.319658,23.814867],[90.319769,23.814842],[90.319829,23.814829],[90.319908,23.814792],[90.319929,23.814779],[90.319978,23.814748],[90.320064,23.814725],[90.320141,23.815213],[90.319882,23.815275],[90.319816,23.815293],[90.319658,23.814867]]]}},{"type":"Feature","properties":{"survey":"bds","sheet":"032","dag":"15512","label_bn":"15512","area_sqm":2077.2},"geometry":{"type":"Polygon","coordinates":[[[90.31938,23.813023],[90.3197,23.813022],[90.320076,23.813021],[90.320076,23.813021],[90.320112,23.813307],[90.319972,23.813309],[90.319535,23.813316],[90.31949,23.813217],[90.319465,23.813163],[90.319441,23.813116],[90.319405,23.813067],[90.319391,23.813044],[90.319391,23.813044],[90.31938,23.813023]]]}},{"type":"Feature","properties":{"survey":"bds","sheet":"032","dag":"15518","label_bn":"15518","area_sqm":2116.6},"geometry":{"type":"Polygon","coordinates":[[[90.320017,23.813649],[90.320289,23.813654],[90.320294,23.813699],[90.320298,23.813749],[90.320302,23.813808],[90.320308,23.813845],[90.320323,23.813879],[90.320356,23.813913],[90.320411,23.813967],[90.320432,23.814007],[90.320463,23.814201],[90.320468,23.814233],[90.320442,23.814233],[90.320169,23.814234],[90.320095,23.814217],[90.320049,23.813911],[90.32003,23.813754],[90.320026,23.81372],[90.320017,23.813649]]]}},{"type":"Feature","properties":{"survey":"bds","sheet":"032","dag":"15522","label_bn":"15522","area_sqm":2257.2},"geometry":{"type":"Polygon","coordinates":[[[90.320225,23.814823],[90.320478,23.814852],[90.320535,23.814859],[90.320609,23.814868],[90.320878,23.814834],[90.320891,23.814834],[90.321123,23.814833],[90.321151,23.814833],[90.32113,23.814956],[90.321109,23.81496],[90.321087,23.814965],[90.321057,23.814972],[90.321019,23.81498],[90.320835,23.815035],[90.320483,23.815132],[90.320305,23.815174],[90.320243,23.814952],[90.320225,23.814823]]]}},{"type":"Feature","properties":{"survey":"bds","sheet":"032","dag":"15535","label_bn":"15535","area_sqm":2557.5},"geometry":{"type":"Polygon","coordinates":[[[90.321612,23.814354],[90.32185,23.813087],[90.321851,23.813088],[90.3219,23.81311],[90.322037,23.813161],[90.321972,23.813487],[90.321887,23.813907],[90.321754,23.814339],[90.321647,23.814347],[90.321615,23.814353],[90.321612,23.814354]]]}},{"type":"Feature","properties":{"survey":"bds","sheet":"032","dag":"15534","label_bn":"15534","area_sqm":2561.3},"geometry":{"type":"Polygon","coordinates":[[[90.321502,23.81384],[90.321569,23.813559],[90.321572,23.81355],[90.321631,23.813302],[90.321701,23.81301],[90.32172,23.813013],[90.32174,23.813025],[90.32175,23.81303],[90.32185,23.813087],[90.321612,23.814354],[90.321532,23.814368],[90.321508,23.814208],[90.321504,23.813957],[90.321502,23.81384]]]}},{"type":"Feature","properties":{"survey":"bds","sheet":"032","dag":"15539","label_bn":"15539","area_sqm":2634.2},"geometry":{"type":"Polygon","coordinates":[[[90.321899,23.814836],[90.321921,23.814678],[90.321937,23.814382],[90.322041,23.814387],[90.322056,23.814382],[90.322146,23.814378],[90.322161,23.814378],[90.32217,23.814374],[90.322384,23.814382],[90.322397,23.814386],[90.322472,23.814409],[90.322391,23.814654],[90.322378,23.814657],[90.322317,23.814889],[90.322259,23.814886],[90.322194,23.814878],[90.322024,23.814866],[90.321899,23.814836]]]}},{"type":"Feature","properties":{"survey":"bds","sheet":"032","dag":"15529","label_bn":"15529","area_sqm":2944.6},"geometry":{"type":"Polygon","coordinates":[[[90.32088,23.813588],[90.320911,23.813477],[90.320966,23.81332],[90.321023,23.813109],[90.321057,23.812901],[90.321282,23.812939],[90.321177,23.813323],[90.321314,23.813336],[90.321305,23.813369],[90.321276,23.813482],[90.321272,23.813499],[90.32122,23.813681],[90.321162,23.8139],[90.321117,23.813888],[90.321096,23.813855],[90.321009,23.813815],[90.320934,23.813786],[90.32091,23.813763],[90.320901,23.813736],[90.320892,23.81364],[90.32088,23.813588]]]}},{"type":"Feature","properties":{"survey":"bds","sheet":"032","dag":"15548","label_bn":"15548","area_sqm":2963.0},"geometry":{"type":"Polygon","coordinates":[[[90.32175,23.81303],[90.321764,23.812931],[90.321826,23.812916],[90.321888,23.81289],[90.321982,23.81286],[90.322119,23.812824],[90.322197,23.812813],[90.32229,23.812811],[90.3223,23.812808],[90.322307,23.812788],[90.322496,23.812828],[90.322664,23.812885],[90.322657,23.812971],[90.322626,23.813019],[90.322557,23.813102],[90.322517,23.81319],[90.322243,23.813167],[90.322037,23.813161],[90.3219,23.81311],[90.321851,23.813088],[90.32185,23.813087],[90.32175,23.81303]]]}},{"type":"Feature","properties":{"survey":"bds","sheet":"032","dag":"15520","label_bn":"15520","area_sqm":3545.8},"geometry":{"type":"Polygon","coordinates":[[[90.320169,23.814234],[90.320442,23.814233],[90.320468,23.814233],[90.320521,23.814233],[90.320629,23.814233],[90.320701,23.814228],[90.320781,23.814237],[90.320878,23.814269],[90.320951,23.8143],[90.321024,23.814341],[90.321223,23.814404],[90.321185,23.81463],[90.320892,23.814623],[90.320892,23.814559],[90.320526,23.81455],[90.320501,23.81455],[90.3202,23.814555],[90.320198,23.814528],[90.320169,23.814234]]]}},{"type":"Feature","properties":{"survey":"bds","sheet":"032","dag":"15547","label_bn":"15547","area_sqm":5383.8},"geometry":{"type":"Polygon","coordinates":[[[90.321887,23.813907],[90.321972,23.813487],[90.322037,23.813161],[90.322243,23.813167],[90.322517,23.81319],[90.322537,23.813305],[90.322595,23.813437],[90.322659,23.813581],[90.322717,23.81387],[90.322703,23.813875],[90.322565,23.81388],[90.322412,23.813879],[90.322246,23.813884],[90.322061,23.813915],[90.321887,23.813907]]]}},{"type":"Feature","properties":{"survey":"bds","sheet":"032","dag":"15519","label_bn":"15519","area_sqm":12942.2},"geometry":{"type":"Polygon","coordinates":[[[90.320067,23.812861],[90.320069,23.812797],[90.320435,23.812829],[90.321057,23.812901],[90.321023,23.813109],[90.320966,23.81332],[90.320911,23.813477],[90.32088,23.813588],[90.320892,23.81364],[90.320901,23.813736],[90.32091,23.813763],[90.320934,23.813786],[90.321009,23.813815],[90.321096,23.813855],[90.321117,23.813888],[90.321162,23.8139],[90.321191,23.813962],[90.321187,23.814029],[90.321191,23.814191],[90.321189,23.81432],[90.321199,23.814353],[90.321223,23.814404],[90.321024,23.814341],[90.320951,23.8143],[90.320878,23.814269],[90.320781,23.814237],[90.320701,23.814228],[90.320629,23.814233],[90.320521,23.814233],[90.320468,23.814233],[90.320463,23.814201],[90.320432,23.814007],[90.320411,23.813967],[90.320356,23.813913],[90.320323,23.813879],[90.320308,23.813845],[90.320302,23.813808],[90.320298,23.813749],[90.320294,23.813699],[90.320289,23.813654],[90.320281,23.813579],[90.320156,23.813542],[90.320132,23.813453],[90.320127,23.813417],[90.320114,23.813322],[90.320113,23.813307],[90.320112,23.813307],[90.320076,23.813021],[90.320076,23.813021],[90.320067,23.812861]]]}},{"type":"Feature","properties":{"survey":"bds","sheet":"032","dag":"15509","label_bn":"15509","area_sqm":20272.6},"geometry":{"type":"Polygon","coordinates":[[[90.318372,23.812826],[90.318412,23.812678],[90.318474,23.812675],[90.318594,23.812685],[90.318595,23.812686],[90.318657,23.8127],[90.318701,23.812695],[90.318799,23.812667],[90.318901,23.812659],[90.319047,23.812666],[90.31918,23.812682],[90.319386,23.812696],[90.319386,23.812696],[90.319367,23.812851],[90.319367,23.812923],[90.319367,23.81298],[90.319371,23.813008],[90.31938,23.813023],[90.319391,23.813044],[90.319391,23.813044],[90.319405,23.813067],[90.319441,23.813116],[90.319465,23.813163],[90.31949,23.813217],[90.319535,23.813316],[90.31959,23.813544],[90.31961,23.813588],[90.319632,23.813624],[90.319666,23.813721],[90.31969,23.813831],[90.319702,23.813923],[90.319718,23.813987],[90.319777,23.814162],[90.319791,23.814195],[90.319812,23.814222],[90.319853,23.814417],[90.31988,23.814544],[90.319929,23.814779],[90.319908,23.814792],[90.319829,23.814829],[90.319769,23.814842],[90.319658,23.814867],[90.319582,23.814862],[90.319522,23.81484],[90.319456,23.814846],[90.319373,23.814844],[90.319186,23.814814],[90.319097,23.814409],[90.318999,23.814038],[90.31893,23.813766],[90.318849,23.813488],[90.318817,23.813314],[90.318812,23.813315],[90.318413,23.813336],[90.318372,23.812826]]]}},{"type":"Feature","properties":{"survey":"bds","sheet":"032","dag":"15501","label_bn":"15501","area_sqm":22469.6},"geometry":{"type":"Polygon","coordinates":[[[90.31927,23.816074],[90.319498,23.815385],[90.319503,23.815369],[90.319585,23.815352],[90.31971,23.81532],[90.319757,23.81531],[90.319816,23.815293],[90.319882,23.815275],[90.320141,23.815213],[90.320188,23.815202],[90.320256,23.815186],[90.320305,23.815174],[90.320483,23.815132],[90.320835,23.815035],[90.321019,23.81498],[90.321057,23.814972],[90.321087,23.814965],[90.321109,23.81496],[90.32113,23.814956],[90.321177,23.814945],[90.321223,23.814939],[90.321338,23.814906],[90.321448,23.814888],[90.321455,23.814887],[90.321637,23.814852],[90.321721,23.814836],[90.321729,23.814836],[90.321779,23.814841],[90.321899,23.814836],[90.322024,23.814866],[90.322194,23.814878],[90.322259,23.814886],[90.322317,23.814889],[90.322593,23.814932],[90.322672,23.814939],[90.322708,23.814945],[90.32275,23.814951],[90.32292,23.814994],[90.322934,23.814998],[90.322974,23.815009],[90.322965,23.815027],[90.322722,23.815508],[90.322519,23.815461],[90.322179,23.815393],[90.321933,23.8154],[90.321652,23.815427],[90.321502,23.815445],[90.321228,23.815492],[90.320872,23.815568],[90.320636,23.815637],[90.320517,23.815688],[90.320367,23.815758],[90.320262,23.815794],[90.319925,23.815885],[90.319527,23.815991],[90.31927,23.816074]]]}}]}