{"type":"FeatureCollection","features":[{"type":"Feature","properties":{"survey":"bds","sheet":"033","dag":"16040","label_bn":"16040","area_sqm":94.7},"geometry":{"type":"Polygon","coordinates":[[[90.316255,23.814319],[90.316292,23.814262],[90.316365,23.814179],[90.316401,23.814217],[90.316355,23.814267],[90.316297,23.814335],[90.316296,23.814336],[90.316255,23.814319]]]}},{"type":"Feature","properties":{"survey":"bds","sheet":"033","dag":"16041","label_bn":"16041","area_sqm":106.1},"geometry":{"type":"Polygon","coordinates":[[[90.316365,23.814179],[90.316466,23.814064],[90.316532,23.814076],[90.316401,23.814217],[90.316365,23.814179]]]}},{"type":"Feature","properties":{"survey":"bds","sheet":"033","dag":"16039","label_bn":"16039","area_sqm":133.7},"geometry":{"type":"Polygon","coordinates":[[[90.316084,23.81453],[90.316152,23.814465],[90.316173,23.814446],[90.316255,23.814319],[90.316296,23.814336],[90.316213,23.814458],[90.316133,23.814555],[90.316084,23.81453]]]}},{"type":"Feature","properties":{"survey":"bds","sheet":"033","dag":"16033","label_bn":"16033","area_sqm":142.9},"geometry":{"type":"Polygon","coordinates":[[[90.316803,23.814657],[90.316808,23.814578],[90.316967,23.814592],[90.316963,23.814669],[90.316803,23.814657]]]}},{"type":"Feature","properties":{"survey":"bds","sheet":"033","dag":"16038","label_bn":"16038","area_sqm":180.1},"geometry":{"type":"Polygon","coordinates":[[[90.316133,23.814555],[90.316213,23.814458],[90.316296,23.814336],[90.316323,23.814348],[90.316221,23.814593],[90.316153,23.814564],[90.316143,23.81456],[90.316133,23.814555],[90.316133,23.814555]]]}},{"type":"Feature","properties":{"survey":"bds","sheet":"033","dag":"16034","label_bn":"16034","area_sqm":202.4},"geometry":{"type":"Polygon","coordinates":[[[90.316808,23.814578],[90.316808,23.814575],[90.316808,23.814575],[90.316815,23.814466],[90.316974,23.81448],[90.316967,23.814592],[90.316808,23.814578]]]}},{"type":"Feature","properties":{"survey":"bds","sheet":"033","dag":"16031","label_bn":"16031","area_sqm":203.6},"geometry":{"type":"Polygon","coordinates":[[[90.31662,23.81478],[90.316622,23.814688],[90.316808,23.814692],[90.316823,23.814785],[90.31662,23.81478]]]}},{"type":"Feature","properties":{"survey":"bds","sheet":"033","dag":"16030","label_bn":"16030","area_sqm":203.9},"geometry":{"type":"Polygon","coordinates":[[[90.316803,23.814657],[90.316963,23.814669],[90.316956,23.814788],[90.316823,23.814785],[90.316808,23.814692],[90.316803,23.814657]]]}},{"type":"Feature","properties":{"survey":"bds","sheet":"033","dag":"16046","label_bn":"16046","area_sqm":206.8},"geometry":{"type":"Polygon","coordinates":[[[90.31664,23.814297],[90.316711,23.814107],[90.316802,23.814123],[90.316733,23.814308],[90.316658,23.814301],[90.31664,23.814297]]]}},{"type":"Feature","properties":{"survey":"bds","sheet":"033","dag":"16045","label_bn":"16045","area_sqm":209.3},"geometry":{"type":"Polygon","coordinates":[[[90.316549,23.814279],[90.316619,23.814091],[90.316711,23.814107],[90.31664,23.814297],[90.316549,23.814279]]]}},{"type":"Feature","properties":{"survey":"bds","sheet":"033","dag":"16032","label_bn":"16032","area_sqm":243.9},"geometry":{"type":"Polygon","coordinates":[[[90.316622,23.814688],[90.316623,23.81457],[90.316808,23.814575],[90.316808,23.814575],[90.316808,23.814578],[90.316803,23.814657],[90.316808,23.814692],[90.316622,23.814688]]]}},{"type":"Feature","properties":{"survey":"bds","sheet":"033","dag":"16035","label_bn":"16035","area_sqm":244.1},"geometry":{"type":"Polygon","coordinates":[[[90.316623,23.81457],[90.316626,23.814445],[90.316685,23.814455],[90.316815,23.814466],[90.316808,23.814575],[90.316623,23.81457]]]}},{"type":"Feature","properties":{"survey":"bds","sheet":"033","dag":"16014","label_bn":"16014","area_sqm":246.3},"geometry":{"type":"Polygon","coordinates":[[[90.316789,23.815618],[90.316813,23.815614],[90.316893,23.8156],[90.316924,23.8158],[90.316819,23.815822],[90.316789,23.815618]]]}},{"type":"Feature","properties":{"survey":"bds","sheet":"033","dag":"16042","label_bn":"16042","area_sqm":263.8},"geometry":{"type":"Polygon","coordinates":[[[90.316466,23.814064],[90.316593,23.81392],[90.316733,23.813778],[90.316759,23.81378],[90.316794,23.813781],[90.316805,23.813783],[90.316532,23.814076],[90.316466,23.814064]]]}},{"type":"Feature","properties":{"survey":"bds","sheet":"033","dag":"16044","label_bn":"16044","area_sqm":283.0},"geometry":{"type":"Polygon","coordinates":[[[90.316401,23.814217],[90.316532,23.814076],[90.316619,23.814091],[90.316549,23.814279],[90.316466,23.814262],[90.316424,23.814243],[90.316401,23.814217]]]}},{"type":"Feature","properties":{"survey":"bds","sheet":"033","dag":"16053","label_bn":"16053","area_sqm":284.6},"geometry":{"type":"Polygon","coordinates":[[[90.318052,23.814044],[90.318211,23.814032],[90.318217,23.814187],[90.318057,23.814203],[90.318052,23.814044]]]}},{"type":"Feature","properties":{"survey":"bds","sheet":"033","dag":"16022","label_bn":"16022","area_sqm":325.5},"geometry":{"type":"Polygon","coordinates":[[[90.317347,23.815273],[90.317509,23.815268],[90.31751,23.81527],[90.317541,23.81544],[90.317511,23.815446],[90.317381,23.815451],[90.317347,23.815273]]]}},{"type":"Feature","properties":{"survey":"bds","sheet":"033","dag":"16062","label_bn":"16062","area_sqm":366.0},"geometry":{"type":"Polygon","coordinates":[[[90.318173,23.815548],[90.318327,23.815531],[90.318355,23.815725],[90.318385,23.815721],[90.318208,23.815767],[90.318173,23.815548]]]}},{"type":"Feature","properties":{"survey":"bds","sheet":"033","dag":"16026","label_bn":"16026","area_sqm":384.5},"geometry":{"type":"Polygon","coordinates":[[[90.317402,23.814799],[90.317415,23.814724],[90.31781,23.814749],[90.317817,23.814805],[90.317788,23.814843],[90.31777,23.814832],[90.317741,23.814819],[90.317613,23.814829],[90.317402,23.814799]]]}},{"type":"Feature","properties":{"survey":"bds","sheet":"033","dag":"16016","label_bn":"16016","area_sqm":221.4},"geometry":{"type":"Polygon","coordinates":[[[90.316742,23.815899],[90.31676,23.816047],[90.316651,23.816071],[90.316624,23.816075],[90.31662,23.815925],[90.316742,23.815899]]]}},{"type":"Feature","properties":{"survey":"bds","sheet":"033","dag":"16017","label_bn":"16017","area_sqm":487.8},"geometry":{"type":"Polygon","coordinates":[[[90.316963,23.816024],[90.316858,23.816034],[90.3168,23.816039],[90.316789,23.81604],[90.31676,23.816047],[90.316734,23.81584],[90.316769,23.815833],[90.316819,23.815822],[90.316924,23.8158],[90.316963,23.816024]]]}},{"type":"Feature","properties":{"survey":"bds","sheet":"033","dag":"16036","label_bn":"16036","area_sqm":405.8},"geometry":{"type":"Polygon","coordinates":[[[90.3165,23.81469],[90.316508,23.814416],[90.316582,23.814438],[90.316618,23.814444],[90.316626,23.814445],[90.316623,23.81457],[90.316622,23.814688],[90.31662,23.81478],[90.316599,23.814779],[90.3166,23.814761],[90.316597,23.814758],[90.316553,23.814716],[90.3165,23.81469]]]}},{"type":"Feature","properties":{"survey":"bds","sheet":"033","dag":"16023","label_bn":"16023","area_sqm":406.4},"geometry":{"type":"Polygon","coordinates":[[[90.317303,23.815046],[90.317391,23.815053],[90.31747,23.815058],[90.317509,23.815268],[90.317347,23.815273],[90.317303,23.815046]]]}},{"type":"Feature","properties":{"survey":"bds","sheet":"033","dag":"16015","label_bn":"16015","area_sqm":553.9},"geometry":{"type":"Polygon","coordinates":[[[90.316819,23.815822],[90.316769,23.815833],[90.316734,23.81584],[90.316742,23.815899],[90.31662,23.815925],[90.316618,23.815865],[90.316596,23.815658],[90.316739,23.815628],[90.316789,23.815618],[90.316819,23.815822]]]}},{"type":"Feature","properties":{"survey":"bds","sheet":"033","dag":"16063","label_bn":"16063","area_sqm":392.3},"geometry":{"type":"Polygon","coordinates":[[[90.318296,23.815306],[90.318298,23.815322],[90.318327,23.815531],[90.318173,23.815548],[90.318139,23.815339],[90.318296,23.815306]]]}},{"type":"Feature","properties":{"survey":"bds","sheet":"033","dag":"16049","label_bn":"16049","area_sqm":528.4},"geometry":{"type":"Polygon","coordinates":[[[90.317416,23.814357],[90.317437,23.814235],[90.317443,23.814188],[90.317584,23.814201],[90.317693,23.814212],[90.317709,23.814213],[90.317686,23.814388],[90.317559,23.814373],[90.317416,23.814357]]]}},{"type":"Feature","properties":{"survey":"bds","sheet":"033","dag":"16025","label_bn":"16025","area_sqm":606.6},"geometry":{"type":"Polygon","coordinates":[[[90.317391,23.815053],[90.317402,23.814799],[90.317613,23.814829],[90.317614,23.815069],[90.31747,23.815058],[90.317391,23.815053]]]}},{"type":"Feature","properties":{"survey":"bds","sheet":"033","dag":"16073","label_bn":"16073","area_sqm":631.8},"geometry":{"type":"Polygon","coordinates":[[[90.319286,23.81483],[90.319373,23.814844],[90.319451,23.815227],[90.319503,23.815369],[90.319498,23.815385],[90.319386,23.815422],[90.319286,23.81483]]]}},{"type":"Feature","properties":{"survey":"bds","sheet":"033","dag":"16064","label_bn":"16064","area_sqm":731.9},"geometry":{"type":"Polygon","coordinates":[[[90.318292,23.815258],[90.318296,23.815306],[90.318139,23.815339],[90.318132,23.815295],[90.318131,23.81529],[90.31811,23.814921],[90.318231,23.814912],[90.318242,23.814911],[90.318262,23.81491],[90.318292,23.815258]]]}},{"type":"Feature","properties":{"survey":"bds","sheet":"033","dag":"16066","label_bn":"16066","area_sqm":653.5},"geometry":{"type":"Polygon","coordinates":[[[90.318298,23.815322],[90.318451,23.815313],[90.318492,23.815685],[90.318393,23.815718],[90.318385,23.815721],[90.318355,23.815725],[90.318327,23.815531],[90.318298,23.815322]]]}},{"type":"Feature","properties":{"survey":"bds","sheet":"033","dag":"16054","label_bn":"16054","area_sqm":665.1},"geometry":{"type":"Polygon","coordinates":[[[90.318211,23.814032],[90.31829,23.814026],[90.31859,23.814004],[90.318619,23.814147],[90.318299,23.814179],[90.318217,23.814187],[90.318211,23.814032]]]}},{"type":"Feature","properties":{"survey":"bds","sheet":"033","dag":"16051","label_bn":"16051","area_sqm":699.7},"geometry":{"type":"Polygon","coordinates":[[[90.317686,23.814388],[90.317709,23.814213],[90.317718,23.814214],[90.318053,23.814238],[90.318052,23.814246],[90.318059,23.814343],[90.318056,23.814393],[90.317935,23.814389],[90.317888,23.814412],[90.317692,23.814389],[90.317686,23.814388]]]}},{"type":"Feature","properties":{"survey":"bds","sheet":"033","dag":"16037","label_bn":"16037","area_sqm":727.2},"geometry":{"type":"Polygon","coordinates":[[[90.316221,23.814593],[90.316323,23.814348],[90.316423,23.814391],[90.3165,23.814414],[90.316508,23.814416],[90.3165,23.81469],[90.316492,23.814686],[90.316489,23.814685],[90.316373,23.814647],[90.316259,23.814609],[90.316221,23.814593]]]}},{"type":"Feature","properties":{"survey":"bds","sheet":"033","dag":"16065","label_bn":"16065","area_sqm":727.6},"geometry":{"type":"Polygon","coordinates":[[[90.318262,23.81491],[90.318353,23.814902],[90.318365,23.814901],[90.318418,23.814903],[90.318451,23.815313],[90.318298,23.815322],[90.318292,23.815258],[90.318262,23.81491]]]}},{"type":"Feature","properties":{"survey":"bds","sheet":"033","dag":"16010","label_bn":"16010","area_sqm":752.6},"geometry":{"type":"Polygon","coordinates":[[[90.316274,23.81568],[90.316331,23.815681],[90.316442,23.815681],[90.31647,23.816089],[90.316377,23.816088],[90.31631,23.816082],[90.316274,23.81568]]]}},{"type":"Feature","properties":{"survey":"bds","sheet":"033","dag":"16011","label_bn":"16011","area_sqm":753.3},"geometry":{"type":"Polygon","coordinates":[[[90.316442,23.815681],[90.316462,23.815677],[90.316596,23.815658],[90.316618,23.815865],[90.316624,23.816075],[90.316517,23.81609],[90.31647,23.816089],[90.316442,23.815681]]]}},{"type":"Feature","properties":{"survey":"bds","sheet":"033","dag":"16050","label_bn":"16050","area_sqm":771.8},"geometry":{"type":"Polygon","coordinates":[[[90.317431,23.813918],[90.317704,23.813946],[90.317693,23.814212],[90.317584,23.814201],[90.317443,23.814188],[90.317449,23.814003],[90.317431,23.813918]]]}},{"type":"Feature","properties":{"survey":"bds","sheet":"033","dag":"16058","label_bn":"16058","area_sqm":773.3},"geometry":{"type":"Polygon","coordinates":[[[90.318056,23.814393],[90.318059,23.814343],[90.318167,23.814342],[90.318231,23.814912],[90.31811,23.814921],[90.318056,23.814393]]]}},{"type":"Feature","properties":{"survey":"bds","sheet":"033","dag":"16057","label_bn":"16057","area_sqm":773.6},"geometry":{"type":"Polygon","coordinates":[[[90.318167,23.814342],[90.318177,23.814342],[90.318283,23.814334],[90.318353,23.814902],[90.318262,23.81491],[90.318242,23.814911],[90.318231,23.814912],[90.318167,23.814342]]]}},{"type":"Feature","properties":{"survey":"bds","sheet":"033","dag":"16018","label_bn":"16018","area_sqm":920.3},"geometry":{"type":"Polygon","coordinates":[[[90.316893,23.8156],[90.316934,23.81559],[90.317067,23.815559],[90.317152,23.815991],[90.317096,23.816002],[90.316968,23.816024],[90.316963,23.816024],[90.316924,23.8158],[90.316893,23.8156]]]}},{"type":"Feature","properties":{"survey":"bds","sheet":"033","dag":"16005","label_bn":"16005","area_sqm":950.4},"geometry":{"type":"Polygon","coordinates":[[[90.31555,23.815324],[90.315625,23.815151],[90.316068,23.815222],[90.316069,23.815298],[90.316001,23.815295],[90.315999,23.815405],[90.31555,23.815324]]]}},{"type":"Feature","properties":{"survey":"bds","sheet":"033","dag":"16072","label_bn":"16072","area_sqm":953.7},"geometry":{"type":"Polygon","coordinates":[[[90.319167,23.814816],[90.319186,23.814814],[90.319286,23.81483],[90.319386,23.815422],[90.319282,23.815457],[90.31924,23.815471],[90.319167,23.814816]]]}},{"type":"Feature","properties":{"survey":"bds","sheet":"033","dag":"16069","label_bn":"16069","area_sqm":972.1},"geometry":{"type":"Polygon","coordinates":[[[90.318679,23.814853],[90.318739,23.814843],[90.318793,23.81484],[90.318793,23.814858],[90.31887,23.815569],[90.318824,23.81558],[90.318755,23.815601],[90.318679,23.814853]]]}},{"type":"Feature","properties":{"survey":"bds","sheet":"033","dag":"16019","label_bn":"16019","area_sqm":974.7},"geometry":{"type":"Polygon","coordinates":[[[90.317064,23.815496],[90.317247,23.81547],[90.317301,23.815957],[90.317231,23.815975],[90.317152,23.815991],[90.317067,23.815559],[90.317064,23.815496]]]}},{"type":"Feature","properties":{"survey":"bds","sheet":"033","dag":"16055","label_bn":"16055","area_sqm":1006.2},"geometry":{"type":"Polygon","coordinates":[[[90.318052,23.814246],[90.318053,23.814238],[90.318057,23.814203],[90.318217,23.814187],[90.318299,23.814179],[90.318619,23.814147],[90.318662,23.814295],[90.318296,23.814334],[90.318283,23.814334],[90.318177,23.814342],[90.318167,23.814342],[90.318059,23.814343],[90.318052,23.814246]]]}},{"type":"Feature","properties":{"survey":"bds","sheet":"033","dag":"16052","label_bn":"16052","area_sqm":1057.8},"geometry":{"type":"Polygon","coordinates":[[[90.317693,23.814212],[90.317704,23.813946],[90.318054,23.813981],[90.318052,23.814044],[90.318057,23.814203],[90.318053,23.814238],[90.317718,23.814214],[90.317709,23.814213],[90.317693,23.814212]]]}},{"type":"Feature","properties":{"survey":"bds","sheet":"033","dag":"16068","label_bn":"16068","area_sqm":1063.4},"geometry":{"type":"Polygon","coordinates":[[[90.318556,23.814875],[90.318679,23.814853],[90.318755,23.815601],[90.318636,23.815637],[90.318556,23.814875]]]}},{"type":"Feature","properties":{"survey":"bds","sheet":"033","dag":"16007","label_bn":"16007","area_sqm":1160.9},"geometry":{"type":"Polygon","coordinates":[[[90.316068,23.815222],[90.316153,23.814564],[90.316221,23.814593],[90.316259,23.814609],[90.316193,23.815398],[90.316076,23.815401],[90.316069,23.815298],[90.316068,23.815222]]]}},{"type":"Feature","properties":{"survey":"bds","sheet":"033","dag":"16048","label_bn":"16048","area_sqm":1244.5},"geometry":{"type":"Polygon","coordinates":[[[90.316733,23.814308],[90.316802,23.814123],[90.317437,23.814235],[90.317416,23.814357],[90.317406,23.814371],[90.316733,23.814308]]]}},{"type":"Feature","properties":{"survey":"bds","sheet":"033","dag":"16012","label_bn":"16012","area_sqm":1256.2},"geometry":{"type":"Polygon","coordinates":[[[90.316462,23.815677],[90.316489,23.814685],[90.316492,23.814686],[90.3165,23.81469],[90.316553,23.814716],[90.316597,23.814758],[90.3166,23.814761],[90.316599,23.814779],[90.316586,23.814999],[90.316596,23.815658],[90.316462,23.815677]]]}},{"type":"Feature","properties":{"survey":"bds","sheet":"033","dag":"16067","label_bn":"16067","area_sqm":1292.5},"geometry":{"type":"Polygon","coordinates":[[[90.318418,23.814903],[90.318556,23.814875],[90.318636,23.815637],[90.318622,23.815641],[90.318492,23.815685],[90.318451,23.815313],[90.318418,23.814903]]]}},{"type":"Feature","properties":{"survey":"bds","sheet":"033","dag":"16009","label_bn":"16009","area_sqm":1428.4},"geometry":{"type":"Polygon","coordinates":[[[90.316331,23.815681],[90.316373,23.814647],[90.316489,23.814685],[90.316462,23.815677],[90.316442,23.815681],[90.316331,23.815681]]]}},{"type":"Feature","properties":{"survey":"bds","sheet":"033","dag":"16020","label_bn":"16020","area_sqm":1452.6},"geometry":{"type":"Polygon","coordinates":[[[90.317247,23.81547],[90.317374,23.815452],[90.317381,23.815451],[90.317511,23.815446],[90.317575,23.815884],[90.317459,23.815916],[90.317301,23.815957],[90.317247,23.81547]]]}},{"type":"Feature","properties":{"survey":"bds","sheet":"033","dag":"16070","label_bn":"16070","area_sqm":1477.5},"geometry":{"type":"Polygon","coordinates":[[[90.318793,23.81484],[90.318971,23.814831],[90.318998,23.815018],[90.319022,23.815317],[90.319049,23.815526],[90.318988,23.815541],[90.31887,23.815569],[90.318793,23.814858],[90.318793,23.81484]]]}},{"type":"Feature","properties":{"survey":"bds","sheet":"033","dag":"16028","label_bn":"16028","area_sqm":1479.8},"geometry":{"type":"Polygon","coordinates":[[[90.316956,23.814788],[90.316963,23.814669],[90.316967,23.814592],[90.316974,23.81448],[90.317406,23.814522],[90.317415,23.814724],[90.317402,23.814799],[90.316956,23.814788]]]}},{"type":"Feature","properties":{"survey":"bds","sheet":"033","dag":"16071","label_bn":"16071","area_sqm":1507.9},"geometry":{"type":"Polygon","coordinates":[[[90.318971,23.814831],[90.319167,23.814816],[90.31924,23.815471],[90.319233,23.815473],[90.319147,23.815498],[90.319049,23.815526],[90.319022,23.815317],[90.318998,23.815018],[90.318971,23.814831]]]}},{"type":"Feature","properties":{"survey":"bds","sheet":"033","dag":"16024","label_bn":"16024","area_sqm":1510.8},"geometry":{"type":"Polygon","coordinates":[[[90.31747,23.815058],[90.317614,23.815069],[90.317613,23.814829],[90.317741,23.814819],[90.31777,23.814832],[90.317774,23.815222],[90.31777,23.815374],[90.317738,23.815408],[90.317541,23.81544],[90.31751,23.81527],[90.317509,23.815268],[90.31747,23.815058]]]}},{"type":"Feature","properties":{"survey":"bds","sheet":"033","dag":"16061","label_bn":"16061","area_sqm":1545.0},"geometry":{"type":"Polygon","coordinates":[[[90.317847,23.815358],[90.318131,23.81529],[90.318132,23.815295],[90.318173,23.815548],[90.318208,23.815767],[90.318191,23.815771],[90.318059,23.815797],[90.317933,23.815821],[90.317847,23.815358]]]}},{"type":"Feature","properties":{"survey":"bds","sheet":"033","dag":"16008","label_bn":"16008","area_sqm":1552.9},"geometry":{"type":"Polygon","coordinates":[[[90.316193,23.815398],[90.316259,23.814609],[90.316373,23.814647],[90.316331,23.815681],[90.316274,23.81568],[90.316244,23.815679],[90.316234,23.815667],[90.316193,23.815398]]]}},{"type":"Feature","properties":{"survey":"bds","sheet":"033","dag":"16021","label_bn":"16021","area_sqm":1585.4},"geometry":{"type":"Polygon","coordinates":[[[90.316983,23.815024],[90.317303,23.815046],[90.317303,23.815046],[90.317347,23.815273],[90.317381,23.815451],[90.317374,23.815452],[90.317247,23.81547],[90.317064,23.815496],[90.316987,23.815032],[90.316983,23.815024]]]}},{"type":"Feature","properties":{"survey":"bds","sheet":"033","dag":"16027","label_bn":"16027","area_sqm":1687.0},"geometry":{"type":"Polygon","coordinates":[[[90.317406,23.814371],[90.317416,23.814357],[90.317559,23.814373],[90.317686,23.814388],[90.317692,23.814389],[90.317888,23.814412],[90.317851,23.814465],[90.317828,23.814502],[90.317812,23.814584],[90.31781,23.814749],[90.317415,23.814724],[90.317406,23.814522],[90.317406,23.814371]]]}},{"type":"Feature","properties":{"survey":"bds","sheet":"033","dag":"16060","label_bn":"16060","area_sqm":1774.2},"geometry":{"type":"Polygon","coordinates":[[[90.317511,23.815446],[90.317541,23.81544],[90.317738,23.815408],[90.31777,23.815374],[90.317824,23.815361],[90.317847,23.815358],[90.317933,23.815821],[90.317895,23.815828],[90.317793,23.815827],[90.317779,23.815827],[90.317723,23.815843],[90.317575,23.815884],[90.317511,23.815446]]]}},{"type":"Feature","properties":{"survey":"bds","sheet":"033","dag":"16047","label_bn":"16047","area_sqm":1808.8},"geometry":{"type":"Polygon","coordinates":[[[90.316296,23.814336],[90.316297,23.814335],[90.316355,23.814267],[90.316401,23.814217],[90.316424,23.814243],[90.316466,23.814262],[90.316549,23.814279],[90.31664,23.814297],[90.316658,23.814301],[90.316733,23.814308],[90.317406,23.814371],[90.317406,23.814522],[90.316974,23.81448],[90.316815,23.814466],[90.316685,23.814455],[90.316626,23.814445],[90.316618,23.814444],[90.316582,23.814438],[90.316508,23.814416],[90.3165,23.814414],[90.316423,23.814391],[90.316323,23.814348],[90.316296,23.814336]]]}},{"type":"Feature","properties":{"survey":"bds","sheet":"033","dag":"16006","label_bn":"16006","area_sqm":1954.9},"geometry":{"type":"Polygon","coordinates":[[[90.315625,23.815151],[90.315625,23.81515],[90.315721,23.815015],[90.31586,23.814817],[90.31599,23.814689],[90.316133,23.814555],[90.316133,23.814555],[90.316133,23.814555],[90.316143,23.81456],[90.316153,23.814564],[90.316068,23.815222],[90.315625,23.815151]]]}},{"type":"Feature","properties":{"survey":"bds","sheet":"033","dag":"16004","label_bn":"16004","area_sqm":2121.1},"geometry":{"type":"Polygon","coordinates":[[[90.315971,23.816017],[90.315999,23.815405],[90.316001,23.815295],[90.316069,23.815298],[90.316076,23.815401],[90.316193,23.815398],[90.316234,23.815667],[90.316244,23.815679],[90.316274,23.81568],[90.31631,23.816082],[90.316185,23.816071],[90.316066,23.816041],[90.315971,23.816017]]]}},{"type":"Feature","properties":{"survey":"bds","sheet":"033","dag":"16029","label_bn":"16029","area_sqm":2154.7},"geometry":{"type":"Polygon","coordinates":[[[90.316586,23.814999],[90.316599,23.814779],[90.31662,23.81478],[90.316823,23.814785],[90.316956,23.814788],[90.317402,23.814799],[90.317391,23.815053],[90.317303,23.815046],[90.317303,23.815046],[90.316983,23.815024],[90.31684,23.815015],[90.316713,23.815007],[90.316586,23.814999]]]}},{"type":"Feature","properties":{"survey":"bds","sheet":"033","dag":"16056","label_bn":"16056","area_sqm":2477.2},"geometry":{"type":"Polygon","coordinates":[[[90.318283,23.814334],[90.318296,23.814334],[90.318662,23.814295],[90.318739,23.814843],[90.318679,23.814853],[90.318556,23.814875],[90.318418,23.814903],[90.318365,23.814901],[90.318353,23.814902],[90.318283,23.814334]]]}},{"type":"Feature","properties":{"survey":"bds","sheet":"033","dag":"16003","label_bn":"16003","area_sqm":2838.3},"geometry":{"type":"Polygon","coordinates":[[[90.315505,23.815572],[90.315518,23.815433],[90.315548,23.815328],[90.31555,23.815324],[90.315999,23.815405],[90.315971,23.816017],[90.315936,23.816008],[90.315791,23.81595],[90.315656,23.815866],[90.315565,23.815745],[90.315505,23.815572]]]}},{"type":"Feature","properties":{"survey":"bds","sheet":"033","dag":"16013","label_bn":"16013","area_sqm":2996.3},"geometry":{"type":"Polygon","coordinates":[[[90.316586,23.814999],[90.316713,23.815007],[90.31684,23.815015],[90.316983,23.815024],[90.316987,23.815032],[90.317064,23.815496],[90.317067,23.815559],[90.316934,23.81559],[90.316893,23.8156],[90.316813,23.815614],[90.316789,23.815618],[90.316739,23.815628],[90.316596,23.815658],[90.316586,23.814999]]]}},{"type":"Feature","properties":{"survey":"bds","sheet":"033","dag":"16043","label_bn":"16043","area_sqm":3103.4},"geometry":{"type":"Polygon","coordinates":[[[90.316532,23.814076],[90.316805,23.813783],[90.316826,23.813761],[90.317423,23.813885],[90.317431,23.813918],[90.317449,23.814003],[90.317443,23.814188],[90.317437,23.814235],[90.316802,23.814123],[90.316711,23.814107],[90.316619,23.814091],[90.316532,23.814076]]]}},{"type":"Feature","properties":{"survey":"bds","sheet":"033","dag":"16059","label_bn":"16059","area_sqm":3223.9},"geometry":{"type":"Polygon","coordinates":[[[90.31777,23.814832],[90.317788,23.814843],[90.317817,23.814805],[90.31781,23.814749],[90.317812,23.814584],[90.317828,23.814502],[90.317851,23.814465],[90.317888,23.814412],[90.317935,23.814389],[90.318056,23.814393],[90.31811,23.814921],[90.318131,23.81529],[90.317847,23.815358],[90.317824,23.815361],[90.31777,23.815374],[90.317774,23.815222],[90.31777,23.814832]]]}},{"type":"Feature","properties":{"survey":"bds","sheet":"033","dag":"16074","label_bn":"16074","area_sqm":3874.7},"geometry":{"type":"Polygon","coordinates":[[[90.31859,23.814004],[90.318999,23.814038],[90.319097,23.814409],[90.319186,23.814814],[90.319167,23.814816],[90.318971,23.814831],[90.318793,23.81484],[90.318739,23.814843],[90.318662,23.814295],[90.318619,23.814147],[90.31859,23.814004]]]}},{"type":"Feature","properties":{"survey":"bds","sheet":"033","dag":"16001","label_bn":"16001","area_sqm":54466.8},"geometry":{"type":"Polygon","coordinates":[[[90.316585,23.816753],[90.31634,23.816831],[90.316269,23.816859],[90.316263,23.816861],[90.316257,23.816856],[90.316241,23.816842],[90.316205,23.816825],[90.316113,23.81679],[90.315985,23.816749],[90.315806,23.816705],[90.315525,23.816609],[90.315352,23.816519],[90.315196,23.816421],[90.315113,23.816355],[90.315039,23.816253],[90.314885,23.816004],[90.314825,23.815923],[90.31478,23.815888],[90.314706,23.815867],[90.314655,23.815853],[90.314575,23.815868],[90.314474,23.815908],[90.314442,23.815921],[90.314355,23.815768],[90.314344,23.815728],[90.314353,23.815695],[90.314428,23.815587],[90.31444,23.815571],[90.314549,23.815441],[90.314661,23.815341],[90.314706,23.815305],[90.314763,23.815233],[90.314955,23.814996],[90.315089,23.81483],[90.315176,23.814692],[90.315222,23.814554],[90.315312,23.81446],[90.315467,23.814297],[90.315608,23.814131],[90.315721,23.814009],[90.315847,23.813873],[90.315904,23.813811],[90.316733,23.813778],[90.316593,23.81392],[90.316466,23.814064],[90.316365,23.814179],[90.316292,23.814262],[90.316255,23.814319],[90.316173,23.814446],[90.316152,23.814465],[90.316084,23.81453],[90.316133,23.814555],[90.316133,23.814555],[90.31599,23.814689],[90.31586,23.814817],[90.315721,23.815015],[90.315625,23.81515],[90.315625,23.815151],[90.31555,23.815324],[90.315548,23.815328],[90.315518,23.815433],[90.315505,23.815572],[90.315565,23.815745],[90.315656,23.815866],[90.315791,23.81595],[90.315936,23.816008],[90.315971,23.816017],[90.316066,23.816041],[90.316185,23.816071],[90.31631,23.816082],[90.316377,23.816088],[90.31647,23.816089],[90.316517,23.81609],[90.316624,23.816075],[90.316651,23.816071],[90.316789,23.81604],[90.3168,23.816039],[90.316858,23.816034],[90.316963,23.816024],[90.316968,23.816024],[90.317096,23.816002],[90.317152,23.815991],[90.317231,23.815975],[90.317301,23.815957],[90.317459,23.815916],[90.317575,23.815884],[90.317723,23.815843],[90.317779,23.815827],[90.317793,23.815827],[90.317895,23.815828],[90.317933,23.815821],[90.318059,23.815797],[90.318191,23.815771],[90.318208,23.815767],[90.318385,23.815721],[90.318393,23.815718],[90.318492,23.815685],[90.318622,23.815641],[90.318636,23.815637],[90.318755,23.815601],[90.318824,23.81558],[90.31887,23.815569],[90.318988,23.815541],[90.319049,23.815526],[90.319147,23.815498],[90.319233,23.815473],[90.31924,23.815471],[90.319282,23.815457],[90.319386,23.815422],[90.319498,23.815385],[90.31927,23.816074],[90.318907,23.816191],[90.318899,23.816194],[90.318389,23.816368],[90.31793,23.816496],[90.317695,23.816576],[90.317502,23.816594],[90.317331,23.816612],[90.317209,23.816637],[90.317108,23.816668],[90.317103,23.81667],[90.316978,23.816726],[90.316846,23.816708],[90.316585,23.816753]]]}}]}