{"type":"FeatureCollection","features":[{"type":"Feature","properties":{"survey":"bds","sheet":"034","dag":"16543","label_bn":"16543","area_sqm":1980.8},"geometry":{"type":"Polygon","coordinates":[[[90.318764,23.810481],[90.318764,23.810482],[90.318332,23.810456],[90.318334,23.810449],[90.318413,23.810181],[90.318485,23.810049],[90.318485,23.810049],[90.318589,23.810043],[90.318687,23.810059],[90.318715,23.810063],[90.318879,23.810095],[90.31887,23.810122],[90.318794,23.81034],[90.318764,23.810481]]]}},{"type":"Feature","properties":{"survey":"bds","sheet":"034","dag":"16544","label_bn":"16544","area_sqm":2146.7},"geometry":{"type":"Polygon","coordinates":[[[90.319336,23.810525],[90.319326,23.810544],[90.31906,23.810517],[90.319033,23.810514],[90.318845,23.810493],[90.318764,23.810482],[90.318764,23.810481],[90.318794,23.81034],[90.31887,23.810122],[90.318879,23.810095],[90.318993,23.810141],[90.319047,23.810151],[90.319163,23.810213],[90.3192,23.810232],[90.319258,23.810261],[90.319358,23.810295],[90.31941,23.810321],[90.319427,23.810353],[90.319427,23.810353],[90.319336,23.810525]]]}},{"type":"Feature","properties":{"survey":"bds","sheet":"034","dag":"16542","label_bn":"16542","area_sqm":3793.0},"geometry":{"type":"Polygon","coordinates":[[[90.318995,23.810832],[90.318966,23.810957],[90.318799,23.810941],[90.318653,23.81093],[90.318517,23.810921],[90.318372,23.810929],[90.318215,23.810915],[90.318215,23.810915],[90.318236,23.810834],[90.318332,23.810455],[90.318332,23.810456],[90.318764,23.810482],[90.318845,23.810493],[90.319033,23.810514],[90.319017,23.81063],[90.319006,23.810769],[90.318995,23.810832]]]}},{"type":"Feature","properties":{"survey":"bds","sheet":"034","dag":"16541","label_bn":"16541","area_sqm":1176.0},"geometry":{"type":"Polygon","coordinates":[[[90.319169,23.810932],[90.319099,23.81097],[90.319,23.81096],[90.318966,23.810957],[90.318995,23.810832],[90.319006,23.810769],[90.319017,23.81063],[90.319033,23.810514],[90.31906,23.810517],[90.319326,23.810544],[90.319175,23.810917],[90.319169,23.810932]]]}},{"type":"Feature","properties":{"survey":"bds","sheet":"034","dag":"16540","label_bn":"16540","area_sqm":3249.4},"geometry":{"type":"Polygon","coordinates":[[[90.319098,23.810977],[90.31905,23.811308],[90.318632,23.81126],[90.318271,23.811218],[90.318168,23.811206],[90.318215,23.810917],[90.318215,23.810915],[90.318372,23.810929],[90.318517,23.810921],[90.318653,23.81093],[90.318799,23.810941],[90.318966,23.810957],[90.319,23.81096],[90.319099,23.81097],[90.319098,23.810977]]]}},{"type":"Feature","properties":{"survey":"bds","sheet":"034","dag":"16539","label_bn":"16539","area_sqm":40.8},"geometry":{"type":"Polygon","coordinates":[[[90.31815,23.811474],[90.318143,23.811526],[90.318142,23.811526],[90.318142,23.811526],[90.318123,23.81149],[90.318158,23.811271],[90.318167,23.811216],[90.318168,23.811206],[90.318164,23.811271],[90.318152,23.811372],[90.31815,23.811474]]]}},{"type":"Feature","properties":{"survey":"bds","sheet":"034","dag":"16538","label_bn":"16538","area_sqm":3239.5},"geometry":{"type":"Polygon","coordinates":[[[90.318997,23.811672],[90.318996,23.811679],[90.318962,23.811675],[90.318921,23.811647],[90.31892,23.811647],[90.318856,23.811623],[90.318849,23.81162],[90.318846,23.811619],[90.318828,23.811614],[90.318766,23.811598],[90.318634,23.811578],[90.318315,23.811544],[90.318205,23.811533],[90.318143,23.811526],[90.31815,23.811474],[90.318152,23.811372],[90.318164,23.811271],[90.318168,23.811206],[90.318271,23.811218],[90.318632,23.81126],[90.31905,23.811308],[90.318997,23.811672]]]}},{"type":"Feature","properties":{"survey":"bds","sheet":"034","dag":"16533","label_bn":"16533","area_sqm":60.4},"geometry":{"type":"Polygon","coordinates":[[[90.318041,23.811771],[90.318009,23.811773],[90.318142,23.811526],[90.318143,23.811526],[90.318141,23.811536],[90.318129,23.811585],[90.318092,23.811666],[90.318041,23.811771]]]}},{"type":"Feature","properties":{"survey":"bds","sheet":"034","dag":"16534","label_bn":"16534","area_sqm":675.5},"geometry":{"type":"Polygon","coordinates":[[[90.31831,23.811752],[90.318308,23.811835],[90.318041,23.811771],[90.318092,23.811666],[90.318129,23.811585],[90.318141,23.811536],[90.318143,23.811526],[90.318205,23.811533],[90.318315,23.811544],[90.31831,23.811752]]]}},{"type":"Feature","properties":{"survey":"bds","sheet":"034","dag":"16537","label_bn":"16537","area_sqm":651.4},"geometry":{"type":"Polygon","coordinates":[[[90.319001,23.811981],[90.318846,23.812002],[90.318828,23.811614],[90.318846,23.811619],[90.318849,23.81162],[90.318856,23.811623],[90.31892,23.811647],[90.318921,23.811647],[90.318962,23.811675],[90.318996,23.811679],[90.319007,23.811773],[90.319012,23.811825],[90.319009,23.811875],[90.319001,23.811981]]]}},{"type":"Feature","properties":{"survey":"bds","sheet":"034","dag":"16532","label_bn":"16532","area_sqm":144.2},"geometry":{"type":"Polygon","coordinates":[[[90.317956,23.811999],[90.317945,23.812038],[90.317894,23.812031],[90.317873,23.812025],[90.318009,23.811773],[90.318041,23.811771],[90.318025,23.811805],[90.318002,23.81186],[90.31797,23.811944],[90.317956,23.811999]]]}},{"type":"Feature","properties":{"survey":"bds","sheet":"034","dag":"16536","label_bn":"16536","area_sqm":1179.3},"geometry":{"type":"Polygon","coordinates":[[[90.318713,23.812077],[90.318611,23.812085],[90.318634,23.811578],[90.318766,23.811598],[90.318828,23.811614],[90.318846,23.812002],[90.318851,23.812055],[90.318772,23.812076],[90.318713,23.812077]]]}},{"type":"Feature","properties":{"survey":"bds","sheet":"034","dag":"16535","label_bn":"16535","area_sqm":1885.5},"geometry":{"type":"Polygon","coordinates":[[[90.318413,23.812091],[90.318302,23.812092],[90.318308,23.811835],[90.31831,23.811752],[90.318315,23.811544],[90.318634,23.811578],[90.318611,23.812085],[90.318595,23.812086],[90.318504,23.812089],[90.318413,23.812091]]]}},{"type":"Feature","properties":{"survey":"bds","sheet":"034","dag":"16531","label_bn":"16531","area_sqm":1057.2},"geometry":{"type":"Polygon","coordinates":[[[90.318302,23.812092],[90.318269,23.812092],[90.318156,23.812091],[90.318052,23.812081],[90.317994,23.812071],[90.317955,23.812072],[90.317937,23.812069],[90.317945,23.812038],[90.317956,23.811999],[90.31797,23.811944],[90.318002,23.81186],[90.318025,23.811805],[90.318041,23.811771],[90.318308,23.811835],[90.318302,23.812092]]]}},{"type":"Feature","properties":{"survey":"bds","sheet":"034","dag":"16528","label_bn":"16528","area_sqm":403.7},"geometry":{"type":"Polygon","coordinates":[[[90.317721,23.812363],[90.317686,23.812403],[90.317633,23.81239],[90.317813,23.812068],[90.317841,23.812078],[90.317894,23.812031],[90.317945,23.812038],[90.317937,23.812069],[90.317885,23.812149],[90.317823,23.812236],[90.317769,23.812312],[90.317721,23.812363]]]}},{"type":"Feature","properties":{"survey":"bds","sheet":"034","dag":"16527","label_bn":"16527","area_sqm":39.8},"geometry":{"type":"Polygon","coordinates":[[[90.31764,23.812456],[90.317617,23.812485],[90.317599,23.812481],[90.317633,23.81239],[90.317686,23.812403],[90.31764,23.812456]]]}},{"type":"Feature","properties":{"survey":"bds","sheet":"034","dag":"16529","label_bn":"16529","area_sqm":2518.4},"geometry":{"type":"Polygon","coordinates":[[[90.318302,23.812092],[90.318393,23.812574],[90.31835,23.812563],[90.318332,23.812559],[90.317686,23.812403],[90.317721,23.812363],[90.317769,23.812312],[90.317823,23.812236],[90.317885,23.812149],[90.317937,23.812069],[90.317955,23.812072],[90.317994,23.812071],[90.318052,23.812081],[90.318156,23.812091],[90.318269,23.812092],[90.318302,23.812092]]]}},{"type":"Feature","properties":{"survey":"bds","sheet":"034","dag":"16524","label_bn":"16524","area_sqm":23.6},"geometry":{"type":"Polygon","coordinates":[[[90.317552,23.812569],[90.317508,23.812638],[90.317498,23.812636],[90.317498,23.812636],[90.317599,23.812481],[90.317617,23.812485],[90.317552,23.812569]]]}},{"type":"Feature","properties":{"survey":"bds","sheet":"034","dag":"16526","label_bn":"16526","area_sqm":847.1},"geometry":{"type":"Polygon","coordinates":[[[90.318393,23.812574],[90.318412,23.812678],[90.318359,23.812665],[90.317617,23.812485],[90.31764,23.812456],[90.317686,23.812403],[90.318332,23.812559],[90.31835,23.812563],[90.318393,23.812574]]]}},{"type":"Feature","properties":{"survey":"bds","sheet":"034","dag":"16530","label_bn":"16530","area_sqm":3525.4},"geometry":{"type":"Polygon","coordinates":[[[90.318701,23.812695],[90.318657,23.8127],[90.318595,23.812686],[90.318594,23.812685],[90.318474,23.812675],[90.318412,23.812678],[90.318393,23.812574],[90.318302,23.812092],[90.318413,23.812091],[90.318504,23.812089],[90.318595,23.812086],[90.318611,23.812085],[90.318713,23.812077],[90.318772,23.812076],[90.318851,23.812055],[90.318901,23.812659],[90.318799,23.812667],[90.318701,23.812695]]]}},{"type":"Feature","properties":{"survey":"bds","sheet":"034","dag":"16525","label_bn":"16525","area_sqm":1490.1},"geometry":{"type":"Polygon","coordinates":[[[90.318377,23.812808],[90.318372,23.812826],[90.318361,23.812814],[90.318352,23.812804],[90.318157,23.812765],[90.317849,23.812705],[90.317508,23.812638],[90.317552,23.812569],[90.317617,23.812485],[90.318359,23.812665],[90.318412,23.812678],[90.3184,23.812721],[90.31839,23.812759],[90.318377,23.812808]]]}},{"type":"Feature","properties":{"survey":"bds","sheet":"034","dag":"16523","label_bn":"16523","area_sqm":50.6},"geometry":{"type":"Polygon","coordinates":[[[90.317449,23.812734],[90.317367,23.812867],[90.31734,23.812867],[90.317498,23.812636],[90.317508,23.812638],[90.317449,23.812734]]]}},{"type":"Feature","properties":{"survey":"bds","sheet":"034","dag":"16522","label_bn":"16522","area_sqm":1090.0},"geometry":{"type":"Polygon","coordinates":[[[90.317849,23.812705],[90.317753,23.812948],[90.317538,23.812924],[90.317522,23.812923],[90.317509,23.812902],[90.317503,23.812894],[90.317477,23.812871],[90.317367,23.812867],[90.317449,23.812734],[90.317508,23.812638],[90.317849,23.812705]]]}},{"type":"Feature","properties":{"survey":"bds","sheet":"034","dag":"16521","label_bn":"16521","area_sqm":881.0},"geometry":{"type":"Polygon","coordinates":[[[90.318157,23.812765],[90.31809,23.812981],[90.317753,23.812948],[90.317849,23.812705],[90.318157,23.812765]]]}},{"type":"Feature","properties":{"survey":"bds","sheet":"034","dag":"16520","label_bn":"16520","area_sqm":447.8},"geometry":{"type":"Polygon","coordinates":[[[90.318273,23.812969],[90.31826,23.812997],[90.31809,23.812981],[90.318157,23.812765],[90.318352,23.812804],[90.318342,23.812826],[90.318273,23.812969]]]}},{"type":"Feature","properties":{"survey":"bds","sheet":"034","dag":"16512","label_bn":"16512","area_sqm":52.3},"geometry":{"type":"Polygon","coordinates":[[[90.317225,23.813115],[90.317208,23.813148],[90.3172,23.813146],[90.31734,23.812867],[90.317367,23.812867],[90.317349,23.812896],[90.317313,23.812959],[90.317225,23.813115]]]}},{"type":"Feature","properties":{"survey":"bds","sheet":"034","dag":"16513","label_bn":"16513","area_sqm":3218.7},"geometry":{"type":"Polygon","coordinates":[[[90.318133,23.8133],[90.318133,23.813302],[90.31812,23.8133],[90.318044,23.813286],[90.318044,23.813286],[90.317875,23.813279],[90.317875,23.813279],[90.317683,23.813268],[90.317536,23.813244],[90.31753,23.813243],[90.317525,23.813237],[90.317511,23.813215],[90.317483,23.813196],[90.3173,23.813171],[90.317208,23.813148],[90.317225,23.813115],[90.317313,23.812959],[90.317349,23.812896],[90.317367,23.812867],[90.317477,23.812871],[90.317503,23.812894],[90.317509,23.812902],[90.317522,23.812923],[90.317538,23.812924],[90.317753,23.812948],[90.31809,23.812981],[90.31826,23.812997],[90.318248,23.813031],[90.318245,23.813043],[90.318239,23.813047],[90.318191,23.813079],[90.318176,23.813097],[90.318174,23.813121],[90.318139,23.813225],[90.318132,23.813279],[90.318133,23.8133]]]}},{"type":"Feature","properties":{"survey":"bds","sheet":"034","dag":"16511","label_bn":"16511","area_sqm":66.3},"geometry":{"type":"Polygon","coordinates":[[[90.317183,23.813194],[90.317127,23.813303],[90.317068,23.813285],[90.3172,23.813146],[90.317208,23.813148],[90.317183,23.813194]]]}},{"type":"Feature","properties":{"survey":"bds","sheet":"034","dag":"16519","label_bn":"16519","area_sqm":900.8},"geometry":{"type":"Polygon","coordinates":[[[90.318372,23.812826],[90.318411,23.813308],[90.318341,23.813294],[90.318282,23.813289],[90.318208,23.813292],[90.318158,23.813297],[90.318133,23.8133],[90.318132,23.813279],[90.318139,23.813225],[90.318174,23.813121],[90.318176,23.813097],[90.318191,23.813079],[90.318239,23.813047],[90.318245,23.813043],[90.318248,23.813031],[90.31826,23.812997],[90.318273,23.812969],[90.318342,23.812826],[90.318352,23.812804],[90.318361,23.812814],[90.318372,23.812826]]]}},{"type":"Feature","properties":{"survey":"bds","sheet":"034","dag":"16510","label_bn":"16510","area_sqm":764.5},"geometry":{"type":"Polygon","coordinates":[[[90.31753,23.813243],[90.317499,23.813417],[90.317127,23.813303],[90.317183,23.813194],[90.317208,23.813148],[90.3173,23.813171],[90.317483,23.813196],[90.317511,23.813215],[90.317525,23.813237],[90.31753,23.813243]]]}},{"type":"Feature","properties":{"survey":"bds","sheet":"034","dag":"16508","label_bn":"16508","area_sqm":151.1},"geometry":{"type":"Polygon","coordinates":[[[90.317118,23.813319],[90.317046,23.813442],[90.316943,23.813416],[90.317068,23.813285],[90.317127,23.813303],[90.317118,23.813319]]]}},{"type":"Feature","properties":{"survey":"bds","sheet":"034","dag":"16509","label_bn":"16509","area_sqm":684.2},"geometry":{"type":"Polygon","coordinates":[[[90.317477,23.813536],[90.317473,23.81355],[90.317046,23.813442],[90.317118,23.813319],[90.317127,23.813303],[90.317499,23.813417],[90.317477,23.813536]]]}},{"type":"Feature","properties":{"survey":"bds","sheet":"034","dag":"16514","label_bn":"16514","area_sqm":2029.1},"geometry":{"type":"Polygon","coordinates":[[[90.318134,23.813405],[90.318104,23.813583],[90.317485,23.813537],[90.317477,23.813536],[90.317499,23.813417],[90.31753,23.813243],[90.317536,23.813244],[90.317683,23.813268],[90.317875,23.813279],[90.317875,23.813279],[90.318044,23.813286],[90.318044,23.813286],[90.31812,23.8133],[90.318133,23.813302],[90.318134,23.813405]]]}},{"type":"Feature","properties":{"survey":"bds","sheet":"034","dag":"16507","label_bn":"16507","area_sqm":168.9},"geometry":{"type":"Polygon","coordinates":[[[90.31703,23.813469],[90.316948,23.813589],[90.316902,23.813581],[90.316886,23.813549],[90.316943,23.813416],[90.317046,23.813442],[90.31703,23.813469]]]}},{"type":"Feature","properties":{"survey":"bds","sheet":"034","dag":"16506","label_bn":"16506","area_sqm":765.2},"geometry":{"type":"Polygon","coordinates":[[[90.317473,23.81355],[90.317443,23.81367],[90.317337,23.813653],[90.317228,23.813635],[90.316948,23.813589],[90.31703,23.813469],[90.317046,23.813442],[90.317473,23.81355]]]}},{"type":"Feature","properties":{"survey":"bds","sheet":"034","dag":"16518","label_bn":"16518","area_sqm":1751.1},"geometry":{"type":"Polygon","coordinates":[[[90.318529,23.813707],[90.318083,23.813707],[90.318104,23.813583],[90.318134,23.813405],[90.318133,23.813302],[90.318133,23.8133],[90.318158,23.813297],[90.318208,23.813292],[90.318282,23.813289],[90.318341,23.813294],[90.318411,23.813308],[90.318413,23.813336],[90.318467,23.813333],[90.318474,23.813374],[90.318529,23.813707]]]}},{"type":"Feature","properties":{"survey":"bds","sheet":"034","dag":"16502","label_bn":"16502","area_sqm":76.8},"geometry":{"type":"Polygon","coordinates":[[[90.316831,23.813755],[90.316805,23.813783],[90.316794,23.813781],[90.316902,23.813581],[90.316948,23.813589],[90.316927,23.813618],[90.316887,23.813678],[90.316831,23.813755]]]}},{"type":"Feature","properties":{"survey":"bds","sheet":"034","dag":"16501","label_bn":"16501","area_sqm":36671.5},"geometry":{"type":"Polygon","coordinates":[[[90.316733,23.813778],[90.315904,23.813811],[90.315961,23.813749],[90.31612,23.813625],[90.316156,23.813592],[90.316157,23.813504],[90.316168,23.813456],[90.316261,23.81335],[90.316321,23.813256],[90.316439,23.81304],[90.316504,23.812936],[90.316568,23.812832],[90.316678,23.812613],[90.316688,23.812594],[90.316778,23.812448],[90.316792,23.812378],[90.316798,23.812233],[90.316848,23.812174],[90.316929,23.812056],[90.316975,23.811977],[90.317027,23.811829],[90.317063,23.811699],[90.317113,23.811618],[90.317154,23.811532],[90.317181,23.811433],[90.317213,23.811339],[90.317307,23.811132],[90.317353,23.811006],[90.317464,23.810723],[90.317499,23.810595],[90.317521,23.810408],[90.317557,23.810275],[90.317648,23.809942],[90.317663,23.809943],[90.318457,23.810045],[90.318485,23.810049],[90.318413,23.810181],[90.318334,23.810449],[90.318332,23.810456],[90.318332,23.810455],[90.318236,23.810834],[90.318215,23.810915],[90.318215,23.810915],[90.318215,23.810917],[90.318168,23.811206],[90.318167,23.811216],[90.318158,23.811271],[90.318123,23.81149],[90.318142,23.811526],[90.318142,23.811526],[90.318009,23.811773],[90.317873,23.812025],[90.317894,23.812031],[90.317841,23.812078],[90.317813,23.812068],[90.317633,23.81239],[90.317599,23.812481],[90.317498,23.812636],[90.317498,23.812636],[90.31734,23.812867],[90.3172,23.813146],[90.317068,23.813285],[90.316943,23.813416],[90.316886,23.813549],[90.316902,23.813581],[90.316794,23.813781],[90.316733,23.813778]]]}},{"type":"Feature","properties":{"survey":"bds","sheet":"034","dag":"16503","label_bn":"16503","area_sqm":733.3},"geometry":{"type":"Polygon","coordinates":[[[90.317224,23.813655],[90.317188,23.813836],[90.316826,23.813761],[90.316805,23.813783],[90.316831,23.813755],[90.316887,23.813678],[90.316927,23.813618],[90.316948,23.813589],[90.317228,23.813635],[90.317224,23.813655]]]}},{"type":"Feature","properties":{"survey":"bds","sheet":"034","dag":"16504","label_bn":"16504","area_sqm":261.2},"geometry":{"type":"Polygon","coordinates":[[[90.317333,23.813674],[90.317298,23.813859],[90.317188,23.813836],[90.317224,23.813655],[90.317228,23.813635],[90.317337,23.813653],[90.317333,23.813674]]]}},{"type":"Feature","properties":{"survey":"bds","sheet":"034","dag":"16505","label_bn":"16505","area_sqm":283.5},"geometry":{"type":"Polygon","coordinates":[[[90.317441,23.813694],[90.317423,23.813885],[90.317298,23.813859],[90.317333,23.813674],[90.317337,23.813653],[90.317443,23.81367],[90.317441,23.813694]]]}},{"type":"Feature","properties":{"survey":"bds","sheet":"034","dag":"16515","label_bn":"16515","area_sqm":2828.5},"geometry":{"type":"Polygon","coordinates":[[[90.31808,23.813722],[90.318054,23.813981],[90.318052,23.81398],[90.317454,23.813921],[90.317431,23.813918],[90.317423,23.813885],[90.317441,23.813694],[90.317443,23.81367],[90.317473,23.81355],[90.317477,23.813536],[90.317485,23.813537],[90.318104,23.813583],[90.318083,23.813707],[90.31808,23.813722]]]}},{"type":"Feature","properties":{"survey":"bds","sheet":"034","dag":"16517","label_bn":"16517","area_sqm":2986.5},"geometry":{"type":"Polygon","coordinates":[[[90.31893,23.813766],[90.318999,23.814038],[90.31859,23.814004],[90.318555,23.813831],[90.31853,23.813785],[90.318534,23.813747],[90.318529,23.813707],[90.318474,23.813374],[90.318467,23.813333],[90.318812,23.813315],[90.318817,23.813314],[90.318849,23.813488],[90.31893,23.813766]]]}},{"type":"Feature","properties":{"survey":"bds","sheet":"034","dag":"16516","label_bn":"16516","area_sqm":1775.8},"geometry":{"type":"Polygon","coordinates":[[[90.31859,23.814004],[90.318052,23.814044],[90.318054,23.813981],[90.31808,23.813722],[90.318083,23.813707],[90.318529,23.813707],[90.318534,23.813747],[90.31853,23.813785],[90.318555,23.813831],[90.31859,23.814004]]]}}]}