{"type":"FeatureCollection","features":[{"type":"Feature","properties":{"survey":"bds","sheet":"035","dag":"17013","label_bn":"17013","area_sqm":163.3},"geometry":{"type":"Polygon","coordinates":[[[90.321099,23.812653],[90.321114,23.812573],[90.321118,23.812549],[90.321256,23.812604],[90.321263,23.812608],[90.321248,23.812688],[90.321099,23.812653]]]}},{"type":"Feature","properties":{"survey":"bds","sheet":"035","dag":"17045","label_bn":"17045","area_sqm":195.8},"geometry":{"type":"Polygon","coordinates":[[[90.320937,23.81075],[90.320951,23.810726],[90.320975,23.810705],[90.320999,23.81069],[90.321013,23.810684],[90.32104,23.810676],[90.321062,23.810679],[90.321082,23.810694],[90.321092,23.810746],[90.321094,23.810788],[90.321083,23.810813],[90.321048,23.810824],[90.320996,23.810819],[90.320964,23.810794],[90.320937,23.81075]]]}},{"type":"Feature","properties":{"survey":"bds","sheet":"035","dag":"17015","label_bn":"17015","area_sqm":244.1},"geometry":{"type":"Polygon","coordinates":[[[90.321333,23.812843],[90.321366,23.812663],[90.32149,23.812712],[90.321442,23.812875],[90.321333,23.812843]]]}},{"type":"Feature","properties":{"survey":"bds","sheet":"035","dag":"17014","label_bn":"17014","area_sqm":244.2},"geometry":{"type":"Polygon","coordinates":[[[90.321226,23.812811],[90.321248,23.812688],[90.321263,23.812608],[90.321345,23.812655],[90.321366,23.812663],[90.321333,23.812843],[90.321226,23.812811]]]}},{"type":"Feature","properties":{"survey":"bds","sheet":"035","dag":"17031","label_bn":"17031","area_sqm":254.1},"geometry":{"type":"Polygon","coordinates":[[[90.320022,23.811777],[90.320057,23.811615],[90.320188,23.811624],[90.320164,23.811786],[90.320164,23.811786],[90.320022,23.811777]]]}},{"type":"Feature","properties":{"survey":"bds","sheet":"035","dag":"17032","label_bn":"17032","area_sqm":322.7},"geometry":{"type":"Polygon","coordinates":[[[90.319849,23.811761],[90.319884,23.811602],[90.320057,23.811615],[90.320022,23.811777],[90.319975,23.811775],[90.31997,23.811774],[90.319849,23.811761]]]}},{"type":"Feature","properties":{"survey":"bds","sheet":"035","dag":"17027","label_bn":"17027","area_sqm":396.2},"geometry":{"type":"Polygon","coordinates":[[[90.320822,23.811386],[90.320866,23.811167],[90.321006,23.811188],[90.320988,23.811416],[90.320822,23.811386]]]}},{"type":"Feature","properties":{"survey":"bds","sheet":"035","dag":"17026","label_bn":"17026","area_sqm":459.4},"geometry":{"type":"Polygon","coordinates":[[[90.320988,23.811416],[90.321006,23.811188],[90.321198,23.811224],[90.321151,23.811442],[90.320988,23.811416]]]}},{"type":"Feature","properties":{"survey":"bds","sheet":"035","dag":"17006","label_bn":"17006","area_sqm":525.7},"geometry":{"type":"Polygon","coordinates":[[[90.3194,23.812042],[90.31959,23.812056],[90.31959,23.8123],[90.319589,23.8123],[90.319404,23.812292],[90.3194,23.812042]]]}},{"type":"Feature","properties":{"survey":"bds","sheet":"035","dag":"17037","label_bn":"17037","area_sqm":598.2},"geometry":{"type":"Polygon","coordinates":[[[90.319326,23.810544],[90.319427,23.810353],[90.319427,23.810353],[90.319652,23.810452],[90.319611,23.810624],[90.319326,23.810544]]]}},{"type":"Feature","properties":{"survey":"bds","sheet":"035","dag":"17002","label_bn":"17002","area_sqm":704.8},"geometry":{"type":"Polygon","coordinates":[[[90.319001,23.811981],[90.319012,23.811825],[90.319382,23.811863],[90.319368,23.81204],[90.319368,23.812042],[90.319001,23.811981]]]}},{"type":"Feature","properties":{"survey":"bds","sheet":"035","dag":"17023","label_bn":"17023","area_sqm":712.6},"geometry":{"type":"Polygon","coordinates":[[[90.321132,23.811962],[90.32121,23.811708],[90.321306,23.811737],[90.32129,23.812032],[90.321341,23.81213],[90.321358,23.81219],[90.3213,23.812193],[90.321203,23.812186],[90.321203,23.81212],[90.321203,23.81212],[90.321182,23.812063],[90.321132,23.811962]]]}},{"type":"Feature","properties":{"survey":"bds","sheet":"035","dag":"17033","label_bn":"17033","area_sqm":788.2},"geometry":{"type":"Polygon","coordinates":[[[90.319417,23.811731],[90.319451,23.811569],[90.319884,23.811602],[90.319849,23.811761],[90.319686,23.811743],[90.319534,23.81174],[90.319417,23.811731]]]}},{"type":"Feature","properties":{"survey":"bds","sheet":"035","dag":"17028","label_bn":"17028","area_sqm":884.6},"geometry":{"type":"Polygon","coordinates":[[[90.320497,23.811233],[90.320522,23.811117],[90.32075,23.811151],[90.320866,23.811167],[90.320822,23.811386],[90.320675,23.811368],[90.320498,23.811349],[90.320497,23.811233]]]}},{"type":"Feature","properties":{"survey":"bds","sheet":"035","dag":"17004","label_bn":"17004","area_sqm":1022.2},"geometry":{"type":"Polygon","coordinates":[[[90.319951,23.811931],[90.31997,23.811774],[90.319975,23.811775],[90.320022,23.811777],[90.320164,23.811786],[90.320164,23.811786],[90.320311,23.811794],[90.320399,23.811822],[90.320507,23.811815],[90.320489,23.811991],[90.319951,23.811931]]]}},{"type":"Feature","properties":{"survey":"bds","sheet":"035","dag":"17043","label_bn":"17043","area_sqm":1219.6},"geometry":{"type":"Polygon","coordinates":[[[90.320132,23.810618],[90.320178,23.810501],[90.320725,23.810639],[90.3207,23.810768],[90.320599,23.810807],[90.320482,23.810792],[90.320386,23.810762],[90.320151,23.810664],[90.320132,23.810618]]]}},{"type":"Feature","properties":{"survey":"bds","sheet":"035","dag":"17036","label_bn":"17036","area_sqm":1351.2},"geometry":{"type":"Polygon","coordinates":[[[90.319169,23.810932],[90.319326,23.810544],[90.319611,23.810624],[90.319532,23.81095],[90.319284,23.810928],[90.319222,23.810924],[90.319169,23.810932]]]}},{"type":"Feature","properties":{"survey":"bds","sheet":"035","dag":"17040","label_bn":"17040","area_sqm":1433.7},"geometry":{"type":"Polygon","coordinates":[[[90.319749,23.810493],[90.319813,23.810292],[90.319931,23.809882],[90.320139,23.809936],[90.319915,23.810555],[90.319786,23.810517],[90.319749,23.810493]]]}},{"type":"Feature","properties":{"survey":"bds","sheet":"035","dag":"17012","label_bn":"17012","area_sqm":1485.3},"geometry":{"type":"Polygon","coordinates":[[[90.320435,23.812829],[90.320536,23.812806],[90.320581,23.81277],[90.32061,23.812723],[90.320621,23.812665],[90.320698,23.812636],[90.321114,23.812573],[90.321099,23.812653],[90.321071,23.812807],[90.321057,23.812901],[90.320435,23.812829]]]}},{"type":"Feature","properties":{"survey":"bds","sheet":"035","dag":"17021","label_bn":"17021","area_sqm":1560.3},"geometry":{"type":"Polygon","coordinates":[[[90.32121,23.811708],[90.32126,23.811466],[90.32158,23.811562],[90.321823,23.811645],[90.321738,23.811866],[90.321584,23.811815],[90.321412,23.811763],[90.321306,23.811737],[90.32121,23.811708]]]}},{"type":"Feature","properties":{"survey":"bds","sheet":"035","dag":"17003","label_bn":"17003","area_sqm":1581.8},"geometry":{"type":"Polygon","coordinates":[[[90.318996,23.811679],[90.319417,23.811731],[90.319534,23.81174],[90.319686,23.811743],[90.319849,23.811761],[90.31997,23.811774],[90.319951,23.811931],[90.319945,23.81193],[90.319382,23.811863],[90.319012,23.811825],[90.318996,23.811679]]]}},{"type":"Feature","properties":{"survey":"bds","sheet":"035","dag":"17041","label_bn":"17041","area_sqm":1582.0},"geometry":{"type":"Polygon","coordinates":[[[90.319915,23.810555],[90.320139,23.809936],[90.32031,23.809997],[90.320296,23.810079],[90.320254,23.81024],[90.320197,23.810451],[90.320178,23.810501],[90.320132,23.810618],[90.319915,23.810555]]]}},{"type":"Feature","properties":{"survey":"bds","sheet":"035","dag":"17022","label_bn":"17022","area_sqm":1726.4},"geometry":{"type":"Polygon","coordinates":[[[90.32129,23.812032],[90.321306,23.811737],[90.321412,23.811763],[90.321584,23.811815],[90.321738,23.811866],[90.321739,23.811867],[90.321679,23.812046],[90.321606,23.812208],[90.321488,23.812199],[90.321358,23.81219],[90.321341,23.81213],[90.32129,23.812032]]]}},{"type":"Feature","properties":{"survey":"bds","sheet":"035","dag":"17024","label_bn":"17024","area_sqm":1887.9},"geometry":{"type":"Polygon","coordinates":[[[90.320493,23.811661],[90.320498,23.811545],[90.32064,23.811567],[90.320735,23.811591],[90.320967,23.811646],[90.321064,23.811675],[90.32121,23.811708],[90.321132,23.811962],[90.320867,23.811892],[90.320757,23.81183],[90.320674,23.811796],[90.320577,23.811766],[90.320539,23.81177],[90.320516,23.811772],[90.320493,23.811661]]]}},{"type":"Feature","properties":{"survey":"bds","sheet":"035","dag":"17005","label_bn":"17005","area_sqm":1888.2},"geometry":{"type":"Polygon","coordinates":[[[90.319368,23.81204],[90.319382,23.811863],[90.319945,23.81193],[90.319951,23.811931],[90.320489,23.811991],[90.320489,23.812112],[90.31959,23.812056],[90.3194,23.812042],[90.319368,23.81204]]]}},{"type":"Feature","properties":{"survey":"bds","sheet":"035","dag":"17025","label_bn":"17025","area_sqm":1889.6},"geometry":{"type":"Polygon","coordinates":[[[90.320498,23.811349],[90.320675,23.811368],[90.320822,23.811386],[90.320988,23.811416],[90.321151,23.811442],[90.32126,23.811466],[90.32121,23.811708],[90.321064,23.811675],[90.320967,23.811646],[90.320735,23.811591],[90.32064,23.811567],[90.320498,23.811545],[90.320498,23.811349]]]}},{"type":"Feature","properties":{"survey":"bds","sheet":"035","dag":"17009","label_bn":"17009","area_sqm":2029.4},"geometry":{"type":"Polygon","coordinates":[[[90.320477,23.812384],[90.32048,23.812192],[90.320481,23.812345],[90.32064,23.812347],[90.320984,23.812348],[90.320984,23.812348],[90.321165,23.812349],[90.321118,23.812549],[90.321114,23.812573],[90.320698,23.812636],[90.320621,23.812665],[90.320509,23.812648],[90.320478,23.812561],[90.320477,23.812384]]]}},{"type":"Feature","properties":{"survey":"bds","sheet":"035","dag":"17020","label_bn":"17020","area_sqm":2147.8},"geometry":{"type":"Polygon","coordinates":[[[90.321151,23.811442],[90.321198,23.811224],[90.321315,23.811238],[90.321476,23.811268],[90.321678,23.811309],[90.321933,23.811357],[90.321823,23.811645],[90.32158,23.811562],[90.32126,23.811466],[90.321151,23.811442]]]}},{"type":"Feature","properties":{"survey":"bds","sheet":"035","dag":"17039","label_bn":"17039","area_sqm":2200.1},"geometry":{"type":"Polygon","coordinates":[[[90.31941,23.810321],[90.319554,23.810077],[90.319587,23.810014],[90.319605,23.809936],[90.319609,23.809881],[90.3196,23.809862],[90.319876,23.80985],[90.319893,23.809866],[90.319931,23.809882],[90.319813,23.810292],[90.319749,23.810493],[90.319652,23.810452],[90.319427,23.810353],[90.31941,23.810321]]]}},{"type":"Feature","properties":{"survey":"bds","sheet":"035","dag":"17010","label_bn":"17010","area_sqm":2472.9},"geometry":{"type":"Polygon","coordinates":[[[90.319397,23.812501],[90.319404,23.812292],[90.319589,23.8123],[90.31959,23.8123],[90.320477,23.812384],[90.320478,23.812561],[90.319496,23.812517],[90.319397,23.812501]]]}},{"type":"Feature","properties":{"survey":"bds","sheet":"035","dag":"17046","label_bn":"17046","area_sqm":2502.0},"geometry":{"type":"Polygon","coordinates":[[[90.3207,23.810768],[90.320725,23.810639],[90.32083,23.810084],[90.321128,23.810098],[90.321143,23.81024],[90.321134,23.810322],[90.321103,23.810462],[90.321062,23.810679],[90.32104,23.810676],[90.321013,23.810684],[90.320999,23.81069],[90.320975,23.810705],[90.320951,23.810726],[90.320937,23.81075],[90.320742,23.81077],[90.3207,23.810768]]]}},{"type":"Feature","properties":{"survey":"bds","sheet":"035","dag":"17030","label_bn":"17030","area_sqm":2592.6},"geometry":{"type":"Polygon","coordinates":[[[90.319884,23.811602],[90.32,23.811288],[90.320498,23.811349],[90.320498,23.811545],[90.320493,23.811661],[90.320516,23.811772],[90.320507,23.811815],[90.320399,23.811822],[90.320311,23.811794],[90.320164,23.811786],[90.320188,23.811624],[90.320057,23.811615],[90.319884,23.811602]]]}},{"type":"Feature","properties":{"survey":"bds","sheet":"035","dag":"17007","label_bn":"17007","area_sqm":2603.2},"geometry":{"type":"Polygon","coordinates":[[[90.31959,23.812056],[90.320489,23.812112],[90.32048,23.812192],[90.320477,23.812384],[90.31959,23.8123],[90.31959,23.812056]]]}},{"type":"Feature","properties":{"survey":"bds","sheet":"035","dag":"17038","label_bn":"17038","area_sqm":2608.7},"geometry":{"type":"Polygon","coordinates":[[[90.319532,23.81095],[90.319611,23.810624],[90.319652,23.810452],[90.319749,23.810493],[90.319786,23.810517],[90.319915,23.810555],[90.320132,23.810618],[90.320151,23.810664],[90.320108,23.810767],[90.320062,23.810927],[90.320034,23.811011],[90.319776,23.810972],[90.319674,23.810964],[90.319582,23.810957],[90.319532,23.81095]]]}},{"type":"Feature","properties":{"survey":"bds","sheet":"035","dag":"17016","label_bn":"17016","area_sqm":3019.7},"geometry":{"type":"Polygon","coordinates":[[[90.321118,23.812549],[90.321165,23.812349],[90.321185,23.812273],[90.321203,23.812186],[90.3213,23.812193],[90.321358,23.81219],[90.321488,23.812199],[90.321606,23.812208],[90.32176,23.812271],[90.321811,23.812284],[90.321724,23.812497],[90.321633,23.812667],[90.321571,23.812792],[90.321555,23.812795],[90.321545,23.812759],[90.321524,23.812733],[90.32149,23.812712],[90.321366,23.812663],[90.321345,23.812655],[90.321263,23.812608],[90.321256,23.812604],[90.321118,23.812549]]]}},{"type":"Feature","properties":{"survey":"bds","sheet":"035","dag":"17011","label_bn":"17011","area_sqm":3110.4},"geometry":{"type":"Polygon","coordinates":[[[90.319386,23.812696],[90.319397,23.812501],[90.319496,23.812517],[90.320478,23.812561],[90.320509,23.812648],[90.320621,23.812665],[90.32061,23.812723],[90.320581,23.81277],[90.320536,23.812806],[90.320435,23.812829],[90.320069,23.812797],[90.319502,23.812707],[90.319386,23.812696],[90.319386,23.812696]]]}},{"type":"Feature","properties":{"survey":"bds","sheet":"035","dag":"17034","label_bn":"17034","area_sqm":3227.6},"geometry":{"type":"Polygon","coordinates":[[[90.319451,23.811569],[90.319582,23.810957],[90.319674,23.810964],[90.319776,23.810972],[90.320034,23.811011],[90.32,23.811288],[90.319884,23.811602],[90.319451,23.811569]]]}},{"type":"Feature","properties":{"survey":"bds","sheet":"035","dag":"17029","label_bn":"17029","area_sqm":3264.6},"geometry":{"type":"Polygon","coordinates":[[[90.32,23.811288],[90.320034,23.811011],[90.320062,23.810927],[90.320108,23.810767],[90.320151,23.810664],[90.320386,23.810762],[90.320482,23.810792],[90.320599,23.810807],[90.320584,23.81091],[90.320551,23.810995],[90.320522,23.811117],[90.320497,23.811233],[90.320498,23.811349],[90.32,23.811288]]]}},{"type":"Feature","properties":{"survey":"bds","sheet":"035","dag":"17042","label_bn":"17042","area_sqm":3390.2},"geometry":{"type":"Polygon","coordinates":[[[90.320178,23.810501],[90.320197,23.810451],[90.320254,23.81024],[90.320296,23.810079],[90.32031,23.809997],[90.320479,23.810001],[90.32083,23.810084],[90.320725,23.810639],[90.320178,23.810501]]]}},{"type":"Feature","properties":{"survey":"bds","sheet":"035","dag":"17008","label_bn":"17008","area_sqm":3780.7},"geometry":{"type":"Polygon","coordinates":[[[90.32048,23.812192],[90.320489,23.812112],[90.320489,23.811991],[90.320507,23.811815],[90.320516,23.811772],[90.320539,23.81177],[90.320577,23.811766],[90.320674,23.811796],[90.320757,23.81183],[90.320867,23.811892],[90.321132,23.811962],[90.321182,23.812063],[90.321203,23.81212],[90.321203,23.81212],[90.321203,23.812186],[90.321185,23.812273],[90.321165,23.812349],[90.320984,23.812348],[90.320984,23.812348],[90.32064,23.812347],[90.320481,23.812345],[90.32048,23.812192]]]}},{"type":"Feature","properties":{"survey":"bds","sheet":"035","dag":"17019","label_bn":"17019","area_sqm":3810.4},"geometry":{"type":"Polygon","coordinates":[[[90.321315,23.811238],[90.32133,23.811152],[90.321384,23.811011],[90.321449,23.810731],[90.321688,23.810771],[90.321958,23.810832],[90.32195,23.810901],[90.322108,23.810966],[90.322012,23.811181],[90.321933,23.811357],[90.321678,23.811309],[90.321476,23.811268],[90.321315,23.811238]]]}},{"type":"Feature","properties":{"survey":"bds","sheet":"035","dag":"17035","label_bn":"17035","area_sqm":3965.5},"geometry":{"type":"Polygon","coordinates":[[[90.318996,23.811679],[90.319099,23.81097],[90.319169,23.810932],[90.319222,23.810924],[90.319284,23.810928],[90.319532,23.81095],[90.319582,23.810957],[90.319451,23.811569],[90.319417,23.811731],[90.318996,23.811679]]]}},{"type":"Feature","properties":{"survey":"bds","sheet":"035","dag":"17001","label_bn":"17001","area_sqm":3980.6},"geometry":{"type":"Polygon","coordinates":[[[90.318846,23.812002],[90.319001,23.811981],[90.319368,23.812042],[90.319368,23.81204],[90.3194,23.812042],[90.319404,23.812292],[90.319397,23.812501],[90.319386,23.812696],[90.31918,23.812682],[90.319047,23.812666],[90.318901,23.812659],[90.318846,23.812002]]]}},{"type":"Feature","properties":{"survey":"bds","sheet":"035","dag":"17044","label_bn":"17044","area_sqm":4041.5},"geometry":{"type":"Polygon","coordinates":[[[90.320522,23.811117],[90.320551,23.810995],[90.320584,23.81091],[90.320599,23.810807],[90.3207,23.810768],[90.320742,23.81077],[90.320937,23.81075],[90.320964,23.810794],[90.320996,23.810819],[90.321048,23.810824],[90.321083,23.810813],[90.321094,23.810788],[90.321092,23.810746],[90.321082,23.810694],[90.321151,23.810688],[90.321226,23.81069],[90.321325,23.810699],[90.321449,23.810731],[90.321384,23.811011],[90.32133,23.811152],[90.321315,23.811238],[90.321198,23.811224],[90.321006,23.811188],[90.320866,23.811167],[90.32075,23.811151],[90.320522,23.811117]]]}},{"type":"Feature","properties":{"survey":"bds","sheet":"035","dag":"17018","label_bn":"17018","area_sqm":5688.2},"geometry":{"type":"Polygon","coordinates":[[[90.321606,23.812208],[90.321679,23.812046],[90.321739,23.811867],[90.321738,23.811866],[90.321823,23.811645],[90.321933,23.811357],[90.322012,23.811181],[90.322108,23.810966],[90.322217,23.810991],[90.322446,23.811063],[90.322327,23.811403],[90.322254,23.811626],[90.322168,23.81183],[90.322098,23.812023],[90.32196,23.812217],[90.321925,23.812259],[90.321887,23.812276],[90.321811,23.812284],[90.32176,23.812271],[90.321606,23.812208]]]}},{"type":"Feature","properties":{"survey":"bds","sheet":"035","dag":"17017","label_bn":"17017","area_sqm":5847.5},"geometry":{"type":"Polygon","coordinates":[[[90.321555,23.812795],[90.321571,23.812792],[90.321633,23.812667],[90.321724,23.812497],[90.321811,23.812284],[90.321887,23.812276],[90.321925,23.812259],[90.32196,23.812217],[90.322098,23.812023],[90.322294,23.812064],[90.322476,23.812107],[90.322415,23.812496],[90.322396,23.812558],[90.322307,23.812788],[90.3223,23.812808],[90.32229,23.812811],[90.322197,23.812813],[90.322119,23.812824],[90.321982,23.81286],[90.321888,23.81289],[90.321826,23.812916],[90.321747,23.812936],[90.321729,23.812947],[90.321729,23.812947],[90.321585,23.812869],[90.321562,23.812837],[90.321555,23.812795]]]}}]}