{"type":"FeatureCollection","features":[{"type":"Feature","properties":{"survey":"bds","sheet":"036","dag":"17544","label_bn":"17544","area_sqm":48.0},"geometry":{"type":"Polygon","coordinates":[[[90.320823,23.807351],[90.320868,23.807358],[90.320871,23.807388],[90.320845,23.807495],[90.320835,23.807516],[90.320833,23.807412],[90.320823,23.807351]]]}},{"type":"Feature","properties":{"survey":"bds","sheet":"036","dag":"17545","label_bn":"17545","area_sqm":61.1},"geometry":{"type":"Polygon","coordinates":[[[90.320786,23.807087],[90.320807,23.807084],[90.320853,23.807271],[90.320861,23.807299],[90.32087,23.807327],[90.320887,23.807362],[90.320868,23.807358],[90.320822,23.807236],[90.320786,23.807087]]]}},{"type":"Feature","properties":{"survey":"bds","sheet":"036","dag":"17541","label_bn":"17541","area_sqm":103.2},"geometry":{"type":"Polygon","coordinates":[[[90.32074,23.807687],[90.32079,23.8076],[90.320835,23.807516],[90.320837,23.80762],[90.320832,23.807693],[90.320826,23.807711],[90.32074,23.807687]]]}},{"type":"Feature","properties":{"survey":"bds","sheet":"036","dag":"17518","label_bn":"17518","area_sqm":109.3},"geometry":{"type":"Polygon","coordinates":[[[90.319314,23.80956],[90.319409,23.809524],[90.319409,23.809524],[90.319448,23.809611],[90.319353,23.809647],[90.319314,23.80956]]]}},{"type":"Feature","properties":{"survey":"bds","sheet":"036","dag":"17536","label_bn":"17536","area_sqm":122.8},"geometry":{"type":"Polygon","coordinates":[[[90.318863,23.807511],[90.318948,23.807488],[90.319251,23.807535],[90.31931,23.807546],[90.31898,23.807533],[90.318865,23.807528],[90.318863,23.807511]]]}},{"type":"Feature","properties":{"survey":"bds","sheet":"036","dag":"17542","label_bn":"17542","area_sqm":246.6},"geometry":{"type":"Polygon","coordinates":[[[90.320826,23.807711],[90.320832,23.807693],[90.320837,23.80762],[90.320835,23.807516],[90.320845,23.807495],[90.320871,23.807388],[90.320868,23.807358],[90.320887,23.807362],[90.320899,23.807387],[90.32092,23.807435],[90.320922,23.807452],[90.320922,23.807461],[90.320921,23.807471],[90.320918,23.807488],[90.320914,23.807505],[90.320904,23.807546],[90.320899,23.807645],[90.320893,23.807692],[90.320894,23.807722],[90.320895,23.807729],[90.32088,23.807725],[90.320826,23.807711]]]}},{"type":"Feature","properties":{"survey":"bds","sheet":"036","dag":"17502","label_bn":"17502","area_sqm":485.0},"geometry":{"type":"Polygon","coordinates":[[[90.318496,23.809406],[90.318505,23.80931],[90.318514,23.809284],[90.31854,23.809215],[90.318563,23.809173],[90.318583,23.809138],[90.318636,23.809061],[90.318645,23.809044],[90.318637,23.809084],[90.318549,23.809346],[90.318568,23.80937],[90.318575,23.809779],[90.318511,23.809779],[90.31851,23.809769],[90.318496,23.809535],[90.318496,23.80947],[90.318496,23.809406]]]}},{"type":"Feature","properties":{"survey":"bds","sheet":"036","dag":"17534","label_bn":"17534","area_sqm":610.7},"geometry":{"type":"Polygon","coordinates":[[[90.320618,23.808014],[90.320646,23.808016],[90.321242,23.808089],[90.321503,23.808148],[90.32149,23.808188],[90.321485,23.808202],[90.321441,23.808195],[90.321382,23.808185],[90.3213,23.808168],[90.321218,23.808151],[90.321041,23.80812],[90.320965,23.808111],[90.320769,23.808092],[90.320698,23.808092],[90.320661,23.808087],[90.320652,23.808085],[90.320638,23.808084],[90.320619,23.808081],[90.320619,23.808048],[90.320618,23.808014]]]}},{"type":"Feature","properties":{"survey":"bds","sheet":"036","dag":"17543","label_bn":"17543","area_sqm":686.9},"geometry":{"type":"Polygon","coordinates":[[[90.320545,23.80752],[90.320595,23.807315],[90.320823,23.807351],[90.320833,23.807412],[90.320835,23.807516],[90.32079,23.8076],[90.320545,23.80752]]]}},{"type":"Feature","properties":{"survey":"bds","sheet":"036","dag":"17506","label_bn":"17506","area_sqm":703.4},"geometry":{"type":"Polygon","coordinates":[[[90.318637,23.809084],[90.318645,23.809044],[90.318686,23.808968],[90.318701,23.808919],[90.318704,23.808907],[90.318725,23.808865],[90.318727,23.808862],[90.318989,23.808922],[90.318972,23.809099],[90.318637,23.809084]]]}},{"type":"Feature","properties":{"survey":"bds","sheet":"036","dag":"17515","label_bn":"17515","area_sqm":718.3},"geometry":{"type":"Polygon","coordinates":[[[90.318989,23.808922],[90.319,23.808814],[90.319541,23.808749],[90.319547,23.80885],[90.319447,23.808878],[90.319308,23.808897],[90.319218,23.808908],[90.319207,23.808909],[90.318989,23.808922]]]}},{"type":"Feature","properties":{"survey":"bds","sheet":"036","dag":"17519","label_bn":"17519","area_sqm":1045.2},"geometry":{"type":"Polygon","coordinates":[[[90.318927,23.809738],[90.318937,23.809597],[90.319227,23.809568],[90.319314,23.80956],[90.319353,23.809647],[90.319448,23.809611],[90.319409,23.809524],[90.319409,23.809524],[90.319475,23.809494],[90.319465,23.809538],[90.319465,23.809691],[90.319457,23.809719],[90.319438,23.809743],[90.319414,23.809752],[90.319338,23.809761],[90.319053,23.809761],[90.318927,23.809738]]]}},{"type":"Feature","properties":{"survey":"bds","sheet":"036","dag":"17512","label_bn":"17512","area_sqm":1219.5},"geometry":{"type":"Polygon","coordinates":[[[90.318679,23.808048],[90.318691,23.808027],[90.318703,23.808006],[90.31872,23.807983],[90.318738,23.807971],[90.318767,23.807961],[90.318795,23.80795],[90.318869,23.807936],[90.319007,23.807916],[90.319203,23.807912],[90.319204,23.807912],[90.319441,23.807934],[90.319409,23.808103],[90.318679,23.808048]]]}},{"type":"Feature","properties":{"survey":"bds","sheet":"036","dag":"17513","label_bn":"17513","area_sqm":1250.3},"geometry":{"type":"Polygon","coordinates":[[[90.319372,23.808298],[90.319409,23.808103],[90.319441,23.807934],[90.319741,23.807961],[90.319759,23.807989],[90.319745,23.808058],[90.319723,23.808174],[90.319715,23.80823],[90.319591,23.808268],[90.319551,23.808276],[90.319501,23.808297],[90.319446,23.808346],[90.319381,23.808304],[90.319372,23.808298]]]}},{"type":"Feature","properties":{"survey":"bds","sheet":"036","dag":"17538","label_bn":"17538","area_sqm":1257.5},"geometry":{"type":"Polygon","coordinates":[[[90.319602,23.807566],[90.31966,23.807151],[90.319864,23.807146],[90.319887,23.807147],[90.319891,23.807442],[90.319869,23.807469],[90.319834,23.807617],[90.319602,23.807566]]]}},{"type":"Feature","properties":{"survey":"bds","sheet":"036","dag":"17511","label_bn":"17511","area_sqm":1278.8},"geometry":{"type":"Polygon","coordinates":[[[90.318639,23.808155],[90.318661,23.80809],[90.318679,23.808048],[90.319409,23.808103],[90.319372,23.808298],[90.319241,23.808219],[90.31916,23.808201],[90.31898,23.808187],[90.318909,23.808204],[90.318877,23.808233],[90.318793,23.808225],[90.318658,23.808275],[90.318646,23.808256],[90.318639,23.808155]]]}},{"type":"Feature","properties":{"survey":"bds","sheet":"036","dag":"17528","label_bn":"17528","area_sqm":1327.8},"geometry":{"type":"Polygon","coordinates":[[[90.320613,23.808732],[90.320632,23.808597],[90.320651,23.808586],[90.320758,23.80858],[90.320771,23.808571],[90.320782,23.808562],[90.320939,23.808521],[90.321153,23.808491],[90.321325,23.808474],[90.321376,23.808465],[90.321416,23.808467],[90.32136,23.808641],[90.321265,23.808628],[90.321194,23.808625],[90.320987,23.808683],[90.320958,23.808691],[90.320918,23.808696],[90.320879,23.808694],[90.320836,23.808698],[90.320765,23.808714],[90.320613,23.808732]]]}},{"type":"Feature","properties":{"survey":"bds","sheet":"036","dag":"17516","label_bn":"17516","area_sqm":1341.4},"geometry":{"type":"Polygon","coordinates":[[[90.319308,23.808897],[90.319447,23.808878],[90.319547,23.80885],[90.319551,23.809104],[90.319543,23.809199],[90.319541,23.809219],[90.3195,23.809391],[90.319308,23.809391],[90.319308,23.808897]]]}},{"type":"Feature","properties":{"survey":"bds","sheet":"036","dag":"17520","label_bn":"17520","area_sqm":1567.0},"geometry":{"type":"Polygon","coordinates":[[[90.319338,23.809761],[90.319414,23.809752],[90.319438,23.809743],[90.319457,23.809719],[90.319465,23.809691],[90.319465,23.809538],[90.31951,23.809527],[90.319649,23.809531],[90.319911,23.809562],[90.319875,23.809743],[90.319859,23.80981],[90.319865,23.809829],[90.319876,23.80985],[90.3196,23.809862],[90.31959,23.809857],[90.319564,23.809853],[90.319447,23.809825],[90.319372,23.809789],[90.319338,23.809761]]]}},{"type":"Feature","properties":{"survey":"bds","sheet":"036","dag":"17521","label_bn":"17521","area_sqm":1576.2},"geometry":{"type":"Polygon","coordinates":[[[90.319465,23.809538],[90.319475,23.809494],[90.3195,23.809391],[90.319541,23.809219],[90.319543,23.809199],[90.319953,23.809241],[90.319944,23.809311],[90.319941,23.809385],[90.319911,23.809562],[90.319649,23.809531],[90.31951,23.809527],[90.319465,23.809538]]]}},{"type":"Feature","properties":{"survey":"bds","sheet":"036","dag":"17522","label_bn":"17522","area_sqm":1613.9},"geometry":{"type":"Polygon","coordinates":[[[90.319543,23.809199],[90.319551,23.809104],[90.319547,23.80885],[90.319578,23.808866],[90.319637,23.808885],[90.31968,23.808885],[90.319731,23.808878],[90.319785,23.808866],[90.319799,23.808886],[90.319835,23.808912],[90.319877,23.808925],[90.319999,23.80894],[90.320004,23.808994],[90.319989,23.809093],[90.319953,23.809241],[90.319543,23.809199]]]}},{"type":"Feature","properties":{"survey":"bds","sheet":"036","dag":"17509","label_bn":"17509","area_sqm":1723.2},"geometry":{"type":"Polygon","coordinates":[[[90.318658,23.808275],[90.318793,23.808225],[90.318877,23.808233],[90.318848,23.808273],[90.318833,23.808313],[90.318834,23.808375],[90.318948,23.808471],[90.318995,23.808507],[90.318992,23.808572],[90.319011,23.808712],[90.319,23.808814],[90.318989,23.808922],[90.318727,23.808862],[90.318743,23.80883],[90.31875,23.808803],[90.318749,23.808631],[90.318749,23.808584],[90.318673,23.808386],[90.318661,23.808339],[90.318658,23.808275]]]}},{"type":"Feature","properties":{"survey":"bds","sheet":"036","dag":"17546","label_bn":"17546","area_sqm":1740.4},"geometry":{"type":"Polygon","coordinates":[[[90.320807,23.807084],[90.32101,23.807058],[90.321277,23.807023],[90.321286,23.807455],[90.321117,23.80741],[90.320887,23.807362],[90.32087,23.807327],[90.320861,23.807299],[90.320853,23.807271],[90.320807,23.807084]]]}},{"type":"Feature","properties":{"survey":"bds","sheet":"036","dag":"17548","label_bn":"17548","area_sqm":1909.5},"geometry":{"type":"Polygon","coordinates":[[[90.321277,23.807023],[90.321673,23.807051],[90.321642,23.807505],[90.321407,23.807481],[90.321286,23.807455],[90.321277,23.807023]]]}},{"type":"Feature","properties":{"survey":"bds","sheet":"036","dag":"17540","label_bn":"17540","area_sqm":1964.7},"geometry":{"type":"Polygon","coordinates":[[[90.319834,23.807617],[90.319869,23.807469],[90.319891,23.807442],[90.320482,23.807494],[90.320545,23.80752],[90.32079,23.8076],[90.32074,23.807687],[90.320517,23.807698],[90.320254,23.807695],[90.320035,23.807667],[90.319834,23.807617]]]}},{"type":"Feature","properties":{"survey":"bds","sheet":"036","dag":"17503","label_bn":"17503","area_sqm":2061.9},"geometry":{"type":"Polygon","coordinates":[[[90.318466,23.810046],[90.318468,23.810043],[90.318484,23.809983],[90.318491,23.809915],[90.318907,23.809949],[90.319271,23.810024],[90.319554,23.810077],[90.31941,23.810321],[90.319358,23.810295],[90.319258,23.810261],[90.3192,23.810232],[90.319047,23.810151],[90.318993,23.810141],[90.318879,23.810095],[90.318715,23.810063],[90.318589,23.810043],[90.318485,23.810049],[90.318466,23.810046]]]}},{"type":"Feature","properties":{"survey":"bds","sheet":"036","dag":"17532","label_bn":"17532","area_sqm":2089.4},"geometry":{"type":"Polygon","coordinates":[[[90.320286,23.808015],[90.320619,23.808048],[90.320619,23.808081],[90.320638,23.808084],[90.320632,23.808597],[90.320444,23.808575],[90.320317,23.808585],[90.320301,23.80837],[90.320286,23.808015]]]}},{"type":"Feature","properties":{"survey":"bds","sheet":"036","dag":"17527","label_bn":"17527","area_sqm":2234.3},"geometry":{"type":"Polygon","coordinates":[[[90.320553,23.808934],[90.320613,23.808732],[90.320765,23.808714],[90.320836,23.808698],[90.320879,23.808694],[90.320918,23.808696],[90.320958,23.808691],[90.320987,23.808683],[90.321194,23.808625],[90.321265,23.808628],[90.32136,23.808641],[90.321233,23.809001],[90.320964,23.808944],[90.320856,23.808936],[90.320682,23.808942],[90.320553,23.808934]]]}},{"type":"Feature","properties":{"survey":"bds","sheet":"036","dag":"17529","label_bn":"17529","area_sqm":2512.7},"geometry":{"type":"Polygon","coordinates":[[[90.319785,23.808866],[90.319844,23.808824],[90.319892,23.808775],[90.319949,23.808693],[90.320317,23.808585],[90.320444,23.808575],[90.320632,23.808597],[90.320613,23.808732],[90.320553,23.808934],[90.320155,23.808921],[90.320096,23.808903],[90.320072,23.808899],[90.320051,23.808902],[90.320023,23.808912],[90.319999,23.80894],[90.319877,23.808925],[90.319835,23.808912],[90.319799,23.808886],[90.319785,23.808866]]]}},{"type":"Feature","properties":{"survey":"bds","sheet":"036","dag":"17539","label_bn":"17539","area_sqm":2533.9},"geometry":{"type":"Polygon","coordinates":[[[90.319887,23.807147],[90.320131,23.807131],[90.320359,23.807149],[90.320617,23.807217],[90.320595,23.807315],[90.320545,23.80752],[90.320482,23.807494],[90.319891,23.807442],[90.319887,23.807147]]]}},{"type":"Feature","properties":{"survey":"bds","sheet":"036","dag":"17530","label_bn":"17530","area_sqm":2543.0},"geometry":{"type":"Polygon","coordinates":[[[90.319446,23.808346],[90.319501,23.808297],[90.319551,23.808276],[90.319591,23.808268],[90.319715,23.80823],[90.319719,23.80829],[90.319737,23.808319],[90.319777,23.808358],[90.319936,23.808451],[90.319953,23.808477],[90.319954,23.808506],[90.319949,23.808693],[90.319892,23.808775],[90.319844,23.808824],[90.319785,23.808866],[90.319731,23.808878],[90.31968,23.808885],[90.319637,23.808885],[90.319578,23.808866],[90.319547,23.80885],[90.319541,23.808749],[90.319537,23.808686],[90.319532,23.808598],[90.319508,23.808482],[90.319446,23.808346]]]}},{"type":"Feature","properties":{"survey":"bds","sheet":"036","dag":"17504","label_bn":"17504","area_sqm":2563.4},"geometry":{"type":"Polygon","coordinates":[[[90.318491,23.809915],[90.318491,23.809912],[90.318502,23.809841],[90.318503,23.809802],[90.318513,23.809799],[90.318511,23.809779],[90.318575,23.809779],[90.318748,23.809785],[90.318927,23.809738],[90.319053,23.809761],[90.319338,23.809761],[90.319372,23.809789],[90.319447,23.809825],[90.319564,23.809853],[90.31959,23.809857],[90.3196,23.809862],[90.319609,23.809881],[90.319605,23.809936],[90.319587,23.810014],[90.319554,23.810077],[90.319271,23.810024],[90.318907,23.809949],[90.318491,23.809915]]]}},{"type":"Feature","properties":{"survey":"bds","sheet":"036","dag":"17523","label_bn":"17523","area_sqm":5162.9},"geometry":{"type":"Polygon","coordinates":[[[90.320096,23.808903],[90.320155,23.808921],[90.320553,23.808934],[90.320548,23.809067],[90.320563,23.80933],[90.320602,23.809594],[90.320566,23.809698],[90.319898,23.809626],[90.319911,23.809562],[90.319941,23.809385],[90.319944,23.809311],[90.319953,23.809241],[90.319989,23.809093],[90.320004,23.808994],[90.319999,23.80894],[90.320023,23.808912],[90.320051,23.808902],[90.320072,23.808899],[90.320096,23.808903]]]}},{"type":"Feature","properties":{"survey":"bds","sheet":"036","dag":"17505","label_bn":"17505","area_sqm":2864.6},"geometry":{"type":"Polygon","coordinates":[[[90.318549,23.809346],[90.318637,23.809084],[90.318972,23.809099],[90.318969,23.809192],[90.318937,23.809597],[90.318927,23.809738],[90.318748,23.809785],[90.318575,23.809779],[90.318568,23.80937],[90.318549,23.809346]]]}},{"type":"Feature","properties":{"survey":"bds","sheet":"036","dag":"17517","label_bn":"17517","area_sqm":2880.8},"geometry":{"type":"Polygon","coordinates":[[[90.318937,23.809597],[90.318969,23.809192],[90.318972,23.809099],[90.318989,23.808922],[90.319207,23.808909],[90.319218,23.808908],[90.319308,23.808897],[90.319308,23.809391],[90.3195,23.809391],[90.319475,23.809494],[90.319409,23.809524],[90.319314,23.80956],[90.319227,23.809568],[90.318937,23.809597]]]}},{"type":"Feature","properties":{"survey":"bds","sheet":"036","dag":"17537","label_bn":"17537","area_sqm":2886.7},"geometry":{"type":"Polygon","coordinates":[[[90.318855,23.807453],[90.318895,23.807257],[90.319012,23.80726],[90.319139,23.807225],[90.319134,23.807183],[90.319424,23.80716],[90.31966,23.807151],[90.319602,23.807566],[90.319545,23.807555],[90.31931,23.807546],[90.319251,23.807535],[90.318948,23.807488],[90.318863,23.807511],[90.318855,23.807453]]]}},{"type":"Feature","properties":{"survey":"bds","sheet":"036","dag":"17547","label_bn":"17547","area_sqm":2926.6},"geometry":{"type":"Polygon","coordinates":[[[90.320887,23.807362],[90.321117,23.80741],[90.321286,23.807455],[90.321407,23.807481],[90.321642,23.807505],[90.321603,23.807846],[90.32114,23.807795],[90.320895,23.807729],[90.320894,23.807722],[90.320893,23.807692],[90.320899,23.807645],[90.320904,23.807546],[90.320914,23.807505],[90.320918,23.807488],[90.320921,23.807471],[90.320922,23.807461],[90.320922,23.807452],[90.32092,23.807435],[90.320899,23.807387],[90.320887,23.807362]]]}},{"type":"Feature","properties":{"survey":"bds","sheet":"036","dag":"17525","label_bn":"17525","area_sqm":3245.9},"geometry":{"type":"Polygon","coordinates":[[[90.320479,23.810001],[90.32053,23.809804],[90.320602,23.809594],[90.320891,23.809615],[90.321156,23.80962],[90.321177,23.809624],[90.321161,23.809824],[90.321128,23.810098],[90.32083,23.810084],[90.320479,23.810001]]]}},{"type":"Feature","properties":{"survey":"bds","sheet":"036","dag":"17514","label_bn":"17514","area_sqm":3508.9},"geometry":{"type":"Polygon","coordinates":[[[90.318833,23.808313],[90.318848,23.808273],[90.318877,23.808233],[90.318909,23.808204],[90.31898,23.808187],[90.31916,23.808201],[90.319241,23.808219],[90.319372,23.808298],[90.319381,23.808304],[90.319446,23.808346],[90.319508,23.808482],[90.319532,23.808598],[90.319537,23.808686],[90.319541,23.808749],[90.319,23.808814],[90.319011,23.808712],[90.318992,23.808572],[90.318995,23.808507],[90.318948,23.808471],[90.318834,23.808375],[90.318833,23.808313]]]}},{"type":"Feature","properties":{"survey":"bds","sheet":"036","dag":"17533","label_bn":"17533","area_sqm":3569.9},"geometry":{"type":"Polygon","coordinates":[[[90.320632,23.808597],[90.320638,23.808084],[90.320652,23.808085],[90.320661,23.808087],[90.320698,23.808092],[90.320769,23.808092],[90.320965,23.808111],[90.321041,23.80812],[90.321218,23.808151],[90.3213,23.808168],[90.321382,23.808185],[90.321441,23.808195],[90.321485,23.808202],[90.321471,23.808244],[90.321416,23.808467],[90.321376,23.808465],[90.321325,23.808474],[90.321153,23.808491],[90.320939,23.808521],[90.320782,23.808562],[90.320771,23.808571],[90.320758,23.80858],[90.320651,23.808586],[90.320632,23.808597]]]}},{"type":"Feature","properties":{"survey":"bds","sheet":"036","dag":"17531","label_bn":"17531","area_sqm":3583.1},"geometry":{"type":"Polygon","coordinates":[[[90.319715,23.80823],[90.319723,23.808174],[90.319745,23.808058],[90.319759,23.807989],[90.319741,23.807961],[90.320286,23.808015],[90.320301,23.80837],[90.320317,23.808585],[90.319949,23.808693],[90.319954,23.808506],[90.319953,23.808477],[90.319936,23.808451],[90.319777,23.808358],[90.319737,23.808319],[90.319719,23.80829],[90.319715,23.80823]]]}},{"type":"Feature","properties":{"survey":"bds","sheet":"036","dag":"17526","label_bn":"17526","area_sqm":4484.4},"geometry":{"type":"Polygon","coordinates":[[[90.320548,23.809067],[90.320553,23.808934],[90.320682,23.808942],[90.320856,23.808936],[90.320964,23.808944],[90.321233,23.809001],[90.321154,23.80915],[90.321148,23.8092],[90.321146,23.809246],[90.321151,23.809372],[90.321156,23.809418],[90.321156,23.80962],[90.320891,23.809615],[90.320602,23.809594],[90.320563,23.80933],[90.320548,23.809067]]]}},{"type":"Feature","properties":{"survey":"bds","sheet":"036","dag":"17535","label_bn":"17535","area_sqm":11372.4},"geometry":{"type":"Polygon","coordinates":[[[90.318543,23.807585],[90.318865,23.807528],[90.31898,23.807533],[90.31931,23.807546],[90.319545,23.807555],[90.319602,23.807566],[90.319834,23.807617],[90.320035,23.807667],[90.320254,23.807695],[90.320517,23.807698],[90.32074,23.807687],[90.320826,23.807711],[90.32088,23.807725],[90.320895,23.807729],[90.32114,23.807795],[90.321603,23.807846],[90.321503,23.808148],[90.321242,23.808089],[90.320646,23.808016],[90.320618,23.808014],[90.320619,23.808048],[90.320286,23.808015],[90.319741,23.807961],[90.319441,23.807934],[90.319204,23.807912],[90.319203,23.807912],[90.319007,23.807916],[90.318869,23.807936],[90.318795,23.80795],[90.318767,23.807961],[90.318738,23.807971],[90.318751,23.807966],[90.318543,23.807585]]]}},{"type":"Feature","properties":{"survey":"bds","sheet":"036","dag":"17501","label_bn":"17501","area_sqm":19244.3},"geometry":{"type":"Polygon","coordinates":[[[90.317648,23.809942],[90.317717,23.809766],[90.317805,23.809545],[90.317853,23.809321],[90.317869,23.809211],[90.317864,23.808968],[90.317811,23.808688],[90.317768,23.808438],[90.31817,23.808071],[90.318175,23.808003],[90.318186,23.807747],[90.318543,23.807585],[90.318751,23.807966],[90.318738,23.807971],[90.31872,23.807983],[90.318703,23.808006],[90.318691,23.808027],[90.318679,23.808048],[90.318661,23.80809],[90.318639,23.808155],[90.318646,23.808256],[90.318658,23.808275],[90.318661,23.808339],[90.318673,23.808386],[90.318749,23.808584],[90.318749,23.808631],[90.31875,23.808803],[90.318743,23.80883],[90.318727,23.808862],[90.318725,23.808865],[90.318704,23.808907],[90.318701,23.808919],[90.318686,23.808968],[90.318645,23.809044],[90.318636,23.809061],[90.318583,23.809138],[90.318563,23.809173],[90.31854,23.809215],[90.318514,23.809284],[90.318505,23.80931],[90.318496,23.809406],[90.318496,23.80947],[90.318496,23.809535],[90.31851,23.809769],[90.318511,23.809779],[90.318513,23.809799],[90.318503,23.809802],[90.318502,23.809841],[90.318491,23.809912],[90.318491,23.809915],[90.318484,23.809983],[90.318468,23.810043],[90.318466,23.810046],[90.317648,23.809942]]]}},{"type":"Feature","properties":{"survey":"bds","sheet":"036","dag":"17524","label_bn":"17524","area_sqm":2127.6},"geometry":{"type":"Polygon","coordinates":[[[90.320566,23.809698],[90.32053,23.809804],[90.320479,23.810001],[90.32031,23.809997],[90.320139,23.809936],[90.319931,23.809882],[90.319893,23.809866],[90.319876,23.80985],[90.319865,23.809829],[90.319859,23.80981],[90.319875,23.809743],[90.319898,23.809626],[90.320566,23.809698]]]}}]}