{"type":"FeatureCollection","features":[{"type":"Feature","properties":{"survey":"bds","sheet":"037","dag":"18015","label_bn":"18015","area_sqm":14.9},"geometry":{"type":"Polygon","coordinates":[[[90.322442,23.808455],[90.322512,23.808505],[90.322382,23.80845],[90.322382,23.80845],[90.322442,23.808455]]]}},{"type":"Feature","properties":{"survey":"bds","sheet":"037","dag":"18053","label_bn":"18053","area_sqm":569.7},"geometry":{"type":"Polygon","coordinates":[[[90.324115,23.808739],[90.324105,23.808796],[90.323811,23.808723],[90.323859,23.808589],[90.324182,23.808619],[90.32415,23.808686],[90.324115,23.808739]]]}},{"type":"Feature","properties":{"survey":"bds","sheet":"037","dag":"18009","label_bn":"18009","area_sqm":2900.5},"geometry":{"type":"Polygon","coordinates":[[[90.322157,23.808551],[90.322016,23.808832],[90.322002,23.808823],[90.321778,23.808648],[90.321554,23.808533],[90.321416,23.808467],[90.321487,23.808199],[90.321814,23.808286],[90.322209,23.808433],[90.322157,23.808551]]]}},{"type":"Feature","properties":{"survey":"bds","sheet":"037","dag":"18059","label_bn":"18059","area_sqm":431.1},"geometry":{"type":"Polygon","coordinates":[[[90.324323,23.808752],[90.324331,23.80885],[90.324105,23.808796],[90.324115,23.808739],[90.32415,23.808686],[90.324182,23.808619],[90.324346,23.808635],[90.324343,23.808639],[90.324319,23.808678],[90.324323,23.808752]]]}},{"type":"Feature","properties":{"survey":"bds","sheet":"037","dag":"18060","label_bn":"18060","area_sqm":160.1},"geometry":{"type":"Polygon","coordinates":[[[90.3244,23.80864],[90.324399,23.808645],[90.324396,23.808683],[90.324387,23.808794],[90.324383,23.808834],[90.324381,23.808861],[90.324331,23.80885],[90.324323,23.808752],[90.324319,23.808678],[90.324343,23.808639],[90.324346,23.808635],[90.3244,23.80864]]]}},{"type":"Feature","properties":{"survey":"bds","sheet":"037","dag":"18052","label_bn":"18052","area_sqm":1393.1},"geometry":{"type":"Polygon","coordinates":[[[90.323734,23.808867],[90.32371,23.808907],[90.323695,23.808897],[90.323513,23.80878],[90.323391,23.808685],[90.323322,23.808638],[90.323237,23.808587],[90.323105,23.808518],[90.323859,23.808589],[90.323811,23.808723],[90.323734,23.808867]]]}},{"type":"Feature","properties":{"survey":"bds","sheet":"037","dag":"18051","label_bn":"18051","area_sqm":164.5},"geometry":{"type":"Polygon","coordinates":[[[90.32371,23.808907],[90.323692,23.808938],[90.323478,23.808766],[90.323291,23.808648],[90.32309,23.808516],[90.323105,23.808518],[90.323237,23.808587],[90.323322,23.808638],[90.323391,23.808685],[90.323513,23.80878],[90.323695,23.808897],[90.32371,23.808907]]]}},{"type":"Feature","properties":{"survey":"bds","sheet":"037","dag":"18062","label_bn":"18062","area_sqm":17.2},"geometry":{"type":"Polygon","coordinates":[[[90.324402,23.808936],[90.324404,23.808955],[90.324379,23.808954],[90.324381,23.808861],[90.324383,23.808834],[90.324388,23.808877],[90.324402,23.808936]]]}},{"type":"Feature","properties":{"survey":"bds","sheet":"037","dag":"18010","label_bn":"18010","area_sqm":1707.7},"geometry":{"type":"Polygon","coordinates":[[[90.322405,23.808806],[90.322323,23.808978],[90.322177,23.80892],[90.322016,23.808832],[90.322157,23.808551],[90.322209,23.808433],[90.322459,23.808553],[90.322513,23.808578],[90.322405,23.808806]]]}},{"type":"Feature","properties":{"survey":"bds","sheet":"037","dag":"18054","label_bn":"18054","area_sqm":717.3},"geometry":{"type":"Polygon","coordinates":[[[90.324056,23.808957],[90.324026,23.809009],[90.323734,23.808867],[90.323811,23.808723],[90.324105,23.808796],[90.3241,23.80883],[90.324108,23.808848],[90.3241,23.808865],[90.324056,23.808957]]]}},{"type":"Feature","properties":{"survey":"bds","sheet":"037","dag":"18007","label_bn":"18007","area_sqm":1699.2},"geometry":{"type":"Polygon","coordinates":[[[90.321844,23.809003],[90.321834,23.809049],[90.321233,23.809001],[90.32136,23.808641],[90.321526,23.808689],[90.321723,23.808841],[90.32183,23.808971],[90.321844,23.809003]]]}},{"type":"Feature","properties":{"survey":"bds","sheet":"037","dag":"18055","label_bn":"18055","area_sqm":248.4},"geometry":{"type":"Polygon","coordinates":[[[90.324026,23.809009],[90.323983,23.809086],[90.323854,23.809002],[90.32371,23.808907],[90.323734,23.808867],[90.324026,23.809009]]]}},{"type":"Feature","properties":{"survey":"bds","sheet":"037","dag":"18011","label_bn":"18011","area_sqm":2459.0},"geometry":{"type":"Polygon","coordinates":[[[90.323181,23.809077],[90.323132,23.809116],[90.322768,23.809088],[90.3226,23.809077],[90.322484,23.809027],[90.322345,23.808988],[90.322323,23.808978],[90.322405,23.808806],[90.322513,23.808578],[90.322656,23.808686],[90.322945,23.80891],[90.323181,23.809077]]]}},{"type":"Feature","properties":{"survey":"bds","sheet":"037","dag":"18056","label_bn":"18056","area_sqm":200.1},"geometry":{"type":"Polygon","coordinates":[[[90.323983,23.809086],[90.323955,23.809137],[90.323821,23.809053],[90.323763,23.809001],[90.323692,23.808938],[90.32371,23.808907],[90.323854,23.809002],[90.323983,23.809086]]]}},{"type":"Feature","properties":{"survey":"bds","sheet":"037","dag":"18061","label_bn":"18061","area_sqm":124.1},"geometry":{"type":"Polygon","coordinates":[[[90.324306,23.809198],[90.324275,23.809199],[90.324327,23.809184],[90.324369,23.809168],[90.324362,23.809116],[90.324354,23.809006],[90.324346,23.808933],[90.324334,23.80888],[90.324331,23.80885],[90.324381,23.808861],[90.324379,23.808954],[90.324378,23.808976],[90.324395,23.809174],[90.324306,23.809198]]]}},{"type":"Feature","properties":{"survey":"bds","sheet":"037","dag":"18058","label_bn":"18058","area_sqm":1222.8},"geometry":{"type":"Polygon","coordinates":[[[90.324275,23.809199],[90.324178,23.809199],[90.324146,23.809176],[90.32412,23.809163],[90.324091,23.809148],[90.324047,23.809128],[90.323983,23.809086],[90.324026,23.809009],[90.324056,23.808957],[90.3241,23.808865],[90.324108,23.808848],[90.3241,23.80883],[90.324105,23.808796],[90.324331,23.80885],[90.324334,23.80888],[90.324346,23.808933],[90.324354,23.809006],[90.324362,23.809116],[90.324369,23.809168],[90.324327,23.809184],[90.324275,23.809199]]]}},{"type":"Feature","properties":{"survey":"bds","sheet":"037","dag":"18057","label_bn":"18057","area_sqm":86.8},"geometry":{"type":"Polygon","coordinates":[[[90.324178,23.809199],[90.324174,23.809199],[90.324054,23.809174],[90.323955,23.809137],[90.323983,23.809086],[90.324047,23.809128],[90.324091,23.809148],[90.32412,23.809163],[90.324146,23.809176],[90.324178,23.809199]]]}},{"type":"Feature","properties":{"survey":"bds","sheet":"037","dag":"18063","label_bn":"18063","area_sqm":4619.6},"geometry":{"type":"Polygon","coordinates":[[[90.324409,23.808641],[90.324704,23.808668],[90.324777,23.808697],[90.325008,23.808723],[90.325265,23.808749],[90.325449,23.808754],[90.325464,23.808959],[90.325483,23.809212],[90.325109,23.809146],[90.324851,23.809067],[90.32471,23.809027],[90.324514,23.808962],[90.324404,23.808955],[90.324402,23.808936],[90.324388,23.808877],[90.324383,23.808834],[90.324387,23.808794],[90.324396,23.808683],[90.324399,23.808645],[90.3244,23.80864],[90.324409,23.808641]]]}},{"type":"Feature","properties":{"survey":"bds","sheet":"037","dag":"18008","label_bn":"18008","area_sqm":2475.2},"geometry":{"type":"Polygon","coordinates":[[[90.322345,23.808988],[90.322313,23.80921],[90.322232,23.809189],[90.322192,23.80917],[90.322106,23.809145],[90.322071,23.809109],[90.32199,23.809064],[90.321904,23.809012],[90.321844,23.809003],[90.32183,23.808971],[90.321723,23.808841],[90.321526,23.808689],[90.32136,23.808641],[90.321416,23.808467],[90.321554,23.808533],[90.321778,23.808648],[90.322002,23.808823],[90.322016,23.808832],[90.322177,23.80892],[90.322323,23.808978],[90.322345,23.808988]]]}},{"type":"Feature","properties":{"survey":"bds","sheet":"037","dag":"18012","label_bn":"18012","area_sqm":1719.0},"geometry":{"type":"Polygon","coordinates":[[[90.322838,23.809258],[90.322609,23.809285],[90.322313,23.80921],[90.322345,23.808988],[90.322484,23.809027],[90.3226,23.809077],[90.322768,23.809088],[90.323132,23.809116],[90.32313,23.809265],[90.322988,23.809265],[90.322838,23.809258]]]}},{"type":"Feature","properties":{"survey":"bds","sheet":"037","dag":"18064","label_bn":"18064","area_sqm":759.6},"geometry":{"type":"Polygon","coordinates":[[[90.324673,23.809212],[90.324647,23.809293],[90.324597,23.809267],[90.324498,23.809227],[90.324466,23.809214],[90.324464,23.809189],[90.324447,23.809116],[90.324425,23.809051],[90.324405,23.808977],[90.324404,23.808955],[90.324514,23.808962],[90.32471,23.809027],[90.324673,23.809212]]]}},{"type":"Feature","properties":{"survey":"bds","sheet":"037","dag":"18065","label_bn":"18065","area_sqm":223.8},"geometry":{"type":"Polygon","coordinates":[[[90.324647,23.809293],[90.32464,23.809315],[90.324532,23.809281],[90.324429,23.809249],[90.324427,23.809189],[90.324395,23.809174],[90.324378,23.808976],[90.324379,23.808954],[90.324404,23.808955],[90.324405,23.808977],[90.324425,23.809051],[90.324447,23.809116],[90.324464,23.809189],[90.324466,23.809214],[90.324498,23.809227],[90.324597,23.809267],[90.324647,23.809293]]]}},{"type":"Feature","properties":{"survey":"bds","sheet":"037","dag":"18013","label_bn":"18013","area_sqm":437.4},"geometry":{"type":"Polygon","coordinates":[[[90.323382,23.80924],[90.323482,23.809362],[90.323403,23.809313],[90.32313,23.809265],[90.323132,23.809116],[90.323181,23.809077],[90.323382,23.80924]]]}},{"type":"Feature","properties":{"survey":"bds","sheet":"037","dag":"18005","label_bn":"18005","area_sqm":1295.3},"geometry":{"type":"Polygon","coordinates":[[[90.322232,23.809189],[90.322169,23.809408],[90.321804,23.809345],[90.321834,23.809049],[90.321844,23.809003],[90.321904,23.809012],[90.32199,23.809064],[90.322071,23.809109],[90.322106,23.809145],[90.322192,23.80917],[90.322232,23.809189]]]}},{"type":"Feature","properties":{"survey":"bds","sheet":"037","dag":"18066","label_bn":"18066","area_sqm":42.7},"geometry":{"type":"Polygon","coordinates":[[[90.32484,23.809398],[90.324867,23.809419],[90.32464,23.809315],[90.324647,23.809293],[90.32476,23.809351],[90.32484,23.809398]]]}},{"type":"Feature","properties":{"survey":"bds","sheet":"037","dag":"18016","label_bn":"18016","area_sqm":119.7},"geometry":{"type":"Polygon","coordinates":[[[90.323493,23.809228],[90.323898,23.809493],[90.323876,23.809485],[90.323774,23.809435],[90.323686,23.809388],[90.323615,23.809342],[90.323507,23.809273],[90.323493,23.809228]]]}},{"type":"Feature","properties":{"survey":"bds","sheet":"037","dag":"18014","label_bn":"18014","area_sqm":1917.4},"geometry":{"type":"Polygon","coordinates":[[[90.323913,23.80956],[90.32375,23.809607],[90.323482,23.809362],[90.323382,23.80924],[90.323181,23.809077],[90.322945,23.80891],[90.322656,23.808686],[90.322513,23.808578],[90.322459,23.808553],[90.322209,23.808433],[90.322382,23.80845],[90.322382,23.80845],[90.322512,23.808505],[90.322702,23.808641],[90.323217,23.808994],[90.323452,23.809202],[90.323493,23.809228],[90.323507,23.809273],[90.323615,23.809342],[90.323686,23.809388],[90.323774,23.809435],[90.323876,23.809485],[90.323898,23.809493],[90.32395,23.809527],[90.323913,23.80956]]]}},{"type":"Feature","properties":{"survey":"bds","sheet":"037","dag":"18004","label_bn":"18004","area_sqm":940.9},"geometry":{"type":"Polygon","coordinates":[[[90.322169,23.809408],[90.322129,23.809612],[90.321729,23.809558],[90.321804,23.809345],[90.322169,23.809408]]]}},{"type":"Feature","properties":{"survey":"bds","sheet":"037","dag":"18006","label_bn":"18006","area_sqm":4076.3},"geometry":{"type":"Polygon","coordinates":[[[90.321421,23.809592],[90.321177,23.809624],[90.321156,23.80962],[90.321156,23.809418],[90.321151,23.809372],[90.321146,23.809246],[90.321148,23.8092],[90.321154,23.80915],[90.321233,23.809001],[90.321834,23.809049],[90.321804,23.809345],[90.321729,23.809558],[90.321421,23.809592]]]}},{"type":"Feature","properties":{"survey":"bds","sheet":"037","dag":"18067","label_bn":"18067","area_sqm":3599.0},"geometry":{"type":"Polygon","coordinates":[[[90.325527,23.809428],[90.325553,23.809668],[90.325343,23.809637],[90.325042,23.809466],[90.324874,23.809422],[90.324867,23.809419],[90.32484,23.809398],[90.32476,23.809351],[90.324647,23.809293],[90.324673,23.809212],[90.32471,23.809027],[90.324851,23.809067],[90.325109,23.809146],[90.325483,23.809212],[90.325527,23.809428]]]}},{"type":"Feature","properties":{"survey":"bds","sheet":"037","dag":"18068","label_bn":"18068","area_sqm":7210.7},"geometry":{"type":"Polygon","coordinates":[[[90.325679,23.809663],[90.325553,23.809668],[90.325527,23.809428],[90.325483,23.809212],[90.325464,23.808959],[90.325449,23.808754],[90.325681,23.808643],[90.32574,23.808628],[90.325821,23.808632],[90.325872,23.808605],[90.326077,23.808551],[90.326164,23.808994],[90.326198,23.809103],[90.326106,23.809184],[90.32614,23.809276],[90.326166,23.809446],[90.326178,23.809483],[90.325998,23.809558],[90.325679,23.809663]]]}},{"type":"Feature","properties":{"survey":"bds","sheet":"037","dag":"18003","label_bn":"18003","area_sqm":1972.4},"geometry":{"type":"Polygon","coordinates":[[[90.322583,23.809658],[90.322564,23.809669],[90.322264,23.80964],[90.322129,23.809612],[90.322169,23.809408],[90.322232,23.809189],[90.322313,23.80921],[90.322609,23.809285],[90.322609,23.809285],[90.322572,23.809468],[90.322588,23.809473],[90.322583,23.809658]]]}},{"type":"Feature","properties":{"survey":"bds","sheet":"037","dag":"18017","label_bn":"18017","area_sqm":479.5},"geometry":{"type":"Polygon","coordinates":[[[90.324364,23.809596],[90.324353,23.809701],[90.324208,23.80969],[90.324135,23.809655],[90.32394,23.80961],[90.32395,23.809527],[90.324364,23.809596]]]}},{"type":"Feature","properties":{"survey":"bds","sheet":"037","dag":"18022","label_bn":"18022","area_sqm":4066.4},"geometry":{"type":"Polygon","coordinates":[[[90.323392,23.809618],[90.323353,23.809738],[90.323183,23.809727],[90.32302,23.809697],[90.322872,23.80968],[90.322583,23.809658],[90.322588,23.809473],[90.322572,23.809468],[90.322609,23.809285],[90.322609,23.809285],[90.322838,23.809258],[90.322988,23.809265],[90.32313,23.809265],[90.323403,23.809313],[90.323482,23.809362],[90.323493,23.80944],[90.323484,23.809488],[90.323428,23.809559],[90.323392,23.809618]]]}},{"type":"Feature","properties":{"survey":"bds","sheet":"037","dag":"18020","label_bn":"18020","area_sqm":781.6},"geometry":{"type":"Polygon","coordinates":[[[90.323778,23.809746],[90.323644,23.80976],[90.32356,23.809713],[90.323428,23.809559],[90.323484,23.809488],[90.323493,23.80944],[90.323482,23.809362],[90.32375,23.809607],[90.323778,23.809746]]]}},{"type":"Feature","properties":{"survey":"bds","sheet":"037","dag":"18023","label_bn":"18023","area_sqm":1267.4},"geometry":{"type":"Polygon","coordinates":[[[90.323353,23.809738],[90.323306,23.809945],[90.323109,23.809889],[90.323001,23.809836],[90.322965,23.809812],[90.322801,23.809788],[90.322544,23.809772],[90.322564,23.809669],[90.322583,23.809658],[90.322872,23.80968],[90.32302,23.809697],[90.323183,23.809727],[90.323353,23.809738]]]}},{"type":"Feature","properties":{"survey":"bds","sheet":"037","dag":"18019","label_bn":"18019","area_sqm":3495.2},"geometry":{"type":"Polygon","coordinates":[[[90.323987,23.810063],[90.323982,23.810097],[90.323966,23.810092],[90.323894,23.810039],[90.323847,23.810009],[90.323773,23.809983],[90.323777,23.809954],[90.323767,23.809836],[90.323778,23.809746],[90.32375,23.809607],[90.323913,23.80956],[90.32395,23.809527],[90.32394,23.80961],[90.324135,23.809655],[90.324208,23.80969],[90.324353,23.809701],[90.324364,23.809596],[90.324508,23.809599],[90.324659,23.809667],[90.32479,23.809764],[90.32478,23.809947],[90.324624,23.809933],[90.324613,23.809932],[90.32461,23.809932],[90.324502,23.809915],[90.324434,23.809902],[90.324374,23.809882],[90.324318,23.80987],[90.324264,23.809869],[90.324223,23.809862],[90.324207,23.809862],[90.324191,23.809868],[90.324137,23.809907],[90.324099,23.809941],[90.32404,23.809995],[90.324003,23.810038],[90.323987,23.810063]]]}},{"type":"Feature","properties":{"survey":"bds","sheet":"037","dag":"18018","label_bn":"18018","area_sqm":350.5},"geometry":{"type":"Polygon","coordinates":[[[90.324095,23.809992],[90.324001,23.810102],[90.323982,23.810097],[90.323987,23.810063],[90.324003,23.810038],[90.32404,23.809995],[90.324099,23.809941],[90.324137,23.809907],[90.324191,23.809868],[90.324207,23.809862],[90.324223,23.809862],[90.324264,23.809869],[90.324318,23.80987],[90.324374,23.809882],[90.324434,23.809902],[90.324502,23.809915],[90.32461,23.809932],[90.324613,23.809932],[90.324484,23.809925],[90.324366,23.809931],[90.324187,23.809961],[90.324095,23.809992]]]}},{"type":"Feature","properties":{"survey":"bds","sheet":"037","dag":"18050","label_bn":"18050","area_sqm":15489.4},"geometry":{"type":"Polygon","coordinates":[[[90.325922,23.810032],[90.325923,23.810148],[90.325317,23.810117],[90.32478,23.810087],[90.3247,23.810083],[90.32478,23.809947],[90.32479,23.809764],[90.324659,23.809667],[90.324508,23.809599],[90.324364,23.809596],[90.32395,23.809527],[90.323898,23.809493],[90.323493,23.809228],[90.323452,23.809202],[90.323217,23.808994],[90.322702,23.808641],[90.322512,23.808505],[90.322442,23.808455],[90.32309,23.808516],[90.323291,23.808648],[90.323478,23.808766],[90.323692,23.808938],[90.323763,23.809001],[90.323821,23.809053],[90.323955,23.809137],[90.324054,23.809174],[90.324174,23.809199],[90.324178,23.809199],[90.324275,23.809199],[90.324306,23.809198],[90.324395,23.809174],[90.324427,23.809189],[90.324429,23.809249],[90.324532,23.809281],[90.32464,23.809315],[90.324867,23.809419],[90.324874,23.809422],[90.325042,23.809466],[90.325343,23.809637],[90.325553,23.809668],[90.325679,23.809663],[90.325922,23.810032]]]}},{"type":"Feature","properties":{"survey":"bds","sheet":"037","dag":"18021","label_bn":"18021","area_sqm":2096.1},"geometry":{"type":"Polygon","coordinates":[[[90.323711,23.81004],[90.323549,23.810171],[90.323444,23.810137],[90.323353,23.810089],[90.323313,23.810067],[90.3233,23.810034],[90.323306,23.809945],[90.323353,23.809738],[90.323392,23.809618],[90.323428,23.809559],[90.32356,23.809713],[90.323644,23.80976],[90.323778,23.809746],[90.323767,23.809836],[90.323777,23.809954],[90.323773,23.809983],[90.323711,23.81004]]]}},{"type":"Feature","properties":{"survey":"bds","sheet":"037","dag":"18002","label_bn":"18002","area_sqm":9087.1},"geometry":{"type":"Polygon","coordinates":[[[90.321422,23.810271],[90.321134,23.810322],[90.321143,23.81024],[90.321128,23.810098],[90.321161,23.809824],[90.321177,23.809624],[90.321421,23.809592],[90.321729,23.809558],[90.322129,23.809612],[90.322264,23.80964],[90.322564,23.809669],[90.322544,23.809772],[90.322519,23.80991],[90.322477,23.810093],[90.322366,23.810077],[90.322191,23.81007],[90.322071,23.81011],[90.32194,23.81019],[90.321694,23.810232],[90.321629,23.810242],[90.321471,23.810264],[90.321422,23.810271]]]}},{"type":"Feature","properties":{"survey":"bds","sheet":"037","dag":"18040","label_bn":"18040","area_sqm":99.3},"geometry":{"type":"Polygon","coordinates":[[[90.324158,23.810325],[90.324179,23.810355],[90.324138,23.810334],[90.324091,23.810295],[90.324055,23.810242],[90.324056,23.810159],[90.324089,23.810085],[90.324134,23.810047],[90.324145,23.810044],[90.324115,23.810087],[90.324082,23.810161],[90.32408,23.810211],[90.324083,23.810224],[90.324116,23.81027],[90.324158,23.810325]]]}},{"type":"Feature","properties":{"survey":"bds","sheet":"037","dag":"18024","label_bn":"18024","area_sqm":5030.6},"geometry":{"type":"Polygon","coordinates":[[[90.323498,23.810333],[90.32346,23.810425],[90.323325,23.810391],[90.323129,23.810353],[90.323046,23.810335],[90.322793,23.810287],[90.322792,23.810287],[90.322451,23.810207],[90.322477,23.810093],[90.322519,23.80991],[90.322544,23.809772],[90.322801,23.809788],[90.322965,23.809812],[90.323001,23.809836],[90.323109,23.809889],[90.323306,23.809945],[90.3233,23.810034],[90.323313,23.810067],[90.323353,23.810089],[90.323444,23.810137],[90.323549,23.810171],[90.323498,23.810333]]]}},{"type":"Feature","properties":{"survey":"bds","sheet":"037","dag":"18049","label_bn":"18049","area_sqm":1813.8},"geometry":{"type":"Polygon","coordinates":[[[90.325923,23.810148],[90.325931,23.810432],[90.325406,23.810363],[90.325302,23.810359],[90.325317,23.810117],[90.325923,23.810148]]]}},{"type":"Feature","properties":{"survey":"bds","sheet":"037","dag":"18043","label_bn":"18043","area_sqm":317.1},"geometry":{"type":"Polygon","coordinates":[[[90.324773,23.81043],[90.324713,23.810442],[90.324714,23.810405],[90.324714,23.810331],[90.324713,23.810255],[90.324695,23.810107],[90.3247,23.810083],[90.32478,23.810087],[90.324753,23.810129],[90.324805,23.810201],[90.324816,23.810228],[90.3248,23.810293],[90.324773,23.81043]]]}},{"type":"Feature","properties":{"survey":"bds","sheet":"037","dag":"18048","label_bn":"18048","area_sqm":673.9},"geometry":{"type":"Polygon","coordinates":[[[90.325931,23.810432],[90.325923,23.81053],[90.325692,23.810522],[90.325643,23.810519],[90.325389,23.810458],[90.325406,23.810363],[90.325931,23.810432]]]}},{"type":"Feature","properties":{"survey":"bds","sheet":"037","dag":"18038","label_bn":"18038","area_sqm":42.7},"geometry":{"type":"Polygon","coordinates":[[[90.324346,23.810549],[90.324327,23.810555],[90.324301,23.81052],[90.324268,23.810477],[90.324236,23.810434],[90.324248,23.810439],[90.324286,23.810457],[90.324324,23.81049],[90.324346,23.810549]]]}},{"type":"Feature","properties":{"survey":"bds","sheet":"037","dag":"18041","label_bn":"18041","area_sqm":14.3},"geometry":{"type":"Polygon","coordinates":[[[90.324439,23.810539],[90.324406,23.81057],[90.324407,23.810557],[90.3244,23.810531],[90.324463,23.810513],[90.324439,23.810539]]]}},{"type":"Feature","properties":{"survey":"bds","sheet":"037","dag":"18025","label_bn":"18025","area_sqm":1650.4},"geometry":{"type":"Polygon","coordinates":[[[90.322792,23.810287],[90.322732,23.81067],[90.322687,23.810664],[90.322354,23.810597],[90.32242,23.810331],[90.322451,23.810207],[90.322792,23.810287]]]}},{"type":"Feature","properties":{"survey":"bds","sheet":"037","dag":"18029","label_bn":"18029","area_sqm":976.8},"geometry":{"type":"Polygon","coordinates":[[[90.322853,23.81054],[90.322799,23.81069],[90.322732,23.81067],[90.322792,23.810287],[90.322793,23.810287],[90.323046,23.810335],[90.323129,23.810353],[90.323107,23.810518],[90.322983,23.810527],[90.322853,23.81054]]]}},{"type":"Feature","properties":{"survey":"bds","sheet":"037","dag":"18037","label_bn":"18037","area_sqm":703.8},"geometry":{"type":"Polygon","coordinates":[[[90.3239,23.810734],[90.323814,23.810738],[90.323659,23.81072],[90.323602,23.810726],[90.323646,23.810719],[90.323824,23.810694],[90.323915,23.810682],[90.324013,23.810663],[90.324146,23.810634],[90.324249,23.810608],[90.324203,23.810544],[90.324171,23.810508],[90.324123,23.810458],[90.324079,23.810407],[90.324032,23.810364],[90.32398,23.810314],[90.323977,23.81023],[90.323976,23.810152],[90.323982,23.810099],[90.323982,23.810097],[90.324001,23.810102],[90.323993,23.810202],[90.324003,23.810328],[90.324055,23.810348],[90.324236,23.810434],[90.324268,23.810477],[90.324301,23.81052],[90.324327,23.810555],[90.324346,23.810549],[90.324351,23.810562],[90.324338,23.810602],[90.324314,23.810637],[90.32428,23.810663],[90.324201,23.81068],[90.324114,23.810689],[90.323961,23.81072],[90.3239,23.810734]]]}},{"type":"Feature","properties":{"survey":"bds","sheet":"037","dag":"18036","label_bn":"18036","area_sqm":4273.4},"geometry":{"type":"Polygon","coordinates":[[[90.323602,23.810726],[90.323427,23.810742],[90.323402,23.81071],[90.323412,23.810638],[90.32346,23.810425],[90.323498,23.810333],[90.323549,23.810171],[90.323711,23.81004],[90.323773,23.809983],[90.323847,23.810009],[90.323894,23.810039],[90.323966,23.810092],[90.323982,23.810097],[90.323982,23.810099],[90.323976,23.810152],[90.323977,23.81023],[90.32398,23.810314],[90.324032,23.810364],[90.324079,23.810407],[90.324123,23.810458],[90.324171,23.810508],[90.324203,23.810544],[90.324249,23.810608],[90.324146,23.810634],[90.324013,23.810663],[90.323915,23.810682],[90.323824,23.810694],[90.323646,23.810719],[90.323602,23.810726]]]}},{"type":"Feature","properties":{"survey":"bds","sheet":"037","dag":"18032","label_bn":"18032","area_sqm":622.5},"geometry":{"type":"Polygon","coordinates":[[[90.323107,23.810518],[90.323099,23.810743],[90.322932,23.810728],[90.322799,23.81069],[90.322853,23.81054],[90.322983,23.810527],[90.323107,23.810518]]]}},{"type":"Feature","properties":{"survey":"bds","sheet":"037","dag":"18031","label_bn":"18031","area_sqm":409.0},"geometry":{"type":"Polygon","coordinates":[[[90.323234,23.810742],[90.323099,23.810743],[90.323107,23.810518],[90.323283,23.810508],[90.323265,23.810613],[90.323234,23.810742]]]}},{"type":"Feature","properties":{"survey":"bds","sheet":"037","dag":"18001","label_bn":"18001","area_sqm":1879.1},"geometry":{"type":"Polygon","coordinates":[[[90.321471,23.810264],[90.321527,23.810744],[90.321449,23.810731],[90.321325,23.810699],[90.321226,23.81069],[90.321151,23.810688],[90.321082,23.810694],[90.321062,23.810679],[90.321103,23.810462],[90.321134,23.810322],[90.321422,23.810271],[90.321471,23.810264]]]}},{"type":"Feature","properties":{"survey":"bds","sheet":"037","dag":"18030","label_bn":"18030","area_sqm":881.8},"geometry":{"type":"Polygon","coordinates":[[[90.323402,23.81071],[90.323325,23.810747],[90.323234,23.810742],[90.323265,23.810613],[90.323283,23.810508],[90.323107,23.810518],[90.323129,23.810353],[90.323325,23.810391],[90.32346,23.810425],[90.323412,23.810638],[90.323402,23.81071]]]}},{"type":"Feature","properties":{"survey":"bds","sheet":"037","dag":"18069","label_bn":"18069","area_sqm":882.5},"geometry":{"type":"Polygon","coordinates":[[[90.321629,23.810242],[90.321679,23.810769],[90.321527,23.810744],[90.321471,23.810264],[90.321629,23.810242]]]}},{"type":"Feature","properties":{"survey":"bds","sheet":"037","dag":"18044","label_bn":"18044","area_sqm":5001.2},"geometry":{"type":"Polygon","coordinates":[[[90.32503,23.810751],[90.325025,23.810779],[90.324813,23.810765],[90.324552,23.810721],[90.324618,23.81054],[90.324627,23.810445],[90.324695,23.810107],[90.324713,23.810255],[90.324714,23.810331],[90.324714,23.810405],[90.324713,23.810442],[90.324773,23.81043],[90.3248,23.810293],[90.324816,23.810228],[90.324805,23.810201],[90.324753,23.810129],[90.32478,23.810087],[90.325317,23.810117],[90.325302,23.810359],[90.325406,23.810363],[90.325389,23.810458],[90.32531,23.810771],[90.32503,23.810751]]]}},{"type":"Feature","properties":{"survey":"bds","sheet":"037","dag":"18070","label_bn":"18070","area_sqm":3756.6},"geometry":{"type":"Polygon","coordinates":[[[90.322054,23.810534],[90.321958,23.810832],[90.321688,23.810771],[90.321679,23.810769],[90.321629,23.810242],[90.321694,23.810232],[90.32194,23.81019],[90.322071,23.81011],[90.322191,23.81007],[90.322366,23.810077],[90.322477,23.810093],[90.322451,23.810207],[90.32242,23.810331],[90.322359,23.810323],[90.322247,23.81032],[90.322173,23.810329],[90.322132,23.810338],[90.322105,23.810355],[90.322091,23.810382],[90.322054,23.810534]]]}},{"type":"Feature","properties":{"survey":"bds","sheet":"037","dag":"18047","label_bn":"18047","area_sqm":2001.4},"geometry":{"type":"Polygon","coordinates":[[[90.325896,23.810693],[90.32586,23.810866],[90.325701,23.810852],[90.325562,23.810813],[90.32531,23.810771],[90.325389,23.810458],[90.325643,23.810519],[90.325692,23.810522],[90.325923,23.81053],[90.325896,23.810693]]]}},{"type":"Feature","properties":{"survey":"bds","sheet":"037","dag":"18035","label_bn":"18035","area_sqm":42.5},"geometry":{"type":"Polygon","coordinates":[[[90.323363,23.810806],[90.323364,23.810879],[90.323347,23.810842],[90.323334,23.810817],[90.323314,23.810791],[90.323407,23.810747],[90.323423,23.810746],[90.323363,23.810806]]]}},{"type":"Feature","properties":{"survey":"bds","sheet":"037","dag":"18034","label_bn":"18034","area_sqm":223.0},"geometry":{"type":"Polygon","coordinates":[[[90.323364,23.810879],[90.323364,23.810892],[90.32321,23.810877],[90.323234,23.810742],[90.323325,23.810747],[90.323402,23.81071],[90.323427,23.810742],[90.323423,23.810746],[90.323407,23.810747],[90.323314,23.810791],[90.323334,23.810817],[90.323347,23.810842],[90.323364,23.810879]]]}},{"type":"Feature","properties":{"survey":"bds","sheet":"037","dag":"18039","label_bn":"18039","area_sqm":1882.8},"geometry":{"type":"Polygon","coordinates":[[[90.323433,23.81082],[90.323364,23.810892],[90.323364,23.810879],[90.323363,23.810806],[90.323423,23.810746],[90.323427,23.810742],[90.323602,23.810726],[90.323659,23.81072],[90.323814,23.810738],[90.3239,23.810734],[90.323961,23.81072],[90.324114,23.810689],[90.324201,23.81068],[90.32428,23.810663],[90.324314,23.810637],[90.324338,23.810602],[90.324351,23.810562],[90.324346,23.810549],[90.324324,23.81049],[90.324286,23.810457],[90.324248,23.810439],[90.324236,23.810434],[90.324055,23.810348],[90.324003,23.810328],[90.323993,23.810202],[90.324001,23.810102],[90.324095,23.809992],[90.324187,23.809961],[90.324366,23.809931],[90.324484,23.809925],[90.324613,23.809932],[90.324624,23.809933],[90.32478,23.809947],[90.3247,23.810083],[90.324693,23.810077],[90.324625,23.810022],[90.324542,23.809996],[90.324426,23.809988],[90.324349,23.809997],[90.324249,23.810013],[90.324145,23.810044],[90.324134,23.810047],[90.324089,23.810085],[90.324056,23.810159],[90.324055,23.810242],[90.324091,23.810295],[90.324138,23.810334],[90.324179,23.810355],[90.324197,23.810364],[90.324281,23.8104],[90.324376,23.810458],[90.324385,23.810469],[90.3244,23.810531],[90.324407,23.810557],[90.324406,23.81057],[90.324399,23.810634],[90.324371,23.810676],[90.324335,23.810707],[90.324227,23.810746],[90.324034,23.81077],[90.323817,23.810808],[90.323743,23.81079],[90.323521,23.810789],[90.323433,23.81082]]]}},{"type":"Feature","properties":{"survey":"bds","sheet":"037","dag":"18042","label_bn":"18042","area_sqm":3757.7},"geometry":{"type":"Polygon","coordinates":[[[90.324618,23.81054],[90.324552,23.810721],[90.324477,23.810851],[90.324456,23.810922],[90.324236,23.810884],[90.324227,23.810746],[90.324335,23.810707],[90.324371,23.810676],[90.324399,23.810634],[90.324406,23.81057],[90.324439,23.810539],[90.324463,23.810513],[90.3244,23.810531],[90.324385,23.810469],[90.324376,23.810458],[90.324281,23.8104],[90.324197,23.810364],[90.324179,23.810355],[90.324158,23.810325],[90.324116,23.81027],[90.324083,23.810224],[90.32408,23.810211],[90.324082,23.810161],[90.324115,23.810087],[90.324145,23.810044],[90.324249,23.810013],[90.324349,23.809997],[90.324426,23.809988],[90.324542,23.809996],[90.324625,23.810022],[90.324693,23.810077],[90.3247,23.810083],[90.324695,23.810107],[90.324627,23.810445],[90.324618,23.81054]]]}},{"type":"Feature","properties":{"survey":"bds","sheet":"037","dag":"18026","label_bn":"18026","area_sqm":2250.3},"geometry":{"type":"Polygon","coordinates":[[[90.322282,23.810839],[90.322217,23.810991],[90.322108,23.810966],[90.32195,23.810901],[90.321958,23.810832],[90.322054,23.810534],[90.322091,23.810382],[90.322105,23.810355],[90.322132,23.810338],[90.322173,23.810329],[90.322247,23.81032],[90.322359,23.810323],[90.32242,23.810331],[90.322354,23.810597],[90.322316,23.810727],[90.322282,23.810839]]]}},{"type":"Feature","properties":{"survey":"bds","sheet":"037","dag":"18045","label_bn":"18045","area_sqm":1221.6},"geometry":{"type":"Polygon","coordinates":[[[90.324993,23.810975],[90.324984,23.810999],[90.324746,23.810959],[90.324583,23.81094],[90.324456,23.810922],[90.324477,23.810851],[90.324552,23.810721],[90.324813,23.810765],[90.325025,23.810779],[90.324993,23.810975]]]}},{"type":"Feature","properties":{"survey":"bds","sheet":"037","dag":"18046","label_bn":"18046","area_sqm":1792.9},"geometry":{"type":"Polygon","coordinates":[[[90.325662,23.811052],[90.325661,23.811061],[90.324993,23.810975],[90.325025,23.810779],[90.32503,23.810751],[90.32531,23.810771],[90.325562,23.810813],[90.325701,23.810852],[90.325662,23.811052]]]}},{"type":"Feature","properties":{"survey":"bds","sheet":"037","dag":"18027","label_bn":"18027","area_sqm":1716.1},"geometry":{"type":"Polygon","coordinates":[[[90.322645,23.810793],[90.322587,23.811094],[90.322446,23.811063],[90.322217,23.810991],[90.322282,23.810839],[90.322316,23.810727],[90.322354,23.810597],[90.322687,23.810664],[90.322645,23.810793]]]}},{"type":"Feature","properties":{"survey":"bds","sheet":"037","dag":"18028","label_bn":"18028","area_sqm":481.6},"geometry":{"type":"Polygon","coordinates":[[[90.322731,23.810884],[90.32265,23.811107],[90.322587,23.811094],[90.322645,23.810793],[90.322687,23.810664],[90.322732,23.81067],[90.322799,23.81069],[90.322746,23.810838],[90.322731,23.810884]]]}},{"type":"Feature","properties":{"survey":"bds","sheet":"037","dag":"18033","label_bn":"18033","area_sqm":2128.8},"geometry":{"type":"Polygon","coordinates":[[[90.323062,23.811117],[90.323018,23.811191],[90.322832,23.811144],[90.32265,23.811107],[90.322731,23.810884],[90.322746,23.810838],[90.322799,23.81069],[90.322932,23.810728],[90.323099,23.810743],[90.323234,23.810742],[90.32321,23.810877],[90.323156,23.810958],[90.323062,23.811117]]]}}]}