{"type":"FeatureCollection","features":[{"type":"Feature","properties":{"survey":"bds","sheet":"038","dag":"16502","label_bn":"16502","area_sqm":519.0},"geometry":{"type":"Polygon","coordinates":[[[90.326225,23.811308],[90.326361,23.811006],[90.326495,23.811076],[90.326426,23.811222],[90.326377,23.811335],[90.326225,23.811308]]]}},{"type":"Feature","properties":{"survey":"bds","sheet":"038","dag":"16514","label_bn":"16514","area_sqm":850.7},"geometry":{"type":"Polygon","coordinates":[[[90.327277,23.810743],[90.327292,23.810544],[90.32744,23.810563],[90.327505,23.810585],[90.327575,23.81059],[90.327597,23.810654],[90.327662,23.810746],[90.327667,23.810794],[90.32758,23.810797],[90.327474,23.810788],[90.327335,23.810799],[90.327277,23.810743]]]}},{"type":"Feature","properties":{"survey":"bds","sheet":"038","dag":"16525","label_bn":"16525","area_sqm":1015.9},"geometry":{"type":"Polygon","coordinates":[[[90.327659,23.809256],[90.327815,23.809101],[90.328089,23.809446],[90.32803,23.809508],[90.327927,23.809562],[90.327659,23.809256]]]}},{"type":"Feature","properties":{"survey":"bds","sheet":"038","dag":"16511","label_bn":"16511","area_sqm":1262.2},"geometry":{"type":"Polygon","coordinates":[[[90.327927,23.809562],[90.32803,23.809508],[90.328089,23.809446],[90.328281,23.809651],[90.328382,23.809759],[90.328405,23.809784],[90.328409,23.809788],[90.328037,23.80989],[90.327927,23.809562]]]}},{"type":"Feature","properties":{"survey":"bds","sheet":"038","dag":"16510","label_bn":"16510","area_sqm":1271.8},"geometry":{"type":"Polygon","coordinates":[[[90.328037,23.80989],[90.328409,23.809788],[90.328474,23.809857],[90.328639,23.81003],[90.328397,23.810059],[90.328166,23.810081],[90.328102,23.810084],[90.328037,23.80989]]]}},{"type":"Feature","properties":{"survey":"bds","sheet":"038","dag":"16503","label_bn":"16503","area_sqm":1319.2},"geometry":{"type":"Polygon","coordinates":[[[90.326426,23.811222],[90.326495,23.811076],[90.326552,23.810971],[90.326675,23.811005],[90.326786,23.811031],[90.326923,23.811065],[90.326912,23.811124],[90.326909,23.811147],[90.326901,23.811195],[90.326875,23.811336],[90.326734,23.811301],[90.326631,23.811274],[90.326621,23.811271],[90.326549,23.811255],[90.326426,23.811222]]]}},{"type":"Feature","properties":{"survey":"bds","sheet":"038","dag":"16504","label_bn":"16504","area_sqm":1565.2},"geometry":{"type":"Polygon","coordinates":[[[90.326875,23.811336],[90.326901,23.811195],[90.326909,23.811147],[90.326912,23.811124],[90.326923,23.811065],[90.326937,23.81098],[90.327084,23.811019],[90.327313,23.811082],[90.327288,23.811209],[90.327253,23.811432],[90.327079,23.811387],[90.327018,23.811369],[90.326875,23.811336]]]}},{"type":"Feature","properties":{"survey":"bds","sheet":"038","dag":"16506","label_bn":"16506","area_sqm":1620.7},"geometry":{"type":"Polygon","coordinates":[[[90.328407,23.810453],[90.328622,23.810465],[90.328618,23.810707],[90.328617,23.810761],[90.328612,23.810867],[90.328612,23.810873],[90.328633,23.811028],[90.328634,23.811035],[90.328678,23.811134],[90.328598,23.811239],[90.328512,23.811218],[90.328487,23.811204],[90.328478,23.811197],[90.32847,23.811191],[90.328407,23.810453]]]}},{"type":"Feature","properties":{"survey":"bds","sheet":"038","dag":"16507","label_bn":"16507","area_sqm":1674.0},"geometry":{"type":"Polygon","coordinates":[[[90.328186,23.811012],[90.328197,23.810872],[90.32823,23.810443],[90.328232,23.810443],[90.328401,23.810452],[90.328407,23.810453],[90.32847,23.811191],[90.328338,23.811091],[90.328254,23.811051],[90.328186,23.811012]]]}},{"type":"Feature","properties":{"survey":"bds","sheet":"038","dag":"16512","label_bn":"16512","area_sqm":1924.1},"geometry":{"type":"Polygon","coordinates":[[[90.327606,23.810064],[90.327774,23.809572],[90.327927,23.809562],[90.328037,23.80989],[90.328102,23.810084],[90.328054,23.810087],[90.327937,23.810094],[90.327831,23.810088],[90.327639,23.810072],[90.327606,23.810064]]]}},{"type":"Feature","properties":{"survey":"bds","sheet":"038","dag":"16517","label_bn":"16517","area_sqm":2021.5},"geometry":{"type":"Polygon","coordinates":[[[90.325922,23.810032],[90.326061,23.809918],[90.326349,23.809807],[90.326363,23.81014],[90.326321,23.810178],[90.326119,23.810352],[90.326141,23.810357],[90.326129,23.810365],[90.326136,23.810395],[90.325929,23.810371],[90.325923,23.810148],[90.325922,23.810032]]]}},{"type":"Feature","properties":{"survey":"bds","sheet":"038","dag":"16522","label_bn":"16522","area_sqm":2051.1},"geometry":{"type":"Polygon","coordinates":[[[90.32673,23.808979],[90.326802,23.808986],[90.326876,23.808994],[90.326879,23.808994],[90.327363,23.809039],[90.327375,23.80929],[90.326742,23.809301],[90.32673,23.808979]]]}},{"type":"Feature","properties":{"survey":"bds","sheet":"038","dag":"16509","label_bn":"16509","area_sqm":2426.2},"geometry":{"type":"Polygon","coordinates":[[[90.328054,23.810087],[90.328102,23.810084],[90.328166,23.810081],[90.328397,23.810059],[90.328639,23.81003],[90.328621,23.810391],[90.328622,23.810465],[90.328407,23.810453],[90.328401,23.810452],[90.328232,23.810443],[90.32823,23.810443],[90.328103,23.810441],[90.328054,23.810087]]]}},{"type":"Feature","properties":{"survey":"bds","sheet":"038","dag":"16501","label_bn":"16501","area_sqm":2533.8},"geometry":{"type":"Polygon","coordinates":[[[90.325637,23.811179],[90.325661,23.811061],[90.325662,23.811052],[90.325701,23.810852],[90.32586,23.810866],[90.325885,23.810869],[90.325968,23.810881],[90.326022,23.810895],[90.326099,23.810916],[90.326205,23.810945],[90.326209,23.810946],[90.326361,23.811006],[90.326225,23.811308],[90.326184,23.811302],[90.326048,23.811267],[90.325982,23.81125],[90.325951,23.811244],[90.325814,23.811216],[90.325637,23.811179]]]}},{"type":"Feature","properties":{"survey":"bds","sheet":"038","dag":"16526","label_bn":"16526","area_sqm":2642.8},"geometry":{"type":"Polygon","coordinates":[[[90.326119,23.810352],[90.326321,23.810178],[90.326363,23.81014],[90.326349,23.809807],[90.326706,23.809711],[90.326651,23.810208],[90.326539,23.810473],[90.326527,23.810468],[90.326518,23.810465],[90.32625,23.810383],[90.326141,23.810357],[90.326119,23.810352]]]}},{"type":"Feature","properties":{"survey":"bds","sheet":"038","dag":"16508","label_bn":"16508","area_sqm":2984.2},"geometry":{"type":"Polygon","coordinates":[[[90.327575,23.81059],[90.327589,23.81052],[90.327609,23.810477],[90.327673,23.810473],[90.327969,23.810453],[90.328103,23.810441],[90.32823,23.810443],[90.328197,23.810872],[90.328186,23.811012],[90.327975,23.810925],[90.327851,23.810874],[90.327667,23.810794],[90.327662,23.810746],[90.327597,23.810654],[90.327575,23.81059]]]}},{"type":"Feature","properties":{"survey":"bds","sheet":"038","dag":"16523","label_bn":"16523","area_sqm":3121.7},"geometry":{"type":"Polygon","coordinates":[[[90.326876,23.808994],[90.326933,23.808481],[90.327464,23.808529],[90.327411,23.809029],[90.327363,23.809039],[90.326879,23.808994],[90.326876,23.808994]]]}},{"type":"Feature","properties":{"survey":"bds","sheet":"038","dag":"16513","label_bn":"16513","area_sqm":3378.5},"geometry":{"type":"Polygon","coordinates":[[[90.327252,23.810448],[90.327275,23.810417],[90.327356,23.810308],[90.327379,23.810268],[90.327437,23.810183],[90.327533,23.810085],[90.327571,23.810057],[90.327606,23.810064],[90.327639,23.810072],[90.327831,23.810088],[90.327937,23.810094],[90.328054,23.810087],[90.328103,23.810441],[90.327969,23.810453],[90.327673,23.810473],[90.327609,23.810477],[90.327589,23.81052],[90.327575,23.81059],[90.327505,23.810585],[90.32744,23.810563],[90.327292,23.810544],[90.327252,23.810448]]]}},{"type":"Feature","properties":{"survey":"bds","sheet":"038","dag":"16515","label_bn":"16515","area_sqm":3659.3},"geometry":{"type":"Polygon","coordinates":[[[90.326552,23.810971],[90.326605,23.810876],[90.326675,23.810806],[90.326721,23.81077],[90.326742,23.81072],[90.326772,23.810716],[90.326804,23.8106],[90.326743,23.810565],[90.327252,23.810448],[90.327292,23.810544],[90.327277,23.810743],[90.327335,23.810799],[90.327341,23.810884],[90.327313,23.811082],[90.327084,23.811019],[90.326937,23.81098],[90.326923,23.811065],[90.326786,23.811031],[90.326675,23.811005],[90.326552,23.810971]]]}},{"type":"Feature","properties":{"survey":"bds","sheet":"038","dag":"16518","label_bn":"16518","area_sqm":3748.6},"geometry":{"type":"Polygon","coordinates":[[[90.326539,23.810473],[90.326651,23.810208],[90.326706,23.809711],[90.326943,23.809647],[90.326924,23.809711],[90.326894,23.809819],[90.326861,23.810134],[90.327379,23.810268],[90.327356,23.810308],[90.327275,23.810417],[90.327252,23.810448],[90.326743,23.810565],[90.326692,23.810537],[90.326539,23.810473]]]}},{"type":"Feature","properties":{"survey":"bds","sheet":"038","dag":"16516","label_bn":"16516","area_sqm":4874.3},"geometry":{"type":"Polygon","coordinates":[[[90.32586,23.810866],[90.325896,23.810693],[90.325923,23.81053],[90.325931,23.810432],[90.325929,23.810371],[90.326136,23.810395],[90.326129,23.810365],[90.326141,23.810357],[90.32625,23.810383],[90.326518,23.810465],[90.326527,23.810468],[90.326539,23.810473],[90.326692,23.810537],[90.326743,23.810565],[90.326804,23.8106],[90.326772,23.810716],[90.326742,23.81072],[90.326721,23.81077],[90.326675,23.810806],[90.326605,23.810876],[90.326552,23.810971],[90.326495,23.811076],[90.326361,23.811006],[90.326209,23.810946],[90.326205,23.810945],[90.326099,23.810916],[90.326022,23.810895],[90.325968,23.810881],[90.325885,23.810869],[90.32586,23.810866]]]}},{"type":"Feature","properties":{"survey":"bds","sheet":"038","dag":"16519","label_bn":"16519","area_sqm":5092.3},"geometry":{"type":"Polygon","coordinates":[[[90.326861,23.810134],[90.326894,23.809819],[90.326924,23.809711],[90.326943,23.809647],[90.327018,23.809636],[90.327103,23.809618],[90.327774,23.809572],[90.327606,23.810064],[90.327571,23.810057],[90.327533,23.810085],[90.327437,23.810183],[90.327379,23.810268],[90.326861,23.810134]]]}},{"type":"Feature","properties":{"survey":"bds","sheet":"038","dag":"16524","label_bn":"16524","area_sqm":5195.8},"geometry":{"type":"Polygon","coordinates":[[[90.327363,23.809039],[90.327411,23.809029],[90.327464,23.808529],[90.327468,23.808477],[90.327873,23.80848],[90.328076,23.808492],[90.328168,23.808581],[90.328248,23.808669],[90.327815,23.809101],[90.327659,23.809256],[90.327375,23.80929],[90.327363,23.809039]]]}},{"type":"Feature","properties":{"survey":"bds","sheet":"038","dag":"16505","label_bn":"16505","area_sqm":7476.5},"geometry":{"type":"Polygon","coordinates":[[[90.327253,23.811432],[90.327288,23.811209],[90.327313,23.811082],[90.327341,23.810884],[90.327335,23.810799],[90.327474,23.810788],[90.32758,23.810797],[90.327667,23.810794],[90.327851,23.810874],[90.327975,23.810925],[90.328186,23.811012],[90.328254,23.811051],[90.328338,23.811091],[90.32847,23.811191],[90.328478,23.811197],[90.328487,23.811204],[90.328512,23.811218],[90.328598,23.811239],[90.328589,23.811432],[90.32836,23.811452],[90.32818,23.811461],[90.328128,23.811471],[90.328031,23.811472],[90.327896,23.811477],[90.327769,23.811469],[90.327719,23.811466],[90.327584,23.811454],[90.327372,23.811434],[90.327253,23.811432]]]}},{"type":"Feature","properties":{"survey":"bds","sheet":"038","dag":"16521","label_bn":"16521","area_sqm":7500.0},"geometry":{"type":"Polygon","coordinates":[[[90.326077,23.808501],[90.326134,23.808455],[90.326333,23.80841],[90.326353,23.808472],[90.326449,23.80844],[90.32681,23.80847],[90.326869,23.808468],[90.326868,23.808476],[90.326933,23.808481],[90.326876,23.808994],[90.326802,23.808986],[90.32673,23.808979],[90.326742,23.809301],[90.326178,23.809483],[90.326166,23.809446],[90.32614,23.809276],[90.326106,23.809184],[90.326198,23.809103],[90.326164,23.808994],[90.326077,23.808551],[90.326077,23.808501]]]}},{"type":"Feature","properties":{"survey":"bds","sheet":"038","dag":"16520","label_bn":"16520","area_sqm":8220.6},"geometry":{"type":"Polygon","coordinates":[[[90.325679,23.809663],[90.325998,23.809558],[90.326178,23.809483],[90.326742,23.809301],[90.327375,23.80929],[90.327659,23.809256],[90.327927,23.809562],[90.327774,23.809572],[90.327103,23.809618],[90.327018,23.809636],[90.326943,23.809647],[90.326706,23.809711],[90.326349,23.809807],[90.326061,23.809918],[90.325922,23.810032],[90.325679,23.809663]]]}}]}