{"type":"FeatureCollection","features":[{"type":"Feature","properties":{"survey":"bds","sheet":"039","dag":"19011","label_bn":"19011","area_sqm":2341.7},"geometry":{"type":"Polygon","coordinates":[[[90.329163,23.809145],[90.329124,23.809148],[90.329116,23.808811],[90.329338,23.808813],[90.32937,23.808813],[90.329444,23.808795],[90.329637,23.80876],[90.32966,23.808775],[90.329672,23.80879],[90.329679,23.808798],[90.329722,23.808874],[90.329772,23.809042],[90.329788,23.809094],[90.329788,23.809096],[90.329791,23.809105],[90.329789,23.809105],[90.329167,23.809145],[90.329163,23.809145]]]}},{"type":"Feature","properties":{"survey":"bds","sheet":"039","dag":"19039","label_bn":"19039","area_sqm":2537.1},"geometry":{"type":"Polygon","coordinates":[[[90.330574,23.809138],[90.329909,23.809312],[90.329937,23.809194],[90.329938,23.809192],[90.329944,23.809094],[90.329945,23.809085],[90.329901,23.808923],[90.329889,23.808873],[90.32988,23.808835],[90.329861,23.808781],[90.329948,23.808759],[90.329952,23.808757],[90.33002,23.808824],[90.330093,23.808892],[90.330102,23.8089],[90.330129,23.808889],[90.330235,23.808847],[90.330308,23.80885],[90.330325,23.808851],[90.330339,23.808851],[90.330377,23.808866],[90.330427,23.8089],[90.330472,23.808953],[90.330477,23.808965],[90.33055,23.809106],[90.330574,23.809138]]]}},{"type":"Feature","properties":{"survey":"bds","sheet":"039","dag":"19012","label_bn":"19012","area_sqm":7458.3},"geometry":{"type":"Polygon","coordinates":[[[90.328228,23.809293],[90.328089,23.809446],[90.32804,23.809385],[90.327924,23.809239],[90.327867,23.809167],[90.327815,23.809101],[90.327954,23.808963],[90.328246,23.808672],[90.328248,23.808669],[90.328318,23.80862],[90.328336,23.808607],[90.32851,23.808485],[90.328566,23.808485],[90.328726,23.808484],[90.32885,23.808489],[90.328996,23.808495],[90.329129,23.808504],[90.329149,23.808503],[90.329258,23.808498],[90.329264,23.808498],[90.329349,23.808495],[90.329392,23.808494],[90.329493,23.808465],[90.329565,23.808435],[90.329617,23.80867],[90.329637,23.80876],[90.329444,23.808795],[90.32937,23.808813],[90.329338,23.808813],[90.329116,23.808811],[90.329005,23.808801],[90.328833,23.808797],[90.32874,23.808804],[90.328622,23.808825],[90.328541,23.808872],[90.328467,23.808931],[90.328386,23.809024],[90.328332,23.809114],[90.328242,23.809278],[90.328228,23.809293]]]}},{"type":"Feature","properties":{"survey":"bds","sheet":"039","dag":"19013","label_bn":"19013","area_sqm":3461.3},"geometry":{"type":"Polygon","coordinates":[[[90.329497,23.809693],[90.32949,23.809697],[90.329467,23.809683],[90.329449,23.809672],[90.329353,23.809638],[90.329255,23.809609],[90.329175,23.809585],[90.329041,23.809544],[90.329138,23.809227],[90.329163,23.809145],[90.329167,23.809145],[90.329789,23.809105],[90.329788,23.809133],[90.329786,23.809163],[90.329772,23.809233],[90.329746,23.80931],[90.329728,23.809347],[90.329681,23.809441],[90.329674,23.809456],[90.329614,23.809584],[90.32961,23.809591],[90.329583,23.809639],[90.329582,23.809642],[90.329579,23.809644],[90.329543,23.809667],[90.329537,23.809671],[90.329505,23.809688],[90.329504,23.809688],[90.329497,23.809693]]]}},{"type":"Feature","properties":{"survey":"bds","sheet":"039","dag":"19010","label_bn":"19010","area_sqm":6747.5},"geometry":{"type":"Polygon","coordinates":[[[90.328908,23.809735],[90.328897,23.809752],[90.3288,23.809703],[90.328771,23.809689],[90.328658,23.809638],[90.328524,23.809567],[90.32843,23.809501],[90.328401,23.80947],[90.328361,23.809421],[90.328321,23.809363],[90.328242,23.809278],[90.328332,23.809114],[90.328386,23.809024],[90.328467,23.808931],[90.328541,23.808872],[90.328622,23.808825],[90.32874,23.808804],[90.328833,23.808797],[90.329005,23.808801],[90.329116,23.808811],[90.329124,23.809148],[90.329163,23.809145],[90.329138,23.809227],[90.329041,23.809544],[90.329024,23.809566],[90.328985,23.809617],[90.328967,23.809639],[90.328908,23.809735]]]}},{"type":"Feature","properties":{"survey":"bds","sheet":"039","dag":"19014","label_bn":"19014","area_sqm":552.6},"geometry":{"type":"Polygon","coordinates":[[[90.329672,23.809693],[90.329563,23.809772],[90.329526,23.809721],[90.329525,23.809719],[90.3295,23.809704],[90.32949,23.809698],[90.32949,23.809697],[90.329497,23.809693],[90.329504,23.809688],[90.329505,23.809688],[90.329537,23.809671],[90.329543,23.809667],[90.329579,23.809644],[90.329582,23.809642],[90.329583,23.809639],[90.32961,23.809591],[90.329614,23.809584],[90.329674,23.809456],[90.329681,23.809441],[90.329728,23.809347],[90.329746,23.80931],[90.329772,23.809233],[90.329786,23.809163],[90.329788,23.809133],[90.329789,23.809105],[90.329791,23.809105],[90.329802,23.809141],[90.329801,23.809264],[90.329801,23.809272],[90.329775,23.809432],[90.329739,23.80953],[90.329672,23.809693]]]}},{"type":"Feature","properties":{"survey":"bds","sheet":"039","dag":"19038","label_bn":"19038","area_sqm":4551.2},"geometry":{"type":"Polygon","coordinates":[[[90.330223,23.809791],[90.330218,23.809792],[90.330209,23.809792],[90.330175,23.80979],[90.330126,23.809787],[90.330005,23.809757],[90.329959,23.809739],[90.329944,23.809733],[90.329912,23.80972],[90.329814,23.809674],[90.329873,23.809462],[90.329909,23.809312],[90.330574,23.809138],[90.330582,23.809149],[90.330584,23.809152],[90.330611,23.809175],[90.330622,23.809198],[90.330618,23.809216],[90.330543,23.809291],[90.330602,23.809321],[90.330786,23.809456],[90.33082,23.809481],[90.330743,23.809518],[90.330711,23.809539],[90.330708,23.809542],[90.330697,23.809548],[90.330676,23.809563],[90.330676,23.809563],[90.330675,23.809563],[90.330633,23.809569],[90.330563,23.809611],[90.330562,23.809611],[90.33053,23.809637],[90.330505,23.809659],[90.330499,23.809663],[90.330415,23.809717],[90.330341,23.809757],[90.330336,23.80976],[90.33033,23.809761],[90.330223,23.809791]]]}},{"type":"Feature","properties":{"survey":"bds","sheet":"039","dag":"19037","label_bn":"19037","area_sqm":346.7},"geometry":{"type":"Polygon","coordinates":[[[90.330286,23.809824],[90.330251,23.80983],[90.330175,23.809819],[90.330101,23.809802],[90.330001,23.809782],[90.32994,23.809766],[90.329881,23.809743],[90.329791,23.809712],[90.329814,23.809674],[90.329912,23.80972],[90.329944,23.809733],[90.329959,23.809739],[90.330005,23.809757],[90.330126,23.809787],[90.330175,23.80979],[90.330209,23.809792],[90.330218,23.809792],[90.330223,23.809791],[90.33033,23.809761],[90.330336,23.80976],[90.330341,23.809757],[90.330415,23.809717],[90.330499,23.809663],[90.330505,23.809659],[90.33053,23.809637],[90.330562,23.809611],[90.330563,23.809611],[90.330633,23.809569],[90.330675,23.809563],[90.330676,23.809563],[90.330663,23.809571],[90.330635,23.809595],[90.33056,23.809658],[90.330391,23.809774],[90.330286,23.809824]]]}},{"type":"Feature","properties":{"survey":"bds","sheet":"039","dag":"19036","label_bn":"19036","area_sqm":744.3},"geometry":{"type":"Polygon","coordinates":[[[90.33029,23.809865],[90.330201,23.80987],[90.330088,23.809853],[90.330042,23.809848],[90.329946,23.809825],[90.329834,23.80979],[90.329806,23.809781],[90.329746,23.809757],[90.329752,23.809751],[90.329769,23.809734],[90.329791,23.809712],[90.329881,23.809743],[90.32994,23.809766],[90.330001,23.809782],[90.330101,23.809802],[90.330175,23.809819],[90.330251,23.80983],[90.330286,23.809824],[90.330391,23.809774],[90.33056,23.809658],[90.330635,23.809595],[90.330663,23.809571],[90.330676,23.809563],[90.330676,23.809563],[90.330697,23.809548],[90.330708,23.809542],[90.330711,23.809539],[90.330743,23.809518],[90.33082,23.809481],[90.330839,23.809511],[90.330861,23.809548],[90.330865,23.809553],[90.330769,23.809589],[90.330727,23.809615],[90.330636,23.80968],[90.330633,23.809682],[90.330506,23.809752],[90.330365,23.809837],[90.33029,23.809865]]]}},{"type":"Feature","properties":{"survey":"bds","sheet":"039","dag":"19008","label_bn":"19008","area_sqm":1418.8},"geometry":{"type":"Polygon","coordinates":[[[90.329133,23.80993],[90.32913,23.809941],[90.329096,23.809925],[90.328897,23.809832],[90.328897,23.809797],[90.328897,23.80977],[90.328897,23.809752],[90.328908,23.809735],[90.328967,23.809639],[90.328985,23.809617],[90.329024,23.809566],[90.329041,23.809544],[90.329175,23.809585],[90.329255,23.809609],[90.329353,23.809638],[90.329449,23.809672],[90.329467,23.809683],[90.32949,23.809697],[90.329449,23.809722],[90.329378,23.809759],[90.329294,23.809803],[90.329227,23.809839],[90.329144,23.809886],[90.329144,23.809886],[90.329133,23.80993]]]}},{"type":"Feature","properties":{"survey":"bds","sheet":"039","dag":"19007","label_bn":"19007","area_sqm":266.1},"geometry":{"type":"Polygon","coordinates":[[[90.329186,23.809908],[90.329137,23.809945],[90.329131,23.809942],[90.32913,23.809941],[90.329133,23.80993],[90.329144,23.809886],[90.329144,23.809886],[90.329227,23.809839],[90.329294,23.809803],[90.329378,23.809759],[90.329449,23.809722],[90.32949,23.809697],[90.32949,23.809698],[90.3295,23.809704],[90.329525,23.809719],[90.329526,23.809721],[90.329563,23.809772],[90.329547,23.809777],[90.329406,23.809818],[90.329298,23.809833],[90.329232,23.809873],[90.329186,23.809908]]]}},{"type":"Feature","properties":{"survey":"bds","sheet":"039","dag":"19009","label_bn":"19009","area_sqm":2668.9},"geometry":{"type":"Polygon","coordinates":[[[90.328803,23.810009],[90.328639,23.81003],[90.328591,23.80998],[90.328474,23.809857],[90.328281,23.809651],[90.328089,23.809446],[90.328228,23.809293],[90.328242,23.809278],[90.328321,23.809363],[90.328361,23.809421],[90.328401,23.80947],[90.32843,23.809501],[90.328524,23.809567],[90.328658,23.809638],[90.328771,23.809689],[90.3288,23.809703],[90.328897,23.809752],[90.328897,23.80977],[90.328897,23.809797],[90.328897,23.809832],[90.328803,23.810009]]]}},{"type":"Feature","properties":{"survey":"bds","sheet":"039","dag":"19030","label_bn":"19030","area_sqm":449.8},"geometry":{"type":"Polygon","coordinates":[[[90.331075,23.810174],[90.331075,23.810174],[90.331079,23.810169],[90.331088,23.810101],[90.331097,23.810004],[90.331098,23.809991],[90.331096,23.809962],[90.331085,23.809819],[90.331073,23.809793],[90.331033,23.809715],[90.330962,23.809631],[90.330931,23.809609],[90.330862,23.809618],[90.330807,23.809633],[90.330721,23.809656],[90.330671,23.809669],[90.330634,23.809684],[90.330633,23.809682],[90.330636,23.80968],[90.330727,23.809615],[90.330769,23.809589],[90.330865,23.809553],[90.330938,23.809566],[90.330975,23.809585],[90.331004,23.8096],[90.331033,23.809614],[90.3311,23.809664],[90.331117,23.809693],[90.331115,23.809751],[90.331111,23.809979],[90.33111,23.810024],[90.331111,23.810081],[90.331128,23.810169],[90.331075,23.810174]]]}},{"type":"Feature","properties":{"survey":"bds","sheet":"039","dag":"19031","label_bn":"19031","area_sqm":1463.6},"geometry":{"type":"Polygon","coordinates":[[[90.3309,23.810189],[90.330874,23.810192],[90.330872,23.810181],[90.330807,23.809633],[90.330862,23.809618],[90.330931,23.809609],[90.330962,23.809631],[90.331033,23.809715],[90.331073,23.809793],[90.331085,23.809819],[90.331096,23.809962],[90.331098,23.809991],[90.331097,23.810004],[90.331088,23.810101],[90.331079,23.810169],[90.331075,23.810174],[90.331028,23.810178],[90.3309,23.810189]]]}},{"type":"Feature","properties":{"survey":"bds","sheet":"039","dag":"19040","label_bn":"19040","area_sqm":528.6},"geometry":{"type":"Polygon","coordinates":[[[90.330874,23.810192],[90.330794,23.810199],[90.330721,23.809656],[90.330807,23.809633],[90.330872,23.810181],[90.330874,23.810192]]]}},{"type":"Feature","properties":{"survey":"bds","sheet":"039","dag":"19035","label_bn":"19035","area_sqm":3189.9},"geometry":{"type":"Polygon","coordinates":[[[90.330399,23.810175],[90.330102,23.810255],[90.330071,23.810046],[90.330042,23.809848],[90.330088,23.809853],[90.330201,23.80987],[90.33029,23.809865],[90.330365,23.809837],[90.330506,23.809752],[90.330633,23.809682],[90.330634,23.809684],[90.330671,23.809669],[90.330721,23.809656],[90.330794,23.810199],[90.330788,23.810199],[90.330776,23.8102],[90.330569,23.810176],[90.330546,23.810173],[90.330544,23.810137],[90.330399,23.810175]]]}},{"type":"Feature","properties":{"survey":"bds","sheet":"039","dag":"19018","label_bn":"19018","area_sqm":2504.8},"geometry":{"type":"Polygon","coordinates":[[[90.329677,23.810317],[90.32966,23.810318],[90.329652,23.810261],[90.32965,23.81025],[90.329645,23.810217],[90.329601,23.809898],[90.329598,23.809877],[90.32964,23.809836],[90.329737,23.809767],[90.329746,23.809757],[90.329806,23.809781],[90.329834,23.80979],[90.329946,23.809825],[90.330042,23.809848],[90.330071,23.810046],[90.330102,23.810255],[90.330111,23.810284],[90.329859,23.810303],[90.329677,23.810317]]]}},{"type":"Feature","properties":{"survey":"bds","sheet":"039","dag":"19016","label_bn":"19016","area_sqm":173.3},"geometry":{"type":"Polygon","coordinates":[[[90.32921,23.810222],[90.329227,23.81033],[90.329225,23.810325],[90.329189,23.81015],[90.329205,23.80999],[90.329207,23.809988],[90.329258,23.809948],[90.329454,23.809897],[90.329464,23.809895],[90.329531,23.809886],[90.329424,23.809941],[90.329382,23.809954],[90.329238,23.809996],[90.329222,23.810056],[90.329211,23.810132],[90.32921,23.810222]]]}},{"type":"Feature","properties":{"survey":"bds","sheet":"039","dag":"19029","label_bn":"19029","area_sqm":118.8},"geometry":{"type":"Polygon","coordinates":[[[90.331253,23.810302],[90.33134,23.810362],[90.331268,23.810343],[90.331216,23.810314],[90.33113,23.810263],[90.331099,23.810234],[90.331066,23.810185],[90.331066,23.810185],[90.331075,23.810174],[90.331075,23.810174],[90.331128,23.810169],[90.331158,23.810222],[90.331169,23.810236],[90.331173,23.810241],[90.331189,23.810261],[90.331217,23.810291],[90.331253,23.810302]]]}},{"type":"Feature","properties":{"survey":"bds","sheet":"039","dag":"19032","label_bn":"19032","area_sqm":489.9},"geometry":{"type":"Polygon","coordinates":[[[90.330776,23.8102],[90.330727,23.81039],[90.330627,23.810378],[90.330515,23.810361],[90.330513,23.810361],[90.330514,23.810355],[90.330516,23.810345],[90.330544,23.81018],[90.330546,23.810173],[90.330569,23.810176],[90.330776,23.8102]]]}},{"type":"Feature","properties":{"survey":"bds","sheet":"039","dag":"19006","label_bn":"19006","area_sqm":2530.7},"geometry":{"type":"Polygon","coordinates":[[[90.329125,23.810382],[90.329132,23.810414],[90.329095,23.810413],[90.328786,23.810398],[90.328621,23.810391],[90.328639,23.81003],[90.328803,23.810009],[90.328897,23.809832],[90.329096,23.809925],[90.32913,23.809941],[90.329131,23.809942],[90.329137,23.809945],[90.32912,23.809991],[90.329119,23.809993],[90.329099,23.810043],[90.329106,23.810163],[90.329105,23.81019],[90.329115,23.810342],[90.329125,23.810382],[90.329125,23.810382]]]}},{"type":"Feature","properties":{"survey":"bds","sheet":"039","dag":"19005","label_bn":"19005","area_sqm":44.0},"geometry":{"type":"Polygon","coordinates":[[[90.329144,23.810365],[90.329158,23.810416],[90.329133,23.810414],[90.329132,23.810414],[90.329125,23.810382],[90.329125,23.810382],[90.329115,23.810342],[90.329105,23.81019],[90.329106,23.810163],[90.329107,23.810174],[90.329108,23.810192],[90.329144,23.810365]]]}},{"type":"Feature","properties":{"survey":"bds","sheet":"039","dag":"19017","label_bn":"19017","area_sqm":2052.7},"geometry":{"type":"Polygon","coordinates":[[[90.329294,23.810421],[90.329259,23.810424],[90.329227,23.81033],[90.32921,23.810222],[90.329211,23.810132],[90.329222,23.810056],[90.329238,23.809996],[90.329382,23.809954],[90.329424,23.809941],[90.329531,23.809886],[90.329534,23.809885],[90.329562,23.809882],[90.32957,23.809881],[90.329598,23.809877],[90.329601,23.809898],[90.329645,23.810217],[90.32965,23.81025],[90.329652,23.810261],[90.329644,23.810269],[90.329598,23.810317],[90.329563,23.810336],[90.329508,23.810364],[90.329376,23.810415],[90.329307,23.81042],[90.329294,23.810421]]]}},{"type":"Feature","properties":{"survey":"bds","sheet":"039","dag":"19034","label_bn":"19034","area_sqm":1097.5},"geometry":{"type":"Polygon","coordinates":[[[90.330208,23.810445],[90.330195,23.810445],[90.330137,23.810363],[90.330135,23.810355],[90.330111,23.810284],[90.330102,23.810255],[90.330399,23.810175],[90.330544,23.810137],[90.330546,23.810173],[90.330544,23.81018],[90.330516,23.810345],[90.330514,23.810355],[90.330513,23.810361],[90.3305,23.810409],[90.330491,23.810445],[90.330248,23.810445],[90.330208,23.810445]]]}},{"type":"Feature","properties":{"survey":"bds","sheet":"039","dag":"19033","label_bn":"19033","area_sqm":122.1},"geometry":{"type":"Polygon","coordinates":[[[90.330598,23.810477],[90.330598,23.810477],[90.330491,23.810445],[90.3305,23.810409],[90.330513,23.810361],[90.330515,23.810361],[90.330627,23.810378],[90.330598,23.810477]]]}},{"type":"Feature","properties":{"survey":"bds","sheet":"039","dag":"19004","label_bn":"19004","area_sqm":39.2},"geometry":{"type":"Polygon","coordinates":[[[90.32912,23.810618],[90.329119,23.810619],[90.329126,23.810533],[90.329136,23.810437],[90.329132,23.810417],[90.329132,23.810414],[90.329133,23.810414],[90.329158,23.810416],[90.329144,23.810552],[90.32912,23.810618]]]}},{"type":"Feature","properties":{"survey":"bds","sheet":"039","dag":"19028","label_bn":"19028","area_sqm":2896.2},"geometry":{"type":"Polygon","coordinates":[[[90.331011,23.810623],[90.330885,23.810625],[90.330717,23.810565],[90.3306,23.810479],[90.330598,23.810477],[90.330598,23.810477],[90.330627,23.810378],[90.330727,23.81039],[90.330776,23.8102],[90.330788,23.810199],[90.330794,23.810199],[90.330874,23.810192],[90.3309,23.810189],[90.331028,23.810178],[90.331075,23.810174],[90.331066,23.810185],[90.331066,23.810185],[90.331099,23.810234],[90.33113,23.810263],[90.331216,23.810314],[90.331268,23.810343],[90.33134,23.810362],[90.331342,23.810363],[90.331443,23.810432],[90.331481,23.810473],[90.331478,23.810475],[90.331444,23.810497],[90.331324,23.810575],[90.331233,23.810615],[90.33122,23.810621],[90.331011,23.810623]]]}},{"type":"Feature","properties":{"survey":"bds","sheet":"039","dag":"19025","label_bn":"19025","area_sqm":1092.4},"geometry":{"type":"Polygon","coordinates":[[[90.330712,23.810572],[90.330651,23.810655],[90.330641,23.810655],[90.330445,23.810652],[90.330222,23.81065],[90.33022,23.810624],[90.330199,23.810581],[90.330191,23.810564],[90.330185,23.810558],[90.330144,23.810511],[90.330145,23.810511],[90.330158,23.810493],[90.330167,23.810482],[90.330195,23.810445],[90.330208,23.810445],[90.330248,23.810445],[90.330491,23.810445],[90.330598,23.810477],[90.3306,23.810479],[90.330717,23.810565],[90.330712,23.810572]]]}},{"type":"Feature","properties":{"survey":"bds","sheet":"039","dag":"19020","label_bn":"19020","area_sqm":66.4},"geometry":{"type":"Polygon","coordinates":[[[90.329208,23.810793],[90.329207,23.810803],[90.329206,23.810803],[90.329206,23.810802],[90.329185,23.810773],[90.329175,23.810729],[90.329191,23.81066],[90.32923,23.810546],[90.329231,23.810543],[90.329208,23.810793]]]}},{"type":"Feature","properties":{"survey":"bds","sheet":"039","dag":"19019","label_bn":"19019","area_sqm":3612.2},"geometry":{"type":"Polygon","coordinates":[[[90.329264,23.8108],[90.329224,23.810817],[90.329207,23.810803],[90.329208,23.810793],[90.329231,23.810543],[90.329243,23.81045],[90.329244,23.810448],[90.329259,23.810424],[90.329294,23.810421],[90.329307,23.81042],[90.329376,23.810415],[90.329508,23.810364],[90.329563,23.810336],[90.329598,23.810317],[90.329644,23.810269],[90.329652,23.810261],[90.32966,23.810318],[90.329677,23.810317],[90.329859,23.810303],[90.330111,23.810284],[90.330135,23.810355],[90.330137,23.810363],[90.330195,23.810445],[90.330167,23.810482],[90.330158,23.810493],[90.330145,23.810511],[90.330144,23.810511],[90.330144,23.810511],[90.330054,23.810574],[90.329962,23.810637],[90.329961,23.810638],[90.329928,23.810644],[90.329913,23.810646],[90.329869,23.810655],[90.329776,23.810672],[90.329572,23.810695],[90.329455,23.810726],[90.329332,23.810768],[90.329324,23.810772],[90.329309,23.810779],[90.329264,23.8108]]]}},{"type":"Feature","properties":{"survey":"bds","sheet":"039","dag":"19026","label_bn":"19026","area_sqm":975.5},"geometry":{"type":"Polygon","coordinates":[[[90.330578,23.810872],[90.330514,23.810903],[90.330514,23.810903],[90.330446,23.810881],[90.330305,23.810874],[90.330243,23.81087],[90.330222,23.81065],[90.330445,23.810652],[90.330641,23.810655],[90.330651,23.810655],[90.330617,23.810702],[90.330602,23.81081],[90.330594,23.81085],[90.330578,23.810872]]]}},{"type":"Feature","properties":{"survey":"bds","sheet":"039","dag":"19003","label_bn":"19003","area_sqm":26.5},"geometry":{"type":"Polygon","coordinates":[[[90.329168,23.810903],[90.329198,23.810917],[90.329168,23.810905],[90.329121,23.810892],[90.329094,23.810873],[90.329085,23.810861],[90.329098,23.810813],[90.329128,23.81087],[90.329168,23.810903]]]}},{"type":"Feature","properties":{"survey":"bds","sheet":"039","dag":"19024","label_bn":"19024","area_sqm":1016.2},"geometry":{"type":"Polygon","coordinates":[[[90.330092,23.810968],[90.330086,23.810979],[90.330065,23.810937],[90.329945,23.810707],[90.329913,23.810646],[90.329928,23.810644],[90.329961,23.810638],[90.329962,23.810637],[90.330054,23.810574],[90.330144,23.810511],[90.330144,23.810511],[90.330185,23.810558],[90.330191,23.810564],[90.330199,23.810581],[90.33022,23.810624],[90.330222,23.81065],[90.330243,23.81087],[90.330208,23.810895],[90.330163,23.810926],[90.330092,23.810968]]]}},{"type":"Feature","properties":{"survey":"bds","sheet":"039","dag":"19027","label_bn":"19027","area_sqm":1214.3},"geometry":{"type":"Polygon","coordinates":[[[90.330847,23.810944],[90.330528,23.81103],[90.330517,23.810996],[90.330513,23.810984],[90.330514,23.810903],[90.330578,23.810872],[90.330594,23.81085],[90.330602,23.81081],[90.330617,23.810702],[90.330651,23.810655],[90.330712,23.810572],[90.330717,23.810565],[90.330885,23.810625],[90.330885,23.810625],[90.330848,23.810929],[90.330847,23.810944]]]}},{"type":"Feature","properties":{"survey":"bds","sheet":"039","dag":"19015","label_bn":"19015","area_sqm":3435.4},"geometry":{"type":"Polygon","coordinates":[[[90.329424,23.811153],[90.32942,23.811156],[90.32942,23.811153],[90.329416,23.81108],[90.32939,23.811026],[90.329352,23.810991],[90.329264,23.810949],[90.329249,23.810941],[90.329248,23.810941],[90.3292,23.810918],[90.329198,23.810917],[90.329168,23.810903],[90.329128,23.81087],[90.329098,23.810813],[90.329098,23.810813],[90.329093,23.810805],[90.329085,23.810741],[90.329102,23.810667],[90.329119,23.810619],[90.32912,23.810618],[90.329144,23.810552],[90.329158,23.810416],[90.329144,23.810365],[90.329108,23.810192],[90.329107,23.810174],[90.329106,23.810163],[90.329099,23.810043],[90.329119,23.809993],[90.32912,23.809991],[90.329137,23.809945],[90.329186,23.809908],[90.329232,23.809873],[90.329298,23.809833],[90.329406,23.809818],[90.329547,23.809777],[90.329563,23.809772],[90.329672,23.809693],[90.329739,23.80953],[90.329775,23.809432],[90.329801,23.809272],[90.329801,23.809264],[90.329802,23.809141],[90.329791,23.809105],[90.329788,23.809096],[90.329788,23.809094],[90.329772,23.809042],[90.329722,23.808874],[90.329679,23.808798],[90.329712,23.808795],[90.329848,23.808782],[90.329861,23.808781],[90.32988,23.808835],[90.329889,23.808873],[90.329901,23.808923],[90.329945,23.809085],[90.329944,23.809094],[90.329938,23.809192],[90.329937,23.809194],[90.329909,23.809312],[90.329873,23.809462],[90.329814,23.809674],[90.329791,23.809712],[90.329769,23.809734],[90.329752,23.809751],[90.329746,23.809757],[90.329737,23.809767],[90.32964,23.809836],[90.329598,23.809877],[90.32957,23.809881],[90.329562,23.809882],[90.329534,23.809885],[90.329531,23.809886],[90.329464,23.809895],[90.329454,23.809897],[90.329258,23.809948],[90.329207,23.809988],[90.329205,23.80999],[90.329189,23.81015],[90.329225,23.810325],[90.329227,23.81033],[90.329259,23.810424],[90.329244,23.810448],[90.329243,23.81045],[90.329231,23.810543],[90.32923,23.810546],[90.329191,23.81066],[90.329175,23.810729],[90.329185,23.810773],[90.329206,23.810802],[90.329206,23.810803],[90.329207,23.810803],[90.329224,23.810817],[90.329338,23.810885],[90.329426,23.810951],[90.329428,23.810953],[90.329434,23.810958],[90.329441,23.810966],[90.329443,23.810968],[90.329492,23.811031],[90.329497,23.811054],[90.329507,23.811101],[90.329432,23.811148],[90.329424,23.811153]]]}},{"type":"Feature","properties":{"survey":"bds","sheet":"039","dag":"19001","label_bn":"19001","area_sqm":4420.2},"geometry":{"type":"Polygon","coordinates":[[[90.329352,23.811168],[90.329348,23.811178],[90.329314,23.811167],[90.329311,23.811166],[90.329232,23.811139],[90.32906,23.811108],[90.328921,23.811089],[90.328855,23.811089],[90.328792,23.811089],[90.328715,23.811109],[90.328692,23.811124],[90.328678,23.811134],[90.328676,23.811129],[90.328634,23.811035],[90.328612,23.810867],[90.328617,23.810761],[90.328622,23.810465],[90.328621,23.810415],[90.328621,23.810391],[90.328786,23.810398],[90.329095,23.810413],[90.329132,23.810414],[90.329132,23.810417],[90.329136,23.810437],[90.329126,23.810533],[90.329119,23.810619],[90.329102,23.810667],[90.329085,23.810741],[90.329093,23.810805],[90.329098,23.810813],[90.329098,23.810813],[90.329085,23.810861],[90.329094,23.810873],[90.329121,23.810892],[90.329168,23.810905],[90.329198,23.810917],[90.3292,23.810918],[90.329248,23.810941],[90.329249,23.810941],[90.329269,23.810959],[90.329309,23.810997],[90.329363,23.811037],[90.329366,23.811042],[90.329367,23.811043],[90.32937,23.811056],[90.32937,23.811057],[90.32937,23.81106],[90.329367,23.811093],[90.329366,23.811105],[90.329359,23.811141],[90.329356,23.811158],[90.329355,23.811162],[90.329353,23.811166],[90.329352,23.811168]]]}},{"type":"Feature","properties":{"survey":"bds","sheet":"039","dag":"19002","label_bn":"19002","area_sqm":116.9},"geometry":{"type":"Polygon","coordinates":[[[90.32942,23.811156],[90.329372,23.811186],[90.329355,23.811181],[90.329348,23.811178],[90.329352,23.811168],[90.329353,23.811166],[90.329355,23.811162],[90.329356,23.811158],[90.329359,23.811141],[90.329366,23.811105],[90.329367,23.811093],[90.32937,23.81106],[90.32937,23.811057],[90.32937,23.811056],[90.329367,23.811043],[90.329366,23.811042],[90.329363,23.811037],[90.329309,23.810997],[90.329269,23.810959],[90.329249,23.810941],[90.329264,23.810949],[90.329352,23.810991],[90.32939,23.811026],[90.329416,23.81108],[90.32942,23.811153],[90.32942,23.811156]]]}},{"type":"Feature","properties":{"survey":"bds","sheet":"039","dag":"19021","label_bn":"19021","area_sqm":3895.1},"geometry":{"type":"Polygon","coordinates":[[[90.329706,23.811308],[90.329672,23.811313],[90.329635,23.811306],[90.329587,23.81129],[90.329574,23.811284],[90.329544,23.811267],[90.329534,23.811262],[90.32949,23.811235],[90.32949,23.811235],[90.329498,23.81117],[90.329507,23.811101],[90.329497,23.811054],[90.329492,23.811031],[90.329443,23.810968],[90.329441,23.810966],[90.329434,23.810958],[90.329428,23.810953],[90.329426,23.810951],[90.329338,23.810885],[90.329224,23.810817],[90.329264,23.8108],[90.329309,23.810779],[90.329324,23.810772],[90.329332,23.810768],[90.329455,23.810726],[90.329572,23.810695],[90.329776,23.810672],[90.329869,23.810655],[90.329913,23.810646],[90.329945,23.810707],[90.330065,23.810937],[90.330086,23.810979],[90.330053,23.81105],[90.330009,23.811109],[90.32991,23.8112],[90.329907,23.811203],[90.329916,23.811262],[90.329912,23.811273],[90.329905,23.811293],[90.329905,23.811294],[90.329893,23.811293],[90.329869,23.81129],[90.329856,23.811293],[90.329845,23.811282],[90.329814,23.811266],[90.329814,23.811266],[90.329786,23.811263],[90.329765,23.811273],[90.329734,23.8113],[90.329706,23.811308]]]}},{"type":"Feature","properties":{"survey":"bds","sheet":"039","dag":"19022","label_bn":"19022","area_sqm":132.6},"geometry":{"type":"Polygon","coordinates":[[[90.329709,23.811325],[90.329645,23.811339],[90.329625,23.811335],[90.329525,23.811317],[90.329519,23.811303],[90.329498,23.811257],[90.329497,23.811255],[90.329489,23.811238],[90.32949,23.811235],[90.329534,23.811262],[90.329544,23.811267],[90.329574,23.811284],[90.329587,23.81129],[90.329635,23.811306],[90.329672,23.811313],[90.329706,23.811308],[90.329734,23.8113],[90.329765,23.811273],[90.329786,23.811263],[90.329814,23.811266],[90.329814,23.811266],[90.329845,23.811282],[90.329856,23.811293],[90.329856,23.811293],[90.32983,23.811298],[90.329709,23.811325]]]}},{"type":"Feature","properties":{"survey":"bds","sheet":"039","dag":"19023","label_bn":"19023","area_sqm":2484.8},"geometry":{"type":"Polygon","coordinates":[[[90.330578,23.811332],[90.330358,23.811366],[90.330352,23.811322],[90.330351,23.811316],[90.330325,23.811288],[90.330307,23.811279],[90.33021,23.811257],[90.330101,23.811253],[90.330075,23.811258],[90.329999,23.811288],[90.329989,23.811292],[90.32996,23.811303],[90.329948,23.811308],[90.329905,23.811294],[90.329905,23.811293],[90.329912,23.811273],[90.329916,23.811262],[90.329907,23.811203],[90.32991,23.8112],[90.330009,23.811109],[90.330053,23.81105],[90.330086,23.810979],[90.330092,23.810968],[90.330163,23.810926],[90.330208,23.810895],[90.330243,23.81087],[90.330305,23.810874],[90.330446,23.810881],[90.330514,23.810903],[90.330514,23.810903],[90.330513,23.810984],[90.330517,23.810996],[90.330528,23.81103],[90.330593,23.811311],[90.330595,23.81132],[90.330578,23.811332]]]}}]}