{"type":"FeatureCollection","features":[{"type":"Feature","properties":{"survey":"bds","sheet":"040","dag":"19505","label_bn":"19505","area_sqm":232.8},"geometry":{"type":"Polygon","coordinates":[[[90.330981,23.811298],[90.33094,23.811298],[90.330939,23.811298],[90.330931,23.811298],[90.330924,23.811298],[90.330911,23.811298],[90.330906,23.811271],[90.330876,23.811124],[90.330987,23.811112],[90.331011,23.81121],[90.331022,23.811254],[90.331026,23.811274],[90.330981,23.811298]]]}},{"type":"Feature","properties":{"survey":"bds","sheet":"040","dag":"19504","label_bn":"19504","area_sqm":219.1},"geometry":{"type":"Polygon","coordinates":[[[90.330876,23.811124],[90.330906,23.811271],[90.330911,23.811298],[90.330808,23.811299],[90.330801,23.811301],[90.330799,23.811295],[90.330767,23.811135],[90.330874,23.811115],[90.330876,23.811124]]]}},{"type":"Feature","properties":{"survey":"bds","sheet":"040","dag":"19507","label_bn":"19507","area_sqm":361.4},"geometry":{"type":"Polygon","coordinates":[[[90.331134,23.811102],[90.331148,23.811167],[90.331145,23.81117],[90.331139,23.811177],[90.331128,23.81119],[90.331082,23.811244],[90.331041,23.811266],[90.331026,23.811274],[90.331022,23.811254],[90.331011,23.81121],[90.330987,23.811112],[90.330968,23.81103],[90.33111,23.810996],[90.331134,23.811102]]]}},{"type":"Feature","properties":{"survey":"bds","sheet":"040","dag":"19517","label_bn":"19517","area_sqm":22.9},"geometry":{"type":"Polygon","coordinates":[[[90.331857,23.810719],[90.331902,23.810777],[90.33191,23.810787],[90.331939,23.810841],[90.331921,23.810854],[90.331863,23.810731],[90.331857,23.810719]]]}},{"type":"Feature","properties":{"survey":"bds","sheet":"040","dag":"19512","label_bn":"19512","area_sqm":553.4},"geometry":{"type":"Polygon","coordinates":[[[90.331913,23.811002],[90.331944,23.811048],[90.331947,23.811053],[90.331985,23.811109],[90.33199,23.811116],[90.331995,23.811124],[90.332004,23.811137],[90.332005,23.811139],[90.332005,23.811139],[90.332008,23.811143],[90.331906,23.811159],[90.331905,23.811159],[90.331896,23.811161],[90.331888,23.811162],[90.331755,23.811184],[90.331707,23.81116],[90.331702,23.811157],[90.331689,23.811151],[90.331685,23.811115],[90.331685,23.811115],[90.331682,23.81109],[90.331682,23.811088],[90.331678,23.811054],[90.331677,23.811049],[90.331673,23.81101],[90.331893,23.810972],[90.331913,23.811002]]]}},{"type":"Feature","properties":{"survey":"bds","sheet":"040","dag":"19516","label_bn":"19516","area_sqm":31.7},"geometry":{"type":"Polygon","coordinates":[[[90.331921,23.810854],[90.331939,23.810841],[90.331943,23.810848],[90.331946,23.810855],[90.331949,23.810861],[90.331996,23.810961],[90.331988,23.810966],[90.331979,23.810972],[90.331931,23.810875],[90.331925,23.810861],[90.331921,23.810854]]]}},{"type":"Feature","properties":{"survey":"bds","sheet":"040","dag":"19501","label_bn":"19501","area_sqm":398.9},"geometry":{"type":"Polygon","coordinates":[[[90.330799,23.811295],[90.330801,23.811301],[90.330749,23.81131],[90.330733,23.811346],[90.330673,23.81133],[90.330617,23.811323],[90.330595,23.81132],[90.330565,23.811188],[90.330563,23.811183],[90.330718,23.811143],[90.330767,23.811135],[90.330799,23.811295]]]}},{"type":"Feature","properties":{"survey":"bds","sheet":"040","dag":"19508","label_bn":"19508","area_sqm":408.8},"geometry":{"type":"Polygon","coordinates":[[[90.331201,23.811104],[90.331148,23.811167],[90.331134,23.811102],[90.33111,23.810996],[90.331191,23.81098],[90.331345,23.810949],[90.331357,23.811096],[90.331358,23.811103],[90.331362,23.811143],[90.331337,23.811146],[90.331337,23.811146],[90.331333,23.811147],[90.331323,23.811148],[90.331287,23.811154],[90.331287,23.811154],[90.331285,23.811148],[90.331284,23.811146],[90.331284,23.811143],[90.331272,23.811102],[90.331211,23.811099],[90.331205,23.811099],[90.331201,23.811104]]]}},{"type":"Feature","properties":{"survey":"bds","sheet":"040","dag":"19511","label_bn":"19511","area_sqm":4206.4},"geometry":{"type":"Polygon","coordinates":[[[90.331689,23.811151],[90.331625,23.811132],[90.331532,23.811117],[90.331362,23.811143],[90.331358,23.811103],[90.331357,23.811096],[90.331345,23.810949],[90.331335,23.810835],[90.331309,23.810841],[90.331172,23.810872],[90.331145,23.810878],[90.330942,23.810923],[90.330855,23.810943],[90.330847,23.810944],[90.33085,23.810913],[90.330885,23.810625],[90.33122,23.810621],[90.331248,23.810609],[90.331301,23.810585],[90.331324,23.810575],[90.331346,23.810561],[90.331433,23.810504],[90.331478,23.810475],[90.331481,23.810473],[90.331492,23.810482],[90.331522,23.810507],[90.331542,23.810524],[90.331597,23.810566],[90.331656,23.810623],[90.331726,23.810696],[90.331786,23.81077],[90.331807,23.810803],[90.331845,23.810863],[90.331893,23.810972],[90.331673,23.81101],[90.331677,23.811049],[90.331678,23.811054],[90.331682,23.811088],[90.331682,23.81109],[90.331685,23.811115],[90.331685,23.811115],[90.331689,23.811151]]]}},{"type":"Feature","properties":{"survey":"bds","sheet":"040","dag":"19515","label_bn":"19515","area_sqm":74.7},"geometry":{"type":"Polygon","coordinates":[[[90.331979,23.810972],[90.331988,23.810966],[90.331996,23.810961],[90.332002,23.810972],[90.332026,23.811017],[90.332035,23.811033],[90.332048,23.81104],[90.332088,23.811049],[90.332173,23.811085],[90.332205,23.8111],[90.332105,23.811099],[90.33208,23.811089],[90.332041,23.811074],[90.332011,23.811024],[90.331979,23.810972]]]}},{"type":"Feature","properties":{"survey":"bds","sheet":"040","dag":"19523","label_bn":"19523","area_sqm":82.0},"geometry":{"type":"Polygon","coordinates":[[[90.332042,23.810766],[90.332083,23.810737],[90.332157,23.81086],[90.332146,23.810867],[90.332114,23.810887],[90.332042,23.810766]]]}},{"type":"Feature","properties":{"survey":"bds","sheet":"040","dag":"19528","label_bn":"19528","area_sqm":13959.4},"geometry":{"type":"Polygon","coordinates":[[[90.333788,23.810446],[90.333243,23.810761],[90.333291,23.810912],[90.333388,23.811125],[90.333389,23.811127],[90.333395,23.811141],[90.333341,23.811182],[90.333341,23.811182],[90.333297,23.811215],[90.33327,23.811235],[90.333268,23.811237],[90.333216,23.81128],[90.333145,23.811329],[90.333081,23.81135],[90.33308,23.81135],[90.333058,23.811356],[90.332988,23.811375],[90.332983,23.811377],[90.332952,23.81139],[90.332941,23.811394],[90.332896,23.811413],[90.332887,23.811417],[90.332785,23.811317],[90.33271,23.811213],[90.332666,23.811136],[90.332652,23.811112],[90.33264,23.811091],[90.332631,23.811059],[90.332566,23.810838],[90.332559,23.810793],[90.332531,23.810617],[90.332479,23.810531],[90.332469,23.810514],[90.332445,23.810473],[90.332445,23.810472],[90.332446,23.810465],[90.332432,23.810415],[90.332462,23.810344],[90.33249,23.810279],[90.332513,23.810225],[90.332523,23.810231],[90.33253,23.810235],[90.33279,23.810381],[90.332807,23.81039],[90.332837,23.810407],[90.33285,23.810415],[90.332862,23.810381],[90.332866,23.810371],[90.333055,23.809831],[90.33308,23.809758],[90.333081,23.809757],[90.333171,23.809788],[90.333174,23.809789],[90.333257,23.809818],[90.333276,23.809825],[90.3333,23.809835],[90.333329,23.809846],[90.333514,23.809919],[90.333562,23.809955],[90.333563,23.809956],[90.333566,23.80996],[90.333636,23.810034],[90.33364,23.810038],[90.333653,23.810051],[90.3337,23.8101],[90.333803,23.810164],[90.33383,23.810219],[90.333887,23.810382],[90.333889,23.810387],[90.333788,23.810446]]]}},{"type":"Feature","properties":{"survey":"bds","sheet":"040","dag":"19520","label_bn":"19520","area_sqm":122.3},"geometry":{"type":"Polygon","coordinates":[[[90.332299,23.81058],[90.332355,23.810539],[90.332433,23.810674],[90.332394,23.810703],[90.332377,23.810714],[90.332299,23.81058]]]}},{"type":"Feature","properties":{"survey":"bds","sheet":"040","dag":"19513","label_bn":"19513","area_sqm":2812.5},"geometry":{"type":"Polygon","coordinates":[[[90.332415,23.811365],[90.332417,23.811367],[90.332422,23.811377],[90.332445,23.811417],[90.332292,23.811505],[90.332225,23.811502],[90.332194,23.811501],[90.332189,23.811499],[90.332101,23.811464],[90.331938,23.81142],[90.331893,23.811411],[90.331864,23.811394],[90.331797,23.811372],[90.331751,23.811355],[90.331724,23.81136],[90.331682,23.811323],[90.331643,23.811307],[90.331596,23.811296],[90.331551,23.811283],[90.331487,23.81127],[90.331415,23.811268],[90.33126,23.811269],[90.331258,23.811208],[90.33126,23.81116],[90.331287,23.811154],[90.331287,23.811154],[90.331323,23.811148],[90.331333,23.811147],[90.331337,23.811146],[90.331337,23.811146],[90.331362,23.811143],[90.331532,23.811117],[90.331625,23.811132],[90.331689,23.811151],[90.331702,23.811157],[90.331707,23.81116],[90.331755,23.811184],[90.331888,23.811162],[90.331896,23.811161],[90.331905,23.811159],[90.331906,23.811159],[90.332008,23.811143],[90.332016,23.811144],[90.332016,23.811144],[90.332021,23.811145],[90.332031,23.811147],[90.332085,23.811158],[90.332164,23.811174],[90.332232,23.811184],[90.332243,23.811186],[90.332268,23.81119],[90.332326,23.811223],[90.332328,23.811225],[90.332329,23.811227],[90.332359,23.811271],[90.332373,23.811291],[90.332375,23.811294],[90.332375,23.811294],[90.332405,23.811347],[90.332415,23.811365]]]}},{"type":"Feature","properties":{"survey":"bds","sheet":"040","dag":"19522","label_bn":"19522","area_sqm":203.2},"geometry":{"type":"Polygon","coordinates":[[[90.332083,23.810737],[90.332182,23.810664],[90.332259,23.81079],[90.332255,23.810793],[90.332164,23.810855],[90.332157,23.81086],[90.332083,23.810737]]]}},{"type":"Feature","properties":{"survey":"bds","sheet":"040","dag":"19519","label_bn":"19519","area_sqm":203.6},"geometry":{"type":"Polygon","coordinates":[[[90.332355,23.810539],[90.332417,23.810493],[90.332445,23.810473],[90.332469,23.810514],[90.332479,23.810531],[90.332531,23.810617],[90.332502,23.810633],[90.33245,23.810661],[90.332433,23.810674],[90.332355,23.810539]]]}},{"type":"Feature","properties":{"survey":"bds","sheet":"040","dag":"19510","label_bn":"19510","area_sqm":203.8},"geometry":{"type":"Polygon","coordinates":[[[90.331172,23.810872],[90.331309,23.810841],[90.331335,23.810835],[90.331345,23.810949],[90.331191,23.81098],[90.331172,23.810872]]]}},{"type":"Feature","properties":{"survey":"bds","sheet":"040","dag":"19524","label_bn":"19524","area_sqm":204.4},"geometry":{"type":"Polygon","coordinates":[[[90.331939,23.810841],[90.332042,23.810766],[90.332114,23.810887],[90.332103,23.810894],[90.3321,23.810896],[90.332077,23.810911],[90.33203,23.81094],[90.332014,23.81095],[90.331997,23.810961],[90.331996,23.810961],[90.331949,23.810861],[90.331946,23.810855],[90.331943,23.810848],[90.331939,23.810841]]]}},{"type":"Feature","properties":{"survey":"bds","sheet":"040","dag":"19506","label_bn":"19506","area_sqm":208.6},"geometry":{"type":"Polygon","coordinates":[[[90.330855,23.810943],[90.330942,23.810923],[90.330968,23.81103],[90.330987,23.811112],[90.330876,23.811124],[90.330874,23.811115],[90.330881,23.811114],[90.330855,23.810943]]]}},{"type":"Feature","properties":{"survey":"bds","sheet":"040","dag":"19521","label_bn":"19521","area_sqm":243.8},"geometry":{"type":"Polygon","coordinates":[[[90.332182,23.810664],[90.332299,23.81058],[90.332377,23.810714],[90.332377,23.810715],[90.332322,23.81075],[90.332263,23.810788],[90.332259,23.81079],[90.332182,23.810664]]]}},{"type":"Feature","properties":{"survey":"bds","sheet":"040","dag":"19536","label_bn":"19536","area_sqm":31437.8},"geometry":{"type":"Polygon","coordinates":[[[90.33253,23.809655],[90.332456,23.809781],[90.3324,23.809877],[90.332362,23.809988],[90.332348,23.810027],[90.332322,23.810086],[90.332309,23.810138],[90.332288,23.810175],[90.33227,23.810195],[90.33227,23.810195],[90.332223,23.810229],[90.332219,23.810231],[90.33221,23.810241],[90.332192,23.81026],[90.332173,23.810262],[90.332167,23.810263],[90.33214,23.810257],[90.33195,23.810134],[90.331922,23.810114],[90.331827,23.810044],[90.331851,23.810013],[90.331877,23.809978],[90.331849,23.809971],[90.331847,23.809971],[90.331749,23.809948],[90.331637,23.809922],[90.331532,23.809897],[90.331533,23.809894],[90.331543,23.809859],[90.331568,23.809778],[90.331483,23.809759],[90.331445,23.809751],[90.331338,23.809727],[90.331256,23.809695],[90.331255,23.809695],[90.331209,23.809681],[90.331189,23.809644],[90.331176,23.809622],[90.33117,23.809618],[90.331163,23.809614],[90.331046,23.809549],[90.330971,23.809507],[90.330903,23.809487],[90.33082,23.809481],[90.330811,23.809475],[90.330627,23.809339],[90.330602,23.809321],[90.330543,23.809291],[90.330618,23.809216],[90.330622,23.809198],[90.330611,23.809175],[90.330584,23.809152],[90.330563,23.809124],[90.330563,23.809123],[90.33056,23.80912],[90.33055,23.809106],[90.330477,23.808965],[90.330672,23.808362],[90.330672,23.80836],[90.330753,23.808364],[90.330754,23.808364],[90.330783,23.808366],[90.330811,23.808368],[90.330864,23.808381],[90.330899,23.808417],[90.330924,23.808447],[90.330943,23.80847],[90.330998,23.808495],[90.331012,23.808501],[90.331055,23.808521],[90.33106,23.808523],[90.33108,23.808532],[90.331121,23.808551],[90.331123,23.808551],[90.331126,23.808552],[90.331176,23.808563],[90.331182,23.808564],[90.331268,23.808583],[90.33129,23.808588],[90.331295,23.808589],[90.331333,23.808598],[90.331362,23.808587],[90.331418,23.808566],[90.331419,23.808565],[90.331477,23.808544],[90.331488,23.808547],[90.331593,23.808575],[90.331697,23.808667],[90.331703,23.808672],[90.331771,23.808744],[90.331788,23.808753],[90.33179,23.808754],[90.331825,23.808774],[90.331876,23.808802],[90.332068,23.808846],[90.332094,23.808854],[90.332139,23.808868],[90.332241,23.808893],[90.332389,23.808905],[90.332465,23.808912],[90.332478,23.808911],[90.332496,23.808909],[90.332544,23.808905],[90.332626,23.808871],[90.332708,23.808849],[90.332778,23.80882],[90.332845,23.808812],[90.33285,23.808812],[90.332897,23.808813],[90.332985,23.808814],[90.333005,23.808814],[90.333024,23.808814],[90.333067,23.808941],[90.33311,23.808954],[90.333133,23.808961],[90.333197,23.809101],[90.333217,23.809215],[90.333215,23.809256],[90.333213,23.809282],[90.333181,23.809337],[90.333158,23.809378],[90.333147,23.809397],[90.332954,23.809676],[90.332934,23.809706],[90.332904,23.809696],[90.332843,23.809674],[90.332839,23.809673],[90.332817,23.809665],[90.332803,23.809701],[90.332803,23.809702],[90.332798,23.809715],[90.332794,23.809725],[90.332756,23.809742],[90.332531,23.809653],[90.33253,23.809655]]]}},{"type":"Feature","properties":{"survey":"bds","sheet":"040","dag":"19534","label_bn":"19534","area_sqm":172.2},"geometry":{"type":"Polygon","coordinates":[[[90.331256,23.809698],[90.331196,23.810121],[90.331179,23.81006],[90.331184,23.80998],[90.331185,23.809924],[90.331187,23.809911],[90.331198,23.809819],[90.331208,23.80969],[90.331209,23.809681],[90.331255,23.809695],[90.331256,23.809695],[90.331256,23.809698]]]}},{"type":"Feature","properties":{"survey":"bds","sheet":"040","dag":"19502","label_bn":"19502","area_sqm":284.7},"geometry":{"type":"Polygon","coordinates":[[[90.330528,23.81103],[90.33068,23.810989],[90.330718,23.811143],[90.330563,23.811183],[90.330528,23.81103]]]}},{"type":"Feature","properties":{"survey":"bds","sheet":"040","dag":"19509","label_bn":"19509","area_sqm":286.9},"geometry":{"type":"Polygon","coordinates":[[[90.330942,23.810923],[90.331145,23.810878],[90.331172,23.810872],[90.331191,23.81098],[90.33111,23.810996],[90.330968,23.81103],[90.330942,23.810923]]]}},{"type":"Feature","properties":{"survey":"bds","sheet":"040","dag":"19503","label_bn":"19503","area_sqm":325.4},"geometry":{"type":"Polygon","coordinates":[[[90.33068,23.810989],[90.330686,23.810988],[90.330687,23.810987],[90.330847,23.810944],[90.330855,23.810943],[90.330881,23.811114],[90.330874,23.811115],[90.330767,23.811135],[90.330718,23.811143],[90.33068,23.810989]]]}},{"type":"Feature","properties":{"survey":"bds","sheet":"040","dag":"19526","label_bn":"19526","area_sqm":490.4},"geometry":{"type":"Polygon","coordinates":[[[90.332322,23.81075],[90.332377,23.810715],[90.332377,23.810714],[90.332394,23.810703],[90.332433,23.810674],[90.33245,23.810661],[90.332502,23.810633],[90.332531,23.810617],[90.332559,23.810793],[90.332566,23.810838],[90.332479,23.810886],[90.332442,23.810895],[90.332389,23.810905],[90.332389,23.810904],[90.332389,23.810903],[90.332322,23.81075]]]}},{"type":"Feature","properties":{"survey":"bds","sheet":"040","dag":"19533","label_bn":"19533","area_sqm":564.2},"geometry":{"type":"Polygon","coordinates":[[[90.331241,23.809995],[90.331327,23.810028],[90.331495,23.810135],[90.331503,23.81014],[90.331464,23.810183],[90.331408,23.810246],[90.331406,23.810248],[90.331398,23.810253],[90.331392,23.810257],[90.331368,23.810273],[90.331336,23.810258],[90.331291,23.810236],[90.331264,23.810211],[90.331232,23.810182],[90.33122,23.81017],[90.331196,23.810121],[90.331216,23.809985],[90.331241,23.809995]]]}},{"type":"Feature","properties":{"survey":"bds","sheet":"040","dag":"19525","label_bn":"19525","area_sqm":788.0},"geometry":{"type":"Polygon","coordinates":[[[90.331996,23.810961],[90.331997,23.810961],[90.332014,23.81095],[90.33203,23.81094],[90.332077,23.810911],[90.3321,23.810896],[90.332103,23.810894],[90.332114,23.810887],[90.332146,23.810867],[90.332157,23.81086],[90.332164,23.810855],[90.332255,23.810793],[90.332259,23.81079],[90.332263,23.810788],[90.332322,23.81075],[90.332389,23.810903],[90.332389,23.810904],[90.332389,23.810905],[90.332387,23.810906],[90.332384,23.810906],[90.332322,23.810927],[90.332312,23.810946],[90.332316,23.810962],[90.332327,23.810998],[90.332328,23.811001],[90.332285,23.811033],[90.332255,23.811058],[90.332236,23.811073],[90.332235,23.811074],[90.332223,23.8111],[90.332205,23.8111],[90.332173,23.811085],[90.332088,23.811049],[90.332048,23.81104],[90.332035,23.811033],[90.332026,23.811017],[90.332002,23.810972],[90.331996,23.810961]]]}},{"type":"Feature","properties":{"survey":"bds","sheet":"040","dag":"19532","label_bn":"19532","area_sqm":3684.8},"geometry":{"type":"Polygon","coordinates":[[[90.3322,23.810273],[90.332282,23.810413],[90.332291,23.81043],[90.332259,23.810447],[90.332236,23.810459],[90.332066,23.81055],[90.331969,23.810616],[90.331919,23.810662],[90.331896,23.810683],[90.331884,23.810694],[90.331859,23.810717],[90.331857,23.810719],[90.331848,23.81071],[90.331683,23.810549],[90.331645,23.810512],[90.33163,23.810497],[90.331539,23.810409],[90.331462,23.810347],[90.331383,23.810285],[90.331381,23.810283],[90.331368,23.810273],[90.331392,23.810257],[90.331398,23.810253],[90.331406,23.810248],[90.331408,23.810246],[90.331464,23.810183],[90.331503,23.81014],[90.33167,23.81009],[90.331685,23.810085],[90.331812,23.810048],[90.331827,23.810044],[90.331922,23.810114],[90.33195,23.810134],[90.33214,23.810257],[90.332167,23.810263],[90.332173,23.810262],[90.332192,23.81026],[90.3322,23.810273]]]}},{"type":"Feature","properties":{"survey":"bds","sheet":"040","dag":"19527","label_bn":"19527","area_sqm":936.2},"geometry":{"type":"Polygon","coordinates":[[[90.332223,23.8111],[90.332235,23.811074],[90.332236,23.811073],[90.332255,23.811058],[90.332285,23.811033],[90.332328,23.811001],[90.332327,23.810998],[90.332316,23.810962],[90.332312,23.810946],[90.332322,23.810927],[90.332384,23.810906],[90.332387,23.810906],[90.332389,23.810905],[90.332442,23.810895],[90.332479,23.810886],[90.332566,23.810838],[90.332631,23.811059],[90.33264,23.811091],[90.332579,23.811096],[90.332539,23.8111],[90.332519,23.811101],[90.332518,23.811101],[90.332468,23.811163],[90.332455,23.811179],[90.332421,23.811222],[90.332418,23.811225],[90.332396,23.811203],[90.332359,23.811166],[90.332317,23.811138],[90.33224,23.811107],[90.332223,23.8111]]]}},{"type":"Feature","properties":{"survey":"bds","sheet":"040","dag":"19518","label_bn":"19518","area_sqm":939.4},"geometry":{"type":"Polygon","coordinates":[[[90.331857,23.810719],[90.331859,23.810717],[90.331884,23.810694],[90.331896,23.810683],[90.331919,23.810662],[90.331969,23.810616],[90.332066,23.81055],[90.332236,23.810459],[90.332259,23.810447],[90.332291,23.81043],[90.332372,23.81047],[90.332417,23.810493],[90.332355,23.810539],[90.332299,23.81058],[90.332182,23.810664],[90.332083,23.810737],[90.332042,23.810766],[90.331939,23.810841],[90.33191,23.810787],[90.331902,23.810777],[90.331857,23.810719]]]}},{"type":"Feature","properties":{"survey":"bds","sheet":"040","dag":"19529","label_bn":"19529","area_sqm":1356.2},"geometry":{"type":"Polygon","coordinates":[[[90.332934,23.809706],[90.332954,23.809676],[90.333147,23.809397],[90.333275,23.809389],[90.333409,23.809366],[90.333378,23.809509],[90.33328,23.809724],[90.333268,23.809771],[90.333257,23.809818],[90.333174,23.809789],[90.333171,23.809788],[90.333081,23.809757],[90.333076,23.809755],[90.332996,23.809727],[90.33298,23.809722],[90.332934,23.809706]]]}},{"type":"Feature","properties":{"survey":"bds","sheet":"040","dag":"19535","label_bn":"19535","area_sqm":1682.8},"geometry":{"type":"Polygon","coordinates":[[[90.331338,23.809727],[90.331445,23.809751],[90.331483,23.809759],[90.331568,23.809778],[90.331543,23.809859],[90.331533,23.809894],[90.331532,23.809897],[90.331637,23.809922],[90.331749,23.809948],[90.331847,23.809971],[90.331849,23.809971],[90.331877,23.809978],[90.331851,23.810013],[90.331827,23.810044],[90.331812,23.810048],[90.331685,23.810085],[90.33167,23.81009],[90.331503,23.81014],[90.331495,23.810135],[90.331327,23.810028],[90.331241,23.809995],[90.331216,23.809985],[90.331256,23.809698],[90.331256,23.809695],[90.331338,23.809727]]]}},{"type":"Feature","properties":{"survey":"bds","sheet":"040","dag":"19514","label_bn":"19514","area_sqm":2335.2},"geometry":{"type":"Polygon","coordinates":[[[90.33082,23.809481],[90.330903,23.809487],[90.330971,23.809507],[90.331046,23.809549],[90.331163,23.809614],[90.33117,23.809618],[90.331176,23.809622],[90.331189,23.809644],[90.331209,23.809681],[90.331208,23.80969],[90.331198,23.809819],[90.331187,23.809911],[90.331185,23.809924],[90.331184,23.80998],[90.331179,23.81006],[90.331196,23.810121],[90.33122,23.81017],[90.331232,23.810182],[90.331264,23.810211],[90.331291,23.810236],[90.331336,23.810258],[90.331368,23.810273],[90.331381,23.810283],[90.331383,23.810285],[90.331462,23.810347],[90.331539,23.810409],[90.33163,23.810497],[90.331645,23.810512],[90.331683,23.810549],[90.331848,23.81071],[90.331857,23.810719],[90.331863,23.810731],[90.331921,23.810854],[90.331925,23.810861],[90.331931,23.810875],[90.331979,23.810972],[90.332011,23.811024],[90.332041,23.811074],[90.33208,23.811089],[90.332105,23.811099],[90.332205,23.8111],[90.332223,23.8111],[90.33224,23.811107],[90.332317,23.811138],[90.332359,23.811166],[90.332396,23.811203],[90.332418,23.811225],[90.332422,23.811233],[90.332426,23.811242],[90.332435,23.81126],[90.332459,23.811308],[90.33246,23.811309],[90.332463,23.811316],[90.332468,23.811326],[90.332498,23.811387],[90.332464,23.811406],[90.332464,23.811407],[90.332464,23.811407],[90.332445,23.811417],[90.332422,23.811377],[90.332417,23.811367],[90.332415,23.811365],[90.332405,23.811347],[90.332375,23.811294],[90.332375,23.811294],[90.332373,23.811291],[90.332359,23.811271],[90.332329,23.811227],[90.332328,23.811225],[90.332326,23.811223],[90.332268,23.81119],[90.332243,23.811186],[90.332232,23.811184],[90.332164,23.811174],[90.332085,23.811158],[90.332031,23.811147],[90.332021,23.811145],[90.332016,23.811144],[90.332016,23.811144],[90.332008,23.811143],[90.332005,23.811139],[90.332005,23.811139],[90.332004,23.811137],[90.331995,23.811124],[90.33199,23.811116],[90.331985,23.811109],[90.331947,23.811053],[90.331944,23.811048],[90.331913,23.811002],[90.331893,23.810972],[90.331845,23.810863],[90.331807,23.810803],[90.331786,23.81077],[90.331726,23.810696],[90.331656,23.810623],[90.331597,23.810566],[90.331542,23.810524],[90.331522,23.810507],[90.331492,23.810482],[90.331481,23.810473],[90.331481,23.810472],[90.331443,23.810432],[90.331253,23.810302],[90.331233,23.810296],[90.331231,23.810296],[90.331217,23.810291],[90.331189,23.810261],[90.331158,23.810222],[90.331128,23.810169],[90.331111,23.810081],[90.33111,23.810024],[90.33111,23.809998],[90.331111,23.809979],[90.331115,23.809771],[90.331116,23.809698],[90.331117,23.809693],[90.331108,23.809678],[90.3311,23.809664],[90.331042,23.809621],[90.331033,23.809614],[90.330938,23.809566],[90.330865,23.809553],[90.330858,23.809543],[90.330848,23.809527],[90.330847,23.809525],[90.330831,23.809499],[90.330824,23.809486],[90.33082,23.809481]]]}},{"type":"Feature","properties":{"survey":"bds","sheet":"040","dag":"19530","label_bn":"19530","area_sqm":2351.6},"geometry":{"type":"Polygon","coordinates":[[[90.332513,23.810225],[90.332548,23.810178],[90.332573,23.81012],[90.332615,23.81005],[90.332695,23.809948],[90.332706,23.809934],[90.332768,23.809852],[90.332796,23.809791],[90.332822,23.809734],[90.332794,23.809725],[90.332798,23.809715],[90.332803,23.809702],[90.332803,23.809701],[90.332817,23.809665],[90.332839,23.809673],[90.332843,23.809674],[90.332904,23.809696],[90.332934,23.809706],[90.33298,23.809722],[90.332996,23.809727],[90.333076,23.809755],[90.333081,23.809757],[90.33308,23.809758],[90.333055,23.809831],[90.332866,23.810371],[90.332862,23.810381],[90.33285,23.810415],[90.332837,23.810407],[90.332807,23.81039],[90.33279,23.810381],[90.33253,23.810235],[90.332523,23.810231],[90.332513,23.810225]]]}},{"type":"Feature","properties":{"survey":"bds","sheet":"040","dag":"19531","label_bn":"19531","area_sqm":2424.8},"geometry":{"type":"Polygon","coordinates":[[[90.332192,23.81026],[90.33221,23.810241],[90.332219,23.810231],[90.332223,23.810229],[90.33227,23.810195],[90.33227,23.810195],[90.332288,23.810175],[90.332309,23.810138],[90.332322,23.810086],[90.332348,23.810027],[90.332362,23.809988],[90.3324,23.809877],[90.332456,23.809781],[90.33253,23.809655],[90.332531,23.809653],[90.332756,23.809742],[90.332794,23.809725],[90.332822,23.809734],[90.332796,23.809791],[90.332768,23.809852],[90.332706,23.809934],[90.332695,23.809948],[90.332615,23.81005],[90.332573,23.81012],[90.332548,23.810178],[90.332513,23.810225],[90.33249,23.810279],[90.332462,23.810344],[90.332432,23.810415],[90.332446,23.810465],[90.332445,23.810472],[90.332445,23.810473],[90.332417,23.810493],[90.332372,23.81047],[90.332291,23.81043],[90.332282,23.810413],[90.3322,23.810273],[90.332192,23.81026]]]}}]}