{"type":"FeatureCollection","features":[{"type":"Feature","properties":{"survey":"bds","sheet":"041","dag":"20048","label_bn":"20048","area_sqm":119.6},"geometry":{"type":"Polygon","coordinates":[[[90.334757,23.810985],[90.334786,23.81094],[90.33479,23.810936],[90.334802,23.810947],[90.334822,23.810969],[90.334848,23.811092],[90.334841,23.811123],[90.334831,23.811153],[90.334781,23.811072],[90.334757,23.810985]]]}},{"type":"Feature","properties":{"survey":"bds","sheet":"041","dag":"20006","label_bn":"20006","area_sqm":141.4},"geometry":{"type":"Polygon","coordinates":[[[90.334273,23.810551],[90.33443,23.810551],[90.334423,23.810646],[90.334296,23.810633],[90.334273,23.810551]]]}},{"type":"Feature","properties":{"survey":"bds","sheet":"041","dag":"20007","label_bn":"20007","area_sqm":142.9},"geometry":{"type":"Polygon","coordinates":[[[90.334296,23.810633],[90.334423,23.810646],[90.334411,23.810794],[90.334395,23.810786],[90.334319,23.810717],[90.334296,23.810633]]]}},{"type":"Feature","properties":{"survey":"bds","sheet":"041","dag":"20028","label_bn":"20028","area_sqm":156.8},"geometry":{"type":"Polygon","coordinates":[[[90.33344,23.808872],[90.333553,23.808891],[90.333561,23.809014],[90.333449,23.808997],[90.33344,23.808872]]]}},{"type":"Feature","properties":{"survey":"bds","sheet":"041","dag":"20018","label_bn":"20018","area_sqm":162.3},"geometry":{"type":"Polygon","coordinates":[[[90.333515,23.809773],[90.333557,23.809643],[90.333654,23.809681],[90.33361,23.809814],[90.333515,23.809773]]]}},{"type":"Feature","properties":{"survey":"bds","sheet":"041","dag":"20041","label_bn":"20041","area_sqm":162.7},"geometry":{"type":"Polygon","coordinates":[[[90.335076,23.809862],[90.335091,23.80986],[90.335183,23.809852],[90.335203,23.809851],[90.335264,23.809955],[90.335127,23.809965],[90.335076,23.809862]]]}},{"type":"Feature","properties":{"survey":"bds","sheet":"041","dag":"20017","label_bn":"20017","area_sqm":162.8},"geometry":{"type":"Polygon","coordinates":[[[90.333472,23.809903],[90.333515,23.809773],[90.33361,23.809814],[90.333563,23.809956],[90.333514,23.809919],[90.333472,23.809903]]]}},{"type":"Feature","properties":{"survey":"bds","sheet":"041","dag":"20047","label_bn":"20047","area_sqm":185.8},"geometry":{"type":"Polygon","coordinates":[[[90.334554,23.810926],[90.334565,23.810885],[90.334596,23.810887],[90.334605,23.810893],[90.334795,23.81093],[90.33479,23.810936],[90.334786,23.81094],[90.334757,23.810985],[90.334726,23.810995],[90.334639,23.811],[90.33462,23.810983],[90.334613,23.810956],[90.334554,23.810926]]]}},{"type":"Feature","properties":{"survey":"bds","sheet":"041","dag":"20045","label_bn":"20045","area_sqm":201.3},"geometry":{"type":"Polygon","coordinates":[[[90.334591,23.810228],[90.334736,23.810193],[90.334745,23.810317],[90.334599,23.810345],[90.334597,23.810317],[90.334591,23.810228]]]}},{"type":"Feature","properties":{"survey":"bds","sheet":"041","dag":"20025","label_bn":"20025","area_sqm":202.7},"geometry":{"type":"Polygon","coordinates":[[[90.333526,23.809258],[90.333541,23.809149],[90.333678,23.80915],[90.333692,23.809151],[90.333673,23.809279],[90.333526,23.809258]]]}},{"type":"Feature","properties":{"survey":"bds","sheet":"041","dag":"20024","label_bn":"20024","area_sqm":203.1},"geometry":{"type":"Polygon","coordinates":[[[90.333511,23.809367],[90.333526,23.809258],[90.333673,23.809279],[90.333653,23.809419],[90.333647,23.809415],[90.333599,23.809392],[90.33357,23.809379],[90.333511,23.809367]]]}},{"type":"Feature","properties":{"survey":"bds","sheet":"041","dag":"20035","label_bn":"20035","area_sqm":203.6},"geometry":{"type":"Polygon","coordinates":[[[90.334636,23.809229],[90.334657,23.809043],[90.334777,23.809056],[90.334743,23.809137],[90.334712,23.809236],[90.334636,23.809229]]]}},{"type":"Feature","properties":{"survey":"bds","sheet":"041","dag":"20064","label_bn":"20064","area_sqm":203.7},"geometry":{"type":"Polygon","coordinates":[[[90.335566,23.809644],[90.335645,23.809637],[90.33567,23.809635],[90.335673,23.809634],[90.335689,23.809803],[90.335583,23.809812],[90.335566,23.809644]]]}},{"type":"Feature","properties":{"survey":"bds","sheet":"041","dag":"20034","label_bn":"20034","area_sqm":203.7},"geometry":{"type":"Polygon","coordinates":[[[90.334657,23.809043],[90.334673,23.808903],[90.334781,23.808917],[90.334807,23.808985],[90.334777,23.809056],[90.334657,23.809043]]]}},{"type":"Feature","properties":{"survey":"bds","sheet":"041","dag":"20021","label_bn":"20021","area_sqm":204.2},"geometry":{"type":"Polygon","coordinates":[[[90.333527,23.809631],[90.33353,23.809623],[90.333567,23.809499],[90.333704,23.80958],[90.333669,23.809637],[90.333654,23.809681],[90.333557,23.809643],[90.333527,23.809631]]]}},{"type":"Feature","properties":{"survey":"bds","sheet":"041","dag":"20022","label_bn":"20022","area_sqm":214.3},"geometry":{"type":"Polygon","coordinates":[[[90.333567,23.809499],[90.333599,23.809392],[90.333647,23.809415],[90.333653,23.809419],[90.333751,23.809479],[90.333723,23.809551],[90.333704,23.80958],[90.333567,23.809499]]]}},{"type":"Feature","properties":{"survey":"bds","sheet":"041","dag":"20063","label_bn":"20063","area_sqm":223.7},"geometry":{"type":"Polygon","coordinates":[[[90.335673,23.809634],[90.335773,23.809623],[90.335788,23.809622],[90.335804,23.809793],[90.335689,23.809803],[90.335673,23.809634]]]}},{"type":"Feature","properties":{"survey":"bds","sheet":"041","dag":"20040","label_bn":"20040","area_sqm":244.6},"geometry":{"type":"Polygon","coordinates":[[[90.335035,23.809679],[90.335141,23.809674],[90.335157,23.809673],[90.335183,23.809852],[90.335091,23.80986],[90.335076,23.809862],[90.33507,23.809862],[90.335069,23.809862],[90.335035,23.809679]]]}},{"type":"Feature","properties":{"survey":"bds","sheet":"041","dag":"20056","label_bn":"20056","area_sqm":249.7},"geometry":{"type":"Polygon","coordinates":[[[90.335405,23.810196],[90.33553,23.810184],[90.335583,23.810371],[90.335458,23.81036],[90.335405,23.810196]]]}},{"type":"Feature","properties":{"survey":"bds","sheet":"041","dag":"20060","label_bn":"20060","area_sqm":253.8},"geometry":{"type":"Polygon","coordinates":[[[90.336027,23.809691],[90.336121,23.809712],[90.33612,23.809713],[90.336104,23.809759],[90.336131,23.809908],[90.336103,23.809952],[90.336075,23.809995],[90.33604,23.809961],[90.336039,23.809953],[90.336031,23.809774],[90.336027,23.809691]]]}},{"type":"Feature","properties":{"survey":"bds","sheet":"041","dag":"20044","label_bn":"20044","area_sqm":257.4},"geometry":{"type":"Polygon","coordinates":[[[90.334579,23.810069],[90.334725,23.810045],[90.334736,23.810193],[90.334591,23.810228],[90.334579,23.810069]]]}},{"type":"Feature","properties":{"survey":"bds","sheet":"041","dag":"20043","label_bn":"20043","area_sqm":262.8},"geometry":{"type":"Polygon","coordinates":[[[90.334567,23.809907],[90.334715,23.809894],[90.334725,23.810045],[90.334579,23.810069],[90.334567,23.809907]]]}},{"type":"Feature","properties":{"survey":"bds","sheet":"041","dag":"20008","label_bn":"20008","area_sqm":285.6},"geometry":{"type":"Polygon","coordinates":[[[90.334137,23.810551],[90.334137,23.810551],[90.334273,23.810551],[90.334296,23.810633],[90.334319,23.810717],[90.334219,23.810762],[90.334208,23.810767],[90.334137,23.810551]]]}},{"type":"Feature","properties":{"survey":"bds","sheet":"041","dag":"20067","label_bn":"20067","area_sqm":305.9},"geometry":{"type":"Polygon","coordinates":[[[90.335407,23.809658],[90.335521,23.809648],[90.335566,23.809644],[90.335583,23.809812],[90.335537,23.809816],[90.335503,23.809819],[90.335476,23.809822],[90.335424,23.809827],[90.335407,23.809658]]]}},{"type":"Feature","properties":{"survey":"bds","sheet":"041","dag":"20050","label_bn":"20050","area_sqm":324.2},"geometry":{"type":"Polygon","coordinates":[[[90.335746,23.8113],[90.335746,23.811264],[90.335762,23.811218],[90.335803,23.811197],[90.335826,23.81119],[90.33584,23.81119],[90.335876,23.811199],[90.335894,23.811215],[90.335899,23.811264],[90.335912,23.811354],[90.335907,23.811376],[90.33588,23.811406],[90.335824,23.811405],[90.335795,23.81139],[90.33578,23.811372],[90.335753,23.811328],[90.335746,23.8113]]]}},{"type":"Feature","properties":{"survey":"bds","sheet":"041","dag":"20039","label_bn":"20039","area_sqm":325.3},"geometry":{"type":"Polygon","coordinates":[[[90.334886,23.809686],[90.335007,23.80968],[90.335035,23.809679],[90.335069,23.809862],[90.334915,23.809876],[90.334886,23.809686]]]}},{"type":"Feature","properties":{"survey":"bds","sheet":"041","dag":"20070","label_bn":"20070","area_sqm":326.0},"geometry":{"type":"Polygon","coordinates":[[[90.334974,23.809031],[90.335039,23.809067],[90.335048,23.809102],[90.335075,23.809139],[90.33511,23.809167],[90.335143,23.809172],[90.335187,23.809159],[90.335282,23.809107],[90.335302,23.809093],[90.335322,23.809082],[90.335322,23.809174],[90.335191,23.809226],[90.335156,23.80924],[90.335104,23.80923],[90.335094,23.809228],[90.335043,23.809202],[90.334979,23.809123],[90.334974,23.809031]]]}},{"type":"Feature","properties":{"survey":"bds","sheet":"041","dag":"20029","label_bn":"20029","area_sqm":334.4},"geometry":{"type":"Polygon","coordinates":[[[90.333613,23.808895],[90.333721,23.808894],[90.333718,23.808937],[90.333725,23.808993],[90.333759,23.808999],[90.333795,23.80904],[90.333803,23.809069],[90.333794,23.809111],[90.333776,23.809137],[90.333761,23.809151],[90.333692,23.809151],[90.333678,23.80915],[90.333613,23.808895]]]}},{"type":"Feature","properties":{"survey":"bds","sheet":"041","dag":"20061","label_bn":"20061","area_sqm":406.4},"geometry":{"type":"Polygon","coordinates":[[[90.335833,23.809791],[90.336031,23.809774],[90.336039,23.809953],[90.33604,23.809961],[90.335847,23.809971],[90.335833,23.809791]]]}},{"type":"Feature","properties":{"survey":"bds","sheet":"041","dag":"20062","label_bn":"20062","area_sqm":406.9},"geometry":{"type":"Polygon","coordinates":[[[90.335788,23.809622],[90.335958,23.809603],[90.335959,23.809603],[90.335982,23.809681],[90.336027,23.809691],[90.336031,23.809774],[90.335833,23.809791],[90.335804,23.809793],[90.335788,23.809622]]]}},{"type":"Feature","properties":{"survey":"bds","sheet":"041","dag":"20031","label_bn":"20031","area_sqm":407.5},"geometry":{"type":"Polygon","coordinates":[[[90.334116,23.809173],[90.334133,23.808835],[90.334233,23.808843],[90.334237,23.808843],[90.334223,23.809185],[90.334116,23.809173]]]}},{"type":"Feature","properties":{"survey":"bds","sheet":"041","dag":"20023","label_bn":"20023","area_sqm":407.9},"geometry":{"type":"Polygon","coordinates":[[[90.333653,23.809419],[90.333673,23.809279],[90.333692,23.809151],[90.333761,23.809151],[90.33381,23.809151],[90.333765,23.809479],[90.333751,23.809479],[90.333653,23.809419]]]}},{"type":"Feature","properties":{"survey":"bds","sheet":"041","dag":"20068","label_bn":"20068","area_sqm":488.7},"geometry":{"type":"Polygon","coordinates":[[[90.335157,23.809673],[90.335164,23.809673],[90.335325,23.809665],[90.335407,23.809658],[90.335424,23.809827],[90.33521,23.80985],[90.335203,23.809851],[90.335183,23.809852],[90.335157,23.809673]]]}},{"type":"Feature","properties":{"survey":"bds","sheet":"041","dag":"20020","label_bn":"20020","area_sqm":492.1},"geometry":{"type":"Polygon","coordinates":[[[90.333349,23.809572],[90.333378,23.809509],[90.333409,23.809366],[90.333511,23.809367],[90.33357,23.809379],[90.333599,23.809392],[90.333567,23.809499],[90.33353,23.809623],[90.333349,23.809572]]]}},{"type":"Feature","properties":{"survey":"bds","sheet":"041","dag":"20073","label_bn":"20073","area_sqm":507.0},"geometry":{"type":"Polygon","coordinates":[[[90.336027,23.809691],[90.336107,23.809583],[90.336205,23.809423],[90.336264,23.809302],[90.336297,23.809234],[90.336366,23.809232],[90.336371,23.809276],[90.336351,23.809335],[90.336211,23.809566],[90.336121,23.809712],[90.336027,23.809691]]]}},{"type":"Feature","properties":{"survey":"bds","sheet":"041","dag":"20066","label_bn":"20066","area_sqm":508.9},"geometry":{"type":"Polygon","coordinates":[[[90.335203,23.809851],[90.33521,23.80985],[90.335424,23.809827],[90.335476,23.809822],[90.335503,23.809819],[90.335525,23.809989],[90.335296,23.810009],[90.335264,23.809955],[90.335203,23.809851]]]}},{"type":"Feature","properties":{"survey":"bds","sheet":"041","dag":"20058","label_bn":"20058","area_sqm":523.0},"geometry":{"type":"Polygon","coordinates":[[[90.335767,23.810801],[90.335826,23.810541],[90.335863,23.810395],[90.335918,23.810236],[90.335953,23.810142],[90.33604,23.809961],[90.336075,23.809995],[90.336002,23.810134],[90.335957,23.810261],[90.335937,23.810368],[90.335815,23.810812],[90.335767,23.810801]]]}},{"type":"Feature","properties":{"survey":"bds","sheet":"041","dag":"20014","label_bn":"20014","area_sqm":552.6},"geometry":{"type":"Polygon","coordinates":[[[90.333898,23.810155],[90.333951,23.809964],[90.334022,23.809971],[90.334199,23.809992],[90.33412,23.810196],[90.333898,23.810155]]]}},{"type":"Feature","properties":{"survey":"bds","sheet":"041","dag":"20009","label_bn":"20009","area_sqm":607.5},"geometry":{"type":"Polygon","coordinates":[[[90.333907,23.810668],[90.334137,23.810551],[90.334208,23.810767],[90.334119,23.810808],[90.333989,23.810855],[90.333907,23.810668]]]}},{"type":"Feature","properties":{"survey":"bds","sheet":"041","dag":"20065","label_bn":"20065","area_sqm":651.5},"geometry":{"type":"Polygon","coordinates":[[[90.335503,23.809819],[90.335537,23.809816],[90.335583,23.809812],[90.335689,23.809803],[90.335804,23.809793],[90.335833,23.809791],[90.335847,23.809971],[90.335561,23.809986],[90.335525,23.809989],[90.335503,23.809819]]]}},{"type":"Feature","properties":{"survey":"bds","sheet":"041","dag":"20019","label_bn":"20019","area_sqm":712.0},"geometry":{"type":"Polygon","coordinates":[[[90.333257,23.809818],[90.33328,23.809724],[90.333338,23.809596],[90.333349,23.809572],[90.33353,23.809623],[90.333527,23.809631],[90.333557,23.809643],[90.333515,23.809773],[90.333472,23.809903],[90.333257,23.809818]]]}},{"type":"Feature","properties":{"survey":"bds","sheet":"041","dag":"20004","label_bn":"20004","area_sqm":781.9},"geometry":{"type":"Polygon","coordinates":[[[90.33419,23.811018],[90.334395,23.810786],[90.334411,23.810794],[90.33445,23.810815],[90.334527,23.810829],[90.334565,23.810885],[90.334554,23.810926],[90.334453,23.811023],[90.334412,23.811081],[90.334355,23.811149],[90.33419,23.811018]]]}},{"type":"Feature","properties":{"survey":"bds","sheet":"041","dag":"20005","label_bn":"20005","area_sqm":782.1},"geometry":{"type":"Polygon","coordinates":[[[90.334411,23.810794],[90.334423,23.810646],[90.33443,23.810551],[90.334448,23.810313],[90.334597,23.810317],[90.334599,23.810345],[90.334527,23.810829],[90.33445,23.810815],[90.334411,23.810794]]]}},{"type":"Feature","properties":{"survey":"bds","sheet":"041","dag":"20038","label_bn":"20038","area_sqm":782.8},"geometry":{"type":"Polygon","coordinates":[[[90.334539,23.809702],[90.334713,23.809694],[90.334857,23.809687],[90.334886,23.809686],[90.334915,23.809876],[90.334715,23.809894],[90.334567,23.809907],[90.334565,23.809877],[90.334539,23.809702]]]}},{"type":"Feature","properties":{"survey":"bds","sheet":"041","dag":"20071","label_bn":"20071","area_sqm":803.5},"geometry":{"type":"Polygon","coordinates":[[[90.335322,23.809082],[90.335351,23.809067],[90.335441,23.809051],[90.33549,23.809055],[90.33556,23.809073],[90.335602,23.809086],[90.33564,23.809114],[90.335698,23.809144],[90.335748,23.809161],[90.335809,23.809174],[90.335952,23.809193],[90.335994,23.809198],[90.336278,23.809235],[90.336297,23.809234],[90.336264,23.809302],[90.336098,23.809282],[90.335854,23.809252],[90.335763,23.809242],[90.335685,23.809212],[90.335632,23.809186],[90.335576,23.809158],[90.335485,23.809123],[90.335439,23.80912],[90.335322,23.809174],[90.335322,23.809082]]]}},{"type":"Feature","properties":{"survey":"bds","sheet":"041","dag":"20013","label_bn":"20013","area_sqm":817.4},"geometry":{"type":"Polygon","coordinates":[[[90.333951,23.809964],[90.334032,23.809682],[90.334131,23.809688],[90.334216,23.809691],[90.334255,23.809993],[90.334199,23.809992],[90.334022,23.809971],[90.333951,23.809964]]]}},{"type":"Feature","properties":{"survey":"bds","sheet":"041","dag":"20069","label_bn":"20069","area_sqm":880.8},"geometry":{"type":"Polygon","coordinates":[[[90.33515,23.809489],[90.335155,23.809323],[90.335156,23.809283],[90.335156,23.80924],[90.335191,23.809226],[90.335322,23.809174],[90.335325,23.809665],[90.335164,23.809673],[90.33515,23.809489]]]}},{"type":"Feature","properties":{"survey":"bds","sheet":"041","dag":"20012","label_bn":"20012","area_sqm":891.6},"geometry":{"type":"Polygon","coordinates":[[[90.334216,23.809691],[90.334307,23.80969],[90.334512,23.8097],[90.334539,23.809702],[90.334565,23.809877],[90.334438,23.80993],[90.334255,23.809993],[90.334216,23.809691]]]}},{"type":"Feature","properties":{"survey":"bds","sheet":"041","dag":"20016","label_bn":"20016","area_sqm":895.2},"geometry":{"type":"Polygon","coordinates":[[[90.333563,23.809956],[90.33361,23.809814],[90.333654,23.809681],[90.333669,23.809637],[90.333704,23.80958],[90.333723,23.809551],[90.333781,23.809585],[90.333848,23.809634],[90.3337,23.8101],[90.333636,23.810034],[90.333563,23.809956]]]}},{"type":"Feature","properties":{"survey":"bds","sheet":"041","dag":"20026","label_bn":"20026","area_sqm":929.1},"geometry":{"type":"Polygon","coordinates":[[[90.333147,23.809397],[90.333213,23.809282],[90.333217,23.809215],[90.333197,23.809101],[90.333422,23.809137],[90.333447,23.80914],[90.333541,23.809149],[90.333526,23.809258],[90.333511,23.809367],[90.333409,23.809366],[90.333275,23.809389],[90.333147,23.809397]]]}},{"type":"Feature","properties":{"survey":"bds","sheet":"041","dag":"20052","label_bn":"20052","area_sqm":980.1},"geometry":{"type":"Polygon","coordinates":[[[90.335421,23.811052],[90.335436,23.810772],[90.335759,23.810833],[90.335719,23.811011],[90.335723,23.811111],[90.335421,23.811052]]]}},{"type":"Feature","properties":{"survey":"bds","sheet":"041","dag":"20003","label_bn":"20003","area_sqm":1029.0},"geometry":{"type":"Polygon","coordinates":[[[90.334093,23.811415],[90.334183,23.811335],[90.334287,23.811225],[90.334355,23.811149],[90.334412,23.811081],[90.334453,23.811023],[90.334554,23.810926],[90.334613,23.810956],[90.33462,23.810983],[90.334639,23.811],[90.334631,23.811019],[90.334515,23.811182],[90.334433,23.811296],[90.33433,23.811361],[90.334258,23.81142],[90.334174,23.811495],[90.334093,23.811415]]]}},{"type":"Feature","properties":{"survey":"bds","sheet":"041","dag":"20036","label_bn":"20036","area_sqm":1055.7},"geometry":{"type":"Polygon","coordinates":[[[90.334512,23.8097],[90.334525,23.809217],[90.334542,23.80922],[90.334636,23.809229],[90.334712,23.809236],[90.334719,23.809489],[90.33472,23.809513],[90.334713,23.809694],[90.334539,23.809702],[90.334512,23.8097]]]}},{"type":"Feature","properties":{"survey":"bds","sheet":"041","dag":"20015","label_bn":"20015","area_sqm":1129.2},"geometry":{"type":"Polygon","coordinates":[[[90.3337,23.8101],[90.333848,23.809634],[90.333889,23.809661],[90.334032,23.809682],[90.333951,23.809964],[90.333898,23.810155],[90.333842,23.810174],[90.333803,23.810164],[90.3337,23.8101]]]}},{"type":"Feature","properties":{"survey":"bds","sheet":"041","dag":"20053","label_bn":"20053","area_sqm":1131.4},"geometry":{"type":"Polygon","coordinates":[[[90.335073,23.810704],[90.335436,23.810772],[90.335421,23.811052],[90.335076,23.810985],[90.335073,23.810704]]]}},{"type":"Feature","properties":{"survey":"bds","sheet":"041","dag":"20030","label_bn":"20030","area_sqm":1422.8},"geometry":{"type":"Polygon","coordinates":[[[90.333718,23.808937],[90.333721,23.808894],[90.333771,23.808798],[90.333991,23.808824],[90.334133,23.808835],[90.334116,23.809173],[90.333926,23.809152],[90.33381,23.809151],[90.333761,23.809151],[90.333776,23.809137],[90.333794,23.809111],[90.333803,23.809069],[90.333795,23.80904],[90.333759,23.808999],[90.333725,23.808993],[90.333718,23.808937]]]}},{"type":"Feature","properties":{"survey":"bds","sheet":"041","dag":"20027","label_bn":"20027","area_sqm":1442.8},"geometry":{"type":"Polygon","coordinates":[[[90.333024,23.808814],[90.333324,23.808858],[90.33344,23.808872],[90.333449,23.808997],[90.333561,23.809014],[90.333553,23.808891],[90.333613,23.808895],[90.333678,23.80915],[90.333541,23.809149],[90.333447,23.80914],[90.333422,23.809137],[90.333197,23.809101],[90.333133,23.808961],[90.333067,23.808941],[90.333024,23.808814]]]}},{"type":"Feature","properties":{"survey":"bds","sheet":"041","dag":"20010","label_bn":"20010","area_sqm":1525.2},"geometry":{"type":"Polygon","coordinates":[[[90.333828,23.810487],[90.334167,23.810304],[90.334448,23.810313],[90.33443,23.810551],[90.334273,23.810551],[90.334137,23.810551],[90.334137,23.810551],[90.333907,23.810668],[90.333828,23.810487]]]}},{"type":"Feature","properties":{"survey":"bds","sheet":"041","dag":"20033","label_bn":"20033","area_sqm":1624.2},"geometry":{"type":"Polygon","coordinates":[[[90.334223,23.809185],[90.334237,23.808843],[90.334466,23.808873],[90.334557,23.808889],[90.334673,23.808903],[90.334657,23.809043],[90.334636,23.809229],[90.334542,23.80922],[90.334525,23.809217],[90.334223,23.809185]]]}},{"type":"Feature","properties":{"survey":"bds","sheet":"041","dag":"20054","label_bn":"20054","area_sqm":1691.2},"geometry":{"type":"Polygon","coordinates":[[[90.334854,23.810941],[90.334886,23.810291],[90.335112,23.810249],[90.335073,23.810704],[90.335076,23.810985],[90.334854,23.810941]]]}},{"type":"Feature","properties":{"survey":"bds","sheet":"041","dag":"20057","label_bn":"20057","area_sqm":1781.1},"geometry":{"type":"Polygon","coordinates":[[[90.335436,23.810772],[90.335458,23.81036],[90.335583,23.810371],[90.335863,23.810395],[90.335826,23.810541],[90.335767,23.810801],[90.335759,23.810833],[90.335436,23.810772]]]}},{"type":"Feature","properties":{"survey":"bds","sheet":"041","dag":"20055","label_bn":"20055","area_sqm":2061.8},"geometry":{"type":"Polygon","coordinates":[[[90.335073,23.810704],[90.335112,23.810249],[90.335405,23.810196],[90.335458,23.81036],[90.335436,23.810772],[90.335073,23.810704]]]}},{"type":"Feature","properties":{"survey":"bds","sheet":"041","dag":"20046","label_bn":"20046","area_sqm":2068.0},"geometry":{"type":"Polygon","coordinates":[[[90.334527,23.810829],[90.334599,23.810345],[90.334745,23.810317],[90.334886,23.810291],[90.334854,23.810941],[90.334795,23.81093],[90.334605,23.810893],[90.334596,23.810887],[90.334565,23.810885],[90.334527,23.810829]]]}},{"type":"Feature","properties":{"survey":"bds","sheet":"041","dag":"20051","label_bn":"20051","area_sqm":2128.7},"geometry":{"type":"Polygon","coordinates":[[[90.335719,23.811011],[90.335759,23.810833],[90.335767,23.810801],[90.335815,23.810812],[90.336118,23.810873],[90.336199,23.810965],[90.336318,23.811144],[90.336161,23.811216],[90.335899,23.811264],[90.335894,23.811215],[90.335876,23.811199],[90.33584,23.81119],[90.335826,23.81119],[90.335803,23.811197],[90.335762,23.811218],[90.335742,23.811196],[90.335724,23.81115],[90.335723,23.811111],[90.335719,23.811011]]]}},{"type":"Feature","properties":{"survey":"bds","sheet":"041","dag":"20059","label_bn":"20059","area_sqm":2251.2},"geometry":{"type":"Polygon","coordinates":[[[90.335296,23.810009],[90.335525,23.809989],[90.335561,23.809986],[90.335847,23.809971],[90.33604,23.809961],[90.335953,23.810142],[90.335918,23.810236],[90.335863,23.810395],[90.335583,23.810371],[90.33553,23.810184],[90.335405,23.810196],[90.335296,23.810009]]]}},{"type":"Feature","properties":{"survey":"bds","sheet":"041","dag":"20042","label_bn":"20042","area_sqm":2447.8},"geometry":{"type":"Polygon","coordinates":[[[90.334715,23.809894],[90.334915,23.809876],[90.335069,23.809862],[90.33507,23.809862],[90.335076,23.809862],[90.335127,23.809965],[90.335264,23.809955],[90.335296,23.810009],[90.335405,23.810196],[90.335112,23.810249],[90.334886,23.810291],[90.334745,23.810317],[90.334736,23.810193],[90.334725,23.810045],[90.334715,23.809894]]]}},{"type":"Feature","properties":{"survey":"bds","sheet":"041","dag":"20011","label_bn":"20011","area_sqm":2507.5},"geometry":{"type":"Polygon","coordinates":[[[90.333803,23.810164],[90.333842,23.810174],[90.333898,23.810155],[90.33412,23.810196],[90.334199,23.809992],[90.334255,23.809993],[90.334438,23.80993],[90.334565,23.809877],[90.334567,23.809907],[90.334579,23.810069],[90.334591,23.810228],[90.334597,23.810317],[90.334448,23.810313],[90.334167,23.810304],[90.333828,23.810487],[90.333805,23.810436],[90.333889,23.810387],[90.33383,23.810219],[90.333803,23.810164]]]}},{"type":"Feature","properties":{"survey":"bds","sheet":"041","dag":"20037","label_bn":"20037","area_sqm":2878.5},"geometry":{"type":"Polygon","coordinates":[[[90.334712,23.809236],[90.334743,23.809137],[90.334777,23.809056],[90.334807,23.808985],[90.334941,23.809022],[90.334974,23.809031],[90.334979,23.809123],[90.335043,23.809202],[90.335094,23.809228],[90.335104,23.80923],[90.335156,23.80924],[90.335156,23.809283],[90.335155,23.809323],[90.33515,23.809489],[90.335164,23.809673],[90.335157,23.809673],[90.335141,23.809674],[90.335035,23.809679],[90.335007,23.80968],[90.334886,23.809686],[90.334857,23.809687],[90.334713,23.809694],[90.33472,23.809513],[90.334719,23.809489],[90.334712,23.809236]]]}},{"type":"Feature","properties":{"survey":"bds","sheet":"041","dag":"20049","label_bn":"20049","area_sqm":3009.8},"geometry":{"type":"Polygon","coordinates":[[[90.33479,23.810936],[90.334795,23.81093],[90.334854,23.810941],[90.335076,23.810985],[90.335421,23.811052],[90.335723,23.811111],[90.335724,23.81115],[90.335742,23.811196],[90.335762,23.811218],[90.335746,23.811264],[90.335292,23.811428],[90.335064,23.811293],[90.335027,23.811258],[90.334941,23.81122],[90.334904,23.811202],[90.334831,23.811153],[90.334841,23.811123],[90.334848,23.811092],[90.334822,23.810969],[90.334802,23.810947],[90.33479,23.810936]]]}},{"type":"Feature","properties":{"survey":"bds","sheet":"041","dag":"20002","label_bn":"20002","area_sqm":3306.9},"geometry":{"type":"Polygon","coordinates":[[[90.333677,23.811176],[90.333742,23.811053],[90.333809,23.810968],[90.333872,23.810914],[90.333931,23.810876],[90.333975,23.810859],[90.333989,23.810855],[90.334119,23.810808],[90.334208,23.810767],[90.334219,23.810762],[90.334319,23.810717],[90.334395,23.810786],[90.33419,23.811018],[90.334355,23.811149],[90.334287,23.811225],[90.334183,23.811335],[90.334093,23.811415],[90.334174,23.811495],[90.334141,23.811533],[90.334076,23.81147],[90.334059,23.811461],[90.333956,23.811454],[90.33394,23.811428],[90.33388,23.811362],[90.333758,23.811242],[90.333728,23.811211],[90.333677,23.811176]]]}},{"type":"Feature","properties":{"survey":"bds","sheet":"041","dag":"20001","label_bn":"20001","area_sqm":3646.9},"geometry":{"type":"Polygon","coordinates":[[[90.333243,23.810761],[90.333805,23.810436],[90.333828,23.810487],[90.333907,23.810668],[90.333989,23.810855],[90.333975,23.810859],[90.333931,23.810876],[90.333872,23.810914],[90.333809,23.810968],[90.333742,23.811053],[90.333677,23.811176],[90.333548,23.811156],[90.333461,23.811167],[90.333395,23.811141],[90.333291,23.810912],[90.333243,23.810761]]]}},{"type":"Feature","properties":{"survey":"bds","sheet":"041","dag":"20072","label_bn":"20072","area_sqm":4106.7},"geometry":{"type":"Polygon","coordinates":[[[90.335322,23.809174],[90.335439,23.80912],[90.335485,23.809123],[90.335576,23.809158],[90.335632,23.809186],[90.335685,23.809212],[90.335763,23.809242],[90.335854,23.809252],[90.336098,23.809282],[90.336264,23.809302],[90.336205,23.809423],[90.336107,23.809583],[90.336027,23.809691],[90.335982,23.809681],[90.335959,23.809603],[90.335958,23.809603],[90.335788,23.809622],[90.335773,23.809623],[90.335673,23.809634],[90.33567,23.809635],[90.335645,23.809637],[90.335566,23.809644],[90.335521,23.809648],[90.335407,23.809658],[90.335325,23.809665],[90.335322,23.809174]]]}},{"type":"Feature","properties":{"survey":"bds","sheet":"041","dag":"20032","label_bn":"20032","area_sqm":4198.7},"geometry":{"type":"Polygon","coordinates":[[[90.333723,23.809551],[90.333751,23.809479],[90.333765,23.809479],[90.33381,23.809151],[90.333926,23.809152],[90.334116,23.809173],[90.334223,23.809185],[90.334525,23.809217],[90.334512,23.8097],[90.334307,23.80969],[90.334216,23.809691],[90.334131,23.809688],[90.334032,23.809682],[90.333889,23.809661],[90.333848,23.809634],[90.333781,23.809585],[90.333723,23.809551]]]}}]}