{"type":"FeatureCollection","features":[{"type":"Feature","properties":{"survey":"bds","sheet":"042","dag":"20552","label_bn":"20552","area_sqm":2698.4},"geometry":{"type":"Polygon","coordinates":[[[90.336194,23.808542],[90.336128,23.808546],[90.335981,23.808169],[90.336013,23.808151],[90.336121,23.808107],[90.336262,23.808053],[90.336411,23.807999],[90.336652,23.807989],[90.336692,23.807994],[90.336674,23.808168],[90.336625,23.808181],[90.33654,23.808209],[90.336487,23.808309],[90.336418,23.808435],[90.33639,23.808488],[90.336368,23.808513],[90.336328,23.808524],[90.336194,23.808542]]]}},{"type":"Feature","properties":{"survey":"bds","sheet":"042","dag":"20555","label_bn":"20555","area_sqm":2275.2},"geometry":{"type":"Polygon","coordinates":[[[90.337635,23.808223],[90.337581,23.80844],[90.337559,23.808592],[90.337558,23.808592],[90.337516,23.808586],[90.337091,23.808534],[90.337093,23.808531],[90.337118,23.808491],[90.337143,23.808435],[90.337164,23.808372],[90.337189,23.808283],[90.337205,23.808189],[90.337217,23.808079],[90.337472,23.808077],[90.337635,23.808223]]]}},{"type":"Feature","properties":{"survey":"bds","sheet":"042","dag":"20554","label_bn":"20554","area_sqm":2026.4},"geometry":{"type":"Polygon","coordinates":[[[90.337516,23.808586],[90.337558,23.808592],[90.337559,23.808592],[90.337558,23.808599],[90.337556,23.808614],[90.337556,23.808617],[90.337568,23.80865],[90.337549,23.808765],[90.337548,23.808831],[90.337667,23.80888],[90.337636,23.808899],[90.337633,23.8089],[90.337532,23.80896],[90.337468,23.808998],[90.337456,23.80899],[90.337456,23.80899],[90.337252,23.808865],[90.336954,23.808695],[90.336995,23.808648],[90.337038,23.808608],[90.337091,23.808534],[90.337516,23.808586]]]}},{"type":"Feature","properties":{"survey":"bds","sheet":"042","dag":"20551","label_bn":"20551","area_sqm":4552.2},"geometry":{"type":"Polygon","coordinates":[[[90.335409,23.808704],[90.335328,23.808706],[90.335333,23.808661],[90.335341,23.808609],[90.335344,23.808558],[90.33534,23.808523],[90.33533,23.808507],[90.335299,23.808469],[90.335292,23.808461],[90.335255,23.808421],[90.33524,23.8084],[90.335229,23.808385],[90.335198,23.808331],[90.335186,23.808283],[90.335192,23.808261],[90.335215,23.808238],[90.335245,23.808225],[90.335278,23.808221],[90.335309,23.808217],[90.335359,23.808211],[90.33539,23.808204],[90.335508,23.808175],[90.335582,23.808142],[90.33563,23.808108],[90.335724,23.808033],[90.335981,23.808169],[90.336128,23.808546],[90.33598,23.808555],[90.335932,23.80856],[90.335894,23.808567],[90.335869,23.808577],[90.335846,23.808612],[90.335803,23.808668],[90.33579,23.808689],[90.335596,23.808692],[90.335409,23.808704]]]}},{"type":"Feature","properties":{"survey":"bds","sheet":"042","dag":"20553","label_bn":"20553","area_sqm":5244.3},"geometry":{"type":"Polygon","coordinates":[[[90.336934,23.808718],[90.336887,23.808776],[90.336734,23.808769],[90.336634,23.80877],[90.336442,23.808763],[90.336437,23.808743],[90.336425,23.808708],[90.336387,23.808578],[90.336368,23.808513],[90.33639,23.808488],[90.336418,23.808435],[90.336487,23.808309],[90.33654,23.808209],[90.336625,23.808181],[90.336674,23.808168],[90.336692,23.807994],[90.336791,23.808007],[90.336832,23.808015],[90.337168,23.808071],[90.337215,23.808079],[90.337217,23.808079],[90.337205,23.808189],[90.337189,23.808283],[90.337164,23.808372],[90.337143,23.808435],[90.337118,23.808491],[90.337093,23.808531],[90.337091,23.808534],[90.337038,23.808608],[90.336995,23.808648],[90.336954,23.808695],[90.336934,23.808718]]]}},{"type":"Feature","properties":{"survey":"bds","sheet":"042","dag":"20556","label_bn":"20556","area_sqm":2543.7},"geometry":{"type":"Polygon","coordinates":[[[90.338373,23.808436],[90.338292,23.808781],[90.338282,23.808779],[90.337568,23.80865],[90.337556,23.808617],[90.337556,23.808614],[90.337558,23.808599],[90.337559,23.808592],[90.337581,23.80844],[90.338139,23.808419],[90.338357,23.808418],[90.338377,23.808418],[90.338373,23.808436]]]}},{"type":"Feature","properties":{"survey":"bds","sheet":"042","dag":"20559","label_bn":"20559","area_sqm":377.0},"geometry":{"type":"Polygon","coordinates":[[[90.338471,23.808424],[90.338375,23.808794],[90.338292,23.808781],[90.338373,23.808436],[90.338377,23.808418],[90.338396,23.808419],[90.338471,23.808424]]]}},{"type":"Feature","properties":{"survey":"bds","sheet":"042","dag":"20557","label_bn":"20557","area_sqm":1880.7},"geometry":{"type":"Polygon","coordinates":[[[90.338219,23.808944],[90.338159,23.809079],[90.337969,23.808992],[90.337829,23.808908],[90.33774,23.808872],[90.337704,23.808865],[90.33767,23.808878],[90.337667,23.80888],[90.337548,23.808831],[90.337549,23.808765],[90.337568,23.80865],[90.338282,23.808779],[90.338292,23.808781],[90.338288,23.808799],[90.338219,23.808944]]]}},{"type":"Feature","properties":{"survey":"bds","sheet":"042","dag":"20549","label_bn":"20549","area_sqm":4105.5},"geometry":{"type":"Polygon","coordinates":[[[90.335784,23.809105],[90.335701,23.809116],[90.335666,23.809073],[90.335654,23.809057],[90.335648,23.809019],[90.335658,23.808971],[90.335708,23.80885],[90.335755,23.808743],[90.33579,23.808689],[90.335803,23.808668],[90.335846,23.808612],[90.335869,23.808577],[90.335894,23.808567],[90.335932,23.80856],[90.33598,23.808555],[90.336128,23.808546],[90.336194,23.808542],[90.336328,23.808524],[90.336368,23.808513],[90.336387,23.808578],[90.336425,23.808708],[90.336437,23.808743],[90.336442,23.808763],[90.336332,23.809109],[90.336315,23.809091],[90.336178,23.809082],[90.336049,23.809082],[90.335899,23.809094],[90.335784,23.809105]]]}},{"type":"Feature","properties":{"survey":"bds","sheet":"042","dag":"20558","label_bn":"20558","area_sqm":362.7},"geometry":{"type":"Polygon","coordinates":[[[90.338375,23.808794],[90.338258,23.809124],[90.338159,23.809079],[90.338219,23.808944],[90.338288,23.808799],[90.338292,23.808781],[90.338375,23.808794]]]}},{"type":"Feature","properties":{"survey":"bds","sheet":"042","dag":"20548","label_bn":"20548","area_sqm":2162.6},"geometry":{"type":"Polygon","coordinates":[[[90.336887,23.808776],[90.336906,23.809146],[90.336354,23.809134],[90.336322,23.809133],[90.336332,23.809109],[90.336442,23.808763],[90.336634,23.80877],[90.336734,23.808769],[90.336887,23.808776]]]}},{"type":"Feature","properties":{"survey":"bds","sheet":"042","dag":"20550","label_bn":"20550","area_sqm":2517.4},"geometry":{"type":"Polygon","coordinates":[[[90.335187,23.809159],[90.335143,23.809172],[90.33511,23.809167],[90.335075,23.809139],[90.335048,23.809102],[90.335039,23.809067],[90.335048,23.809027],[90.335068,23.808976],[90.335091,23.808928],[90.335117,23.808893],[90.33515,23.808867],[90.33519,23.808847],[90.33521,23.80883],[90.335251,23.8088],[90.335292,23.808758],[90.335314,23.808719],[90.335328,23.808706],[90.335409,23.808704],[90.335596,23.808692],[90.33579,23.808689],[90.335755,23.808743],[90.335708,23.80885],[90.335658,23.808971],[90.335648,23.809019],[90.335654,23.809057],[90.335666,23.809073],[90.335701,23.809116],[90.335652,23.809121],[90.33565,23.809119],[90.33564,23.809114],[90.335602,23.809086],[90.33556,23.809073],[90.33549,23.809055],[90.335441,23.809051],[90.335351,23.809067],[90.335302,23.809093],[90.335282,23.809107],[90.335187,23.809159]]]}},{"type":"Feature","properties":{"survey":"bds","sheet":"042","dag":"20561","label_bn":"20561","area_sqm":796.5},"geometry":{"type":"Polygon","coordinates":[[[90.336315,23.809091],[90.336332,23.809109],[90.336322,23.809133],[90.336357,23.809192],[90.336366,23.809232],[90.33634,23.809233],[90.336325,23.809233],[90.336278,23.809235],[90.336256,23.809232],[90.335809,23.809174],[90.335748,23.809161],[90.335698,23.809144],[90.335652,23.809121],[90.335701,23.809116],[90.335784,23.809105],[90.335899,23.809094],[90.336049,23.809082],[90.336178,23.809082],[90.336315,23.809091]]]}},{"type":"Feature","properties":{"survey":"bds","sheet":"042","dag":"20530","label_bn":"20530","area_sqm":170.1},"geometry":{"type":"Polygon","coordinates":[[[90.338239,23.809146],[90.338114,23.80928],[90.338088,23.809227],[90.338086,23.809225],[90.338145,23.809108],[90.338155,23.809088],[90.338159,23.809079],[90.338258,23.809124],[90.338239,23.809146]]]}},{"type":"Feature","properties":{"survey":"bds","sheet":"042","dag":"20529","label_bn":"20529","area_sqm":60.4},"geometry":{"type":"Polygon","coordinates":[[[90.338114,23.80928],[90.338045,23.809397],[90.338047,23.809303],[90.338086,23.809225],[90.338088,23.809227],[90.338114,23.80928]]]}},{"type":"Feature","properties":{"survey":"bds","sheet":"042","dag":"20546","label_bn":"20546","area_sqm":4366.7},"geometry":{"type":"Polygon","coordinates":[[[90.337252,23.808865],[90.337456,23.80899],[90.337456,23.80899],[90.337468,23.808998],[90.337439,23.809051],[90.337432,23.809105],[90.337443,23.809153],[90.337443,23.809153],[90.337459,23.809223],[90.337458,23.809257],[90.337458,23.809287],[90.337441,23.809347],[90.337414,23.809402],[90.337406,23.809417],[90.337406,23.809417],[90.337364,23.809472],[90.337316,23.809507],[90.337245,23.809524],[90.337104,23.809551],[90.337082,23.809566],[90.337059,23.80958],[90.337056,23.809582],[90.337014,23.80965],[90.336969,23.809647],[90.336925,23.809645],[90.336923,23.809539],[90.336921,23.809456],[90.336921,23.809427],[90.336906,23.809146],[90.336887,23.808776],[90.336934,23.808718],[90.336954,23.808695],[90.337252,23.808865]]]}},{"type":"Feature","properties":{"survey":"bds","sheet":"042","dag":"20528","label_bn":"20528","area_sqm":1964.8},"geometry":{"type":"Polygon","coordinates":[[[90.338045,23.809397],[90.338,23.809472],[90.337552,23.809362],[90.337571,23.809294],[90.337561,23.809133],[90.33756,23.809102],[90.337571,23.809076],[90.337711,23.80899],[90.337842,23.809046],[90.338031,23.809177],[90.338086,23.809225],[90.338047,23.809303],[90.338045,23.809397]]]}},{"type":"Feature","properties":{"survey":"bds","sheet":"042","dag":"20547","label_bn":"20547","area_sqm":3321.5},"geometry":{"type":"Polygon","coordinates":[[[90.336354,23.809134],[90.336906,23.809146],[90.336921,23.809427],[90.336921,23.809456],[90.336923,23.809539],[90.336925,23.809645],[90.336881,23.809642],[90.336741,23.809634],[90.336741,23.809634],[90.336617,23.809624],[90.336443,23.809612],[90.336321,23.809599],[90.336274,23.809585],[90.336223,23.80957],[90.336211,23.809566],[90.336249,23.809504],[90.336351,23.809335],[90.336371,23.809276],[90.336366,23.809232],[90.336357,23.809192],[90.336322,23.809133],[90.336354,23.809134]]]}},{"type":"Feature","properties":{"survey":"bds","sheet":"042","dag":"20532","label_bn":"20532","area_sqm":926.0},"geometry":{"type":"Polygon","coordinates":[[[90.336223,23.80957],[90.336274,23.809585],[90.336321,23.809599],[90.336328,23.809925],[90.336331,23.809962],[90.336334,23.81003],[90.336335,23.810035],[90.33628,23.810043],[90.336247,23.810037],[90.336221,23.810022],[90.336207,23.810005],[90.336183,23.809985],[90.336171,23.809968],[90.336133,23.809905],[90.33613,23.8099],[90.336104,23.809759],[90.33612,23.809713],[90.336211,23.809566],[90.336223,23.80957]]]}},{"type":"Feature","properties":{"survey":"bds","sheet":"042","dag":"20536","label_bn":"20536","area_sqm":162.7},"geometry":{"type":"Polygon","coordinates":[[[90.336741,23.809634],[90.336733,23.809748],[90.336604,23.809735],[90.336617,23.809624],[90.336741,23.809634],[90.336741,23.809634]]]}},{"type":"Feature","properties":{"survey":"bds","sheet":"042","dag":"20535","label_bn":"20535","area_sqm":284.5},"geometry":{"type":"Polygon","coordinates":[[[90.336603,23.809742],[90.336601,23.80977],[90.336428,23.809754],[90.336443,23.809612],[90.336617,23.809624],[90.336604,23.809735],[90.336603,23.809742]]]}},{"type":"Feature","properties":{"survey":"bds","sheet":"042","dag":"20545","label_bn":"20545","area_sqm":203.0},"geometry":{"type":"Polygon","coordinates":[[[90.336925,23.809645],[90.336969,23.809647],[90.337014,23.80965],[90.337001,23.809784],[90.336984,23.809782],[90.336864,23.809771],[90.336881,23.809642],[90.336925,23.809645]]]}},{"type":"Feature","properties":{"survey":"bds","sheet":"042","dag":"20537","label_bn":"20537","area_sqm":243.8},"geometry":{"type":"Polygon","coordinates":[[[90.336864,23.809771],[90.33686,23.809801],[90.336726,23.809789],[90.336732,23.809754],[90.336733,23.809748],[90.336741,23.809634],[90.336881,23.809642],[90.336864,23.809771]]]}},{"type":"Feature","properties":{"survey":"bds","sheet":"042","dag":"20539","label_bn":"20539","area_sqm":162.6},"geometry":{"type":"Polygon","coordinates":[[[90.336725,23.809794],[90.336719,23.809856],[90.336593,23.809852],[90.336601,23.809775],[90.336601,23.80977],[90.336603,23.809742],[90.336604,23.809735],[90.336733,23.809748],[90.336732,23.809754],[90.336726,23.809789],[90.336725,23.809794]]]}},{"type":"Feature","properties":{"survey":"bds","sheet":"042","dag":"20544","label_bn":"20544","area_sqm":188.3},"geometry":{"type":"Polygon","coordinates":[[[90.336984,23.809782],[90.337001,23.809784],[90.337008,23.809901],[90.336861,23.80988],[90.336848,23.809878],[90.33686,23.809807],[90.33686,23.809801],[90.336864,23.809771],[90.336984,23.809782]]]}},{"type":"Feature","properties":{"survey":"bds","sheet":"042","dag":"20538","label_bn":"20538","area_sqm":122.1},"geometry":{"type":"Polygon","coordinates":[[[90.336848,23.809878],[90.336848,23.809883],[90.336719,23.809868],[90.336719,23.809856],[90.336725,23.809794],[90.336726,23.809789],[90.33686,23.809801],[90.33686,23.809807],[90.336848,23.809878]]]}},{"type":"Feature","properties":{"survey":"bds","sheet":"042","dag":"20543","label_bn":"20543","area_sqm":120.2},"geometry":{"type":"Polygon","coordinates":[[[90.336861,23.80988],[90.337008,23.809901],[90.336991,23.809943],[90.336986,23.809957],[90.33694,23.809958],[90.336844,23.80996],[90.336847,23.809889],[90.336847,23.809886],[90.336848,23.809883],[90.336848,23.809878],[90.336861,23.80988]]]}},{"type":"Feature","properties":{"survey":"bds","sheet":"042","dag":"20541","label_bn":"20541","area_sqm":152.8},"geometry":{"type":"Polygon","coordinates":[[[90.336848,23.809883],[90.336847,23.809886],[90.336847,23.809889],[90.336844,23.80996],[90.336837,23.809986],[90.336833,23.809996],[90.336813,23.80999],[90.336709,23.809959],[90.336712,23.809941],[90.33672,23.809875],[90.336719,23.809868],[90.336848,23.809883]]]}},{"type":"Feature","properties":{"survey":"bds","sheet":"042","dag":"20540","label_bn":"20540","area_sqm":153.0},"geometry":{"type":"Polygon","coordinates":[[[90.33658,23.809966],[90.336593,23.809852],[90.336719,23.809856],[90.336719,23.809868],[90.33672,23.809875],[90.336712,23.809941],[90.336709,23.809959],[90.336666,23.809954],[90.33658,23.809966]]]}},{"type":"Feature","properties":{"survey":"bds","sheet":"042","dag":"20542","label_bn":"20542","area_sqm":65.4},"geometry":{"type":"Polygon","coordinates":[[[90.336967,23.809987],[90.336943,23.810002],[90.336908,23.810006],[90.33686,23.810003],[90.336833,23.809996],[90.336837,23.809986],[90.336844,23.80996],[90.33694,23.809958],[90.336986,23.809957],[90.336967,23.809987]]]}},{"type":"Feature","properties":{"survey":"bds","sheet":"042","dag":"20533","label_bn":"20533","area_sqm":479.6},"geometry":{"type":"Polygon","coordinates":[[[90.336443,23.809612],[90.336428,23.809754],[90.336421,23.809989],[90.33642,23.810004],[90.336415,23.810007],[90.336343,23.810032],[90.336335,23.810035],[90.336334,23.81003],[90.336331,23.809962],[90.336328,23.809925],[90.336321,23.809599],[90.336443,23.809612]]]}},{"type":"Feature","properties":{"survey":"bds","sheet":"042","dag":"20534","label_bn":"20534","area_sqm":408.1},"geometry":{"type":"Polygon","coordinates":[[[90.336601,23.80977],[90.336601,23.809775],[90.336593,23.809852],[90.33658,23.809966],[90.336451,23.809984],[90.336438,23.809992],[90.33642,23.810004],[90.336421,23.809989],[90.336428,23.809754],[90.336601,23.80977]]]}},{"type":"Feature","properties":{"survey":"bds","sheet":"042","dag":"20531","label_bn":"20531","area_sqm":3425.5},"geometry":{"type":"Polygon","coordinates":[[[90.336449,23.810091],[90.336347,23.81013],[90.336331,23.810128],[90.336228,23.810112],[90.336213,23.810104],[90.336153,23.810074],[90.336075,23.809995],[90.336133,23.809905],[90.336171,23.809968],[90.336183,23.809985],[90.336207,23.810005],[90.336221,23.810022],[90.336247,23.810037],[90.33628,23.810043],[90.336335,23.810035],[90.336343,23.810032],[90.336415,23.810007],[90.33642,23.810004],[90.336438,23.809992],[90.336451,23.809984],[90.33658,23.809966],[90.336666,23.809954],[90.336709,23.809959],[90.336813,23.80999],[90.336833,23.809996],[90.33686,23.810003],[90.336908,23.810006],[90.336943,23.810002],[90.336967,23.809987],[90.336986,23.809957],[90.336991,23.809943],[90.337008,23.809901],[90.337001,23.809784],[90.337014,23.80965],[90.337056,23.809582],[90.337059,23.80958],[90.337082,23.809566],[90.337104,23.809551],[90.337245,23.809524],[90.337316,23.809507],[90.337364,23.809472],[90.337406,23.809417],[90.337406,23.809417],[90.337414,23.809402],[90.337441,23.809347],[90.337458,23.809287],[90.337458,23.809257],[90.337459,23.809223],[90.337443,23.809153],[90.337443,23.809153],[90.337432,23.809105],[90.337439,23.809051],[90.337468,23.808998],[90.337532,23.80896],[90.337633,23.8089],[90.337636,23.808899],[90.337667,23.80888],[90.33767,23.808878],[90.337704,23.808865],[90.33774,23.808872],[90.337829,23.808908],[90.337969,23.808992],[90.338159,23.809079],[90.338155,23.809088],[90.338145,23.809108],[90.338086,23.809225],[90.338031,23.809177],[90.337842,23.809046],[90.337711,23.80899],[90.337571,23.809076],[90.33756,23.809102],[90.337561,23.809133],[90.337571,23.809294],[90.337552,23.809362],[90.337491,23.809479],[90.337444,23.809533],[90.337379,23.809583],[90.337312,23.809619],[90.337286,23.809622],[90.337206,23.809624],[90.33715,23.80964],[90.337119,23.809667],[90.337101,23.809712],[90.337101,23.809774],[90.337109,23.809827],[90.337079,23.81],[90.337014,23.810097],[90.336952,23.810102],[90.336906,23.810101],[90.336631,23.810034],[90.336556,23.810038],[90.336497,23.810062],[90.336449,23.810091],[90.336449,23.810091]]]}},{"type":"Feature","properties":{"survey":"bds","sheet":"042","dag":"20527","label_bn":"20527","area_sqm":6144.0},"geometry":{"type":"Polygon","coordinates":[[[90.338,23.809472],[90.337714,23.810235],[90.337577,23.810222],[90.337316,23.810199],[90.337268,23.810192],[90.337273,23.810179],[90.337077,23.810154],[90.337057,23.810099],[90.337014,23.810097],[90.337079,23.81],[90.337109,23.809827],[90.337101,23.809774],[90.337101,23.809712],[90.337119,23.809667],[90.33715,23.80964],[90.337206,23.809624],[90.337286,23.809622],[90.337312,23.809619],[90.337379,23.809583],[90.337444,23.809533],[90.337491,23.809479],[90.337552,23.809362],[90.338,23.809472]]]}},{"type":"Feature","properties":{"survey":"bds","sheet":"042","dag":"20502","label_bn":"20502","area_sqm":203.6},"geometry":{"type":"Polygon","coordinates":[[[90.336331,23.810128],[90.336343,23.810267],[90.336216,23.810264],[90.336213,23.810104],[90.336228,23.810112],[90.336331,23.810128]]]}},{"type":"Feature","properties":{"survey":"bds","sheet":"042","dag":"20503","label_bn":"20503","area_sqm":203.2},"geometry":{"type":"Polygon","coordinates":[[[90.336465,23.810252],[90.336343,23.810267],[90.336331,23.810128],[90.336347,23.81013],[90.336449,23.810091],[90.336449,23.810091],[90.336465,23.810252]]]}},{"type":"Feature","properties":{"survey":"bds","sheet":"042","dag":"20526","label_bn":"20526","area_sqm":1217.3},"geometry":{"type":"Polygon","coordinates":[[[90.337954,23.810044],[90.337916,23.810276],[90.337714,23.810235],[90.338,23.809472],[90.338045,23.809397],[90.338041,23.809532],[90.338006,23.809793],[90.337954,23.810044]]]}},{"type":"Feature","properties":{"survey":"bds","sheet":"042","dag":"20525","label_bn":"20525","area_sqm":1460.0},"geometry":{"type":"Polygon","coordinates":[[[90.338087,23.81008],[90.338043,23.810301],[90.337916,23.810276],[90.337954,23.810044],[90.338006,23.809793],[90.338041,23.809532],[90.338045,23.809397],[90.338114,23.80928],[90.338155,23.80937],[90.338183,23.809456],[90.338181,23.809555],[90.338087,23.81008]]]}},{"type":"Feature","properties":{"survey":"bds","sheet":"042","dag":"20504","label_bn":"20504","area_sqm":82.8},"geometry":{"type":"Polygon","coordinates":[[[90.336467,23.810311],[90.336344,23.810327],[90.336343,23.810267],[90.336465,23.810252],[90.336467,23.810311]]]}},{"type":"Feature","properties":{"survey":"bds","sheet":"042","dag":"20505","label_bn":"20505","area_sqm":122.5},"geometry":{"type":"Polygon","coordinates":[[[90.336352,23.810414],[90.336346,23.810415],[90.336344,23.810327],[90.336467,23.810311],[90.336469,23.810398],[90.336352,23.810414]]]}},{"type":"Feature","properties":{"survey":"bds","sheet":"042","dag":"20507","label_bn":"20507","area_sqm":203.3},"geometry":{"type":"Polygon","coordinates":[[[90.336376,23.810559],[90.336348,23.810563],[90.336346,23.810415],[90.336352,23.810414],[90.336469,23.810398],[90.336467,23.810548],[90.336378,23.810559],[90.336376,23.810559]]]}},{"type":"Feature","properties":{"survey":"bds","sheet":"042","dag":"20506","label_bn":"20506","area_sqm":406.8},"geometry":{"type":"Polygon","coordinates":[[[90.336245,23.810576],[90.33624,23.810576],[90.336216,23.810264],[90.336343,23.810267],[90.336344,23.810327],[90.336346,23.810415],[90.336348,23.810563],[90.336245,23.810576]]]}},{"type":"Feature","properties":{"survey":"bds","sheet":"042","dag":"20519","label_bn":"20519","area_sqm":1271.3},"geometry":{"type":"Polygon","coordinates":[[[90.337577,23.810222],[90.337636,23.810609],[90.337432,23.810574],[90.337322,23.810532],[90.337268,23.810192],[90.337316,23.810199],[90.337577,23.810222]]]}},{"type":"Feature","properties":{"survey":"bds","sheet":"042","dag":"20520","label_bn":"20520","area_sqm":1250.7},"geometry":{"type":"Polygon","coordinates":[[[90.337878,23.810643],[90.337885,23.810652],[90.337843,23.810644],[90.337636,23.810609],[90.337577,23.810222],[90.337714,23.810235],[90.337916,23.810276],[90.33789,23.810468],[90.337878,23.810643]]]}},{"type":"Feature","properties":{"survey":"bds","sheet":"042","dag":"20524","label_bn":"20524","area_sqm":582.5},"geometry":{"type":"Polygon","coordinates":[[[90.338033,23.810497],[90.338005,23.810672],[90.337885,23.810652],[90.337878,23.810643],[90.33789,23.810468],[90.337916,23.810276],[90.338043,23.810301],[90.338033,23.810497]]]}},{"type":"Feature","properties":{"survey":"bds","sheet":"042","dag":"20508","label_bn":"20508","area_sqm":164.4},"geometry":{"type":"Polygon","coordinates":[[[90.336483,23.810709],[90.336397,23.810721],[90.336376,23.810559],[90.336378,23.810559],[90.336467,23.810548],[90.336483,23.810709]]]}},{"type":"Feature","properties":{"survey":"bds","sheet":"042","dag":"20509","label_bn":"20509","area_sqm":243.9},"geometry":{"type":"Polygon","coordinates":[[[90.336275,23.810736],[90.336267,23.810738],[90.336245,23.810576],[90.336348,23.810563],[90.336376,23.810559],[90.336397,23.810721],[90.336368,23.810724],[90.336278,23.810736],[90.336275,23.810736]]]}},{"type":"Feature","properties":{"survey":"bds","sheet":"042","dag":"20510","label_bn":"20510","area_sqm":284.4},"geometry":{"type":"Polygon","coordinates":[[[90.33623,23.810743],[90.336113,23.810755],[90.336093,23.810595],[90.336228,23.810578],[90.33624,23.810576],[90.336245,23.810576],[90.336267,23.810738],[90.33623,23.810743]]]}},{"type":"Feature","properties":{"survey":"bds","sheet":"042","dag":"20501","label_bn":"20501","area_sqm":2425.0},"geometry":{"type":"Polygon","coordinates":[[[90.336113,23.810755],[90.336127,23.810875],[90.335815,23.810812],[90.335937,23.810368],[90.335957,23.810261],[90.336002,23.810134],[90.336075,23.809995],[90.336153,23.810074],[90.336213,23.810104],[90.336216,23.810264],[90.33624,23.810576],[90.336228,23.810578],[90.336093,23.810595],[90.336113,23.810755]]]}},{"type":"Feature","properties":{"survey":"bds","sheet":"042","dag":"20513","label_bn":"20513","area_sqm":204.0},"geometry":{"type":"Polygon","coordinates":[[[90.336501,23.810864],[90.336386,23.810877],[90.336368,23.810724],[90.336397,23.810721],[90.336483,23.810709],[90.336501,23.810864]]]}},{"type":"Feature","properties":{"survey":"bds","sheet":"042","dag":"20512","label_bn":"20512","area_sqm":162.5},"geometry":{"type":"Polygon","coordinates":[[[90.336295,23.81089],[90.336294,23.81089],[90.336275,23.810736],[90.336278,23.810736],[90.336368,23.810724],[90.336386,23.810877],[90.336384,23.810877],[90.336297,23.81089],[90.336295,23.81089]]]}},{"type":"Feature","properties":{"survey":"bds","sheet":"042","dag":"20511","label_bn":"20511","area_sqm":284.7},"geometry":{"type":"Polygon","coordinates":[[[90.336242,23.810893],[90.336131,23.81091],[90.336127,23.810875],[90.336113,23.810755],[90.33623,23.810743],[90.336267,23.810738],[90.336275,23.810736],[90.336294,23.81089],[90.336242,23.810893]]]}},{"type":"Feature","properties":{"survey":"bds","sheet":"042","dag":"20517","label_bn":"20517","area_sqm":6243.7},"geometry":{"type":"Polygon","coordinates":[[[90.336685,23.810949],[90.336506,23.810954],[90.336501,23.810864],[90.336483,23.810709],[90.336467,23.810548],[90.336469,23.810398],[90.336467,23.810311],[90.336465,23.810252],[90.336449,23.810091],[90.336497,23.810062],[90.336556,23.810038],[90.336631,23.810034],[90.336906,23.810101],[90.336952,23.810102],[90.337014,23.810097],[90.337057,23.810099],[90.337077,23.810154],[90.337273,23.810179],[90.337268,23.810192],[90.337322,23.810532],[90.337174,23.810521],[90.337141,23.810533],[90.337049,23.810609],[90.336957,23.810758],[90.336846,23.810853],[90.336685,23.810949]]]}},{"type":"Feature","properties":{"survey":"bds","sheet":"042","dag":"20514","label_bn":"20514","area_sqm":205.9},"geometry":{"type":"Polygon","coordinates":[[[90.336506,23.810954],[90.336301,23.810974],[90.336297,23.81089],[90.336384,23.810877],[90.336386,23.810877],[90.336501,23.810864],[90.336506,23.810954]]]}},{"type":"Feature","properties":{"survey":"bds","sheet":"042","dag":"20515","label_bn":"20515","area_sqm":166.5},"geometry":{"type":"Polygon","coordinates":[[[90.336213,23.810987],[90.336137,23.810998],[90.336131,23.81091],[90.336242,23.810893],[90.336294,23.81089],[90.336295,23.81089],[90.336297,23.81089],[90.336301,23.810974],[90.336213,23.810987]]]}},{"type":"Feature","properties":{"survey":"bds","sheet":"042","dag":"20521","label_bn":"20521","area_sqm":1597.5},"geometry":{"type":"Polygon","coordinates":[[[90.337843,23.810644],[90.337786,23.811063],[90.337715,23.811016],[90.337644,23.810961],[90.337614,23.810941],[90.337478,23.810869],[90.337411,23.810825],[90.337371,23.810792],[90.337432,23.810574],[90.337636,23.810609],[90.337843,23.810644]]]}},{"type":"Feature","properties":{"survey":"bds","sheet":"042","dag":"20522","label_bn":"20522","area_sqm":502.9},"geometry":{"type":"Polygon","coordinates":[[[90.337952,23.810738],[90.33787,23.811102],[90.337835,23.811095],[90.337786,23.811063],[90.337843,23.810644],[90.337885,23.810652],[90.337952,23.810738]]]}},{"type":"Feature","properties":{"survey":"bds","sheet":"042","dag":"20560","label_bn":"20560","area_sqm":24653.1},"geometry":{"type":"Polygon","coordinates":[[[90.338544,23.8111],[90.337927,23.811111],[90.337995,23.810767],[90.338005,23.810672],[90.338033,23.810497],[90.338043,23.810301],[90.338087,23.81008],[90.338181,23.809555],[90.338183,23.809456],[90.338155,23.80937],[90.338114,23.80928],[90.338239,23.809146],[90.338258,23.809124],[90.338375,23.808794],[90.338471,23.808424],[90.3392,23.808465],[90.339199,23.808475],[90.339202,23.808589],[90.339211,23.808735],[90.339211,23.808804],[90.339212,23.808883],[90.339208,23.808949],[90.339197,23.809053],[90.339193,23.809081],[90.339181,23.809116],[90.339175,23.809137],[90.339166,23.80918],[90.339156,23.809226],[90.339154,23.809259],[90.339138,23.809303],[90.339133,23.809328],[90.339103,23.809447],[90.339097,23.809485],[90.339078,23.809548],[90.339063,23.809615],[90.339043,23.809687],[90.339025,23.809774],[90.338995,23.809893],[90.338963,23.810031],[90.338936,23.810134],[90.338878,23.810253],[90.338852,23.810312],[90.338827,23.810361],[90.338742,23.810545],[90.338696,23.810631],[90.338625,23.810777],[90.33861,23.81084],[90.338576,23.810955],[90.338544,23.8111]]]}},{"type":"Feature","properties":{"survey":"bds","sheet":"042","dag":"20523","label_bn":"20523","area_sqm":293.2},"geometry":{"type":"Polygon","coordinates":[[[90.337927,23.811111],[90.337913,23.811111],[90.33787,23.811102],[90.337952,23.810738],[90.337885,23.810652],[90.338005,23.810672],[90.337995,23.810767],[90.337927,23.811111]]]}},{"type":"Feature","properties":{"survey":"bds","sheet":"042","dag":"20518","label_bn":"20518","area_sqm":2514.8},"geometry":{"type":"Polygon","coordinates":[[[90.337033,23.811068],[90.336985,23.811127],[90.336811,23.811079],[90.336736,23.811056],[90.336681,23.811023],[90.336667,23.811001],[90.336685,23.810949],[90.336846,23.810853],[90.336957,23.810758],[90.337049,23.810609],[90.337141,23.810533],[90.337174,23.810521],[90.337322,23.810532],[90.337432,23.810574],[90.337371,23.810792],[90.337329,23.81081],[90.337296,23.810826],[90.337221,23.810883],[90.337165,23.810931],[90.337097,23.811004],[90.337033,23.811068]]]}},{"type":"Feature","properties":{"survey":"bds","sheet":"042","dag":"20516","label_bn":"20516","area_sqm":329.2},"geometry":{"type":"Polygon","coordinates":[[[90.336403,23.811112],[90.336318,23.811144],[90.336213,23.810987],[90.336301,23.810974],[90.336506,23.810954],[90.336431,23.811047],[90.336403,23.811112]]]}}]}