{"type":"FeatureCollection","features":[{"type":"Feature","properties":{"survey":"bds","sheet":"043","dag":"21058","label_bn":"21058","area_sqm":74.5},"geometry":{"type":"Polygon","coordinates":[[[90.335992,23.806429],[90.336143,23.806428],[90.336143,23.806432],[90.33615,23.806469],[90.335994,23.806473],[90.335992,23.806429]]]}},{"type":"Feature","properties":{"survey":"bds","sheet":"043","dag":"21101","label_bn":"21101","area_sqm":81.9},"geometry":{"type":"Polygon","coordinates":[[[90.337948,23.80603],[90.337958,23.805974],[90.338073,23.805978],[90.33806,23.806047],[90.337948,23.80603]]]}},{"type":"Feature","properties":{"survey":"bds","sheet":"043","dag":"21059","label_bn":"21059","area_sqm":89.3},"geometry":{"type":"Polygon","coordinates":[[[90.335991,23.806376],[90.336138,23.806375],[90.336143,23.806428],[90.335992,23.806429],[90.335991,23.806402],[90.335991,23.806376]]]}},{"type":"Feature","properties":{"survey":"bds","sheet":"043","dag":"21060","label_bn":"21060","area_sqm":101.5},"geometry":{"type":"Polygon","coordinates":[[[90.335822,23.806348],[90.33599,23.806349],[90.335991,23.806376],[90.335991,23.806402],[90.335822,23.806401],[90.335822,23.806348]]]}},{"type":"Feature","properties":{"survey":"bds","sheet":"043","dag":"21062","label_bn":"21062","area_sqm":103.3},"geometry":{"type":"Polygon","coordinates":[[[90.335985,23.806194],[90.336124,23.806192],[90.336129,23.806258],[90.335987,23.806258],[90.335985,23.806197],[90.335985,23.806194]]]}},{"type":"Feature","properties":{"survey":"bds","sheet":"043","dag":"21083","label_bn":"21083","area_sqm":103.7},"geometry":{"type":"Polygon","coordinates":[[[90.336647,23.805505],[90.336707,23.805503],[90.336709,23.805559],[90.336712,23.805655],[90.336712,23.805661],[90.336652,23.805663],[90.336653,23.805564],[90.33665,23.805537],[90.336647,23.805505]]]}},{"type":"Feature","properties":{"survey":"bds","sheet":"043","dag":"21042","label_bn":"21042","area_sqm":121.8},"geometry":{"type":"Polygon","coordinates":[[[90.335994,23.806473],[90.33615,23.806469],[90.336162,23.806528],[90.336163,23.806536],[90.335996,23.806538],[90.335995,23.806507],[90.335994,23.806473]]]}},{"type":"Feature","properties":{"survey":"bds","sheet":"043","dag":"21049","label_bn":"21049","area_sqm":122.1},"geometry":{"type":"Polygon","coordinates":[[[90.335388,23.806352],[90.335395,23.806285],[90.335395,23.80628],[90.335543,23.80628],[90.335543,23.806288],[90.335539,23.806352],[90.335388,23.806352]]]}},{"type":"Feature","properties":{"survey":"bds","sheet":"043","dag":"21100","label_bn":"21100","area_sqm":122.2},"geometry":{"type":"Polygon","coordinates":[[[90.337958,23.805974],[90.337976,23.805881],[90.337979,23.805881],[90.338092,23.805885],[90.338073,23.805977],[90.338073,23.805978],[90.337958,23.805974]]]}},{"type":"Feature","properties":{"survey":"bds","sheet":"043","dag":"21041","label_bn":"21041","area_sqm":122.7},"geometry":{"type":"Polygon","coordinates":[[[90.335996,23.806538],[90.336163,23.806536],[90.336175,23.806597],[90.336018,23.806601],[90.335998,23.806603],[90.335996,23.806538]]]}},{"type":"Feature","properties":{"survey":"bds","sheet":"043","dag":"21086","label_bn":"21086","area_sqm":124.7},"geometry":{"type":"Polygon","coordinates":[[[90.336847,23.805748],[90.336848,23.805667],[90.336985,23.805655],[90.336982,23.805736],[90.336847,23.805748]]]}},{"type":"Feature","properties":{"survey":"bds","sheet":"043","dag":"21091","label_bn":"21091","area_sqm":138.9},"geometry":{"type":"Polygon","coordinates":[[[90.337542,23.805391],[90.337624,23.80538],[90.33763,23.805527],[90.337548,23.80554],[90.337542,23.805391]]]}},{"type":"Feature","properties":{"survey":"bds","sheet":"043","dag":"21096","label_bn":"21096","area_sqm":142.7},"geometry":{"type":"Polygon","coordinates":[[[90.338398,23.806093],[90.338423,23.805901],[90.33849,23.805905],[90.338461,23.806098],[90.338398,23.806093]]]}},{"type":"Feature","properties":{"survey":"bds","sheet":"043","dag":"21067","label_bn":"21067","area_sqm":142.8},"geometry":{"type":"Polygon","coordinates":[[[90.335976,23.806104],[90.336117,23.806102],[90.336122,23.806169],[90.336124,23.806192],[90.335985,23.806194],[90.335976,23.806104]]]}},{"type":"Feature","properties":{"survey":"bds","sheet":"043","dag":"21048","label_bn":"21048","area_sqm":162.5},"geometry":{"type":"Polygon","coordinates":[[[90.335377,23.806445],[90.335387,23.806368],[90.335388,23.806352],[90.335539,23.806352],[90.335535,23.806417],[90.335533,23.806445],[90.335377,23.806445]]]}},{"type":"Feature","properties":{"survey":"bds","sheet":"043","dag":"21070","label_bn":"21070","area_sqm":162.5},"geometry":{"type":"Polygon","coordinates":[[[90.335683,23.806081],[90.335685,23.805978],[90.335786,23.805971],[90.335814,23.805969],[90.335819,23.805968],[90.33582,23.806076],[90.335683,23.806081]]]}},{"type":"Feature","properties":{"survey":"bds","sheet":"043","dag":"21025","label_bn":"21025","area_sqm":162.5},"geometry":{"type":"Polygon","coordinates":[[[90.336717,23.807148],[90.336726,23.807047],[90.336869,23.807045],[90.336857,23.807147],[90.336732,23.807148],[90.336717,23.807148]]]}},{"type":"Feature","properties":{"survey":"bds","sheet":"043","dag":"21044","label_bn":"21044","area_sqm":162.7},"geometry":{"type":"Polygon","coordinates":[[[90.335672,23.806644],[90.335674,23.806542],[90.335674,23.806532],[90.335823,23.806532],[90.335823,23.806618],[90.335756,23.806624],[90.335672,23.806644]]]}},{"type":"Feature","properties":{"survey":"bds","sheet":"043","dag":"21097","label_bn":"21097","area_sqm":162.7},"geometry":{"type":"Polygon","coordinates":[[[90.338326,23.806088],[90.338346,23.805897],[90.338353,23.805897],[90.338356,23.805897],[90.338423,23.805901],[90.338398,23.806093],[90.338326,23.806088]]]}},{"type":"Feature","properties":{"survey":"bds","sheet":"043","dag":"21026","label_bn":"21026","area_sqm":162.8},"geometry":{"type":"Polygon","coordinates":[[[90.336857,23.807147],[90.336869,23.807045],[90.336877,23.807045],[90.337016,23.807044],[90.336994,23.807146],[90.336973,23.807145],[90.336952,23.807146],[90.336874,23.807146],[90.336857,23.807147]]]}},{"type":"Feature","properties":{"survey":"bds","sheet":"043","dag":"21081","label_bn":"21081","area_sqm":163.0},"geometry":{"type":"Polygon","coordinates":[[[90.33655,23.805675],[90.336652,23.805663],[90.336712,23.805661],[90.336716,23.805751],[90.336716,23.805753],[90.336558,23.805758],[90.33655,23.805675]]]}},{"type":"Feature","properties":{"survey":"bds","sheet":"043","dag":"21082","label_bn":"21082","area_sqm":163.0},"geometry":{"type":"Polygon","coordinates":[[[90.336536,23.805539],[90.33665,23.805537],[90.336653,23.805564],[90.336652,23.805663],[90.33655,23.805675],[90.336536,23.805539]]]}},{"type":"Feature","properties":{"survey":"bds","sheet":"043","dag":"21085","label_bn":"21085","area_sqm":168.6},"geometry":{"type":"Polygon","coordinates":[[[90.336712,23.805655],[90.336849,23.805634],[90.336848,23.805667],[90.336847,23.805748],[90.336717,23.805763],[90.336716,23.805753],[90.336716,23.805751],[90.336712,23.805661],[90.336712,23.805655]]]}},{"type":"Feature","properties":{"survey":"bds","sheet":"043","dag":"21009","label_bn":"21009","area_sqm":185.2},"geometry":{"type":"Polygon","coordinates":[[[90.336381,23.807483],[90.336562,23.807481],[90.336562,23.807491],[90.336561,23.807497],[90.336556,23.807575],[90.336556,23.807577],[90.336394,23.807578],[90.336394,23.807576],[90.33639,23.807544],[90.336383,23.807498],[90.336382,23.807492],[90.336381,23.807483]]]}},{"type":"Feature","properties":{"survey":"bds","sheet":"043","dag":"21099","label_bn":"21099","area_sqm":186.1},"geometry":{"type":"Polygon","coordinates":[[[90.33806,23.806047],[90.338073,23.805978],[90.338073,23.805977],[90.338092,23.805885],[90.338187,23.805888],[90.338156,23.806062],[90.33806,23.806047]]]}},{"type":"Feature","properties":{"survey":"bds","sheet":"043","dag":"21105","label_bn":"21105","area_sqm":189.0},"geometry":{"type":"Polygon","coordinates":[[[90.337991,23.806361],[90.337995,23.806256],[90.338147,23.806264],[90.338143,23.806375],[90.338078,23.806371],[90.338054,23.806368],[90.337991,23.806361]]]}},{"type":"Feature","properties":{"survey":"bds","sheet":"043","dag":"21016","label_bn":"21016","area_sqm":193.0},"geometry":{"type":"Polygon","coordinates":[[[90.336037,23.807021],[90.33618,23.807024],[90.336176,23.807152],[90.336047,23.807145],[90.336037,23.807021]]]}},{"type":"Feature","properties":{"survey":"bds","sheet":"043","dag":"21015","label_bn":"21015","area_sqm":193.0},"geometry":{"type":"Polygon","coordinates":[[[90.335879,23.807025],[90.336016,23.807022],[90.336037,23.807021],[90.336047,23.807145],[90.335937,23.80714],[90.335919,23.807139],[90.335879,23.807025]]]}},{"type":"Feature","properties":{"survey":"bds","sheet":"043","dag":"21061","label_bn":"21061","area_sqm":193.8},"geometry":{"type":"Polygon","coordinates":[[[90.335987,23.806258],[90.336129,23.806258],[90.33613,23.806265],[90.336135,23.806328],[90.336138,23.806375],[90.335991,23.806376],[90.33599,23.806349],[90.335987,23.806258]]]}},{"type":"Feature","properties":{"survey":"bds","sheet":"043","dag":"21080","label_bn":"21080","area_sqm":195.2},"geometry":{"type":"Polygon","coordinates":[[[90.336558,23.805758],[90.336716,23.805753],[90.336717,23.805763],[90.336722,23.805867],[90.336569,23.805865],[90.336569,23.805868],[90.336558,23.805758]]]}},{"type":"Feature","properties":{"survey":"bds","sheet":"043","dag":"21051","label_bn":"21051","area_sqm":202.9},"geometry":{"type":"Polygon","coordinates":[[[90.335416,23.806129],[90.335432,23.805998],[90.335561,23.805988],[90.335553,23.806125],[90.335552,23.806128],[90.335416,23.806129]]]}},{"type":"Feature","properties":{"survey":"bds","sheet":"043","dag":"21102","label_bn":"21102","area_sqm":203.1},"geometry":{"type":"Polygon","coordinates":[[[90.337832,23.806024],[90.337833,23.806012],[90.337844,23.805883],[90.337976,23.805881],[90.337958,23.805974],[90.337948,23.80603],[90.337912,23.806028],[90.337832,23.806024]]]}},{"type":"Feature","properties":{"survey":"bds","sheet":"043","dag":"21008","label_bn":"21008","area_sqm":203.2},"geometry":{"type":"Polygon","coordinates":[[[90.336394,23.807578],[90.336556,23.807577],[90.336555,23.807594],[90.336551,23.807659],[90.33655,23.807671],[90.33655,23.80768],[90.336549,23.807695],[90.336548,23.807697],[90.336412,23.807698],[90.336411,23.807695],[90.336404,23.807642],[90.336394,23.807578]]]}},{"type":"Feature","properties":{"survey":"bds","sheet":"043","dag":"21078","label_bn":"21078","area_sqm":203.2},"geometry":{"type":"Polygon","coordinates":[[[90.336845,23.805887],[90.336847,23.805748],[90.336982,23.805736],[90.336971,23.805867],[90.336972,23.805874],[90.336845,23.805887]]]}},{"type":"Feature","properties":{"survey":"bds","sheet":"043","dag":"21020","label_bn":"21020","area_sqm":203.3},"geometry":{"type":"Polygon","coordinates":[[[90.335756,23.806624],[90.335823,23.806618],[90.335846,23.806616],[90.335872,23.806614],[90.335873,23.806614],[90.335889,23.806782],[90.335797,23.806784],[90.335795,23.806779],[90.335765,23.806691],[90.335756,23.806624]]]}},{"type":"Feature","properties":{"survey":"bds","sheet":"043","dag":"21057","label_bn":"21057","area_sqm":203.4},"geometry":{"type":"Polygon","coordinates":[[[90.335822,23.806401],[90.335991,23.806402],[90.335992,23.806429],[90.335994,23.806473],[90.335995,23.806507],[90.335823,23.806507],[90.335822,23.806401]]]}},{"type":"Feature","properties":{"survey":"bds","sheet":"043","dag":"21054","label_bn":"21054","area_sqm":203.4},"geometry":{"type":"Polygon","coordinates":[[[90.335535,23.806417],[90.335539,23.806352],[90.335543,23.806288],[90.335679,23.806288],[90.335678,23.806336],[90.335676,23.806417],[90.335535,23.806417]]]}},{"type":"Feature","properties":{"survey":"bds","sheet":"043","dag":"21018","label_bn":"21018","area_sqm":203.4},"geometry":{"type":"Polygon","coordinates":[[[90.33584,23.806911],[90.336014,23.806905],[90.336016,23.807022],[90.335879,23.807025],[90.335877,23.807018],[90.33584,23.806911]]]}},{"type":"Feature","properties":{"survey":"bds","sheet":"043","dag":"21046","label_bn":"21046","area_sqm":203.4},"geometry":{"type":"Polygon","coordinates":[[[90.335377,23.806562],[90.335526,23.806561],[90.335519,23.806679],[90.335387,23.806699],[90.335377,23.806563],[90.335377,23.806562]]]}},{"type":"Feature","properties":{"survey":"bds","sheet":"043","dag":"21047","label_bn":"21047","area_sqm":203.5},"geometry":{"type":"Polygon","coordinates":[[[90.335375,23.806548],[90.335375,23.806458],[90.335377,23.806445],[90.335533,23.806445],[90.335527,23.806541],[90.335526,23.806561],[90.335377,23.806562],[90.335375,23.806548]]]}},{"type":"Feature","properties":{"survey":"bds","sheet":"043","dag":"21069","label_bn":"21069","area_sqm":203.6},"geometry":{"type":"Polygon","coordinates":[[[90.335819,23.805968],[90.335961,23.805957],[90.335973,23.806083],[90.33582,23.806086],[90.33582,23.806076],[90.335819,23.805968]]]}},{"type":"Feature","properties":{"survey":"bds","sheet":"043","dag":"21064","label_bn":"21064","area_sqm":203.7},"geometry":{"type":"Polygon","coordinates":[[[90.335678,23.806336],[90.335679,23.806288],[90.33568,23.806209],[90.335821,23.806209],[90.335822,23.806336],[90.335678,23.806336]]]}},{"type":"Feature","properties":{"survey":"bds","sheet":"043","dag":"21045","label_bn":"21045","area_sqm":203.7},"geometry":{"type":"Polygon","coordinates":[[[90.335519,23.806679],[90.335526,23.806561],[90.335527,23.806541],[90.335674,23.806542],[90.335672,23.806644],[90.335546,23.806675],[90.335519,23.806679]]]}},{"type":"Feature","properties":{"survey":"bds","sheet":"043","dag":"21066","label_bn":"21066","area_sqm":203.8},"geometry":{"type":"Polygon","coordinates":[[[90.33582,23.806086],[90.335973,23.806083],[90.335976,23.806104],[90.335985,23.806194],[90.335985,23.806197],[90.335821,23.806198],[90.33582,23.806086]]]}},{"type":"Feature","properties":{"survey":"bds","sheet":"043","dag":"21055","label_bn":"21055","area_sqm":203.8},"geometry":{"type":"Polygon","coordinates":[[[90.335527,23.806541],[90.335533,23.806445],[90.335535,23.806417],[90.335676,23.806417],[90.335674,23.806532],[90.335674,23.806542],[90.335527,23.806541]]]}},{"type":"Feature","properties":{"survey":"bds","sheet":"043","dag":"21043","label_bn":"21043","area_sqm":204.0},"geometry":{"type":"Polygon","coordinates":[[[90.335823,23.806507],[90.335995,23.806507],[90.335996,23.806538],[90.335998,23.806603],[90.335873,23.806614],[90.335872,23.806614],[90.335846,23.806616],[90.335823,23.806618],[90.335823,23.806532],[90.335823,23.806507]]]}},{"type":"Feature","properties":{"survey":"bds","sheet":"043","dag":"21052","label_bn":"21052","area_sqm":204.0},"geometry":{"type":"Polygon","coordinates":[[[90.335553,23.806125],[90.335561,23.805988],[90.335663,23.80598],[90.335685,23.805978],[90.335683,23.806081],[90.335682,23.806125],[90.335553,23.806125]]]}},{"type":"Feature","properties":{"survey":"bds","sheet":"043","dag":"21079","label_bn":"21079","area_sqm":204.0},"geometry":{"type":"Polygon","coordinates":[[[90.336717,23.805763],[90.336847,23.805748],[90.336845,23.805887],[90.336785,23.805898],[90.336723,23.805909],[90.336722,23.805867],[90.336717,23.805763]]]}},{"type":"Feature","properties":{"survey":"bds","sheet":"043","dag":"21065","label_bn":"21065","area_sqm":205.0},"geometry":{"type":"Polygon","coordinates":[[[90.33568,23.806209],[90.335682,23.806125],[90.335683,23.806081],[90.33582,23.806076],[90.33582,23.806086],[90.335821,23.806198],[90.335821,23.806209],[90.33568,23.806209]]]}},{"type":"Feature","properties":{"survey":"bds","sheet":"043","dag":"21089","label_bn":"21089","area_sqm":207.7},"geometry":{"type":"Polygon","coordinates":[[[90.337249,23.805431],[90.337371,23.805415],[90.337383,23.805561],[90.337256,23.805577],[90.337249,23.805431]]]}},{"type":"Feature","properties":{"survey":"bds","sheet":"043","dag":"21027","label_bn":"21027","area_sqm":209.1},"geometry":{"type":"Polygon","coordinates":[[[90.336877,23.807045],[90.336897,23.806917],[90.336903,23.806917],[90.337044,23.806913],[90.337016,23.807044],[90.336877,23.807045]]]}},{"type":"Feature","properties":{"survey":"bds","sheet":"043","dag":"21092","label_bn":"21092","area_sqm":214.7},"geometry":{"type":"Polygon","coordinates":[[[90.337624,23.80538],[90.337723,23.805393],[90.337781,23.805412],[90.337695,23.805569],[90.33763,23.805527],[90.337624,23.80538]]]}},{"type":"Feature","properties":{"survey":"bds","sheet":"043","dag":"21017","label_bn":"21017","area_sqm":223.4},"geometry":{"type":"Polygon","coordinates":[[[90.336014,23.806905],[90.336016,23.806905],[90.336016,23.806905],[90.336183,23.806904],[90.33618,23.807024],[90.336037,23.807021],[90.336016,23.807022],[90.336014,23.806905]]]}},{"type":"Feature","properties":{"survey":"bds","sheet":"043","dag":"21007","label_bn":"21007","area_sqm":243.7},"geometry":{"type":"Polygon","coordinates":[[[90.336412,23.807698],[90.336548,23.807697],[90.336548,23.807706],[90.336547,23.807717],[90.336542,23.807797],[90.336541,23.807808],[90.336537,23.807854],[90.336477,23.807878],[90.336428,23.807886],[90.336425,23.807848],[90.33642,23.807765],[90.336418,23.80774],[90.336415,23.807716],[90.336412,23.807698]]]}},{"type":"Feature","properties":{"survey":"bds","sheet":"043","dag":"21050","label_bn":"21050","area_sqm":243.9},"geometry":{"type":"Polygon","coordinates":[[[90.335395,23.80628],[90.335416,23.806131],[90.335416,23.806129],[90.335552,23.806128],[90.335543,23.80628],[90.335395,23.80628]]]}},{"type":"Feature","properties":{"survey":"bds","sheet":"043","dag":"21022","label_bn":"21022","area_sqm":244.0},"geometry":{"type":"Polygon","coordinates":[[[90.336015,23.806778],[90.336188,23.806778],[90.336183,23.806904],[90.336016,23.806905],[90.336015,23.806778]]]}},{"type":"Feature","properties":{"survey":"bds","sheet":"043","dag":"21053","label_bn":"21053","area_sqm":244.6},"geometry":{"type":"Polygon","coordinates":[[[90.335543,23.806288],[90.335543,23.80628],[90.335552,23.806128],[90.335553,23.806125],[90.335682,23.806125],[90.33568,23.806209],[90.335679,23.806288],[90.335543,23.806288]]]}},{"type":"Feature","properties":{"survey":"bds","sheet":"043","dag":"21068","label_bn":"21068","area_sqm":245.6},"geometry":{"type":"Polygon","coordinates":[[[90.335961,23.805957],[90.335962,23.805957],[90.335976,23.805956],[90.336105,23.805946],[90.336117,23.806102],[90.335976,23.806104],[90.335973,23.806083],[90.335961,23.805957]]]}},{"type":"Feature","properties":{"survey":"bds","sheet":"043","dag":"21074","label_bn":"21074","area_sqm":246.9},"geometry":{"type":"Polygon","coordinates":[[[90.336422,23.805893],[90.336569,23.805868],[90.336606,23.80601],[90.336459,23.806035],[90.336422,23.805893]]]}},{"type":"Feature","properties":{"survey":"bds","sheet":"043","dag":"21084","label_bn":"21084","area_sqm":247.0},"geometry":{"type":"Polygon","coordinates":[[[90.336707,23.805503],[90.336802,23.805487],[90.336853,23.80548],[90.336849,23.805634],[90.336712,23.805655],[90.336709,23.805559],[90.336707,23.805503]]]}},{"type":"Feature","properties":{"survey":"bds","sheet":"043","dag":"21003","label_bn":"21003","area_sqm":280.2},"geometry":{"type":"Polygon","coordinates":[[[90.336411,23.807999],[90.336428,23.807886],[90.336477,23.807878],[90.336537,23.807854],[90.336613,23.807901],[90.336652,23.807989],[90.336411,23.807999]]]}},{"type":"Feature","properties":{"survey":"bds","sheet":"043","dag":"21090","label_bn":"21090","area_sqm":282.2},"geometry":{"type":"Polygon","coordinates":[[[90.337371,23.805415],[90.337542,23.805391],[90.337548,23.80554],[90.337383,23.805561],[90.337371,23.805415]]]}},{"type":"Feature","properties":{"survey":"bds","sheet":"043","dag":"21019","label_bn":"21019","area_sqm":284.4},"geometry":{"type":"Polygon","coordinates":[[[90.335797,23.806784],[90.335889,23.806782],[90.336013,23.806778],[90.336015,23.806778],[90.336016,23.806905],[90.336016,23.806905],[90.336014,23.806905],[90.33584,23.806911],[90.335838,23.806905],[90.335797,23.806784]]]}},{"type":"Feature","properties":{"survey":"bds","sheet":"043","dag":"21103","label_bn":"21103","area_sqm":284.9},"geometry":{"type":"Polygon","coordinates":[[[90.337804,23.80634],[90.337832,23.806024],[90.337912,23.806028],[90.337881,23.806349],[90.33788,23.806348],[90.337827,23.806343],[90.337804,23.80634]]]}},{"type":"Feature","properties":{"survey":"bds","sheet":"043","dag":"21002","label_bn":"21002","area_sqm":285.0},"geometry":{"type":"Polygon","coordinates":[[[90.336257,23.807894],[90.336425,23.807848],[90.336428,23.807886],[90.336411,23.807999],[90.336262,23.808053],[90.336258,23.808055],[90.336257,23.807894]]]}},{"type":"Feature","properties":{"survey":"bds","sheet":"043","dag":"21063","label_bn":"21063","area_sqm":285.0},"geometry":{"type":"Polygon","coordinates":[[[90.335821,23.806198],[90.335985,23.806197],[90.335987,23.806258],[90.33599,23.806349],[90.335822,23.806348],[90.335822,23.806336],[90.335821,23.806209],[90.335821,23.806198]]]}},{"type":"Feature","properties":{"survey":"bds","sheet":"043","dag":"21108","label_bn":"21108","area_sqm":285.0},"geometry":{"type":"Polygon","coordinates":[[[90.338303,23.806276],[90.338326,23.806088],[90.338398,23.806093],[90.338461,23.806098],[90.338459,23.806108],[90.338452,23.806154],[90.338423,23.806295],[90.338303,23.806276]]]}},{"type":"Feature","properties":{"survey":"bds","sheet":"043","dag":"21056","label_bn":"21056","area_sqm":326.1},"geometry":{"type":"Polygon","coordinates":[[[90.335674,23.806532],[90.335676,23.806417],[90.335678,23.806336],[90.335822,23.806336],[90.335822,23.806348],[90.335822,23.806401],[90.335823,23.806507],[90.335823,23.806532],[90.335674,23.806532]]]}},{"type":"Feature","properties":{"survey":"bds","sheet":"043","dag":"21087","label_bn":"21087","area_sqm":335.0},"geometry":{"type":"Polygon","coordinates":[[[90.336848,23.805667],[90.336849,23.805634],[90.336853,23.80548],[90.336932,23.805465],[90.337006,23.805469],[90.33701,23.805615],[90.336985,23.805655],[90.336848,23.805667]]]}},{"type":"Feature","properties":{"survey":"bds","sheet":"043","dag":"21098","label_bn":"21098","area_sqm":345.7},"geometry":{"type":"Polygon","coordinates":[[[90.338156,23.806062],[90.338187,23.805888],[90.338189,23.805888],[90.338346,23.805897],[90.338326,23.806088],[90.338315,23.806086],[90.338156,23.806062]]]}},{"type":"Feature","properties":{"survey":"bds","sheet":"043","dag":"21107","label_bn":"21107","area_sqm":352.6},"geometry":{"type":"Polygon","coordinates":[[[90.338148,23.806252],[90.338156,23.806062],[90.338315,23.806086],[90.338326,23.806088],[90.338303,23.806276],[90.33829,23.806274],[90.338148,23.806252]]]}},{"type":"Feature","properties":{"survey":"bds","sheet":"043","dag":"21106","label_bn":"21106","area_sqm":366.9},"geometry":{"type":"Polygon","coordinates":[[[90.338143,23.806375],[90.338147,23.806264],[90.338148,23.806254],[90.338148,23.806252],[90.33829,23.806274],[90.338303,23.806276],[90.338423,23.806295],[90.3384,23.806411],[90.338278,23.806394],[90.338143,23.806375]]]}},{"type":"Feature","properties":{"survey":"bds","sheet":"043","dag":"21112","label_bn":"21112","area_sqm":381.7},"geometry":{"type":"Polygon","coordinates":[[[90.339018,23.805702],[90.339042,23.805607],[90.339173,23.805628],[90.339286,23.805662],[90.339465,23.805788],[90.339018,23.805702]]]}},{"type":"Feature","properties":{"survey":"bds","sheet":"043","dag":"21004","label_bn":"21004","area_sqm":406.6},"geometry":{"type":"Polygon","coordinates":[[[90.336537,23.807854],[90.336541,23.807808],[90.33686,23.807894],[90.336832,23.808015],[90.336791,23.808007],[90.336652,23.807989],[90.336613,23.807901],[90.336537,23.807854]]]}},{"type":"Feature","properties":{"survey":"bds","sheet":"043","dag":"21088","label_bn":"21088","area_sqm":410.2},"geometry":{"type":"Polygon","coordinates":[[[90.337006,23.805469],[90.337146,23.805444],[90.337249,23.805431],[90.337256,23.805577],[90.33701,23.805615],[90.337006,23.805469]]]}},{"type":"Feature","properties":{"survey":"bds","sheet":"043","dag":"21077","label_bn":"21077","area_sqm":423.2},"geometry":{"type":"Polygon","coordinates":[[[90.336785,23.805898],[90.336845,23.805887],[90.336972,23.805874],[90.336977,23.805918],[90.336994,23.806073],[90.336809,23.806091],[90.336785,23.805898]]]}},{"type":"Feature","properties":{"survey":"bds","sheet":"043","dag":"21033","label_bn":"21033","area_sqm":487.4},"geometry":{"type":"Polygon","coordinates":[[[90.338377,23.808418],[90.338452,23.808017],[90.338652,23.807529],[90.338723,23.807552],[90.338644,23.8077],[90.338545,23.807928],[90.338377,23.808418]]]}},{"type":"Feature","properties":{"survey":"bds","sheet":"043","dag":"21076","label_bn":"21076","area_sqm":543.9},"geometry":{"type":"Polygon","coordinates":[[[90.336569,23.805865],[90.336722,23.805867],[90.336723,23.805909],[90.336785,23.805898],[90.336809,23.806091],[90.336697,23.806171],[90.336611,23.80603],[90.336606,23.80601],[90.336569,23.805868],[90.336569,23.805865]]]}},{"type":"Feature","properties":{"survey":"bds","sheet":"043","dag":"21021","label_bn":"21021","area_sqm":609.9},"geometry":{"type":"Polygon","coordinates":[[[90.335873,23.806614],[90.335998,23.806603],[90.336018,23.806601],[90.336175,23.806597],[90.336191,23.806676],[90.336188,23.806778],[90.336015,23.806778],[90.336013,23.806778],[90.335889,23.806782],[90.335873,23.806614]]]}},{"type":"Feature","properties":{"survey":"bds","sheet":"043","dag":"21006","label_bn":"21006","area_sqm":650.5},"geometry":{"type":"Polygon","coordinates":[[[90.336541,23.807808],[90.336542,23.807797],[90.336547,23.807717],[90.336548,23.807706],[90.336548,23.807697],[90.336549,23.807695],[90.33655,23.80768],[90.33655,23.807671],[90.336902,23.807697],[90.336893,23.807742],[90.33686,23.807894],[90.336541,23.807808]]]}},{"type":"Feature","properties":{"survey":"bds","sheet":"043","dag":"21104","label_bn":"21104","area_sqm":734.7},"geometry":{"type":"Polygon","coordinates":[[[90.337881,23.806349],[90.337912,23.806028],[90.337948,23.80603],[90.33806,23.806047],[90.338156,23.806062],[90.338148,23.806252],[90.338148,23.806254],[90.338147,23.806264],[90.337995,23.806256],[90.337991,23.806361],[90.337881,23.806349]]]}},{"type":"Feature","properties":{"survey":"bds","sheet":"043","dag":"21011","label_bn":"21011","area_sqm":805.1},"geometry":{"type":"Polygon","coordinates":[[[90.336332,23.807159],[90.336583,23.807149],[90.336563,23.807471],[90.336562,23.807481],[90.336381,23.807483],[90.33637,23.807407],[90.336332,23.807159]]]}},{"type":"Feature","properties":{"survey":"bds","sheet":"043","dag":"21034","label_bn":"21034","area_sqm":821.5},"geometry":{"type":"Polygon","coordinates":[[[90.338652,23.807529],[90.338678,23.807464],[90.338837,23.806988],[90.338918,23.807],[90.338993,23.807011],[90.338923,23.807206],[90.338761,23.807481],[90.338761,23.807481],[90.338723,23.807552],[90.338652,23.807529]]]}},{"type":"Feature","properties":{"survey":"bds","sheet":"043","dag":"21115","label_bn":"21115","area_sqm":866.0},"geometry":{"type":"Polygon","coordinates":[[[90.338918,23.807],[90.338994,23.806557],[90.339084,23.806583],[90.339268,23.80665],[90.339135,23.806798],[90.338993,23.807011],[90.338918,23.807]]]}},{"type":"Feature","properties":{"survey":"bds","sheet":"043","dag":"21005","label_bn":"21005","area_sqm":1057.9},"geometry":{"type":"Polygon","coordinates":[[[90.336832,23.808015],[90.33686,23.807894],[90.336893,23.807742],[90.337226,23.807807],[90.337168,23.808071],[90.336832,23.808015]]]}},{"type":"Feature","properties":{"survey":"bds","sheet":"043","dag":"21111","label_bn":"21111","area_sqm":1092.8},"geometry":{"type":"Polygon","coordinates":[[[90.338602,23.805908],[90.338647,23.805651],[90.339018,23.805702],[90.338936,23.805972],[90.338602,23.805908]]]}},{"type":"Feature","properties":{"survey":"bds","sheet":"043","dag":"21032","label_bn":"21032","area_sqm":1132.0},"geometry":{"type":"Polygon","coordinates":[[[90.338117,23.808114],[90.338452,23.808017],[90.338377,23.808418],[90.338139,23.808419],[90.338117,23.808114]]]}},{"type":"Feature","properties":{"survey":"bds","sheet":"043","dag":"21013","label_bn":"21013","area_sqm":1236.6},"geometry":{"type":"Polygon","coordinates":[[[90.335926,23.807275],[90.335937,23.80714],[90.336047,23.807145],[90.336176,23.807152],[90.336332,23.807159],[90.33637,23.807407],[90.335927,23.80741],[90.335926,23.807275]]]}},{"type":"Feature","properties":{"survey":"bds","sheet":"043","dag":"21095","label_bn":"21095","area_sqm":1327.9},"geometry":{"type":"Polygon","coordinates":[[[90.338189,23.805888],[90.338224,23.805594],[90.338647,23.805651],[90.338602,23.805908],[90.33849,23.805905],[90.338423,23.805901],[90.338356,23.805897],[90.338353,23.805897],[90.338346,23.805897],[90.338189,23.805888]]]}},{"type":"Feature","properties":{"survey":"bds","sheet":"043","dag":"21031","label_bn":"21031","area_sqm":1430.4},"geometry":{"type":"Polygon","coordinates":[[[90.337581,23.80844],[90.337635,23.808223],[90.337861,23.808206],[90.338117,23.808114],[90.338139,23.808419],[90.337581,23.80844]]]}},{"type":"Feature","properties":{"survey":"bds","sheet":"043","dag":"21071","label_bn":"21071","area_sqm":1538.5},"geometry":{"type":"Polygon","coordinates":[[[90.335432,23.805998],[90.335447,23.80591],[90.335496,23.805598],[90.335492,23.805541],[90.335754,23.805525],[90.335786,23.805971],[90.335685,23.805978],[90.335663,23.80598],[90.335561,23.805988],[90.335432,23.805998]]]}},{"type":"Feature","properties":{"survey":"bds","sheet":"043","dag":"21114","label_bn":"21114","area_sqm":1569.6},"geometry":{"type":"Polygon","coordinates":[[[90.339084,23.806583],[90.339224,23.806331],[90.339351,23.806116],[90.339625,23.806189],[90.339561,23.80632],[90.339424,23.806481],[90.339268,23.80665],[90.339084,23.806583]]]}},{"type":"Feature","properties":{"survey":"bds","sheet":"043","dag":"21072","label_bn":"21072","area_sqm":1646.0},"geometry":{"type":"Polygon","coordinates":[[[90.335754,23.805525],[90.335906,23.805508],[90.335945,23.805505],[90.336076,23.805493],[90.336105,23.805946],[90.335976,23.805956],[90.335962,23.805957],[90.335961,23.805957],[90.335819,23.805968],[90.335814,23.805969],[90.335786,23.805971],[90.335754,23.805525]]]}},{"type":"Feature","properties":{"survey":"bds","sheet":"043","dag":"21012","label_bn":"21012","area_sqm":1829.8},"geometry":{"type":"Polygon","coordinates":[[[90.335832,23.807725],[90.335878,23.807658],[90.335905,23.807579],[90.335927,23.80741],[90.33637,23.807407],[90.336381,23.807483],[90.336382,23.807492],[90.336383,23.807498],[90.33639,23.807544],[90.336394,23.807576],[90.336394,23.807578],[90.336404,23.807642],[90.336411,23.807695],[90.336412,23.807698],[90.336415,23.807716],[90.336418,23.80774],[90.335832,23.807725]]]}},{"type":"Feature","properties":{"survey":"bds","sheet":"043","dag":"21094","label_bn":"21094","area_sqm":1975.4},"geometry":{"type":"Polygon","coordinates":[[[90.337695,23.805569],[90.337781,23.805412],[90.338224,23.805594],[90.338189,23.805888],[90.338187,23.805888],[90.338092,23.805885],[90.337979,23.805881],[90.337976,23.805881],[90.337844,23.805883],[90.337807,23.805805],[90.337695,23.805569]]]}},{"type":"Feature","properties":{"survey":"bds","sheet":"043","dag":"21075","label_bn":"21075","area_sqm":2144.2},"geometry":{"type":"Polygon","coordinates":[[[90.336105,23.805946],[90.336422,23.805893],[90.336459,23.806035],[90.336606,23.80601],[90.336611,23.80603],[90.336697,23.806171],[90.336143,23.806432],[90.336143,23.806428],[90.336138,23.806375],[90.336135,23.806328],[90.33613,23.806265],[90.336129,23.806258],[90.336124,23.806192],[90.336122,23.806169],[90.336117,23.806102],[90.336105,23.805946]]]}},{"type":"Feature","properties":{"survey":"bds","sheet":"043","dag":"21010","label_bn":"21010","area_sqm":2196.7},"geometry":{"type":"Polygon","coordinates":[[[90.33655,23.807671],[90.336551,23.807659],[90.336555,23.807594],[90.336556,23.807577],[90.336556,23.807575],[90.336561,23.807497],[90.336562,23.807491],[90.336562,23.807481],[90.336563,23.807471],[90.336583,23.807149],[90.336717,23.807148],[90.336732,23.807148],[90.336857,23.807147],[90.336874,23.807146],[90.336952,23.807146],[90.336902,23.807697],[90.33655,23.807671]]]}},{"type":"Feature","properties":{"survey":"bds","sheet":"043","dag":"21073","label_bn":"21073","area_sqm":2247.9},"geometry":{"type":"Polygon","coordinates":[[[90.336076,23.805493],[90.336529,23.805465],[90.336536,23.805539],[90.33655,23.805675],[90.336558,23.805758],[90.336569,23.805868],[90.336422,23.805893],[90.336105,23.805946],[90.336076,23.805493]]]}},{"type":"Feature","properties":{"survey":"bds","sheet":"043","dag":"21001","label_bn":"21001","area_sqm":2307.7},"geometry":{"type":"Polygon","coordinates":[[[90.335724,23.808033],[90.335752,23.807985],[90.335787,23.807886],[90.335832,23.807725],[90.336418,23.80774],[90.33642,23.807765],[90.336425,23.807848],[90.336257,23.807894],[90.336258,23.808055],[90.336121,23.808107],[90.336013,23.808151],[90.335981,23.808169],[90.335724,23.808033]]]}},{"type":"Feature","properties":{"survey":"bds","sheet":"043","dag":"21024","label_bn":"21024","area_sqm":2359.2},"geometry":{"type":"Polygon","coordinates":[[[90.336583,23.807149],[90.336611,23.806606],[90.336835,23.806538],[90.337007,23.806495],[90.337041,23.806881],[90.337044,23.806913],[90.336903,23.806917],[90.336897,23.806917],[90.336877,23.807045],[90.336869,23.807045],[90.336726,23.807047],[90.336717,23.807148],[90.336583,23.807149]]]}},{"type":"Feature","properties":{"survey":"bds","sheet":"043","dag":"21036","label_bn":"21036","area_sqm":2360.7},"geometry":{"type":"Polygon","coordinates":[[[90.33852,23.806927],[90.338529,23.806426],[90.338994,23.806557],[90.338918,23.807],[90.338837,23.806988],[90.338658,23.806953],[90.33852,23.806927]]]}},{"type":"Feature","properties":{"survey":"bds","sheet":"043","dag":"21109","label_bn":"21109","area_sqm":2386.0},"geometry":{"type":"Polygon","coordinates":[[[90.3384,23.806411],[90.338423,23.806295],[90.338452,23.806154],[90.338882,23.80622],[90.339089,23.806276],[90.339224,23.806331],[90.339084,23.806583],[90.338994,23.806557],[90.338529,23.806426],[90.3384,23.806411]]]}},{"type":"Feature","properties":{"survey":"bds","sheet":"043","dag":"21023","label_bn":"21023","area_sqm":2404.1},"geometry":{"type":"Polygon","coordinates":[[[90.336176,23.807152],[90.33618,23.807024],[90.336183,23.806904],[90.336188,23.806778],[90.336191,23.806676],[90.336611,23.806606],[90.336583,23.807149],[90.336332,23.807159],[90.336176,23.807152]]]}},{"type":"Feature","properties":{"survey":"bds","sheet":"043","dag":"21110","label_bn":"21110","area_sqm":2569.9},"geometry":{"type":"Polygon","coordinates":[[[90.338452,23.806154],[90.338459,23.806108],[90.338461,23.806098],[90.33849,23.805905],[90.338602,23.805908],[90.338936,23.805972],[90.339176,23.806012],[90.339365,23.806064],[90.339351,23.806116],[90.339224,23.806331],[90.339089,23.806276],[90.338882,23.80622],[90.338452,23.806154]]]}},{"type":"Feature","properties":{"survey":"bds","sheet":"043","dag":"21093","label_bn":"21093","area_sqm":2582.3},"geometry":{"type":"Polygon","coordinates":[[[90.336971,23.805867],[90.336982,23.805736],[90.336985,23.805655],[90.33701,23.805615],[90.337256,23.805577],[90.337383,23.805561],[90.337548,23.80554],[90.33763,23.805527],[90.337695,23.805569],[90.337807,23.805805],[90.336977,23.805918],[90.336972,23.805874],[90.336971,23.805867]]]}},{"type":"Feature","properties":{"survey":"bds","sheet":"043","dag":"21113","label_bn":"21113","area_sqm":2651.2},"geometry":{"type":"Polygon","coordinates":[[[90.338936,23.805972],[90.339018,23.805702],[90.339465,23.805788],[90.339504,23.805815],[90.33956,23.805861],[90.33958,23.80587],[90.339786,23.805881],[90.339847,23.805885],[90.339832,23.805906],[90.339625,23.806189],[90.339351,23.806116],[90.339365,23.806064],[90.339176,23.806012],[90.338936,23.805972]]]}},{"type":"Feature","properties":{"survey":"bds","sheet":"043","dag":"21037","label_bn":"21037","area_sqm":2927.4},"geometry":{"type":"Polygon","coordinates":[[[90.338039,23.806934],[90.338054,23.806368],[90.338078,23.806371],[90.338143,23.806375],[90.338278,23.806394],[90.3384,23.806411],[90.338529,23.806426],[90.33852,23.806927],[90.338412,23.806906],[90.338379,23.806915],[90.338271,23.806945],[90.338202,23.806965],[90.338151,23.806953],[90.338039,23.806934]]]}},{"type":"Feature","properties":{"survey":"bds","sheet":"043","dag":"21014","label_bn":"21014","area_sqm":3118.4},"geometry":{"type":"Polygon","coordinates":[[[90.335364,23.807219],[90.335394,23.806757],[90.335387,23.806699],[90.335519,23.806679],[90.335546,23.806675],[90.335672,23.806644],[90.335756,23.806624],[90.335765,23.806691],[90.335795,23.806779],[90.335797,23.806784],[90.335838,23.806905],[90.33584,23.806911],[90.335877,23.807018],[90.335879,23.807025],[90.335919,23.807139],[90.335937,23.80714],[90.335926,23.807275],[90.335862,23.807263],[90.335364,23.807219]]]}},{"type":"Feature","properties":{"survey":"bds","sheet":"043","dag":"21035","label_bn":"21035","area_sqm":3171.3},"geometry":{"type":"Polygon","coordinates":[[[90.33818,23.807238],[90.338202,23.806965],[90.338271,23.806945],[90.338379,23.806915],[90.338412,23.806906],[90.33852,23.806927],[90.338658,23.806953],[90.338837,23.806988],[90.338678,23.807464],[90.338652,23.807529],[90.338457,23.807476],[90.33818,23.807238]]]}},{"type":"Feature","properties":{"survey":"bds","sheet":"043","dag":"21040","label_bn":"21040","area_sqm":3540.1},"geometry":{"type":"Polygon","coordinates":[[[90.336143,23.806432],[90.336697,23.806171],[90.336809,23.806091],[90.336994,23.806073],[90.337007,23.806495],[90.336835,23.806538],[90.336611,23.806606],[90.336191,23.806676],[90.336175,23.806597],[90.336163,23.806536],[90.336162,23.806528],[90.33615,23.806469],[90.336143,23.806432]]]}},{"type":"Feature","properties":{"survey":"bds","sheet":"043","dag":"21116","label_bn":"21116","area_sqm":4687.5},"geometry":{"type":"Polygon","coordinates":[[[90.338377,23.808418],[90.338545,23.807928],[90.338644,23.8077],[90.338723,23.807552],[90.338761,23.807481],[90.338761,23.807481],[90.338923,23.807206],[90.338993,23.807011],[90.339135,23.806798],[90.339268,23.80665],[90.339424,23.806481],[90.339561,23.80632],[90.339625,23.806189],[90.339832,23.805906],[90.339847,23.805885],[90.339934,23.806146],[90.339956,23.806195],[90.339771,23.806201],[90.339731,23.806317],[90.339596,23.806496],[90.339505,23.806611],[90.339169,23.806962],[90.339029,23.807283],[90.338907,23.807481],[90.338807,23.807724],[90.338706,23.807959],[90.338581,23.808244],[90.338489,23.808425],[90.338377,23.808418]]]}},{"type":"Feature","properties":{"survey":"bds","sheet":"043","dag":"21038","label_bn":"21038","area_sqm":5448.4},"geometry":{"type":"Polygon","coordinates":[[[90.337007,23.806495],[90.337526,23.806459],[90.33778,23.80634],[90.337804,23.80634],[90.337827,23.806343],[90.33788,23.806348],[90.337881,23.806349],[90.337991,23.806361],[90.338054,23.806368],[90.338039,23.806934],[90.33799,23.806925],[90.337812,23.806903],[90.337722,23.806892],[90.337041,23.806881],[90.337007,23.806495]]]}},{"type":"Feature","properties":{"survey":"bds","sheet":"043","dag":"21039","label_bn":"21039","area_sqm":5507.7},"geometry":{"type":"Polygon","coordinates":[[[90.336977,23.805918],[90.337807,23.805805],[90.337844,23.805883],[90.337833,23.806012],[90.337832,23.806024],[90.337804,23.80634],[90.33778,23.80634],[90.337526,23.806459],[90.337007,23.806495],[90.336994,23.806073],[90.336977,23.805918]]]}},{"type":"Feature","properties":{"survey":"bds","sheet":"043","dag":"21028","label_bn":"21028","area_sqm":6280.8},"geometry":{"type":"Polygon","coordinates":[[[90.336994,23.807146],[90.337016,23.807044],[90.337044,23.806913],[90.337041,23.806881],[90.337722,23.806892],[90.337812,23.806903],[90.33799,23.806925],[90.338039,23.806934],[90.338151,23.806953],[90.338202,23.806965],[90.33818,23.807238],[90.338457,23.807476],[90.337927,23.807478],[90.337913,23.807472],[90.337023,23.807146],[90.337014,23.807146],[90.336994,23.807146]]]}},{"type":"Feature","properties":{"survey":"bds","sheet":"043","dag":"21029","label_bn":"21029","area_sqm":6342.1},"geometry":{"type":"Polygon","coordinates":[[[90.336893,23.807742],[90.336902,23.807697],[90.336952,23.807146],[90.336973,23.807145],[90.336994,23.807146],[90.337014,23.807146],[90.337023,23.807146],[90.337913,23.807472],[90.337472,23.808077],[90.337215,23.808079],[90.337168,23.808071],[90.337226,23.807807],[90.336893,23.807742]]]}},{"type":"Feature","properties":{"survey":"bds","sheet":"043","dag":"21030","label_bn":"21030","area_sqm":6479.1},"geometry":{"type":"Polygon","coordinates":[[[90.337472,23.808077],[90.337913,23.807472],[90.337927,23.807478],[90.338457,23.807476],[90.338652,23.807529],[90.338452,23.808017],[90.338117,23.808114],[90.337861,23.808206],[90.337635,23.808223],[90.337472,23.808077]]]}},{"type":"Feature","properties":{"survey":"bds","sheet":"043","dag":"21117","label_bn":"21117","area_sqm":19574.3},"geometry":{"type":"Polygon","coordinates":[[[90.339961,23.806207],[90.340337,23.806368],[90.340585,23.806459],[90.340568,23.806485],[90.340522,23.806563],[90.340489,23.806613],[90.34046,23.806649],[90.340422,23.806689],[90.340386,23.806727],[90.340365,23.806749],[90.340345,23.80677],[90.340301,23.806806],[90.340253,23.806859],[90.340208,23.806907],[90.340157,23.806959],[90.340062,23.807055],[90.339996,23.807125],[90.339958,23.807167],[90.339894,23.807239],[90.339839,23.807292],[90.339814,23.80732],[90.33977,23.807368],[90.33974,23.807412],[90.339717,23.80744],[90.339682,23.807476],[90.339635,23.807532],[90.339599,23.807574],[90.339564,23.807622],[90.339534,23.807659],[90.339466,23.807742],[90.339439,23.807782],[90.339423,23.807812],[90.33938,23.807891],[90.339334,23.807958],[90.339275,23.80806],[90.339266,23.808081],[90.339261,23.808101],[90.33924,23.808184],[90.33923,23.808259],[90.339219,23.808323],[90.339207,23.808398],[90.3392,23.808454],[90.3392,23.808465],[90.338635,23.808433],[90.338489,23.808425],[90.338581,23.808244],[90.338706,23.807959],[90.338807,23.807724],[90.338907,23.807481],[90.339029,23.807283],[90.339169,23.806962],[90.339505,23.806611],[90.339596,23.806496],[90.339731,23.806317],[90.339771,23.806201],[90.339956,23.806195],[90.339961,23.806207]]]}}]}