{"type":"FeatureCollection","features":[{"type":"Feature","properties":{"survey":"bds","sheet":"044","dag":"21559","label_bn":"21559","area_sqm":78.3},"geometry":{"type":"Polygon","coordinates":[[[90.334101,23.806905],[90.33411,23.806779],[90.334166,23.806767],[90.334157,23.806887],[90.334157,23.806894],[90.334101,23.806905]]]}},{"type":"Feature","properties":{"survey":"bds","sheet":"044","dag":"21548","label_bn":"21548","area_sqm":86.9},"geometry":{"type":"Polygon","coordinates":[[[90.333224,23.806414],[90.333226,23.806302],[90.333293,23.806309],[90.333295,23.806419],[90.333224,23.806414]]]}},{"type":"Feature","properties":{"survey":"bds","sheet":"044","dag":"21560","label_bn":"21560","area_sqm":100.4},"geometry":{"type":"Polygon","coordinates":[[[90.334157,23.806894],[90.334157,23.806887],[90.334166,23.806767],[90.334235,23.806752],[90.334227,23.806882],[90.334157,23.806894]]]}},{"type":"Feature","properties":{"survey":"bds","sheet":"044","dag":"21573","label_bn":"21573","area_sqm":101.6},"geometry":{"type":"Polygon","coordinates":[[[90.334963,23.806508],[90.334986,23.806376],[90.335052,23.806374],[90.335033,23.806505],[90.334963,23.806508]]]}},{"type":"Feature","properties":{"survey":"bds","sheet":"044","dag":"21569","label_bn":"21569","area_sqm":101.8},"geometry":{"type":"Polygon","coordinates":[[[90.334624,23.806504],[90.334648,23.80637],[90.334713,23.806383],[90.334691,23.806513],[90.334624,23.806504]]]}},{"type":"Feature","properties":{"survey":"bds","sheet":"044","dag":"21525","label_bn":"21525","area_sqm":103.2},"geometry":{"type":"Polygon","coordinates":[[[90.335741,23.807856],[90.335844,23.807649],[90.33587,23.807607],[90.335895,23.807607],[90.335878,23.807658],[90.335832,23.807725],[90.335794,23.80786],[90.335741,23.807856]]]}},{"type":"Feature","properties":{"survey":"bds","sheet":"044","dag":"21506","label_bn":"21506","area_sqm":121.8},"geometry":{"type":"Polygon","coordinates":[[[90.334153,23.808673],[90.334163,23.808491],[90.334219,23.808494],[90.334219,23.808494],[90.334215,23.808677],[90.334212,23.808677],[90.334153,23.808673]]]}},{"type":"Feature","properties":{"survey":"bds","sheet":"044","dag":"21566","label_bn":"21566","area_sqm":122.4},"geometry":{"type":"Polygon","coordinates":[[[90.334354,23.806379],[90.334359,23.806358],[90.3344,23.806188],[90.334459,23.806196],[90.334413,23.806371],[90.334354,23.806379]]]}},{"type":"Feature","properties":{"survey":"bds","sheet":"044","dag":"21526","label_bn":"21526","area_sqm":135.2},"geometry":{"type":"Polygon","coordinates":[[[90.33587,23.807607],[90.335897,23.80727],[90.335926,23.807275],[90.335927,23.80741],[90.335905,23.807579],[90.335895,23.807607],[90.33587,23.807607]]]}},{"type":"Feature","properties":{"survey":"bds","sheet":"044","dag":"21502","label_bn":"21502","area_sqm":150.2},"geometry":{"type":"Polygon","coordinates":[[[90.333814,23.808641],[90.333886,23.808489],[90.33396,23.808489],[90.333905,23.808651],[90.333814,23.808641]]]}},{"type":"Feature","properties":{"survey":"bds","sheet":"044","dag":"21558","label_bn":"21558","area_sqm":156.1},"geometry":{"type":"Polygon","coordinates":[[[90.333991,23.806929],[90.333999,23.806802],[90.33411,23.806779],[90.334101,23.806905],[90.334095,23.806906],[90.333991,23.806929]]]}},{"type":"Feature","properties":{"survey":"bds","sheet":"044","dag":"21557","label_bn":"21557","area_sqm":156.2},"geometry":{"type":"Polygon","coordinates":[[[90.333972,23.807046],[90.333974,23.806932],[90.333991,23.806929],[90.334095,23.806906],[90.334093,23.80702],[90.333972,23.807046]]]}},{"type":"Feature","properties":{"survey":"bds","sheet":"044","dag":"21565","label_bn":"21565","area_sqm":162.5},"geometry":{"type":"Polygon","coordinates":[[[90.334279,23.806358],[90.334318,23.806177],[90.334327,23.806179],[90.3344,23.806188],[90.334359,23.806358],[90.334279,23.806358]]]}},{"type":"Feature","properties":{"survey":"bds","sheet":"044","dag":"21549","label_bn":"21549","area_sqm":166.2},"geometry":{"type":"Polygon","coordinates":[[[90.333226,23.806302],[90.333248,23.806194],[90.333382,23.806206],[90.333356,23.806313],[90.333293,23.806309],[90.333226,23.806302]]]}},{"type":"Feature","properties":{"survey":"bds","sheet":"044","dag":"21550","label_bn":"21550","area_sqm":168.3},"geometry":{"type":"Polygon","coordinates":[[[90.333248,23.806194],[90.333251,23.806179],[90.333325,23.806066],[90.333419,23.806096],[90.333403,23.806127],[90.333382,23.806206],[90.333248,23.806194]]]}},{"type":"Feature","properties":{"survey":"bds","sheet":"044","dag":"21522","label_bn":"21522","area_sqm":169.7},"geometry":{"type":"Polygon","coordinates":[[[90.335367,23.808165],[90.335368,23.808147],[90.335378,23.808012],[90.33538,23.807979],[90.335466,23.807987],[90.335457,23.80809],[90.335451,23.808152],[90.335367,23.808165]]]}},{"type":"Feature","properties":{"survey":"bds","sheet":"044","dag":"21501","label_bn":"21501","area_sqm":186.8},"geometry":{"type":"Polygon","coordinates":[[[90.333771,23.808798],[90.333814,23.808641],[90.333905,23.808651],[90.33391,23.808651],[90.333879,23.808811],[90.333771,23.808798]]]}},{"type":"Feature","properties":{"survey":"bds","sheet":"044","dag":"21541","label_bn":"21541","area_sqm":189.7},"geometry":{"type":"Polygon","coordinates":[[[90.3333,23.806854],[90.333364,23.806842],[90.333364,23.806841],[90.333423,23.806836],[90.333442,23.806835],[90.333464,23.806958],[90.333344,23.806973],[90.3333,23.806854]]]}},{"type":"Feature","properties":{"survey":"bds","sheet":"044","dag":"21556","label_bn":"21556","area_sqm":196.1},"geometry":{"type":"Polygon","coordinates":[[[90.333816,23.80708],[90.333825,23.806965],[90.333974,23.806932],[90.333972,23.807046],[90.333913,23.807059],[90.333816,23.80708]]]}},{"type":"Feature","properties":{"survey":"bds","sheet":"044","dag":"21575","label_bn":"21575","area_sqm":201.5},"geometry":{"type":"Polygon","coordinates":[[[90.334691,23.806513],[90.334713,23.806383],[90.334755,23.806382],[90.334849,23.806381],[90.334826,23.806513],[90.334778,23.806513],[90.334691,23.806513]]]}},{"type":"Feature","properties":{"survey":"bds","sheet":"044","dag":"21574","label_bn":"21574","area_sqm":203.2},"geometry":{"type":"Polygon","coordinates":[[[90.334826,23.806513],[90.334849,23.806381],[90.334986,23.806376],[90.334963,23.806508],[90.334962,23.806508],[90.334938,23.806509],[90.334826,23.806513]]]}},{"type":"Feature","properties":{"survey":"bds","sheet":"044","dag":"21571","label_bn":"21571","area_sqm":204.5},"geometry":{"type":"Polygon","coordinates":[[[90.33462,23.80619],[90.33467,23.806075],[90.334814,23.806093],[90.334779,23.806207],[90.33462,23.80619]]]}},{"type":"Feature","properties":{"survey":"bds","sheet":"044","dag":"21504","label_bn":"21504","area_sqm":216.1},"geometry":{"type":"Polygon","coordinates":[[[90.333879,23.808811],[90.33391,23.808651],[90.33403,23.808663],[90.333991,23.808824],[90.333879,23.808811]]]}},{"type":"Feature","properties":{"survey":"bds","sheet":"044","dag":"21543","label_bn":"21543","area_sqm":221.6},"geometry":{"type":"Polygon","coordinates":[[[90.33303,23.806872],[90.333146,23.806806],[90.333295,23.806855],[90.333104,23.806957],[90.33303,23.806872]]]}},{"type":"Feature","properties":{"survey":"bds","sheet":"044","dag":"21555","label_bn":"21555","area_sqm":234.2},"geometry":{"type":"Polygon","coordinates":[[[90.333825,23.806965],[90.333826,23.806942],[90.333833,23.806838],[90.3339,23.806824],[90.333979,23.806807],[90.333999,23.806802],[90.333991,23.806929],[90.333974,23.806932],[90.333825,23.806965]]]}},{"type":"Feature","properties":{"survey":"bds","sheet":"044","dag":"21545","label_bn":"21545","area_sqm":243.8},"geometry":{"type":"Polygon","coordinates":[[[90.333322,23.806574],[90.333409,23.806533],[90.333423,23.806836],[90.333364,23.806841],[90.333322,23.806574]]]}},{"type":"Feature","properties":{"survey":"bds","sheet":"044","dag":"21507","label_bn":"21507","area_sqm":244.1},"geometry":{"type":"Polygon","coordinates":[[[90.334215,23.808677],[90.334219,23.808494],[90.334255,23.808496],[90.334332,23.808499],[90.334334,23.808688],[90.334319,23.808686],[90.334248,23.80868],[90.334215,23.808677]]]}},{"type":"Feature","properties":{"survey":"bds","sheet":"044","dag":"21523","label_bn":"21523","area_sqm":258.7},"geometry":{"type":"Polygon","coordinates":[[[90.335451,23.808152],[90.335457,23.80809],[90.335466,23.807987],[90.335598,23.808],[90.335631,23.808003],[90.335701,23.808009],[90.335561,23.808116],[90.335499,23.808136],[90.335471,23.808146],[90.335451,23.808152]]]}},{"type":"Feature","properties":{"survey":"bds","sheet":"044","dag":"21562","label_bn":"21562","area_sqm":284.2},"geometry":{"type":"Polygon","coordinates":[[[90.333828,23.806596],[90.333837,23.80644],[90.333992,23.80643],[90.334007,23.806429],[90.334,23.806569],[90.333982,23.806571],[90.333828,23.806596]]]}},{"type":"Feature","properties":{"survey":"bds","sheet":"044","dag":"21542","label_bn":"21542","area_sqm":297.8},"geometry":{"type":"Polygon","coordinates":[[[90.333104,23.806957],[90.333295,23.806855],[90.3333,23.806854],[90.333344,23.806973],[90.33333,23.806975],[90.333318,23.806983],[90.333197,23.807069],[90.333104,23.806957]]]}},{"type":"Feature","properties":{"survey":"bds","sheet":"044","dag":"21546","label_bn":"21546","area_sqm":321.0},"geometry":{"type":"Polygon","coordinates":[[[90.333293,23.806309],[90.333356,23.806313],[90.333414,23.806319],[90.333409,23.806533],[90.333322,23.806574],[90.333299,23.806576],[90.333295,23.806419],[90.333293,23.806309]]]}},{"type":"Feature","properties":{"survey":"bds","sheet":"044","dag":"21552","label_bn":"21552","area_sqm":324.2},"geometry":{"type":"Polygon","coordinates":[[[90.333519,23.806327],[90.333566,23.806139],[90.333728,23.80615],[90.333679,23.806309],[90.333585,23.80633],[90.333519,23.806327]]]}},{"type":"Feature","properties":{"survey":"bds","sheet":"044","dag":"21530","label_bn":"21530","area_sqm":325.2},"geometry":{"type":"Polygon","coordinates":[[[90.334916,23.807618],[90.334918,23.807606],[90.334931,23.807562],[90.334933,23.807554],[90.334936,23.807534],[90.334941,23.807505],[90.33519,23.807532],[90.33516,23.807645],[90.33516,23.807647],[90.334916,23.807618]]]}},{"type":"Feature","properties":{"survey":"bds","sheet":"044","dag":"21547","label_bn":"21547","area_sqm":352.6},"geometry":{"type":"Polygon","coordinates":[[[90.333107,23.80659],[90.333133,23.806389],[90.333224,23.806414],[90.333295,23.806419],[90.333299,23.806576],[90.333107,23.80659]]]}},{"type":"Feature","properties":{"survey":"bds","sheet":"044","dag":"21551","label_bn":"21551","area_sqm":353.4},"geometry":{"type":"Polygon","coordinates":[[[90.333356,23.806313],[90.333382,23.806206],[90.333403,23.806127],[90.333566,23.806139],[90.333519,23.806327],[90.333414,23.806319],[90.333356,23.806313]]]}},{"type":"Feature","properties":{"survey":"bds","sheet":"044","dag":"21508","label_bn":"21508","area_sqm":360.4},"geometry":{"type":"Polygon","coordinates":[[[90.334233,23.808843],[90.334248,23.80868],[90.334319,23.808686],[90.334334,23.808688],[90.334359,23.80869],[90.334436,23.808698],[90.334423,23.808867],[90.334233,23.808843]]]}},{"type":"Feature","properties":{"survey":"bds","sheet":"044","dag":"21563","label_bn":"21563","area_sqm":361.1},"geometry":{"type":"Polygon","coordinates":[[[90.333921,23.80634],[90.333948,23.806129],[90.334101,23.806149],[90.334063,23.806361],[90.333997,23.806361],[90.333999,23.80634],[90.333921,23.80634]]]}},{"type":"Feature","properties":{"survey":"bds","sheet":"044","dag":"21576","label_bn":"21576","area_sqm":367.1},"geometry":{"type":"Polygon","coordinates":[[[90.334778,23.806513],[90.334826,23.806513],[90.334938,23.806509],[90.334929,23.806593],[90.334946,23.806723],[90.334791,23.806727],[90.334778,23.806513]]]}},{"type":"Feature","properties":{"survey":"bds","sheet":"044","dag":"21505","label_bn":"21505","area_sqm":427.5},"geometry":{"type":"Polygon","coordinates":[[[90.333991,23.808824],[90.33403,23.808663],[90.334153,23.808672],[90.334153,23.808673],[90.334212,23.808677],[90.334215,23.808677],[90.334248,23.80868],[90.334233,23.808843],[90.333991,23.808824]]]}},{"type":"Feature","properties":{"survey":"bds","sheet":"044","dag":"21516","label_bn":"21516","area_sqm":430.0},"geometry":{"type":"Polygon","coordinates":[[[90.334421,23.808503],[90.334438,23.808374],[90.334458,23.80825],[90.334574,23.808263],[90.334598,23.808267],[90.334578,23.808447],[90.334565,23.808527],[90.334421,23.808503]]]}},{"type":"Feature","properties":{"survey":"bds","sheet":"044","dag":"21503","label_bn":"21503","area_sqm":447.2},"geometry":{"type":"Polygon","coordinates":[[[90.333905,23.808651],[90.33396,23.808489],[90.333965,23.808489],[90.334115,23.808489],[90.334159,23.808491],[90.334163,23.808491],[90.334153,23.808673],[90.334153,23.808672],[90.33403,23.808663],[90.33391,23.808651],[90.333905,23.808651]]]}},{"type":"Feature","properties":{"survey":"bds","sheet":"044","dag":"21517","label_bn":"21517","area_sqm":448.5},"geometry":{"type":"Polygon","coordinates":[[[90.334139,23.80835],[90.334164,23.80822],[90.334286,23.808225],[90.334458,23.80825],[90.334438,23.808374],[90.334139,23.80835]]]}},{"type":"Feature","properties":{"survey":"bds","sheet":"044","dag":"21537","label_bn":"21537","area_sqm":448.7},"geometry":{"type":"Polygon","coordinates":[[[90.333726,23.807325],[90.333729,23.8072],[90.333735,23.80714],[90.33374,23.807096],[90.333816,23.80708],[90.333913,23.807059],[90.333886,23.807305],[90.333726,23.807325]]]}},{"type":"Feature","properties":{"survey":"bds","sheet":"044","dag":"21568","label_bn":"21568","area_sqm":406.7},"geometry":{"type":"Polygon","coordinates":[[[90.334621,23.806516],[90.334399,23.80652],[90.334413,23.806371],[90.334441,23.806353],[90.334636,23.806368],[90.334648,23.80637],[90.334624,23.806504],[90.334621,23.806516]]]}},{"type":"Feature","properties":{"survey":"bds","sheet":"044","dag":"21518","label_bn":"21518","area_sqm":462.6},"geometry":{"type":"Polygon","coordinates":[[[90.334115,23.808489],[90.334139,23.80835],[90.334438,23.808374],[90.334421,23.808503],[90.334376,23.808501],[90.334335,23.808499],[90.334332,23.808499],[90.334255,23.808496],[90.334219,23.808494],[90.334219,23.808494],[90.334163,23.808491],[90.334159,23.808491],[90.334115,23.808489]]]}},{"type":"Feature","properties":{"survey":"bds","sheet":"044","dag":"21513","label_bn":"21513","area_sqm":478.3},"geometry":{"type":"Polygon","coordinates":[[[90.335125,23.808234],[90.33527,23.808166],[90.335347,23.808165],[90.335367,23.808165],[90.335451,23.808152],[90.335471,23.808146],[90.335499,23.808136],[90.335561,23.808116],[90.335701,23.808009],[90.335741,23.807859],[90.335741,23.807856],[90.335794,23.80786],[90.335787,23.807886],[90.335752,23.807985],[90.335724,23.808033],[90.33563,23.808108],[90.335582,23.808142],[90.335508,23.808175],[90.335359,23.808211],[90.335309,23.808217],[90.335278,23.808221],[90.335245,23.808225],[90.335215,23.808238],[90.335192,23.808261],[90.335186,23.808283],[90.335198,23.808331],[90.335229,23.808385],[90.33524,23.8084],[90.335189,23.808419],[90.335181,23.808407],[90.335158,23.80837],[90.335133,23.808294],[90.335125,23.808234]]]}},{"type":"Feature","properties":{"survey":"bds","sheet":"044","dag":"21564","label_bn":"21564","area_sqm":487.9},"geometry":{"type":"Polygon","coordinates":[[[90.334063,23.806361],[90.334101,23.806149],[90.334146,23.806155],[90.334318,23.806177],[90.334279,23.806358],[90.334063,23.806361]]]}},{"type":"Feature","properties":{"survey":"bds","sheet":"044","dag":"21534","label_bn":"21534","area_sqm":534.0},"geometry":{"type":"Polygon","coordinates":[[[90.334348,23.807267],[90.334362,23.807113],[90.334635,23.807118],[90.334648,23.807291],[90.334583,23.807287],[90.334348,23.807267]]]}},{"type":"Feature","properties":{"survey":"bds","sheet":"044","dag":"21512","label_bn":"21512","area_sqm":535.3},"geometry":{"type":"Polygon","coordinates":[[[90.334974,23.809031],[90.335023,23.808932],[90.335063,23.808863],[90.335105,23.808822],[90.335168,23.808787],[90.335244,23.808727],[90.335276,23.808659],[90.33528,23.808572],[90.335237,23.808497],[90.335225,23.808476],[90.335189,23.808419],[90.33524,23.8084],[90.335255,23.808421],[90.335299,23.808469],[90.33533,23.808507],[90.33534,23.808523],[90.335344,23.808558],[90.335341,23.808609],[90.335333,23.808661],[90.335328,23.808706],[90.335314,23.808719],[90.335292,23.808758],[90.335251,23.8088],[90.33521,23.80883],[90.33519,23.808847],[90.33515,23.808867],[90.335117,23.808893],[90.335091,23.808928],[90.335068,23.808976],[90.335048,23.809027],[90.334974,23.809031]]]}},{"type":"Feature","properties":{"survey":"bds","sheet":"044","dag":"21553","label_bn":"21553","area_sqm":544.7},"geometry":{"type":"Polygon","coordinates":[[[90.333679,23.806309],[90.333728,23.80615],[90.333744,23.806104],[90.33384,23.806114],[90.333948,23.806129],[90.333921,23.80634],[90.333679,23.806309]]]}},{"type":"Feature","properties":{"survey":"bds","sheet":"044","dag":"21515","label_bn":"21515","area_sqm":568.6},"geometry":{"type":"Polygon","coordinates":[[[90.334565,23.808527],[90.334578,23.808447],[90.334598,23.808267],[90.334772,23.80829],[90.33477,23.808492],[90.334769,23.808514],[90.334769,23.80856],[90.334565,23.808527]]]}},{"type":"Feature","properties":{"survey":"bds","sheet":"044","dag":"21524","label_bn":"21524","area_sqm":608.2},"geometry":{"type":"Polygon","coordinates":[[[90.335369,23.807825],[90.335735,23.807856],[90.335741,23.807856],[90.335741,23.807859],[90.335701,23.808009],[90.335631,23.808003],[90.335598,23.808],[90.335466,23.807987],[90.33538,23.807979],[90.335369,23.807825]]]}},{"type":"Feature","properties":{"survey":"bds","sheet":"044","dag":"21544","label_bn":"21544","area_sqm":619.3},"geometry":{"type":"Polygon","coordinates":[[[90.333107,23.80659],[90.333299,23.806576],[90.333322,23.806574],[90.333364,23.806841],[90.333364,23.806842],[90.3333,23.806854],[90.333295,23.806855],[90.333146,23.806806],[90.333107,23.80659]]]}},{"type":"Feature","properties":{"survey":"bds","sheet":"044","dag":"21570","label_bn":"21570","area_sqm":644.2},"geometry":{"type":"Polygon","coordinates":[[[90.334413,23.806371],[90.334459,23.806196],[90.33462,23.80619],[90.334779,23.806207],[90.334755,23.806382],[90.334713,23.806383],[90.334648,23.80637],[90.334636,23.806368],[90.334441,23.806353],[90.334413,23.806371]]]}},{"type":"Feature","properties":{"survey":"bds","sheet":"044","dag":"21509","label_bn":"21509","area_sqm":701.3},"geometry":{"type":"Polygon","coordinates":[[[90.334423,23.808867],[90.334436,23.808698],[90.334496,23.808703],[90.334674,23.808718],[90.334762,23.808726],[90.33477,23.808801],[90.334781,23.808917],[90.33463,23.808898],[90.334557,23.808889],[90.334466,23.808873],[90.334423,23.808867]]]}},{"type":"Feature","properties":{"survey":"bds","sheet":"044","dag":"21536","label_bn":"21536","area_sqm":735.1},"geometry":{"type":"Polygon","coordinates":[[[90.333679,23.807649],[90.333719,23.807395],[90.333726,23.807325],[90.333886,23.807305],[90.33388,23.807422],[90.333836,23.807758],[90.333679,23.807649]]]}},{"type":"Feature","properties":{"survey":"bds","sheet":"044","dag":"21533","label_bn":"21533","area_sqm":770.7},"geometry":{"type":"Polygon","coordinates":[[[90.334635,23.807118],[90.335013,23.807109],[90.335002,23.80717],[90.335,23.807183],[90.334968,23.807326],[90.334753,23.8073],[90.334648,23.807291],[90.334635,23.807118]]]}},{"type":"Feature","properties":{"survey":"bds","sheet":"044","dag":"21567","label_bn":"21567","area_sqm":882.7},"geometry":{"type":"Polygon","coordinates":[[[90.333992,23.80643],[90.333997,23.806361],[90.334063,23.806361],[90.334279,23.806358],[90.334359,23.806358],[90.334354,23.806379],[90.334413,23.806371],[90.334398,23.806538],[90.334398,23.80654],[90.334,23.806569],[90.334007,23.806429],[90.333992,23.80643]]]}},{"type":"Feature","properties":{"survey":"bds","sheet":"044","dag":"21510","label_bn":"21510","area_sqm":894.5},"geometry":{"type":"Polygon","coordinates":[[[90.334332,23.808499],[90.334335,23.808499],[90.334376,23.808501],[90.334421,23.808503],[90.334565,23.808527],[90.334769,23.80856],[90.334769,23.808572],[90.334762,23.808726],[90.334674,23.808718],[90.334496,23.808703],[90.334436,23.808698],[90.334359,23.80869],[90.334334,23.808688],[90.334332,23.808499]]]}},{"type":"Feature","properties":{"survey":"bds","sheet":"044","dag":"21519","label_bn":"21519","area_sqm":916.6},"geometry":{"type":"Polygon","coordinates":[[[90.333859,23.808482],[90.333862,23.808265],[90.333865,23.808179],[90.334164,23.80822],[90.334139,23.80835],[90.334115,23.808489],[90.333965,23.808489],[90.33396,23.808489],[90.333886,23.808489],[90.333859,23.808482],[90.333859,23.808482]]]}},{"type":"Feature","properties":{"survey":"bds","sheet":"044","dag":"21561","label_bn":"21561","area_sqm":987.2},"geometry":{"type":"Polygon","coordinates":[[[90.333979,23.806807],[90.333982,23.806571],[90.334,23.806569],[90.334398,23.80654],[90.334407,23.806715],[90.334235,23.806752],[90.334166,23.806767],[90.33411,23.806779],[90.333999,23.806802],[90.333979,23.806807]]]}},{"type":"Feature","properties":{"survey":"bds","sheet":"044","dag":"21581","label_bn":"21581","area_sqm":1009.4},"geometry":{"type":"Polygon","coordinates":[[[90.335198,23.806371],[90.335226,23.806149],[90.335262,23.805878],[90.335365,23.805895],[90.335447,23.80591],[90.335432,23.805998],[90.335416,23.806131],[90.335395,23.806285],[90.335387,23.806368],[90.335198,23.806371]]]}},{"type":"Feature","properties":{"survey":"bds","sheet":"044","dag":"21580","label_bn":"21580","area_sqm":1057.6},"geometry":{"type":"Polygon","coordinates":[[[90.335033,23.806505],[90.335052,23.806374],[90.335121,23.806371],[90.335198,23.806371],[90.335387,23.806368],[90.335375,23.806458],[90.335375,23.806548],[90.335377,23.806563],[90.335385,23.806666],[90.335196,23.806655],[90.33509,23.80665],[90.335033,23.806505]]]}},{"type":"Feature","properties":{"survey":"bds","sheet":"044","dag":"21539","label_bn":"21539","area_sqm":1153.1},"geometry":{"type":"Polygon","coordinates":[[[90.333054,23.80716],[90.333163,23.80712],[90.333452,23.807166],[90.33344,23.807534],[90.333196,23.807401],[90.333054,23.80716]]]}},{"type":"Feature","properties":{"survey":"bds","sheet":"044","dag":"21521","label_bn":"21521","area_sqm":1156.2},"geometry":{"type":"Polygon","coordinates":[[[90.334831,23.808101],[90.33486,23.807946],[90.335184,23.807989],[90.335378,23.808012],[90.335368,23.808147],[90.335367,23.808165],[90.335347,23.808165],[90.33527,23.808166],[90.335125,23.808234],[90.335088,23.808198],[90.334831,23.808101]]]}},{"type":"Feature","properties":{"survey":"bds","sheet":"044","dag":"21572","label_bn":"21572","area_sqm":1246.4},"geometry":{"type":"Polygon","coordinates":[[[90.334755,23.806382],[90.334779,23.806207],[90.334814,23.806093],[90.334896,23.806114],[90.335226,23.806149],[90.335198,23.806371],[90.335121,23.806371],[90.335052,23.806374],[90.334986,23.806376],[90.334849,23.806381],[90.334755,23.806382]]]}},{"type":"Feature","properties":{"survey":"bds","sheet":"044","dag":"21514","label_bn":"21514","area_sqm":1300.9},"geometry":{"type":"Polygon","coordinates":[[[90.334769,23.808514],[90.33477,23.808492],[90.334772,23.80829],[90.334811,23.80815],[90.334831,23.808101],[90.335088,23.808198],[90.335125,23.808234],[90.335133,23.808294],[90.335158,23.80837],[90.335181,23.808407],[90.335189,23.808419],[90.334769,23.808514]]]}},{"type":"Feature","properties":{"survey":"bds","sheet":"044","dag":"21529","label_bn":"21529","area_sqm":1446.2},"geometry":{"type":"Polygon","coordinates":[[[90.33486,23.807946],[90.334861,23.807941],[90.33487,23.807886],[90.334916,23.807618],[90.33516,23.807647],[90.335118,23.807804],[90.335369,23.807825],[90.33538,23.807979],[90.335378,23.808012],[90.335184,23.807989],[90.33486,23.807946]]]}},{"type":"Feature","properties":{"survey":"bds","sheet":"044","dag":"21538","label_bn":"21538","area_sqm":1448.6},"geometry":{"type":"Polygon","coordinates":[[[90.33344,23.807534],[90.333452,23.807166],[90.333466,23.807106],[90.333735,23.80714],[90.333729,23.8072],[90.333726,23.807325],[90.333719,23.807395],[90.333679,23.807649],[90.333652,23.80764],[90.33344,23.807534]]]}},{"type":"Feature","properties":{"survey":"bds","sheet":"044","dag":"21540","label_bn":"21540","area_sqm":1620.4},"geometry":{"type":"Polygon","coordinates":[[[90.333163,23.80712],[90.333197,23.807069],[90.333318,23.806983],[90.33333,23.806975],[90.333344,23.806973],[90.333464,23.806958],[90.333442,23.806835],[90.333833,23.806838],[90.333826,23.806942],[90.333825,23.806965],[90.333816,23.80708],[90.33374,23.807096],[90.333735,23.80714],[90.333466,23.807106],[90.333452,23.807166],[90.333163,23.80712]]]}},{"type":"Feature","properties":{"survey":"bds","sheet":"044","dag":"21532","label_bn":"21532","area_sqm":1949.6},"geometry":{"type":"Polygon","coordinates":[[[90.334183,23.807525],[90.334271,23.807396],[90.334348,23.807267],[90.334583,23.807287],[90.334648,23.807291],[90.334753,23.8073],[90.334968,23.807326],[90.334947,23.80747],[90.334941,23.807505],[90.334936,23.807534],[90.334933,23.807554],[90.334183,23.807525]]]}},{"type":"Feature","properties":{"survey":"bds","sheet":"044","dag":"21528","label_bn":"21528","area_sqm":1987.8},"geometry":{"type":"Polygon","coordinates":[[[90.335118,23.807804],[90.33516,23.807647],[90.33516,23.807645],[90.33519,23.807532],[90.33587,23.807607],[90.335844,23.807649],[90.335741,23.807856],[90.335735,23.807856],[90.335369,23.807825],[90.335118,23.807804]]]}},{"type":"Feature","properties":{"survey":"bds","sheet":"044","dag":"21579","label_bn":"21579","area_sqm":2052.0},"geometry":{"type":"Polygon","coordinates":[[[90.335002,23.80717],[90.335013,23.807109],[90.33508,23.806725],[90.335082,23.806704],[90.33509,23.80665],[90.335196,23.806655],[90.335385,23.806666],[90.335387,23.806699],[90.335394,23.806757],[90.335364,23.807219],[90.335002,23.80717]]]}},{"type":"Feature","properties":{"survey":"bds","sheet":"044","dag":"21511","label_bn":"21511","area_sqm":2442.6},"geometry":{"type":"Polygon","coordinates":[[[90.334762,23.808726],[90.334769,23.808572],[90.334769,23.80856],[90.334769,23.808514],[90.335189,23.808419],[90.335225,23.808476],[90.335237,23.808497],[90.33528,23.808572],[90.335276,23.808659],[90.335244,23.808727],[90.335168,23.808787],[90.335105,23.808822],[90.335063,23.808863],[90.335023,23.808932],[90.334974,23.809031],[90.33494,23.809022],[90.334807,23.808985],[90.334781,23.808917],[90.33477,23.808801],[90.334762,23.808726]]]}},{"type":"Feature","properties":{"survey":"bds","sheet":"044","dag":"21531","label_bn":"21531","area_sqm":2549.0},"geometry":{"type":"Polygon","coordinates":[[[90.33401,23.807726],[90.334113,23.807607],[90.334183,23.807525],[90.334933,23.807554],[90.334931,23.807562],[90.334918,23.807606],[90.334916,23.807618],[90.33487,23.807886],[90.33401,23.807726]]]}},{"type":"Feature","properties":{"survey":"bds","sheet":"044","dag":"21554","label_bn":"21554","area_sqm":3025.3},"geometry":{"type":"Polygon","coordinates":[[[90.333409,23.806533],[90.333414,23.806319],[90.333519,23.806327],[90.333585,23.80633],[90.333679,23.806309],[90.333921,23.80634],[90.333999,23.80634],[90.333997,23.806361],[90.333992,23.80643],[90.333837,23.80644],[90.333828,23.806596],[90.333982,23.806571],[90.333979,23.806807],[90.3339,23.806824],[90.333833,23.806838],[90.333442,23.806835],[90.333423,23.806836],[90.333409,23.806533]]]}},{"type":"Feature","properties":{"survey":"bds","sheet":"044","dag":"21578","label_bn":"21578","area_sqm":3282.9},"geometry":{"type":"Polygon","coordinates":[[[90.335013,23.807109],[90.334635,23.807118],[90.334362,23.807113],[90.334403,23.806858],[90.334406,23.806728],[90.334407,23.806715],[90.33479,23.806708],[90.334791,23.806727],[90.334946,23.806723],[90.334929,23.806593],[90.334938,23.806509],[90.334962,23.806508],[90.334963,23.806508],[90.335033,23.806505],[90.33509,23.80665],[90.335082,23.806704],[90.33508,23.806725],[90.335013,23.807109]]]}},{"type":"Feature","properties":{"survey":"bds","sheet":"044","dag":"21527","label_bn":"21527","area_sqm":3502.9},"geometry":{"type":"Polygon","coordinates":[[[90.334941,23.807505],[90.334947,23.80747],[90.334968,23.807326],[90.335,23.807183],[90.335002,23.80717],[90.335364,23.807219],[90.335577,23.807238],[90.335862,23.807263],[90.335897,23.80727],[90.33587,23.807607],[90.33519,23.807532],[90.334941,23.807505]]]}},{"type":"Feature","properties":{"survey":"bds","sheet":"044","dag":"21535","label_bn":"21535","area_sqm":3775.4},"geometry":{"type":"Polygon","coordinates":[[[90.333836,23.807758],[90.33388,23.807422],[90.333886,23.807305],[90.333913,23.807059],[90.333972,23.807046],[90.334093,23.80702],[90.334095,23.806906],[90.334101,23.806905],[90.334157,23.806894],[90.334227,23.806882],[90.334235,23.806752],[90.334407,23.806715],[90.334406,23.806728],[90.334403,23.806858],[90.334362,23.807113],[90.334348,23.807267],[90.334271,23.807396],[90.334183,23.807525],[90.334113,23.807607],[90.33401,23.807726],[90.33401,23.807726],[90.333928,23.807823],[90.333836,23.807758]]]}},{"type":"Feature","properties":{"survey":"bds","sheet":"044","dag":"21520","label_bn":"21520","area_sqm":4720.9},"geometry":{"type":"Polygon","coordinates":[[[90.333859,23.807939],[90.333874,23.807891],[90.333928,23.807823],[90.33401,23.807726],[90.33401,23.807726],[90.33487,23.807886],[90.334861,23.807941],[90.33486,23.807946],[90.334831,23.808101],[90.334811,23.80815],[90.334772,23.80829],[90.334598,23.808267],[90.334574,23.808263],[90.334458,23.80825],[90.334286,23.808225],[90.334164,23.80822],[90.333865,23.808179],[90.333871,23.80807],[90.333859,23.807939]]]}},{"type":"Feature","properties":{"survey":"bds","sheet":"044","dag":"21577","label_bn":"21577","area_sqm":853.7},"geometry":{"type":"Polygon","coordinates":[[[90.33479,23.806708],[90.334407,23.806715],[90.334398,23.80654],[90.334398,23.806538],[90.334399,23.80652],[90.334621,23.806516],[90.334624,23.806504],[90.334691,23.806513],[90.334778,23.806513],[90.33479,23.806708]]]}}]}