{"type":"FeatureCollection","features":[{"type":"Feature","properties":{"survey":"bds","sheet":"045","dag":"22010","label_bn":"22010","area_sqm":99.9},"geometry":{"type":"Polygon","coordinates":[[[90.332221,23.8077],[90.332286,23.807665],[90.332335,23.807644],[90.33237,23.8077],[90.332269,23.807759],[90.332221,23.8077]]]}},{"type":"Feature","properties":{"survey":"bds","sheet":"045","dag":"22018","label_bn":"22018","area_sqm":122.0},"geometry":{"type":"Polygon","coordinates":[[[90.332162,23.807229],[90.332165,23.807206],[90.332341,23.807159],[90.332346,23.807224],[90.332167,23.807259],[90.332162,23.807229]]]}},{"type":"Feature","properties":{"survey":"bds","sheet":"045","dag":"22042","label_bn":"22042","area_sqm":139.3},"geometry":{"type":"Polygon","coordinates":[[[90.330721,23.806758],[90.330737,23.806719],[90.330738,23.806711],[90.330983,23.80669],[90.330997,23.806736],[90.330907,23.806744],[90.330721,23.806758]]]}},{"type":"Feature","properties":{"survey":"bds","sheet":"045","dag":"22081","label_bn":"22081","area_sqm":162.5},"geometry":{"type":"Polygon","coordinates":[[[90.332876,23.805902],[90.332892,23.805751],[90.332984,23.805763],[90.332987,23.805764],[90.332972,23.80591],[90.332956,23.805909],[90.332876,23.805902]]]}},{"type":"Feature","properties":{"survey":"bds","sheet":"045","dag":"22017","label_bn":"22017","area_sqm":162.7},"geometry":{"type":"Polygon","coordinates":[[[90.332009,23.807204],[90.332011,23.807189],[90.332041,23.807095],[90.332168,23.807118],[90.332168,23.807176],[90.332165,23.807202],[90.332165,23.807206],[90.332009,23.807204]]]}},{"type":"Feature","properties":{"survey":"bds","sheet":"045","dag":"22023","label_bn":"22023","area_sqm":167.7},"geometry":{"type":"Polygon","coordinates":[[[90.332167,23.807259],[90.332346,23.807224],[90.332356,23.807297],[90.332175,23.807346],[90.332167,23.807259]]]}},{"type":"Feature","properties":{"survey":"bds","sheet":"045","dag":"22068","label_bn":"22068","area_sqm":172.6},"geometry":{"type":"Polygon","coordinates":[[[90.332133,23.806619],[90.332236,23.80662],[90.332273,23.806739],[90.332244,23.806744],[90.332231,23.806749],[90.332223,23.806748],[90.332215,23.806747],[90.332137,23.806746],[90.332133,23.806619]]]}},{"type":"Feature","properties":{"survey":"bds","sheet":"045","dag":"22009","label_bn":"22009","area_sqm":177.5},"geometry":{"type":"Polygon","coordinates":[[[90.332068,23.807799],[90.332088,23.807777],[90.332221,23.8077],[90.332269,23.807759],[90.332253,23.807779],[90.332235,23.807841],[90.332192,23.807839],[90.332125,23.807821],[90.332068,23.807799]]]}},{"type":"Feature","properties":{"survey":"bds","sheet":"045","dag":"22056","label_bn":"22056","area_sqm":192.1},"geometry":{"type":"Polygon","coordinates":[[[90.331529,23.805991],[90.331541,23.80587],[90.331653,23.805876],[90.331643,23.806048],[90.331529,23.805991]]]}},{"type":"Feature","properties":{"survey":"bds","sheet":"045","dag":"22066","label_bn":"22066","area_sqm":199.2},"geometry":{"type":"Polygon","coordinates":[[[90.33186,23.806616],[90.331862,23.80659],[90.331878,23.806508],[90.332009,23.80652],[90.332039,23.806521],[90.332041,23.806618],[90.33186,23.806616]]]}},{"type":"Feature","properties":{"survey":"bds","sheet":"045","dag":"22065","label_bn":"22065","area_sqm":199.2},"geometry":{"type":"Polygon","coordinates":[[[90.332039,23.806521],[90.33219,23.806529],[90.33219,23.806529],[90.332223,23.806533],[90.332235,23.806606],[90.332236,23.80662],[90.332133,23.806619],[90.332041,23.806618],[90.332039,23.806521]]]}},{"type":"Feature","properties":{"survey":"bds","sheet":"045","dag":"22076","label_bn":"22076","area_sqm":203.4},"geometry":{"type":"Polygon","coordinates":[[[90.333111,23.80623],[90.33324,23.806233],[90.333226,23.806302],[90.333224,23.806414],[90.333133,23.806389],[90.333111,23.80623]]]}},{"type":"Feature","properties":{"survey":"bds","sheet":"045","dag":"22020","label_bn":"22020","area_sqm":242.0},"geometry":{"type":"Polygon","coordinates":[[[90.332341,23.807159],[90.332451,23.807133],[90.332632,23.807072],[90.332643,23.807147],[90.332643,23.80715],[90.332644,23.807154],[90.332346,23.807224],[90.332341,23.807159]]]}},{"type":"Feature","properties":{"survey":"bds","sheet":"045","dag":"22078","label_bn":"22078","area_sqm":244.1},"geometry":{"type":"Polygon","coordinates":[[[90.333148,23.805908],[90.333168,23.805911],[90.333316,23.805927],[90.333324,23.806045],[90.333156,23.806042],[90.33315,23.806043],[90.333148,23.805908]]]}},{"type":"Feature","properties":{"survey":"bds","sheet":"045","dag":"22044","label_bn":"22044","area_sqm":263.8},"geometry":{"type":"Polygon","coordinates":[[[90.33079,23.806386],[90.330972,23.806287],[90.331173,23.806142],[90.331173,23.806142],[90.331213,23.806174],[90.330894,23.806392],[90.330802,23.806455],[90.330808,23.806438],[90.33079,23.806386]]]}},{"type":"Feature","properties":{"survey":"bds","sheet":"045","dag":"22024","label_bn":"22024","area_sqm":290.9},"geometry":{"type":"Polygon","coordinates":[[[90.332003,23.807283],[90.332009,23.807204],[90.332165,23.807206],[90.332162,23.807229],[90.332167,23.807259],[90.332175,23.807346],[90.332042,23.807386],[90.332019,23.807345],[90.332003,23.807283]]]}},{"type":"Feature","properties":{"survey":"bds","sheet":"045","dag":"22079","label_bn":"22079","area_sqm":304.9},"geometry":{"type":"Polygon","coordinates":[[[90.332952,23.806051],[90.332956,23.805909],[90.332972,23.80591],[90.333057,23.805909],[90.333148,23.805908],[90.33315,23.806043],[90.33296,23.806051],[90.332952,23.806051]]]}},{"type":"Feature","properties":{"survey":"bds","sheet":"045","dag":"22063","label_bn":"22063","area_sqm":325.0},"geometry":{"type":"Polygon","coordinates":[[[90.332052,23.806354],[90.332066,23.806164],[90.332105,23.806165],[90.332193,23.806151],[90.332206,23.806212],[90.33221,23.806263],[90.332212,23.806303],[90.332209,23.806353],[90.332052,23.806354]]]}},{"type":"Feature","properties":{"survey":"bds","sheet":"045","dag":"22075","label_bn":"22075","area_sqm":325.1},"geometry":{"type":"Polygon","coordinates":[[[90.33296,23.806227],[90.333111,23.80623],[90.333133,23.806389],[90.333131,23.806405],[90.33296,23.806404],[90.33296,23.806227]]]}},{"type":"Feature","properties":{"survey":"bds","sheet":"045","dag":"22064","label_bn":"22064","area_sqm":325.4},"geometry":{"type":"Polygon","coordinates":[[[90.332039,23.806521],[90.332052,23.806354],[90.332209,23.806353],[90.332207,23.806386],[90.332208,23.806447],[90.332223,23.806533],[90.33219,23.806529],[90.33219,23.806529],[90.332039,23.806521]]]}},{"type":"Feature","properties":{"survey":"bds","sheet":"045","dag":"22048","label_bn":"22048","area_sqm":326.5},"geometry":{"type":"Polygon","coordinates":[[[90.331379,23.806572],[90.33143,23.806341],[90.331551,23.806416],[90.331553,23.806417],[90.331517,23.806595],[90.331379,23.806572]]]}},{"type":"Feature","properties":{"survey":"bds","sheet":"045","dag":"22046","label_bn":"22046","area_sqm":327.1},"geometry":{"type":"Polygon","coordinates":[[[90.331147,23.80672],[90.331352,23.806705],[90.33135,23.806751],[90.33136,23.806852],[90.331356,23.806857],[90.331216,23.806892],[90.331147,23.80672]]]}},{"type":"Feature","properties":{"survey":"bds","sheet":"045","dag":"22047","label_bn":"22047","area_sqm":396.8},"geometry":{"type":"Polygon","coordinates":[[[90.33135,23.806751],[90.331352,23.806705],[90.33137,23.806614],[90.331379,23.806572],[90.331517,23.806595],[90.331509,23.806637],[90.331476,23.806822],[90.33136,23.806852],[90.33135,23.806751]]]}},{"type":"Feature","properties":{"survey":"bds","sheet":"045","dag":"22067","label_bn":"22067","area_sqm":406.6},"geometry":{"type":"Polygon","coordinates":[[[90.331851,23.806698],[90.33186,23.806616],[90.332041,23.806618],[90.332133,23.806619],[90.332137,23.806746],[90.331987,23.806744],[90.331878,23.806746],[90.331853,23.806745],[90.331851,23.806698]]]}},{"type":"Feature","properties":{"survey":"bds","sheet":"045","dag":"22051","label_bn":"22051","area_sqm":407.1},"geometry":{"type":"Polygon","coordinates":[[[90.331551,23.806416],[90.331552,23.806416],[90.331643,23.806048],[90.331732,23.806078],[90.331636,23.806461],[90.331562,23.80642],[90.331553,23.806417],[90.331551,23.806416]]]}},{"type":"Feature","properties":{"survey":"bds","sheet":"045","dag":"22038","label_bn":"22038","area_sqm":432.9},"geometry":{"type":"Polygon","coordinates":[[[90.331476,23.806822],[90.331509,23.806637],[90.331718,23.806675],[90.331721,23.806823],[90.331476,23.806822]]]}},{"type":"Feature","properties":{"survey":"bds","sheet":"045","dag":"22025","label_bn":"22025","area_sqm":467.4},"geometry":{"type":"Polygon","coordinates":[[[90.331788,23.807348],[90.331807,23.807342],[90.332003,23.807283],[90.332019,23.807345],[90.332042,23.807386],[90.332088,23.807446],[90.331925,23.807497],[90.331921,23.807498],[90.33188,23.807505],[90.331877,23.807506],[90.331849,23.807514],[90.331788,23.807348]]]}},{"type":"Feature","properties":{"survey":"bds","sheet":"045","dag":"22012","label_bn":"22012","area_sqm":486.0},"geometry":{"type":"Polygon","coordinates":[[[90.33262,23.807326],[90.332677,23.807311],[90.332707,23.807302],[90.332785,23.807278],[90.332884,23.807237],[90.332901,23.807229],[90.332902,23.80723],[90.332926,23.807288],[90.332938,23.807326],[90.332952,23.807358],[90.332921,23.807374],[90.33271,23.807467],[90.332693,23.807474],[90.332622,23.80733],[90.33262,23.807326]]]}},{"type":"Feature","properties":{"survey":"bds","sheet":"045","dag":"22030","label_bn":"22030","area_sqm":510.2},"geometry":{"type":"Polygon","coordinates":[[[90.330851,23.807425],[90.331123,23.807289],[90.331256,23.807488],[90.331112,23.807521],[90.33101,23.807473],[90.331006,23.807471],[90.330951,23.807445],[90.330851,23.807425]]]}},{"type":"Feature","properties":{"survey":"bds","sheet":"045","dag":"22026","label_bn":"22026","area_sqm":528.4},"geometry":{"type":"Polygon","coordinates":[[[90.331925,23.807497],[90.332088,23.807446],[90.33218,23.80755],[90.332039,23.807747],[90.332026,23.807782],[90.332005,23.807784],[90.331925,23.807497]]]}},{"type":"Feature","properties":{"survey":"bds","sheet":"045","dag":"22008","label_bn":"22008","area_sqm":528.4},"geometry":{"type":"Polygon","coordinates":[[[90.332235,23.807841],[90.332253,23.807779],[90.332269,23.807759],[90.33237,23.8077],[90.332414,23.807692],[90.33245,23.8077],[90.332488,23.807724],[90.332513,23.807758],[90.332526,23.807788],[90.332529,23.807794],[90.332443,23.80789],[90.332362,23.807929],[90.332306,23.807927],[90.332235,23.807841]]]}},{"type":"Feature","properties":{"survey":"bds","sheet":"045","dag":"22059","label_bn":"22059","area_sqm":528.6},"geometry":{"type":"Polygon","coordinates":[[[90.331927,23.805812],[90.331958,23.805606],[90.33216,23.805587],[90.332155,23.805818],[90.332085,23.805816],[90.332001,23.805813],[90.331927,23.805812]]]}},{"type":"Feature","properties":{"survey":"bds","sheet":"045","dag":"22073","label_bn":"22073","area_sqm":539.8},"geometry":{"type":"Polygon","coordinates":[[[90.332644,23.806046],[90.33253,23.806097],[90.332485,23.8061],[90.332472,23.805956],[90.332459,23.80582],[90.332669,23.805821],[90.332644,23.806046]]]}},{"type":"Feature","properties":{"survey":"bds","sheet":"045","dag":"22022","label_bn":"22022","area_sqm":540.4},"geometry":{"type":"Polygon","coordinates":[[[90.332042,23.807386],[90.332175,23.807346],[90.332356,23.807297],[90.332392,23.807417],[90.332307,23.807465],[90.33221,23.80754],[90.33218,23.80755],[90.332088,23.807446],[90.332042,23.807386]]]}},{"type":"Feature","properties":{"survey":"bds","sheet":"045","dag":"22043","label_bn":"22043","area_sqm":550.3},"geometry":{"type":"Polygon","coordinates":[[[90.330738,23.806711],[90.330772,23.806532],[90.330802,23.806455],[90.330894,23.806392],[90.330983,23.80669],[90.330738,23.806711]]]}},{"type":"Feature","properties":{"survey":"bds","sheet":"045","dag":"22057","label_bn":"22057","area_sqm":555.2},"geometry":{"type":"Polygon","coordinates":[[[90.331643,23.806048],[90.331653,23.805876],[90.331654,23.805876],[90.331906,23.805894],[90.331882,23.806014],[90.331872,23.806123],[90.331854,23.806119],[90.331732,23.806078],[90.331643,23.806048]]]}},{"type":"Feature","properties":{"survey":"bds","sheet":"045","dag":"22082","label_bn":"22082","area_sqm":564.9},"geometry":{"type":"Polygon","coordinates":[[[90.332972,23.80591],[90.332987,23.805764],[90.332991,23.805764],[90.332993,23.805764],[90.333231,23.805774],[90.333336,23.805774],[90.333316,23.805927],[90.333168,23.805911],[90.333148,23.805908],[90.333057,23.805909],[90.332972,23.80591]]]}},{"type":"Feature","properties":{"survey":"bds","sheet":"045","dag":"22037","label_bn":"22037","area_sqm":606.0},"geometry":{"type":"Polygon","coordinates":[[[90.331718,23.806675],[90.331851,23.806698],[90.331853,23.806745],[90.331878,23.806746],[90.331905,23.806793],[90.331913,23.806832],[90.331911,23.806869],[90.331895,23.806918],[90.331886,23.806956],[90.331898,23.806992],[90.331763,23.807039],[90.331745,23.806988],[90.331739,23.806952],[90.331721,23.806823],[90.331718,23.806675]]]}},{"type":"Feature","properties":{"survey":"bds","sheet":"045","dag":"22029","label_bn":"22029","area_sqm":609.8},"geometry":{"type":"Polygon","coordinates":[[[90.331112,23.807521],[90.331256,23.807488],[90.3315,23.807431],[90.331548,23.807601],[90.331377,23.80765],[90.331354,23.807657],[90.331242,23.807584],[90.331233,23.807579],[90.331112,23.807521]]]}},{"type":"Feature","properties":{"survey":"bds","sheet":"045","dag":"22021","label_bn":"22021","area_sqm":609.9},"geometry":{"type":"Polygon","coordinates":[[[90.332346,23.807224],[90.332644,23.807154],[90.332656,23.807232],[90.332677,23.807311],[90.33262,23.807326],[90.33257,23.807346],[90.332537,23.807357],[90.332392,23.807417],[90.332356,23.807297],[90.332346,23.807224]]]}},{"type":"Feature","properties":{"survey":"bds","sheet":"045","dag":"22034","label_bn":"22034","area_sqm":609.9},"geometry":{"type":"Polygon","coordinates":[[[90.3315,23.807431],[90.331527,23.80743],[90.331588,23.807406],[90.331788,23.807348],[90.331849,23.807514],[90.331605,23.807584],[90.331604,23.807584],[90.331604,23.807584],[90.331548,23.807601],[90.3315,23.807431]]]}},{"type":"Feature","properties":{"survey":"bds","sheet":"045","dag":"22019","label_bn":"22019","area_sqm":646.5},"geometry":{"type":"Polygon","coordinates":[[[90.332336,23.807029],[90.332336,23.806928],[90.332616,23.806915],[90.332632,23.807072],[90.332451,23.807133],[90.332341,23.807159],[90.332336,23.807029]]]}},{"type":"Feature","properties":{"survey":"bds","sheet":"045","dag":"22049","label_bn":"22049","area_sqm":649.9},"geometry":{"type":"Polygon","coordinates":[[[90.331509,23.806637],[90.331517,23.806595],[90.331553,23.806417],[90.331562,23.80642],[90.331636,23.806461],[90.331768,23.806534],[90.331862,23.80659],[90.33186,23.806616],[90.331851,23.806698],[90.331718,23.806675],[90.331509,23.806637]]]}},{"type":"Feature","properties":{"survey":"bds","sheet":"045","dag":"22062","label_bn":"22062","area_sqm":650.6},"geometry":{"type":"Polygon","coordinates":[[[90.331878,23.806508],[90.331913,23.806136],[90.331968,23.806153],[90.332042,23.806164],[90.332066,23.806164],[90.332052,23.806354],[90.332039,23.806521],[90.332009,23.80652],[90.331878,23.806508]]]}},{"type":"Feature","properties":{"survey":"bds","sheet":"045","dag":"22031","label_bn":"22031","area_sqm":656.3},"geometry":{"type":"Polygon","coordinates":[[[90.330753,23.807376],[90.330755,23.807368],[90.330787,23.807224],[90.330984,23.80718],[90.331041,23.807167],[90.331123,23.807289],[90.330851,23.807425],[90.330753,23.807376]]]}},{"type":"Feature","properties":{"survey":"bds","sheet":"045","dag":"22077","label_bn":"22077","area_sqm":670.1},"geometry":{"type":"Polygon","coordinates":[[[90.33296,23.806227],[90.33296,23.806051],[90.33315,23.806043],[90.333156,23.806042],[90.333324,23.806045],[90.333325,23.806066],[90.333251,23.806179],[90.33324,23.806233],[90.333111,23.80623],[90.33296,23.806227]]]}},{"type":"Feature","properties":{"survey":"bds","sheet":"045","dag":"22036","label_bn":"22036","area_sqm":688.2},"geometry":{"type":"Polygon","coordinates":[[[90.331878,23.806746],[90.331987,23.806744],[90.332137,23.806746],[90.332215,23.806747],[90.332223,23.806748],[90.332231,23.806749],[90.332165,23.806847],[90.332133,23.806904],[90.332131,23.806907],[90.332084,23.806975],[90.332044,23.806966],[90.332008,23.806975],[90.331958,23.806996],[90.331898,23.806992],[90.331886,23.806956],[90.331895,23.806918],[90.331911,23.806869],[90.331913,23.806832],[90.331905,23.806793],[90.331878,23.806746]]]}},{"type":"Feature","properties":{"survey":"bds","sheet":"045","dag":"22052","label_bn":"22052","area_sqm":691.3},"geometry":{"type":"Polygon","coordinates":[[[90.331399,23.806321],[90.331498,23.805976],[90.331529,23.805991],[90.331643,23.806048],[90.331552,23.806416],[90.331551,23.806416],[90.33143,23.806341],[90.331399,23.806321]]]}},{"type":"Feature","properties":{"survey":"bds","sheet":"045","dag":"22061","label_bn":"22061","area_sqm":701.5},"geometry":{"type":"Polygon","coordinates":[[[90.331872,23.806123],[90.331882,23.806014],[90.331906,23.805894],[90.331913,23.805858],[90.331915,23.805837],[90.331927,23.805812],[90.332001,23.805813],[90.332085,23.805816],[90.332066,23.806164],[90.332042,23.806164],[90.331968,23.806153],[90.331913,23.806136],[90.331872,23.806123]]]}},{"type":"Feature","properties":{"survey":"bds","sheet":"045","dag":"22060","label_bn":"22060","area_sqm":706.4},"geometry":{"type":"Polygon","coordinates":[[[90.332066,23.806164],[90.332085,23.805816],[90.332155,23.805818],[90.332248,23.80582],[90.332275,23.806132],[90.332212,23.806144],[90.332193,23.806151],[90.332105,23.806165],[90.332066,23.806164]]]}},{"type":"Feature","properties":{"survey":"bds","sheet":"045","dag":"22071","label_bn":"22071","area_sqm":706.5},"geometry":{"type":"Polygon","coordinates":[[[90.332472,23.805956],[90.332485,23.8061],[90.332419,23.806105],[90.332351,23.806121],[90.332277,23.806131],[90.332275,23.806132],[90.332248,23.80582],[90.332459,23.80582],[90.332472,23.805956]]]}},{"type":"Feature","properties":{"survey":"bds","sheet":"045","dag":"22016","label_bn":"22016","area_sqm":711.5},"geometry":{"type":"Polygon","coordinates":[[[90.332041,23.807095],[90.332045,23.807085],[90.332084,23.806975],[90.332131,23.806907],[90.332336,23.806928],[90.332336,23.807029],[90.332341,23.807159],[90.332165,23.807206],[90.332165,23.807202],[90.332168,23.807176],[90.332168,23.807118],[90.332041,23.807095]]]}},{"type":"Feature","properties":{"survey":"bds","sheet":"045","dag":"22069","label_bn":"22069","area_sqm":731.9},"geometry":{"type":"Polygon","coordinates":[[[90.332235,23.806606],[90.332575,23.806531],[90.332646,23.806521],[90.332696,23.806677],[90.332273,23.806739],[90.332236,23.80662],[90.332235,23.806606]]]}},{"type":"Feature","properties":{"survey":"bds","sheet":"045","dag":"22055","label_bn":"22055","area_sqm":768.6},"geometry":{"type":"Polygon","coordinates":[[[90.331353,23.805903],[90.331386,23.805849],[90.331364,23.805576],[90.331403,23.805571],[90.33157,23.805572],[90.331541,23.80587],[90.331529,23.805991],[90.331498,23.805976],[90.331353,23.805903]]]}},{"type":"Feature","properties":{"survey":"bds","sheet":"045","dag":"22053","label_bn":"22053","area_sqm":813.1},"geometry":{"type":"Polygon","coordinates":[[[90.331173,23.806142],[90.331353,23.805903],[90.331498,23.805976],[90.331399,23.806321],[90.331213,23.806174],[90.331173,23.806142]]]}},{"type":"Feature","properties":{"survey":"bds","sheet":"045","dag":"22028","label_bn":"22028","area_sqm":814.1},"geometry":{"type":"Polygon","coordinates":[[[90.331354,23.807657],[90.331377,23.80765],[90.331548,23.807601],[90.331604,23.807584],[90.331604,23.807584],[90.331605,23.807584],[90.331697,23.807851],[90.331657,23.807847],[90.331642,23.807848],[90.331621,23.80785],[90.331361,23.807874],[90.331358,23.807842],[90.331363,23.807746],[90.331354,23.807657]]]}},{"type":"Feature","properties":{"survey":"bds","sheet":"045","dag":"22080","label_bn":"22080","area_sqm":893.4},"geometry":{"type":"Polygon","coordinates":[[[90.332644,23.806046],[90.332669,23.805821],[90.332672,23.80579],[90.332689,23.805726],[90.332868,23.805748],[90.332892,23.805751],[90.332876,23.805902],[90.332956,23.805909],[90.332952,23.806051],[90.332649,23.806044],[90.332644,23.806046]]]}},{"type":"Feature","properties":{"survey":"bds","sheet":"045","dag":"22014","label_bn":"22014","area_sqm":953.2},"geometry":{"type":"Polygon","coordinates":[[[90.332608,23.80691],[90.332637,23.806868],[90.332658,23.806839],[90.332733,23.806792],[90.332762,23.806803],[90.332984,23.806903],[90.33303,23.806872],[90.333104,23.806957],[90.333197,23.807069],[90.333163,23.80712],[90.333098,23.807144],[90.333052,23.807087],[90.332894,23.807007],[90.33281,23.806983],[90.332755,23.806975],[90.332693,23.806948],[90.332683,23.806956],[90.332616,23.806915],[90.332615,23.806915],[90.332608,23.80691]]]}},{"type":"Feature","properties":{"survey":"bds","sheet":"045","dag":"22040","label_bn":"22040","area_sqm":978.5},"geometry":{"type":"Polygon","coordinates":[[[90.330997,23.806736],[90.331147,23.80672],[90.331216,23.806892],[90.331281,23.807126],[90.331227,23.807132],[90.331128,23.807152],[90.331041,23.807167],[90.330997,23.806736]]]}},{"type":"Feature","properties":{"survey":"bds","sheet":"045","dag":"22035","label_bn":"22035","area_sqm":994.4},"geometry":{"type":"Polygon","coordinates":[[[90.331706,23.807059],[90.331763,23.807039],[90.331898,23.806992],[90.331958,23.806996],[90.332008,23.806975],[90.332044,23.806966],[90.332084,23.806975],[90.332045,23.807085],[90.332041,23.807095],[90.332011,23.807189],[90.332009,23.807204],[90.332003,23.807283],[90.331807,23.807342],[90.331706,23.807059]]]}},{"type":"Feature","properties":{"survey":"bds","sheet":"045","dag":"22050","label_bn":"22050","area_sqm":1057.5},"geometry":{"type":"Polygon","coordinates":[[[90.331636,23.806461],[90.331732,23.806078],[90.331854,23.806119],[90.331872,23.806123],[90.331913,23.806136],[90.331878,23.806508],[90.331862,23.80659],[90.331768,23.806534],[90.331636,23.806461]]]}},{"type":"Feature","properties":{"survey":"bds","sheet":"045","dag":"22033","label_bn":"22033","area_sqm":1125.5},"geometry":{"type":"Polygon","coordinates":[[[90.331397,23.807121],[90.331706,23.807059],[90.331807,23.807342],[90.331788,23.807348],[90.331588,23.807406],[90.331527,23.80743],[90.3315,23.807431],[90.331397,23.807121]]]}},{"type":"Feature","properties":{"survey":"bds","sheet":"045","dag":"22027","label_bn":"22027","area_sqm":1138.4},"geometry":{"type":"Polygon","coordinates":[[[90.331605,23.807584],[90.331849,23.807514],[90.331877,23.807506],[90.33188,23.807505],[90.331921,23.807498],[90.331925,23.807497],[90.332005,23.807784],[90.331873,23.807843],[90.331831,23.807859],[90.331792,23.807862],[90.331699,23.807852],[90.331697,23.807851],[90.331605,23.807584]]]}},{"type":"Feature","properties":{"survey":"bds","sheet":"045","dag":"22013","label_bn":"22013","area_sqm":1167.6},"geometry":{"type":"Polygon","coordinates":[[[90.332616,23.806915],[90.332616,23.806915],[90.332683,23.806956],[90.332693,23.806948],[90.332755,23.806975],[90.33281,23.806983],[90.332894,23.807007],[90.333052,23.807087],[90.333098,23.807144],[90.333054,23.80716],[90.332901,23.807229],[90.332884,23.807237],[90.332785,23.807278],[90.332707,23.807302],[90.332677,23.807311],[90.332656,23.807232],[90.332644,23.807154],[90.332643,23.80715],[90.332643,23.807147],[90.332632,23.807072],[90.332616,23.806915]]]}},{"type":"Feature","properties":{"survey":"bds","sheet":"045","dag":"22015","label_bn":"22015","area_sqm":1172.8},"geometry":{"type":"Polygon","coordinates":[[[90.332131,23.806907],[90.332133,23.806904],[90.332165,23.806847],[90.332231,23.806749],[90.332244,23.806744],[90.332273,23.806739],[90.332696,23.806677],[90.332733,23.806792],[90.332658,23.806839],[90.332637,23.806868],[90.332608,23.80691],[90.332615,23.806915],[90.332616,23.806915],[90.332616,23.806915],[90.332336,23.806928],[90.332131,23.806907]]]}},{"type":"Feature","properties":{"survey":"bds","sheet":"045","dag":"22011","label_bn":"22011","area_sqm":1175.3},"geometry":{"type":"Polygon","coordinates":[[[90.332026,23.807782],[90.332039,23.807747],[90.33218,23.80755],[90.33221,23.80754],[90.332307,23.807465],[90.332392,23.807417],[90.332537,23.807357],[90.33257,23.807346],[90.33262,23.807326],[90.332622,23.80733],[90.332693,23.807474],[90.3326,23.80751],[90.332516,23.807545],[90.332434,23.80759],[90.332335,23.807644],[90.332286,23.807665],[90.332221,23.8077],[90.332088,23.807777],[90.332068,23.807799],[90.332026,23.807782]]]}},{"type":"Feature","properties":{"survey":"bds","sheet":"045","dag":"22032","label_bn":"22032","area_sqm":1185.9},"geometry":{"type":"Polygon","coordinates":[[[90.331041,23.807167],[90.331128,23.807152],[90.331227,23.807132],[90.331281,23.807126],[90.331309,23.807129],[90.331376,23.807123],[90.331397,23.807121],[90.3315,23.807431],[90.331256,23.807488],[90.331123,23.807289],[90.331041,23.807167]]]}},{"type":"Feature","properties":{"survey":"bds","sheet":"045","dag":"22058","label_bn":"22058","area_sqm":1251.9},"geometry":{"type":"Polygon","coordinates":[[[90.331541,23.80587],[90.33157,23.805572],[90.33161,23.805572],[90.331848,23.805608],[90.331958,23.805606],[90.331927,23.805812],[90.331915,23.805837],[90.331913,23.805858],[90.331906,23.805894],[90.331654,23.805876],[90.331653,23.805876],[90.331541,23.80587]]]}},{"type":"Feature","properties":{"survey":"bds","sheet":"045","dag":"22072","label_bn":"22072","area_sqm":1289.7},"geometry":{"type":"Polygon","coordinates":[[[90.332155,23.805818],[90.33216,23.805587],[90.332221,23.805582],[90.332693,23.805633],[90.332689,23.805726],[90.332672,23.80579],[90.332669,23.805821],[90.332459,23.80582],[90.332248,23.80582],[90.332155,23.805818]]]}},{"type":"Feature","properties":{"survey":"bds","sheet":"045","dag":"22039","label_bn":"22039","area_sqm":1453.8},"geometry":{"type":"Polygon","coordinates":[[[90.331216,23.806892],[90.331356,23.806857],[90.33136,23.806852],[90.331476,23.806822],[90.331721,23.806823],[90.331739,23.806952],[90.331745,23.806988],[90.331763,23.807039],[90.331706,23.807059],[90.331397,23.807121],[90.331376,23.807123],[90.331309,23.807129],[90.331281,23.807126],[90.331216,23.806892]]]}},{"type":"Feature","properties":{"survey":"bds","sheet":"045","dag":"22041","label_bn":"22041","area_sqm":1509.2},"geometry":{"type":"Polygon","coordinates":[[[90.330699,23.806857],[90.330706,23.80681],[90.330721,23.806758],[90.330907,23.806744],[90.330997,23.806736],[90.331041,23.807167],[90.330984,23.80718],[90.330787,23.807224],[90.330763,23.807156],[90.330739,23.807084],[90.330721,23.807013],[90.330707,23.806941],[90.330699,23.806857]]]}},{"type":"Feature","properties":{"survey":"bds","sheet":"045","dag":"22070","label_bn":"22070","area_sqm":1599.6},"geometry":{"type":"Polygon","coordinates":[[[90.332193,23.806151],[90.332212,23.806144],[90.332275,23.806132],[90.332277,23.806131],[90.332351,23.806121],[90.332419,23.806105],[90.332485,23.8061],[90.33253,23.806097],[90.332501,23.806149],[90.332502,23.806288],[90.33252,23.806412],[90.332575,23.806531],[90.332235,23.806606],[90.332223,23.806533],[90.332208,23.806447],[90.332207,23.806386],[90.332209,23.806353],[90.332212,23.806303],[90.33221,23.806263],[90.332206,23.806212],[90.332193,23.806151]]]}},{"type":"Feature","properties":{"survey":"bds","sheet":"045","dag":"22002","label_bn":"22002","area_sqm":1703.8},"geometry":{"type":"Polygon","coordinates":[[[90.330864,23.808381],[90.330942,23.808333],[90.331131,23.808438],[90.331323,23.808461],[90.331532,23.808487],[90.331585,23.80851],[90.331649,23.808554],[90.331786,23.808639],[90.331839,23.808685],[90.3319,23.808714],[90.331931,23.808728],[90.332006,23.808748],[90.332097,23.808766],[90.332219,23.808799],[90.332269,23.808817],[90.332337,23.808841],[90.332403,23.808854],[90.332474,23.808848],[90.332509,23.808839],[90.332485,23.80891],[90.332465,23.808912],[90.332389,23.808905],[90.332241,23.808893],[90.332139,23.808868],[90.332068,23.808846],[90.331876,23.808802],[90.331771,23.808744],[90.331703,23.808672],[90.331593,23.808575],[90.331477,23.808544],[90.331333,23.808598],[90.331168,23.808561],[90.33116,23.808559],[90.331123,23.808551],[90.331057,23.808521],[90.330943,23.80847],[90.330899,23.808417],[90.330864,23.808381]]]}},{"type":"Feature","properties":{"survey":"bds","sheet":"045","dag":"22045","label_bn":"22045","area_sqm":2352.6},"geometry":{"type":"Polygon","coordinates":[[[90.330894,23.806392],[90.331213,23.806174],[90.331399,23.806321],[90.33143,23.806341],[90.331379,23.806572],[90.33137,23.806614],[90.331352,23.806705],[90.331147,23.80672],[90.330997,23.806736],[90.330983,23.80669],[90.330894,23.806392]]]}},{"type":"Feature","properties":{"survey":"bds","sheet":"045","dag":"22004","label_bn":"22004","area_sqm":2479.9},"geometry":{"type":"Polygon","coordinates":[[[90.3319,23.808714],[90.331904,23.808704],[90.33192,23.808661],[90.33193,23.808608],[90.331932,23.808553],[90.331956,23.808488],[90.331993,23.808361],[90.331993,23.808361],[90.33208,23.808378],[90.332211,23.808426],[90.33233,23.808462],[90.332581,23.808554],[90.332513,23.808784],[90.332509,23.808831],[90.332509,23.808839],[90.332474,23.808848],[90.332403,23.808854],[90.332337,23.808841],[90.332269,23.808817],[90.332219,23.808799],[90.332097,23.808766],[90.332006,23.808748],[90.331931,23.808728],[90.3319,23.808714]]]}},{"type":"Feature","properties":{"survey":"bds","sheet":"045","dag":"22054","label_bn":"22054","area_sqm":2523.2},"geometry":{"type":"Polygon","coordinates":[[[90.330697,23.806098],[90.330929,23.80605],[90.331009,23.806022],[90.331082,23.805959],[90.331084,23.805906],[90.331111,23.805781],[90.331117,23.805761],[90.331104,23.805653],[90.331075,23.805609],[90.331285,23.805585],[90.331364,23.805576],[90.331386,23.805849],[90.331353,23.805903],[90.331173,23.806142],[90.331173,23.806142],[90.330972,23.806287],[90.33079,23.806386],[90.330748,23.806255],[90.330697,23.806098]]]}},{"type":"Feature","properties":{"survey":"bds","sheet":"045","dag":"22005","label_bn":"22005","area_sqm":2979.5},"geometry":{"type":"Polygon","coordinates":[[[90.332485,23.80891],[90.332509,23.808839],[90.332509,23.808831],[90.332513,23.808784],[90.332581,23.808554],[90.332595,23.808471],[90.332597,23.808462],[90.332612,23.808378],[90.332661,23.808207],[90.332665,23.808208],[90.333039,23.808271],[90.333063,23.808317],[90.333028,23.80842],[90.332996,23.808489],[90.332989,23.808558],[90.332993,23.808674],[90.332986,23.808814],[90.332845,23.808812],[90.332778,23.80882],[90.332708,23.808849],[90.332626,23.808871],[90.332544,23.808905],[90.332505,23.808909],[90.332485,23.80891]]]}},{"type":"Feature","properties":{"survey":"bds","sheet":"045","dag":"22003","label_bn":"22003","area_sqm":4082.1},"geometry":{"type":"Polygon","coordinates":[[[90.330942,23.808333],[90.331225,23.808163],[90.331325,23.808043],[90.331432,23.80808],[90.33149,23.808122],[90.331531,23.808144],[90.331572,23.808164],[90.331606,23.808171],[90.331658,23.808172],[90.33169,23.808162],[90.331718,23.808154],[90.331759,23.808153],[90.331818,23.808163],[90.331919,23.808155],[90.33198,23.808148],[90.332004,23.808143],[90.33202,23.808193],[90.332021,23.808251],[90.332018,23.808272],[90.332015,23.808293],[90.332008,23.808313],[90.331993,23.808361],[90.331991,23.808361],[90.331993,23.808361],[90.331993,23.808361],[90.331956,23.808488],[90.331932,23.808553],[90.33193,23.808608],[90.33192,23.808661],[90.331904,23.808704],[90.3319,23.808714],[90.331839,23.808685],[90.331786,23.808639],[90.331649,23.808554],[90.331585,23.80851],[90.331532,23.808487],[90.331323,23.808461],[90.331131,23.808438],[90.330942,23.808333]]]}},{"type":"Feature","properties":{"survey":"bds","sheet":"045","dag":"22074","label_bn":"22074","area_sqm":4155.1},"geometry":{"type":"Polygon","coordinates":[[[90.332501,23.806149],[90.33253,23.806097],[90.332644,23.806046],[90.332649,23.806044],[90.332952,23.806051],[90.33296,23.806051],[90.33296,23.806227],[90.33296,23.806404],[90.333131,23.806405],[90.333107,23.80659],[90.333146,23.806806],[90.33303,23.806872],[90.332984,23.806903],[90.332762,23.806803],[90.332733,23.806792],[90.332696,23.806677],[90.332646,23.806521],[90.332575,23.806531],[90.33252,23.806412],[90.332502,23.806288],[90.332501,23.806149]]]}},{"type":"Feature","properties":{"survey":"bds","sheet":"045","dag":"22001","label_bn":"22001","area_sqm":4630.2},"geometry":{"type":"Polygon","coordinates":[[[90.330529,23.807988],[90.330736,23.807972],[90.330858,23.807968],[90.330935,23.807938],[90.331002,23.80791],[90.33101,23.807889],[90.330999,23.807834],[90.330973,23.807803],[90.330975,23.807785],[90.330854,23.807433],[90.330851,23.807425],[90.330951,23.807445],[90.331006,23.807471],[90.33101,23.807473],[90.331112,23.807521],[90.331233,23.807579],[90.331242,23.807584],[90.331354,23.807657],[90.331363,23.807746],[90.331358,23.807842],[90.331361,23.807874],[90.331366,23.807934],[90.331328,23.80804],[90.331325,23.808043],[90.331225,23.808163],[90.330942,23.808333],[90.330864,23.808381],[90.330811,23.808368],[90.330753,23.808364],[90.330672,23.80836],[90.330628,23.808246],[90.330529,23.807988]]]}},{"type":"Feature","properties":{"survey":"bds","sheet":"045","dag":"22007","label_bn":"22007","area_sqm":6407.4},"geometry":{"type":"Polygon","coordinates":[[[90.331325,23.808043],[90.331328,23.80804],[90.331366,23.807934],[90.331361,23.807874],[90.331621,23.80785],[90.331642,23.807848],[90.331657,23.807847],[90.331697,23.807851],[90.331699,23.807852],[90.331792,23.807862],[90.331831,23.807859],[90.331873,23.807843],[90.332005,23.807784],[90.332026,23.807782],[90.332068,23.807799],[90.332125,23.807821],[90.332192,23.807839],[90.332235,23.807841],[90.332306,23.807927],[90.332362,23.807929],[90.332443,23.80789],[90.332529,23.807794],[90.332664,23.808052],[90.332668,23.808197],[90.332665,23.808208],[90.332661,23.808207],[90.332612,23.808378],[90.332597,23.808462],[90.332595,23.808471],[90.332581,23.808554],[90.33233,23.808462],[90.332211,23.808426],[90.33208,23.808378],[90.331993,23.808361],[90.332008,23.808313],[90.332015,23.808293],[90.332018,23.808272],[90.332021,23.808251],[90.33202,23.808193],[90.332004,23.808143],[90.33198,23.808148],[90.331919,23.808155],[90.331818,23.808163],[90.331759,23.808153],[90.331718,23.808154],[90.33169,23.808162],[90.331658,23.808172],[90.331606,23.808171],[90.331572,23.808164],[90.331531,23.808144],[90.33149,23.808122],[90.331432,23.80808],[90.331325,23.808043]]]}},{"type":"Feature","properties":{"survey":"bds","sheet":"045","dag":"22006","label_bn":"22006","area_sqm":17178.0},"geometry":{"type":"Polygon","coordinates":[[[90.332335,23.807644],[90.332434,23.80759],[90.332516,23.807545],[90.3326,23.80751],[90.332693,23.807474],[90.33271,23.807467],[90.332921,23.807374],[90.332952,23.807358],[90.332938,23.807326],[90.332926,23.807288],[90.332902,23.80723],[90.332901,23.807229],[90.333054,23.80716],[90.333196,23.807401],[90.33344,23.807534],[90.333652,23.80764],[90.333679,23.807649],[90.333836,23.807758],[90.33386,23.807775],[90.333928,23.807823],[90.333874,23.807891],[90.333859,23.807939],[90.333871,23.80807],[90.333865,23.808179],[90.333862,23.808265],[90.333859,23.808482],[90.333886,23.808489],[90.333814,23.808641],[90.333771,23.808798],[90.333721,23.808894],[90.333613,23.808895],[90.333553,23.808891],[90.33344,23.808872],[90.333324,23.808859],[90.333024,23.808814],[90.332986,23.808814],[90.332993,23.808674],[90.332989,23.808558],[90.332996,23.808489],[90.333028,23.80842],[90.333063,23.808317],[90.333039,23.808271],[90.332665,23.808208],[90.332668,23.808197],[90.332664,23.808052],[90.332529,23.807794],[90.332526,23.807788],[90.332513,23.807758],[90.332488,23.807724],[90.33245,23.8077],[90.332414,23.807692],[90.33237,23.8077],[90.332335,23.807644]]]}}]}