{"type":"FeatureCollection","features":[{"type":"Feature","properties":{"survey":"bds","sheet":"046","dag":"22544","label_bn":"22544","area_sqm":182.9},"geometry":{"type":"Polygon","coordinates":[[[90.328552,23.806339],[90.328535,23.806415],[90.328333,23.806342],[90.328335,23.806336],[90.32836,23.806269],[90.328552,23.806339]]]}},{"type":"Feature","properties":{"survey":"bds","sheet":"046","dag":"22550","label_bn":"22550","area_sqm":3873.9},"geometry":{"type":"Polygon","coordinates":[[[90.329984,23.806427],[90.329839,23.806501],[90.3296,23.806199],[90.329879,23.8061],[90.330015,23.806071],[90.33004,23.806082],[90.330083,23.806104],[90.330156,23.806109],[90.330259,23.806088],[90.330492,23.806083],[90.330697,23.806098],[90.330789,23.806384],[90.330299,23.806422],[90.330245,23.806423],[90.330169,23.806411],[90.330132,23.806405],[90.329984,23.806427]]]}},{"type":"Feature","properties":{"survey":"bds","sheet":"046","dag":"22543","label_bn":"22543","area_sqm":244.1},"geometry":{"type":"Polygon","coordinates":[[[90.328535,23.806415],[90.328512,23.806514],[90.328314,23.806442],[90.328316,23.806431],[90.328333,23.806342],[90.328535,23.806415]]]}},{"type":"Feature","properties":{"survey":"bds","sheet":"046","dag":"22542","label_bn":"22542","area_sqm":182.8},"geometry":{"type":"Polygon","coordinates":[[[90.328512,23.806514],[90.328495,23.80659],[90.328299,23.806518],[90.328301,23.806504],[90.328314,23.806442],[90.328512,23.806514]]]}},{"type":"Feature","properties":{"survey":"bds","sheet":"046","dag":"22547","label_bn":"22547","area_sqm":1143.4},"geometry":{"type":"Polygon","coordinates":[[[90.329484,23.806594],[90.329289,23.806612],[90.329263,23.806603],[90.329247,23.806577],[90.329237,23.806553],[90.329231,23.806518],[90.329225,23.806464],[90.32922,23.806391],[90.329224,23.806339],[90.329236,23.806289],[90.329375,23.80627],[90.329391,23.806295],[90.329553,23.806258],[90.329587,23.806244],[90.329588,23.806276],[90.329581,23.806335],[90.329567,23.806376],[90.329503,23.806521],[90.329484,23.806594]]]}},{"type":"Feature","properties":{"survey":"bds","sheet":"046","dag":"22541","label_bn":"22541","area_sqm":203.2},"geometry":{"type":"Polygon","coordinates":[[[90.328495,23.80659],[90.328476,23.806675],[90.328282,23.806603],[90.328286,23.806582],[90.328299,23.806518],[90.328495,23.80659]]]}},{"type":"Feature","properties":{"survey":"bds","sheet":"046","dag":"22540","label_bn":"22540","area_sqm":244.1},"geometry":{"type":"Polygon","coordinates":[[[90.328476,23.806675],[90.328452,23.806781],[90.328414,23.806768],[90.328263,23.806701],[90.328282,23.806603],[90.328476,23.806675]]]}},{"type":"Feature","properties":{"survey":"bds","sheet":"046","dag":"22545","label_bn":"22545","area_sqm":1591.4},"geometry":{"type":"Polygon","coordinates":[[[90.328804,23.8066],[90.328689,23.80692],[90.328635,23.806888],[90.328615,23.806872],[90.328468,23.806786],[90.328452,23.806781],[90.328476,23.806675],[90.328495,23.80659],[90.328512,23.806514],[90.328535,23.806415],[90.328552,23.806339],[90.328568,23.806345],[90.328591,23.806353],[90.328694,23.806386],[90.328779,23.806416],[90.328853,23.806435],[90.32885,23.806448],[90.328804,23.8066]]]}},{"type":"Feature","properties":{"survey":"bds","sheet":"046","dag":"22512","label_bn":"22512","area_sqm":894.5},"geometry":{"type":"Polygon","coordinates":[[[90.329468,23.806938],[90.329481,23.806963],[90.329177,23.806944],[90.329289,23.806612],[90.329484,23.806594],[90.329446,23.80674],[90.329447,23.80683],[90.329468,23.806938]]]}},{"type":"Feature","properties":{"survey":"bds","sheet":"046","dag":"22548","label_bn":"22548","area_sqm":2143.9},"geometry":{"type":"Polygon","coordinates":[[[90.32983,23.806895],[90.329481,23.806963],[90.329468,23.806938],[90.329447,23.80683],[90.329446,23.80674],[90.329484,23.806594],[90.329503,23.806521],[90.329567,23.806376],[90.329581,23.806335],[90.329588,23.806276],[90.329587,23.806244],[90.3296,23.806199],[90.329839,23.806501],[90.329782,23.80658],[90.329762,23.806626],[90.329789,23.806734],[90.32983,23.806895]]]}},{"type":"Feature","properties":{"survey":"bds","sheet":"046","dag":"22549","label_bn":"22549","area_sqm":8669.2},"geometry":{"type":"Polygon","coordinates":[[[90.330808,23.806438],[90.330772,23.806532],[90.330737,23.806719],[90.330721,23.806758],[90.330706,23.80681],[90.330699,23.806857],[90.330707,23.806941],[90.330721,23.807013],[90.330739,23.807084],[90.330763,23.807156],[90.330787,23.807224],[90.330753,23.807376],[90.330626,23.807382],[90.33041,23.807316],[90.330348,23.807282],[90.330227,23.807254],[90.330091,23.807189],[90.33001,23.807118],[90.329922,23.807009],[90.32983,23.806895],[90.329789,23.806734],[90.329762,23.806626],[90.329782,23.80658],[90.329839,23.806501],[90.329984,23.806427],[90.330132,23.806405],[90.330169,23.806411],[90.330245,23.806423],[90.330299,23.806422],[90.330789,23.806384],[90.33079,23.806386],[90.330808,23.806438]]]}},{"type":"Feature","properties":{"survey":"bds","sheet":"046","dag":"22546","label_bn":"22546","area_sqm":4467.1},"geometry":{"type":"Polygon","coordinates":[[[90.32914,23.807054],[90.329093,23.807194],[90.328866,23.807029],[90.328853,23.807057],[90.328836,23.807043],[90.328763,23.806973],[90.328689,23.806929],[90.328689,23.80692],[90.328804,23.8066],[90.32885,23.806448],[90.328853,23.806435],[90.328879,23.806382],[90.328921,23.806292],[90.329041,23.806117],[90.329178,23.806146],[90.329227,23.80615],[90.329268,23.806145],[90.32934,23.806225],[90.329361,23.80625],[90.329375,23.80627],[90.329236,23.806289],[90.329224,23.806339],[90.32922,23.806391],[90.329225,23.806464],[90.329231,23.806518],[90.329237,23.806553],[90.329247,23.806577],[90.329263,23.806603],[90.329289,23.806612],[90.329177,23.806944],[90.32914,23.807054]]]}},{"type":"Feature","properties":{"survey":"bds","sheet":"046","dag":"22539","label_bn":"22539","area_sqm":2564.3},"geometry":{"type":"Polygon","coordinates":[[[90.328718,23.807318],[90.328701,23.807345],[90.328685,23.807313],[90.328652,23.807269],[90.328616,23.807236],[90.328462,23.807167],[90.328332,23.807125],[90.328234,23.807118],[90.328112,23.806946],[90.328217,23.806873],[90.32828,23.806791],[90.328263,23.806701],[90.328414,23.806768],[90.328452,23.806781],[90.328468,23.806786],[90.328615,23.806872],[90.328635,23.806888],[90.328689,23.80692],[90.328689,23.806929],[90.328763,23.806973],[90.328836,23.807043],[90.328853,23.807057],[90.328875,23.807104],[90.328839,23.807109],[90.328718,23.807318]]]}},{"type":"Feature","properties":{"survey":"bds","sheet":"046","dag":"22513","label_bn":"22513","area_sqm":1788.8},"geometry":{"type":"Polygon","coordinates":[[[90.329659,23.80721],[90.329821,23.807402],[90.329685,23.807334],[90.329576,23.8073],[90.329446,23.807299],[90.32929,23.807276],[90.329088,23.80721],[90.329093,23.807194],[90.32914,23.807054],[90.329177,23.806944],[90.329481,23.806963],[90.329528,23.807051],[90.329659,23.80721]]]}},{"type":"Feature","properties":{"survey":"bds","sheet":"046","dag":"22518","label_bn":"22518","area_sqm":367.2},"geometry":{"type":"Polygon","coordinates":[[[90.329383,23.807492],[90.32938,23.807501],[90.329226,23.807468],[90.32929,23.807276],[90.32929,23.807276],[90.329446,23.807299],[90.329383,23.807492]]]}},{"type":"Feature","properties":{"survey":"bds","sheet":"046","dag":"22519","label_bn":"22519","area_sqm":439.6},"geometry":{"type":"Polygon","coordinates":[[[90.329588,23.807438],[90.329594,23.80755],[90.329383,23.807492],[90.329383,23.807492],[90.329446,23.807299],[90.329576,23.8073],[90.329588,23.807438]]]}},{"type":"Feature","properties":{"survey":"bds","sheet":"046","dag":"22514","label_bn":"22514","area_sqm":2215.7},"geometry":{"type":"Polygon","coordinates":[[[90.329219,23.807489],[90.32918,23.807608],[90.329025,23.807559],[90.328783,23.807507],[90.328715,23.807373],[90.328701,23.807345],[90.328718,23.807318],[90.328839,23.807109],[90.328875,23.807104],[90.328853,23.807057],[90.328866,23.807029],[90.329093,23.807194],[90.329088,23.80721],[90.32929,23.807276],[90.32929,23.807276],[90.329226,23.807468],[90.329223,23.807476],[90.329223,23.807476],[90.329219,23.807489]]]}},{"type":"Feature","properties":{"survey":"bds","sheet":"046","dag":"22538","label_bn":"22538","area_sqm":788.9},"geometry":{"type":"Polygon","coordinates":[[[90.328607,23.807573],[90.328585,23.807618],[90.328601,23.807497],[90.328546,23.807406],[90.32844,23.8073],[90.328234,23.807118],[90.328332,23.807125],[90.328462,23.807167],[90.328616,23.807236],[90.328652,23.807269],[90.328685,23.807313],[90.328701,23.807345],[90.328715,23.807373],[90.328686,23.807431],[90.328662,23.807471],[90.328638,23.80751],[90.328607,23.807573]]]}},{"type":"Feature","properties":{"survey":"bds","sheet":"046","dag":"22517","label_bn":"22517","area_sqm":245.1},"geometry":{"type":"Polygon","coordinates":[[[90.329373,23.807523],[90.32934,23.807623],[90.32918,23.807608],[90.329219,23.807489],[90.329223,23.807476],[90.329223,23.807476],[90.329226,23.807468],[90.32938,23.807501],[90.329373,23.807523]]]}},{"type":"Feature","properties":{"survey":"bds","sheet":"046","dag":"22520","label_bn":"22520","area_sqm":336.7},"geometry":{"type":"Polygon","coordinates":[[[90.329594,23.80755],[90.329599,23.807664],[90.32934,23.807623],[90.329373,23.807523],[90.32938,23.807501],[90.329383,23.807492],[90.329383,23.807492],[90.329594,23.80755]]]}},{"type":"Feature","properties":{"survey":"bds","sheet":"046","dag":"22521","label_bn":"22521","area_sqm":719.9},"geometry":{"type":"Polygon","coordinates":[[[90.329844,23.807421],[90.329702,23.807677],[90.329599,23.807664],[90.329594,23.80755],[90.329588,23.807438],[90.329576,23.8073],[90.329685,23.807334],[90.329821,23.807402],[90.329844,23.807421]]]}},{"type":"Feature","properties":{"survey":"bds","sheet":"046","dag":"22522","label_bn":"22522","area_sqm":310.1},"geometry":{"type":"Polygon","coordinates":[[[90.329935,23.807488],[90.329803,23.807691],[90.329702,23.807677],[90.329844,23.807421],[90.329882,23.807454],[90.329935,23.807488]]]}},{"type":"Feature","properties":{"survey":"bds","sheet":"046","dag":"22523","label_bn":"22523","area_sqm":316.3},"geometry":{"type":"Polygon","coordinates":[[[90.330041,23.807557],[90.329921,23.807731],[90.329803,23.807691],[90.329935,23.807488],[90.330041,23.807557]]]}},{"type":"Feature","properties":{"survey":"bds","sheet":"046","dag":"22524","label_bn":"22524","area_sqm":222.3},"geometry":{"type":"Polygon","coordinates":[[[90.330135,23.807594],[90.329991,23.807772],[90.329921,23.807731],[90.330041,23.807557],[90.330135,23.807594]]]}},{"type":"Feature","properties":{"survey":"bds","sheet":"046","dag":"22511","label_bn":"22511","area_sqm":5746.7},"geometry":{"type":"Polygon","coordinates":[[[90.330851,23.807425],[90.330976,23.807784],[90.330934,23.807774],[90.330814,23.807748],[90.330626,23.807706],[90.330437,23.807692],[90.330243,23.807635],[90.330135,23.807594],[90.330041,23.807557],[90.329935,23.807488],[90.329882,23.807454],[90.329844,23.807421],[90.329821,23.807402],[90.329659,23.80721],[90.329528,23.807051],[90.329481,23.806963],[90.32983,23.806895],[90.329922,23.807009],[90.33001,23.807118],[90.330091,23.807189],[90.330227,23.807254],[90.330348,23.807282],[90.33041,23.807316],[90.330626,23.807382],[90.330753,23.807376],[90.330851,23.807425]]]}},{"type":"Feature","properties":{"survey":"bds","sheet":"046","dag":"22537","label_bn":"22537","area_sqm":529.2},"geometry":{"type":"Polygon","coordinates":[[[90.328681,23.807755],[90.328671,23.807785],[90.328545,23.807745],[90.328574,23.807673],[90.328579,23.80766],[90.328585,23.807618],[90.328607,23.807573],[90.328638,23.80751],[90.328662,23.807471],[90.328686,23.807431],[90.328715,23.807373],[90.328783,23.807507],[90.32873,23.807634],[90.328712,23.807679],[90.328681,23.807755]]]}},{"type":"Feature","properties":{"survey":"bds","sheet":"046","dag":"22515","label_bn":"22515","area_sqm":959.1},"geometry":{"type":"Polygon","coordinates":[[[90.32918,23.807608],[90.329192,23.807798],[90.328712,23.807679],[90.32873,23.807634],[90.328783,23.807507],[90.329025,23.807559],[90.32918,23.807608]]]}},{"type":"Feature","properties":{"survey":"bds","sheet":"046","dag":"22525","label_bn":"22525","area_sqm":346.4},"geometry":{"type":"Polygon","coordinates":[[[90.330243,23.807635],[90.330177,23.807814],[90.329991,23.807772],[90.330135,23.807594],[90.330243,23.807635]]]}},{"type":"Feature","properties":{"survey":"bds","sheet":"046","dag":"22516","label_bn":"22516","area_sqm":340.4},"geometry":{"type":"Polygon","coordinates":[[[90.329348,23.807784],[90.329343,23.807814],[90.329192,23.807798],[90.32918,23.807608],[90.32934,23.807623],[90.329348,23.807784]]]}},{"type":"Feature","properties":{"survey":"bds","sheet":"046","dag":"22536","label_bn":"22536","area_sqm":203.4},"geometry":{"type":"Polygon","coordinates":[[[90.328654,23.807838],[90.328632,23.80791],[90.328496,23.807864],[90.328521,23.807803],[90.328545,23.807745],[90.328671,23.807785],[90.328654,23.807838]]]}},{"type":"Feature","properties":{"survey":"bds","sheet":"046","dag":"22510","label_bn":"22510","area_sqm":468.5},"geometry":{"type":"Polygon","coordinates":[[[90.330934,23.807774],[90.330976,23.807784],[90.330975,23.807785],[90.330973,23.807803],[90.330986,23.807818],[90.330999,23.807834],[90.33101,23.807889],[90.331002,23.80791],[90.330935,23.807938],[90.330905,23.80795],[90.330858,23.807968],[90.330771,23.807971],[90.330736,23.807972],[90.330814,23.807748],[90.330934,23.807774]]]}},{"type":"Feature","properties":{"survey":"bds","sheet":"046","dag":"22509","label_bn":"22509","area_sqm":586.1},"geometry":{"type":"Polygon","coordinates":[[[90.330736,23.807972],[90.330529,23.807988],[90.330598,23.807775],[90.330626,23.807706],[90.330814,23.807748],[90.330736,23.807972]]]}},{"type":"Feature","properties":{"survey":"bds","sheet":"046","dag":"22508","label_bn":"22508","area_sqm":731.4},"geometry":{"type":"Polygon","coordinates":[[[90.330529,23.807988],[90.330295,23.808055],[90.330437,23.807692],[90.330626,23.807706],[90.330598,23.807775],[90.330529,23.807988]]]}},{"type":"Feature","properties":{"survey":"bds","sheet":"046","dag":"22535","label_bn":"22535","area_sqm":325.2},"geometry":{"type":"Polygon","coordinates":[[[90.328632,23.80791],[90.32857,23.808112],[90.328563,23.808111],[90.328495,23.808093],[90.328471,23.808045],[90.328461,23.807947],[90.328496,23.807864],[90.328632,23.80791]]]}},{"type":"Feature","properties":{"survey":"bds","sheet":"046","dag":"22526","label_bn":"22526","area_sqm":1073.8},"geometry":{"type":"Polygon","coordinates":[[[90.330265,23.808064],[90.330036,23.808159],[90.330177,23.807814],[90.330243,23.807635],[90.330437,23.807692],[90.330295,23.808055],[90.330265,23.808064]]]}},{"type":"Feature","properties":{"survey":"bds","sheet":"046","dag":"22527","label_bn":"22527","area_sqm":633.3},"geometry":{"type":"Polygon","coordinates":[[[90.33001,23.808174],[90.32998,23.808192],[90.32998,23.808187],[90.329943,23.807912],[90.329991,23.807772],[90.330177,23.807814],[90.330036,23.808159],[90.33001,23.808174]]]}},{"type":"Feature","properties":{"survey":"bds","sheet":"046","dag":"22529","label_bn":"22529","area_sqm":80.8},"geometry":{"type":"Polygon","coordinates":[[[90.32987,23.808256],[90.329816,23.808281],[90.329803,23.808212],[90.32998,23.808187],[90.32998,23.808192],[90.32995,23.808209],[90.32987,23.808256]]]}},{"type":"Feature","properties":{"survey":"bds","sheet":"046","dag":"22528","label_bn":"22528","area_sqm":4187.3},"geometry":{"type":"Polygon","coordinates":[[[90.329452,23.808261],[90.329243,23.808291],[90.329343,23.807814],[90.329348,23.807784],[90.32934,23.807623],[90.329599,23.807664],[90.329702,23.807677],[90.329803,23.807691],[90.329921,23.807731],[90.329991,23.807772],[90.329943,23.807912],[90.32998,23.808187],[90.329803,23.808212],[90.329452,23.808261]]]}},{"type":"Feature","properties":{"survey":"bds","sheet":"046","dag":"22507","label_bn":"22507","area_sqm":1133.4},"geometry":{"type":"Polygon","coordinates":[[[90.330337,23.808385],[90.330334,23.808386],[90.330295,23.808055],[90.330529,23.807988],[90.330672,23.80836],[90.330534,23.808341],[90.330487,23.808352],[90.330337,23.808385]]]}},{"type":"Feature","properties":{"survey":"bds","sheet":"046","dag":"22530","label_bn":"22530","area_sqm":513.7},"geometry":{"type":"Polygon","coordinates":[[[90.329564,23.808428],[90.329524,23.808449],[90.329452,23.808261],[90.329803,23.808212],[90.329816,23.808281],[90.329713,23.808327],[90.329637,23.80839],[90.329564,23.808428]]]}},{"type":"Feature","properties":{"survey":"bds","sheet":"046","dag":"22534","label_bn":"22534","area_sqm":5643.8},"geometry":{"type":"Polygon","coordinates":[[[90.328986,23.808436],[90.329007,23.808502],[90.328726,23.808484],[90.32851,23.808485],[90.328488,23.808442],[90.328476,23.808385],[90.328545,23.808191],[90.328495,23.808093],[90.328563,23.808111],[90.32857,23.808112],[90.328632,23.80791],[90.328654,23.807838],[90.328671,23.807785],[90.328681,23.807755],[90.328712,23.807679],[90.329192,23.807798],[90.329343,23.807814],[90.329243,23.808291],[90.328986,23.808436]]]}},{"type":"Feature","properties":{"survey":"bds","sheet":"046","dag":"22531","label_bn":"22531","area_sqm":1015.0},"geometry":{"type":"Polygon","coordinates":[[[90.32927,23.808503],[90.329127,23.808511],[90.329007,23.808502],[90.328986,23.808436],[90.329243,23.808291],[90.329452,23.808261],[90.329524,23.808449],[90.329403,23.808492],[90.32927,23.808503]]]}},{"type":"Feature","properties":{"survey":"bds","sheet":"046","dag":"22503","label_bn":"22503","area_sqm":691.6},"geometry":{"type":"Polygon","coordinates":[[[90.330112,23.808635],[90.330071,23.808777],[90.329956,23.808728],[90.329966,23.808657],[90.33007,23.808546],[90.330216,23.808451],[90.330334,23.808386],[90.330337,23.808385],[90.330248,23.808693],[90.330112,23.808635]]]}},{"type":"Feature","properties":{"survey":"bds","sheet":"046","dag":"22501","label_bn":"22501","area_sqm":3527.1},"geometry":{"type":"Polygon","coordinates":[[[90.329861,23.808781],[90.329679,23.808798],[90.32966,23.808775],[90.329637,23.80876],[90.329564,23.808428],[90.329637,23.80839],[90.329713,23.808327],[90.329816,23.808281],[90.32987,23.808256],[90.32995,23.808209],[90.32998,23.808192],[90.33001,23.808174],[90.330036,23.808159],[90.330265,23.808064],[90.330295,23.808055],[90.330334,23.808386],[90.330216,23.808451],[90.33007,23.808546],[90.329966,23.808657],[90.329956,23.808728],[90.329952,23.808757],[90.329861,23.808781]]]}},{"type":"Feature","properties":{"survey":"bds","sheet":"046","dag":"22504","label_bn":"22504","area_sqm":243.9},"geometry":{"type":"Polygon","coordinates":[[[90.330248,23.808693],[90.330207,23.808835],[90.330071,23.808777],[90.330112,23.808635],[90.330248,23.808693]]]}},{"type":"Feature","properties":{"survey":"bds","sheet":"046","dag":"22505","label_bn":"22505","area_sqm":731.8},"geometry":{"type":"Polygon","coordinates":[[[90.330487,23.808352],[90.330332,23.808851],[90.330235,23.808847],[90.330207,23.808835],[90.330248,23.808693],[90.330337,23.808385],[90.330487,23.808352]]]}},{"type":"Feature","properties":{"survey":"bds","sheet":"046","dag":"22502","label_bn":"22502","area_sqm":204.9},"geometry":{"type":"Polygon","coordinates":[[[90.330235,23.808847],[90.330102,23.8089],[90.33002,23.808824],[90.329952,23.808757],[90.329956,23.808728],[90.330071,23.808777],[90.330207,23.808835],[90.330235,23.808847]]]}},{"type":"Feature","properties":{"survey":"bds","sheet":"046","dag":"22506","label_bn":"22506","area_sqm":1138.4},"geometry":{"type":"Polygon","coordinates":[[[90.330672,23.80836],[90.330477,23.808965],[90.330472,23.808953],[90.330427,23.8089],[90.330377,23.808866],[90.330339,23.808851],[90.330332,23.808851],[90.330487,23.808352],[90.330534,23.808341],[90.330672,23.80836]]]}}]}