{"type":"FeatureCollection","features":[{"type":"Feature","properties":{"survey":"bds","sheet":"047","dag":"23002","label_bn":"23002","area_sqm":1750.0},"geometry":{"type":"Polygon","coordinates":[[[90.326867,23.808476],[90.326869,23.808468],[90.326941,23.80821],[90.326941,23.80821],[90.327483,23.808262],[90.327468,23.808477],[90.327464,23.808529],[90.326867,23.808476]]]}},{"type":"Feature","properties":{"survey":"bds","sheet":"047","dag":"23004","label_bn":"23004","area_sqm":4217.6},"geometry":{"type":"Polygon","coordinates":[[[90.327854,23.806848],[90.327905,23.806448],[90.327915,23.806318],[90.327955,23.805963],[90.328202,23.806004],[90.328294,23.806023],[90.328388,23.806048],[90.328373,23.806103],[90.328369,23.806174],[90.32836,23.806269],[90.328333,23.806342],[90.328263,23.806701],[90.32828,23.806791],[90.328217,23.806873],[90.328112,23.806946],[90.327965,23.806891],[90.327854,23.806848]]]}},{"type":"Feature","properties":{"survey":"bds","sheet":"047","dag":"23008","label_bn":"23008","area_sqm":4422.1},"geometry":{"type":"Polygon","coordinates":[[[90.32836,23.806269],[90.328369,23.806174],[90.328373,23.806103],[90.328388,23.806048],[90.328713,23.805712],[90.328795,23.805608],[90.328801,23.805547],[90.328806,23.805532],[90.328898,23.805508],[90.328926,23.805582],[90.328951,23.805656],[90.328976,23.805731],[90.329005,23.805809],[90.329021,23.805841],[90.329037,23.805872],[90.329056,23.805917],[90.329074,23.805962],[90.329095,23.806025],[90.329123,23.806134],[90.32904,23.806118],[90.328921,23.806292],[90.328879,23.806382],[90.328853,23.806435],[90.328779,23.806416],[90.328694,23.806386],[90.328591,23.806353],[90.32836,23.806269]]]}},{"type":"Feature","properties":{"survey":"bds","sheet":"047","dag":"23007","label_bn":"23007","area_sqm":5545.8},"geometry":{"type":"Polygon","coordinates":[[[90.327773,23.805925],[90.327787,23.805538],[90.32779,23.805494],[90.327812,23.805344],[90.328041,23.805388],[90.328053,23.80539],[90.328801,23.805547],[90.328795,23.805608],[90.328713,23.805712],[90.328388,23.806048],[90.328294,23.806023],[90.328202,23.806004],[90.327955,23.805963],[90.327773,23.805925]]]}},{"type":"Feature","properties":{"survey":"bds","sheet":"047","dag":"23005","label_bn":"23005","area_sqm":11815.5},"geometry":{"type":"Polygon","coordinates":[[[90.326376,23.806215],[90.326859,23.806209],[90.327078,23.806231],[90.327427,23.806255],[90.327522,23.806262],[90.327668,23.806272],[90.327915,23.806318],[90.327905,23.806448],[90.327854,23.806848],[90.327812,23.806853],[90.327621,23.806946],[90.327349,23.807058],[90.327197,23.807069],[90.326912,23.806977],[90.326526,23.806972],[90.326505,23.806674],[90.326476,23.806473],[90.326468,23.806469],[90.326451,23.806392],[90.326376,23.806215]]]}},{"type":"Feature","properties":{"survey":"bds","sheet":"047","dag":"23001","label_bn":"23001","area_sqm":14913.5},"geometry":{"type":"Polygon","coordinates":[[[90.326365,23.807777],[90.326526,23.806972],[90.326912,23.806977],[90.327197,23.807069],[90.327349,23.807058],[90.327483,23.808262],[90.326941,23.80821],[90.326941,23.80821],[90.326869,23.808468],[90.32681,23.80847],[90.326449,23.80844],[90.3264,23.808362],[90.326404,23.808279],[90.326424,23.808069],[90.326426,23.808008],[90.326413,23.807921],[90.326385,23.807878],[90.326365,23.807777]]]}},{"type":"Feature","properties":{"survey":"bds","sheet":"047","dag":"23006","label_bn":"23006","area_sqm":17492.6},"geometry":{"type":"Polygon","coordinates":[[[90.326242,23.806012],[90.326278,23.805662],[90.326336,23.805474],[90.326477,23.80502],[90.326614,23.805061],[90.326744,23.805121],[90.326869,23.805164],[90.327035,23.80521],[90.327315,23.805274],[90.327344,23.805282],[90.327661,23.805361],[90.327704,23.805443],[90.32779,23.805494],[90.327787,23.805538],[90.327773,23.805925],[90.327955,23.805963],[90.327915,23.806318],[90.327668,23.806272],[90.327522,23.806262],[90.327427,23.806255],[90.327078,23.806231],[90.326859,23.806209],[90.326376,23.806215],[90.326332,23.806112],[90.326291,23.806042],[90.326242,23.806012]]]}},{"type":"Feature","properties":{"survey":"bds","sheet":"047","dag":"23003","label_bn":"23003","area_sqm":18706.5},"geometry":{"type":"Polygon","coordinates":[[[90.327349,23.807058],[90.327621,23.806946],[90.327812,23.806853],[90.327854,23.806848],[90.327965,23.806891],[90.328112,23.806946],[90.328234,23.807118],[90.32844,23.8073],[90.328546,23.807406],[90.328601,23.807497],[90.328579,23.80766],[90.328461,23.807947],[90.328471,23.808045],[90.328545,23.808191],[90.328476,23.808385],[90.328488,23.808442],[90.32851,23.808485],[90.328248,23.808669],[90.328168,23.808581],[90.328076,23.808492],[90.327873,23.80848],[90.327468,23.808477],[90.327483,23.808262],[90.327349,23.807058]]]}}]}