{"type":"FeatureCollection","features":[{"type":"Feature","properties":{"survey":"bds","sheet":"048","dag":"23508","label_bn":"23508","area_sqm":4842.3},"geometry":{"type":"Polygon","coordinates":[[[90.322584,23.806417],[90.322565,23.806435],[90.322559,23.806434],[90.322379,23.806412],[90.322379,23.806412],[90.322379,23.806412],[90.322379,23.806412],[90.322379,23.806412],[90.321982,23.806333],[90.321979,23.806332],[90.321982,23.806321],[90.321982,23.80632],[90.321992,23.806282],[90.32187,23.806235],[90.321806,23.80621],[90.321823,23.806121],[90.321824,23.80612],[90.321824,23.80612],[90.321824,23.80612],[90.321824,23.80612],[90.321826,23.806114],[90.321835,23.806091],[90.321881,23.805974],[90.321919,23.805987],[90.321926,23.805969],[90.321926,23.805968],[90.321926,23.805968],[90.321934,23.805929],[90.321996,23.805916],[90.322115,23.8057],[90.322115,23.8057],[90.322115,23.8057],[90.322115,23.8057],[90.322115,23.8057],[90.32274,23.806037],[90.322775,23.806056],[90.322777,23.806057],[90.322777,23.806057],[90.322777,23.806057],[90.322777,23.806057],[90.322585,23.806416],[90.322585,23.806416],[90.322585,23.806416],[90.322584,23.806417],[90.322584,23.806417]]]}},{"type":"Feature","properties":{"survey":"bds","sheet":"048","dag":"23509","label_bn":"23509","area_sqm":1106.1},"geometry":{"type":"Polygon","coordinates":[[[90.322815,23.806486],[90.322814,23.806489],[90.322812,23.806489],[90.32281,23.806488],[90.322585,23.806417],[90.322585,23.806417],[90.322585,23.806416],[90.322585,23.806416],[90.322585,23.806416],[90.322777,23.806057],[90.322777,23.806057],[90.322777,23.806057],[90.322777,23.806057],[90.322825,23.805989],[90.322836,23.805973],[90.322909,23.806014],[90.322933,23.806028],[90.322934,23.806029],[90.322934,23.806029],[90.322934,23.80603],[90.322934,23.80603],[90.322932,23.806049],[90.322907,23.806245],[90.322897,23.806316],[90.322897,23.80632],[90.322896,23.806325],[90.322848,23.80642],[90.322815,23.806486]]]}},{"type":"Feature","properties":{"survey":"bds","sheet":"048","dag":"23531","label_bn":"23531","area_sqm":1116.6},"geometry":{"type":"Polygon","coordinates":[[[90.325007,23.806511],[90.324983,23.806528],[90.324949,23.806494],[90.324912,23.806459],[90.324884,23.806434],[90.324868,23.806414],[90.324861,23.80639],[90.324862,23.80636],[90.324861,23.806335],[90.32486,23.806321],[90.324854,23.806254],[90.324842,23.806191],[90.324818,23.806126],[90.324778,23.806052],[90.324758,23.80602],[90.32485,23.806019],[90.324871,23.806064],[90.324899,23.806109],[90.324932,23.806205],[90.324946,23.806275],[90.324965,23.806326],[90.324971,23.806335],[90.324987,23.806345],[90.325009,23.806345],[90.325031,23.806339],[90.32505,23.806329],[90.32509,23.806298],[90.325131,23.806271],[90.32518,23.806234],[90.325194,23.80622],[90.325215,23.806209],[90.325271,23.806196],[90.325353,23.806179],[90.325454,23.806157],[90.325515,23.806144],[90.325612,23.806117],[90.325665,23.806104],[90.325671,23.806103],[90.325662,23.806209],[90.325661,23.806209],[90.325526,23.806211],[90.325437,23.806217],[90.325385,23.806226],[90.32529,23.80625],[90.325209,23.806267],[90.325178,23.806299],[90.325133,23.806352],[90.325072,23.806415],[90.325022,23.806481],[90.325007,23.806511]]]}},{"type":"Feature","properties":{"survey":"bds","sheet":"048","dag":"23510","label_bn":"23510","area_sqm":753.0},"geometry":{"type":"Polygon","coordinates":[[[90.322653,23.806577],[90.322365,23.80664],[90.322365,23.806635],[90.322379,23.806412],[90.322379,23.806412],[90.322379,23.806412],[90.322379,23.806412],[90.322379,23.806412],[90.322559,23.806434],[90.322565,23.806435],[90.322584,23.806417],[90.322584,23.806417],[90.322585,23.806416],[90.322585,23.806417],[90.322585,23.806417],[90.32281,23.806488],[90.322812,23.806489],[90.322814,23.806489],[90.322813,23.806491],[90.322809,23.806506],[90.322802,23.806528],[90.3228,23.806536],[90.322799,23.806541],[90.322797,23.806545],[90.322787,23.806547],[90.322768,23.806551],[90.32272,23.806562],[90.322653,23.806577]]]}},{"type":"Feature","properties":{"survey":"bds","sheet":"048","dag":"23507","label_bn":"23507","area_sqm":1217.3},"geometry":{"type":"Polygon","coordinates":[[[90.322332,23.806648],[90.322332,23.806648],[90.322332,23.806648],[90.322332,23.806648],[90.322321,23.806644],[90.322271,23.806628],[90.322256,23.806623],[90.322132,23.806611],[90.321935,23.806591],[90.321901,23.806587],[90.321899,23.806587],[90.321899,23.806587],[90.321899,23.806587],[90.3219,23.806585],[90.321979,23.806332],[90.321982,23.806333],[90.322379,23.806412],[90.322379,23.806412],[90.322379,23.806412],[90.322379,23.806412],[90.322379,23.806412],[90.322365,23.806635],[90.322365,23.80664],[90.322332,23.806648],[90.322332,23.806648]]]}},{"type":"Feature","properties":{"survey":"bds","sheet":"048","dag":"23511","label_bn":"23511","area_sqm":825.4},"geometry":{"type":"Polygon","coordinates":[[[90.322653,23.806577],[90.322487,23.806924],[90.322487,23.806924],[90.322319,23.806917],[90.322319,23.806917],[90.322319,23.806917],[90.322319,23.806917],[90.322319,23.806916],[90.322332,23.806648],[90.322332,23.806648],[90.322332,23.806648],[90.322332,23.806648],[90.322332,23.806648],[90.322365,23.80664],[90.322653,23.806577]]]}},{"type":"Feature","properties":{"survey":"bds","sheet":"048","dag":"23513","label_bn":"23513","area_sqm":1263.8},"geometry":{"type":"Polygon","coordinates":[[[90.322935,23.806842],[90.322788,23.806929],[90.322723,23.806928],[90.322488,23.806924],[90.322488,23.806924],[90.322488,23.806924],[90.322487,23.806924],[90.322653,23.806577],[90.32272,23.806562],[90.322768,23.806551],[90.322787,23.806547],[90.322797,23.806545],[90.322871,23.806666],[90.322884,23.806697],[90.322885,23.806701],[90.322943,23.806834],[90.322943,23.806835],[90.322944,23.806837],[90.322943,23.806837],[90.322935,23.806842]]]}},{"type":"Feature","properties":{"survey":"bds","sheet":"048","dag":"23506","label_bn":"23506","area_sqm":3225.0},"geometry":{"type":"Polygon","coordinates":[[[90.322319,23.806917],[90.322294,23.807064],[90.322282,23.807064],[90.321673,23.807051],[90.32171,23.806608],[90.321711,23.806599],[90.321711,23.806598],[90.321711,23.806598],[90.321899,23.806587],[90.321899,23.806587],[90.321901,23.806587],[90.321935,23.806591],[90.322132,23.806611],[90.322256,23.806623],[90.322271,23.806628],[90.322321,23.806644],[90.322332,23.806648],[90.322332,23.806648],[90.322332,23.806648],[90.322332,23.806648],[90.322332,23.806648],[90.322319,23.806916],[90.322319,23.806917],[90.322319,23.806917],[90.322319,23.806917],[90.322319,23.806917]]]}},{"type":"Feature","properties":{"survey":"bds","sheet":"048","dag":"23514","label_bn":"23514","area_sqm":1154.8},"geometry":{"type":"Polygon","coordinates":[[[90.323039,23.807216],[90.322976,23.807235],[90.322762,23.807229],[90.322723,23.806928],[90.322788,23.806929],[90.322935,23.806842],[90.322943,23.806837],[90.322944,23.806837],[90.322997,23.806954],[90.323011,23.806984],[90.323077,23.807098],[90.323078,23.807099],[90.323079,23.807103],[90.323086,23.807125],[90.323086,23.807125],[90.323086,23.807126],[90.323086,23.807127],[90.323086,23.807128],[90.323086,23.807128],[90.323086,23.807133],[90.323088,23.80716],[90.323085,23.807203],[90.323081,23.807204],[90.323044,23.807215],[90.323039,23.807216]]]}},{"type":"Feature","properties":{"survey":"bds","sheet":"048","dag":"23512","label_bn":"23512","area_sqm":1239.0},"geometry":{"type":"Polygon","coordinates":[[[90.322335,23.807509],[90.322272,23.807511],[90.322272,23.807506],[90.322294,23.807064],[90.322319,23.806917],[90.322319,23.806917],[90.322319,23.806917],[90.322319,23.806917],[90.322319,23.806917],[90.322487,23.806924],[90.322487,23.806924],[90.322487,23.806924],[90.322462,23.807506],[90.322335,23.807509]]]}},{"type":"Feature","properties":{"survey":"bds","sheet":"048","dag":"23505","label_bn":"23505","area_sqm":3257.0},"geometry":{"type":"Polygon","coordinates":[[[90.322259,23.807533],[90.322259,23.807534],[90.322257,23.807534],[90.322241,23.807529],[90.322232,23.807526],[90.321642,23.807505],[90.321642,23.807505],[90.321642,23.807505],[90.321642,23.807505],[90.321642,23.807504],[90.321643,23.807491],[90.321673,23.807051],[90.322282,23.807064],[90.322294,23.807064],[90.322272,23.807506],[90.322272,23.807511],[90.322259,23.807533],[90.322259,23.807533]]]}},{"type":"Feature","properties":{"survey":"bds","sheet":"048","dag":"23515","label_bn":"23515","area_sqm":6252.8},"geometry":{"type":"Polygon","coordinates":[[[90.323083,23.807307],[90.323081,23.807474],[90.323083,23.807493],[90.323084,23.807498],[90.323084,23.807499],[90.323084,23.807499],[90.323085,23.807501],[90.323086,23.807502],[90.323098,23.807514],[90.323135,23.807534],[90.323142,23.807537],[90.323142,23.807537],[90.323142,23.80754],[90.323142,23.807541],[90.323141,23.807611],[90.323141,23.807611],[90.323135,23.807684],[90.32312,23.807745],[90.323102,23.807913],[90.323102,23.807913],[90.323102,23.807915],[90.323102,23.807916],[90.323101,23.807917],[90.32309,23.807938],[90.323088,23.807941],[90.323088,23.807942],[90.323087,23.807944],[90.323085,23.807944],[90.323027,23.807942],[90.323025,23.807942],[90.323023,23.807941],[90.323012,23.807938],[90.322817,23.807889],[90.322606,23.807789],[90.322587,23.807787],[90.322158,23.807751],[90.322157,23.807751],[90.322157,23.807751],[90.322157,23.80775],[90.322157,23.80775],[90.322259,23.807534],[90.322259,23.807533],[90.322259,23.807533],[90.322272,23.807511],[90.322335,23.807509],[90.322462,23.807506],[90.322487,23.806924],[90.322487,23.806924],[90.322488,23.806924],[90.322488,23.806924],[90.322488,23.806924],[90.322723,23.806928],[90.322762,23.807229],[90.322976,23.807235],[90.323039,23.807216],[90.323044,23.807215],[90.323081,23.807204],[90.323085,23.807203],[90.323085,23.807204],[90.323085,23.807208],[90.323084,23.807217],[90.323084,23.807218],[90.323083,23.807307],[90.323083,23.807307],[90.323083,23.807307],[90.323083,23.807307]]]}},{"type":"Feature","properties":{"survey":"bds","sheet":"048","dag":"23504","label_bn":"23504","area_sqm":2570.6},"geometry":{"type":"Polygon","coordinates":[[[90.321642,23.807505],[90.321642,23.807505],[90.322232,23.807526],[90.322241,23.807529],[90.322257,23.807534],[90.322259,23.807534],[90.322157,23.80775],[90.322157,23.80775],[90.322157,23.807751],[90.322157,23.807751],[90.322157,23.807751],[90.322155,23.807751],[90.322127,23.807763],[90.322124,23.807775],[90.322094,23.807916],[90.322092,23.807923],[90.32208,23.807982],[90.322079,23.807987],[90.322051,23.807982],[90.321969,23.807965],[90.321742,23.807905],[90.321608,23.807848],[90.321607,23.807848],[90.321604,23.807846],[90.321603,23.807846],[90.321603,23.807844],[90.321604,23.807843],[90.321604,23.807843],[90.321612,23.807769],[90.321642,23.807505],[90.321642,23.807505],[90.321642,23.807505],[90.321642,23.807505]]]}},{"type":"Feature","properties":{"survey":"bds","sheet":"048","dag":"23518","label_bn":"23518","area_sqm":2571.0},"geometry":{"type":"Polygon","coordinates":[[[90.323942,23.807983],[90.323941,23.807992],[90.3234,23.807977],[90.323403,23.80763],[90.323605,23.807547],[90.323713,23.807556],[90.323819,23.807557],[90.32388,23.807582],[90.32393,23.807606],[90.323968,23.807624],[90.323942,23.807983]]]}},{"type":"Feature","properties":{"survey":"bds","sheet":"048","dag":"23530","label_bn":"23530","area_sqm":70213.4},"geometry":{"type":"Polygon","coordinates":[[[90.323994,23.808035],[90.323994,23.808035],[90.323994,23.808035],[90.323994,23.808035],[90.323941,23.807992],[90.323942,23.807983],[90.323968,23.807624],[90.32393,23.807606],[90.32388,23.807582],[90.323819,23.807557],[90.323713,23.807556],[90.323605,23.807547],[90.323403,23.80763],[90.323371,23.807615],[90.323319,23.807593],[90.323258,23.807575],[90.323162,23.807544],[90.323144,23.807538],[90.323142,23.807537],[90.323142,23.807537],[90.323142,23.807537],[90.323141,23.807537],[90.323135,23.807534],[90.323098,23.807514],[90.323086,23.807502],[90.323085,23.807501],[90.323084,23.807499],[90.323084,23.807499],[90.323084,23.807498],[90.323083,23.807493],[90.323081,23.807474],[90.323083,23.807307],[90.323083,23.807307],[90.323083,23.807307],[90.323083,23.807307],[90.323084,23.807218],[90.323084,23.807217],[90.323085,23.807208],[90.323085,23.807204],[90.323085,23.807203],[90.323088,23.80716],[90.323086,23.807133],[90.323086,23.807128],[90.323086,23.807128],[90.323086,23.807127],[90.323086,23.807126],[90.323086,23.807125],[90.323086,23.807125],[90.323079,23.807103],[90.323078,23.807099],[90.323077,23.807098],[90.323011,23.806984],[90.322997,23.806954],[90.322944,23.806837],[90.322943,23.806835],[90.322943,23.806834],[90.322885,23.806701],[90.322884,23.806697],[90.322871,23.806666],[90.322797,23.806545],[90.322799,23.806541],[90.3228,23.806536],[90.322802,23.806528],[90.322809,23.806506],[90.322813,23.806491],[90.322814,23.806489],[90.322815,23.806486],[90.322848,23.80642],[90.322896,23.806325],[90.322897,23.80632],[90.322897,23.806316],[90.322907,23.806245],[90.322932,23.806049],[90.322934,23.80603],[90.322934,23.80603],[90.322934,23.806029],[90.322934,23.806029],[90.322935,23.806029],[90.32321,23.806028],[90.324452,23.806021],[90.324558,23.806021],[90.324758,23.80602],[90.324778,23.806052],[90.324818,23.806126],[90.324842,23.806191],[90.324854,23.806254],[90.32486,23.806321],[90.324861,23.806335],[90.324862,23.80636],[90.324861,23.80639],[90.324868,23.806414],[90.324884,23.806434],[90.324912,23.806459],[90.324949,23.806494],[90.324983,23.806528],[90.325007,23.806511],[90.325022,23.806481],[90.325072,23.806415],[90.325133,23.806352],[90.325178,23.806299],[90.325209,23.806267],[90.32529,23.80625],[90.325385,23.806226],[90.325437,23.806217],[90.325526,23.806211],[90.325661,23.806209],[90.325662,23.806209],[90.325671,23.806103],[90.325665,23.806104],[90.325612,23.806117],[90.325515,23.806144],[90.325454,23.806157],[90.325353,23.806179],[90.325271,23.806196],[90.325215,23.806209],[90.325194,23.80622],[90.32518,23.806234],[90.325131,23.806271],[90.32509,23.806298],[90.32505,23.806329],[90.325031,23.806339],[90.325009,23.806345],[90.324987,23.806345],[90.324971,23.806335],[90.324965,23.806326],[90.324946,23.806275],[90.324932,23.806205],[90.324899,23.806109],[90.324871,23.806064],[90.32485,23.806019],[90.325104,23.806018],[90.325689,23.806015],[90.326174,23.806012],[90.326242,23.806012],[90.326291,23.806042],[90.326332,23.806112],[90.326376,23.806215],[90.326451,23.806392],[90.326465,23.806455],[90.326467,23.806466],[90.326468,23.806469],[90.326476,23.806473],[90.326505,23.806674],[90.326526,23.806972],[90.326461,23.807297],[90.326447,23.807362],[90.326432,23.807438],[90.326366,23.807768],[90.326365,23.807777],[90.326364,23.807777],[90.326364,23.807777],[90.326359,23.807778],[90.326198,23.8078],[90.326055,23.807848],[90.32599,23.807871],[90.32599,23.807871],[90.325989,23.807871],[90.325989,23.807871],[90.325989,23.807871],[90.325698,23.80795],[90.325693,23.807951],[90.325693,23.807951],[90.325693,23.807951],[90.325692,23.807951],[90.325634,23.807918],[90.325631,23.807917],[90.325627,23.807915],[90.325363,23.807943],[90.325348,23.807945],[90.325145,23.807959],[90.324749,23.807971],[90.324748,23.807971],[90.324729,23.807968],[90.324693,23.807963],[90.324494,23.807957],[90.324349,23.80797],[90.324252,23.807975],[90.324185,23.807979],[90.324135,23.807993],[90.324131,23.807994],[90.324058,23.808022],[90.324023,23.808029],[90.323994,23.808035],[90.323994,23.808035]]]}},{"type":"Feature","properties":{"survey":"bds","sheet":"048","dag":"23516","label_bn":"23516","area_sqm":4147.2},"geometry":{"type":"Polygon","coordinates":[[[90.322915,23.808405],[90.322914,23.808406],[90.322913,23.808406],[90.32291,23.808405],[90.322903,23.808402],[90.322897,23.808399],[90.322715,23.808328],[90.322684,23.808312],[90.322471,23.808202],[90.322182,23.808048],[90.322089,23.807993],[90.322082,23.807989],[90.322079,23.807987],[90.32208,23.807982],[90.322092,23.807923],[90.322094,23.807916],[90.322124,23.807775],[90.322127,23.807763],[90.322155,23.807751],[90.322157,23.807751],[90.322157,23.807751],[90.322157,23.807751],[90.322157,23.807751],[90.322158,23.807751],[90.322587,23.807787],[90.322606,23.807789],[90.322817,23.807889],[90.323012,23.807938],[90.323023,23.807941],[90.323025,23.807942],[90.322995,23.808086],[90.322987,23.808125],[90.322972,23.808206],[90.322941,23.808315],[90.322917,23.808397],[90.322915,23.808405]]]}},{"type":"Feature","properties":{"survey":"bds","sheet":"048","dag":"23501","label_bn":"23501","area_sqm":553.8},"geometry":{"type":"Polygon","coordinates":[[[90.322265,23.808394],[90.322382,23.80845],[90.322211,23.808433],[90.322209,23.808433],[90.322208,23.808433],[90.321815,23.808286],[90.321815,23.808286],[90.321814,23.808286],[90.321814,23.808286],[90.32181,23.808285],[90.321485,23.808202],[90.321503,23.808147],[90.32161,23.808178],[90.321747,23.808213],[90.321829,23.808232],[90.32187,23.808239],[90.321937,23.808266],[90.32213,23.808342],[90.322265,23.808394]]]}},{"type":"Feature","properties":{"survey":"bds","sheet":"048","dag":"23502","label_bn":"23502","area_sqm":303.8},"geometry":{"type":"Polygon","coordinates":[[[90.322247,23.808355],[90.322426,23.808454],[90.322382,23.80845],[90.322265,23.808394],[90.32213,23.808342],[90.321937,23.808266],[90.32187,23.808239],[90.321829,23.808232],[90.321747,23.808213],[90.32161,23.808178],[90.321503,23.808147],[90.321511,23.808124],[90.32184,23.8082],[90.322247,23.808355]]]}},{"type":"Feature","properties":{"survey":"bds","sheet":"048","dag":"23529","label_bn":"23529","area_sqm":2515.5},"geometry":{"type":"Polygon","coordinates":[[[90.326449,23.80844],[90.326353,23.808472],[90.326336,23.808419],[90.326333,23.80841],[90.326134,23.808455],[90.326134,23.808455],[90.326134,23.808455],[90.326134,23.808455],[90.326127,23.80842],[90.326078,23.808138],[90.326044,23.808135],[90.326031,23.808074],[90.325989,23.807872],[90.325989,23.807872],[90.325989,23.807871],[90.32599,23.807871],[90.32599,23.807871],[90.326055,23.807848],[90.326198,23.8078],[90.326359,23.807778],[90.326364,23.807777],[90.326364,23.807777],[90.326365,23.807777],[90.326365,23.807777],[90.326366,23.807786],[90.326381,23.80786],[90.326385,23.807878],[90.326413,23.807921],[90.326426,23.808008],[90.326424,23.808069],[90.326404,23.808279],[90.3264,23.808362],[90.326416,23.808388],[90.326449,23.80844]]]}},{"type":"Feature","properties":{"survey":"bds","sheet":"048","dag":"23503","label_bn":"23503","area_sqm":3853.2},"geometry":{"type":"Polygon","coordinates":[[[90.323049,23.808489],[90.32309,23.808516],[90.322426,23.808454],[90.322247,23.808355],[90.32184,23.8082],[90.321511,23.808124],[90.321585,23.807901],[90.321602,23.807849],[90.321603,23.807846],[90.321604,23.807846],[90.321607,23.807848],[90.321608,23.807848],[90.321742,23.807905],[90.321969,23.807965],[90.322051,23.807982],[90.322079,23.807987],[90.322082,23.807989],[90.322089,23.807993],[90.322182,23.808048],[90.322471,23.808202],[90.322684,23.808312],[90.322715,23.808328],[90.322897,23.808399],[90.322903,23.808402],[90.32291,23.808405],[90.322913,23.808406],[90.322914,23.808406],[90.322927,23.808414],[90.323035,23.80848],[90.323049,23.808489]]]}},{"type":"Feature","properties":{"survey":"bds","sheet":"048","dag":"23522","label_bn":"23522","area_sqm":40.6},"geometry":{"type":"Polygon","coordinates":[[[90.324467,23.808472],[90.324521,23.80849],[90.324586,23.80851],[90.324632,23.808526],[90.324634,23.808544],[90.324641,23.808557],[90.324624,23.808556],[90.324614,23.808555],[90.324566,23.808519],[90.324521,23.808505],[90.324467,23.808494],[90.324466,23.808472],[90.324467,23.808472]]]}},{"type":"Feature","properties":{"survey":"bds","sheet":"048","dag":"23517","label_bn":"23517","area_sqm":7558.6},"geometry":{"type":"Polygon","coordinates":[[[90.323882,23.808526],[90.323859,23.808589],[90.323852,23.808588],[90.323591,23.808564],[90.323105,23.808518],[90.32309,23.808516],[90.323049,23.808489],[90.323035,23.80848],[90.322927,23.808414],[90.322914,23.808406],[90.322915,23.808405],[90.322917,23.808397],[90.322941,23.808315],[90.322972,23.808206],[90.322987,23.808125],[90.322995,23.808086],[90.323025,23.807942],[90.323027,23.807942],[90.323085,23.807944],[90.323087,23.807944],[90.323088,23.807942],[90.323088,23.807941],[90.32309,23.807938],[90.323101,23.807917],[90.323102,23.807916],[90.323102,23.807915],[90.323102,23.807913],[90.323102,23.807913],[90.32312,23.807745],[90.323135,23.807684],[90.323141,23.807611],[90.323141,23.807611],[90.323142,23.807541],[90.323142,23.80754],[90.323142,23.807537],[90.323142,23.807537],[90.323142,23.807537],[90.323142,23.807537],[90.323144,23.807538],[90.323162,23.807544],[90.323258,23.807575],[90.323319,23.807593],[90.323371,23.807615],[90.323403,23.80763],[90.3234,23.807977],[90.323941,23.807992],[90.323994,23.808035],[90.323994,23.808035],[90.323994,23.808035],[90.323994,23.808035],[90.323971,23.808249],[90.323936,23.808368],[90.323925,23.808403],[90.3239,23.808475],[90.323882,23.808526]]]}},{"type":"Feature","properties":{"survey":"bds","sheet":"048","dag":"23519","label_bn":"23519","area_sqm":2314.9},"geometry":{"type":"Polygon","coordinates":[[[90.324204,23.808572],[90.324182,23.808619],[90.323859,23.808589],[90.323882,23.808526],[90.3239,23.808475],[90.323925,23.808403],[90.323936,23.808368],[90.323971,23.808249],[90.323994,23.808035],[90.323994,23.808035],[90.323994,23.808035],[90.323994,23.808035],[90.324023,23.808029],[90.324058,23.808022],[90.324131,23.807994],[90.324135,23.807993],[90.324185,23.807979],[90.324252,23.807975],[90.324349,23.80797],[90.324252,23.808451],[90.324224,23.808504],[90.324204,23.808572]]]}},{"type":"Feature","properties":{"survey":"bds","sheet":"048","dag":"23520","label_bn":"23520","area_sqm":2212.6},"geometry":{"type":"Polygon","coordinates":[[[90.324445,23.808465],[90.324346,23.808635],[90.324182,23.808619],[90.324204,23.808572],[90.324224,23.808504],[90.324252,23.808451],[90.324349,23.80797],[90.324494,23.807957],[90.324693,23.807963],[90.324729,23.807968],[90.324748,23.807971],[90.324749,23.807971],[90.324749,23.807972],[90.324735,23.808031],[90.324711,23.808101],[90.324663,23.808179],[90.324607,23.808263],[90.324529,23.808361],[90.324496,23.808402],[90.32448,23.808429],[90.324467,23.808465],[90.324466,23.808472],[90.324461,23.80847],[90.324445,23.808465]]]}},{"type":"Feature","properties":{"survey":"bds","sheet":"048","dag":"23521","label_bn":"23521","area_sqm":76.4},"geometry":{"type":"Polygon","coordinates":[[[90.324433,23.808546],[90.3244,23.80864],[90.324393,23.808639],[90.324346,23.808635],[90.324445,23.808465],[90.324461,23.80847],[90.324466,23.808472],[90.324467,23.808494],[90.324451,23.808505],[90.324433,23.808546]]]}},{"type":"Feature","properties":{"survey":"bds","sheet":"048","dag":"23523","label_bn":"23523","area_sqm":76.2},"geometry":{"type":"Polygon","coordinates":[[[90.324418,23.808609],[90.324409,23.808641],[90.324405,23.80864],[90.3244,23.80864],[90.324433,23.808546],[90.324451,23.808505],[90.324467,23.808494],[90.324521,23.808505],[90.324566,23.808519],[90.324614,23.808555],[90.324541,23.808547],[90.324454,23.80854],[90.324418,23.808609]]]}},{"type":"Feature","properties":{"survey":"bds","sheet":"048","dag":"23528","label_bn":"23528","area_sqm":3032.2},"geometry":{"type":"Polygon","coordinates":[[[90.32574,23.808628],[90.325681,23.808643],[90.325675,23.808618],[90.325676,23.808548],[90.325678,23.808436],[90.325692,23.808234],[90.325696,23.808213],[90.325695,23.808128],[90.325693,23.807952],[90.325693,23.807951],[90.325693,23.807951],[90.325693,23.807951],[90.325693,23.807951],[90.325698,23.80795],[90.325989,23.807871],[90.325989,23.807871],[90.325989,23.807871],[90.325989,23.807872],[90.325989,23.807872],[90.326031,23.808074],[90.326044,23.808135],[90.326078,23.808138],[90.326127,23.80842],[90.326134,23.808455],[90.326134,23.808455],[90.326134,23.808455],[90.326133,23.808455],[90.326077,23.808501],[90.326077,23.808506],[90.326077,23.808549],[90.326077,23.80855],[90.326077,23.808551],[90.326077,23.808551],[90.326077,23.808551],[90.326077,23.808551],[90.325872,23.808605],[90.325821,23.808632],[90.32574,23.808628]]]}},{"type":"Feature","properties":{"survey":"bds","sheet":"048","dag":"23524","label_bn":"23524","area_sqm":282.1},"geometry":{"type":"Polygon","coordinates":[[[90.324666,23.808608],[90.324704,23.808668],[90.324409,23.808641],[90.324418,23.808609],[90.324454,23.80854],[90.324541,23.808547],[90.324614,23.808555],[90.324623,23.808561],[90.324666,23.808608]]]}},{"type":"Feature","properties":{"survey":"bds","sheet":"048","dag":"23525","label_bn":"23525","area_sqm":3764.7},"geometry":{"type":"Polygon","coordinates":[[[90.325014,23.80869],[90.325008,23.808722],[90.325008,23.808722],[90.325008,23.808723],[90.325008,23.808723],[90.325007,23.808723],[90.324777,23.808697],[90.324704,23.808668],[90.324666,23.808608],[90.324623,23.808561],[90.324614,23.808555],[90.324624,23.808556],[90.324641,23.808557],[90.324634,23.808544],[90.324632,23.808526],[90.324586,23.80851],[90.324521,23.80849],[90.324467,23.808472],[90.324466,23.808472],[90.324467,23.808465],[90.32448,23.808429],[90.324496,23.808402],[90.324529,23.808361],[90.324607,23.808263],[90.324663,23.808179],[90.324711,23.808101],[90.324735,23.808031],[90.324749,23.807972],[90.324749,23.807971],[90.325145,23.807959],[90.325108,23.808196],[90.325051,23.808484],[90.325014,23.80869]]]}},{"type":"Feature","properties":{"survey":"bds","sheet":"048","dag":"23526","label_bn":"23526","area_sqm":2132.0},"geometry":{"type":"Polygon","coordinates":[[[90.325265,23.808749],[90.325265,23.808749],[90.325265,23.808749],[90.325264,23.808749],[90.325009,23.808723],[90.325008,23.808723],[90.325008,23.808723],[90.325008,23.808722],[90.325008,23.808722],[90.325014,23.80869],[90.325051,23.808484],[90.325108,23.808196],[90.325145,23.807959],[90.325348,23.807945],[90.325331,23.808218],[90.325312,23.808456],[90.325305,23.80854],[90.325275,23.808695],[90.325265,23.808749],[90.325265,23.808749]]]}},{"type":"Feature","properties":{"survey":"bds","sheet":"048","dag":"23527","label_bn":"23527","area_sqm":3291.8},"geometry":{"type":"Polygon","coordinates":[[[90.325449,23.808754],[90.325449,23.808754],[90.325449,23.808754],[90.325446,23.808754],[90.325425,23.808754],[90.325423,23.808754],[90.325266,23.808749],[90.325265,23.808749],[90.325265,23.808749],[90.325265,23.808749],[90.325265,23.808749],[90.325275,23.808695],[90.325305,23.80854],[90.325312,23.808456],[90.325331,23.808218],[90.325348,23.807945],[90.325363,23.807943],[90.325627,23.807915],[90.325631,23.807917],[90.325634,23.807918],[90.325692,23.807951],[90.325693,23.807951],[90.325693,23.807951],[90.325693,23.807952],[90.325695,23.808128],[90.325696,23.808213],[90.325692,23.808234],[90.325678,23.808436],[90.325676,23.808548],[90.325675,23.808618],[90.325681,23.808643],[90.325449,23.808754]]]}}]}