{"type":"FeatureCollection","features":[{"type":"Feature","properties":{"survey":"bds","sheet":"049","dag":"24011","label_bn":"24011","area_sqm":1092.4},"geometry":{"type":"Polygon","coordinates":[[[90.322169,23.80309],[90.322147,23.803179],[90.322005,23.803135],[90.321787,23.803077],[90.321785,23.802833],[90.322174,23.802919],[90.322169,23.80309]]]}},{"type":"Feature","properties":{"survey":"bds","sheet":"049","dag":"24018","label_bn":"24018","area_sqm":995.4},"geometry":{"type":"Polygon","coordinates":[[[90.323659,23.803031],[90.323607,23.803297],[90.323332,23.803291],[90.323333,23.802977],[90.323659,23.803031]]]}},{"type":"Feature","properties":{"survey":"bds","sheet":"049","dag":"24040","label_bn":"24040","area_sqm":2169.9},"geometry":{"type":"Polygon","coordinates":[[[90.324955,23.803038],[90.324858,23.803301],[90.324315,23.803298],[90.324294,23.802925],[90.32448,23.802951],[90.324796,23.803027],[90.324955,23.803038]]]}},{"type":"Feature","properties":{"survey":"bds","sheet":"049","dag":"24012","label_bn":"24012","area_sqm":1753.3},"geometry":{"type":"Polygon","coordinates":[[[90.322553,23.803375],[90.322525,23.803527],[90.322315,23.80348],[90.322151,23.803401],[90.322147,23.803179],[90.322169,23.80309],[90.322503,23.803104],[90.322516,23.803123],[90.32259,23.80315],[90.322553,23.803375]]]}},{"type":"Feature","properties":{"survey":"bds","sheet":"049","dag":"24017","label_bn":"24017","area_sqm":4779.5},"geometry":{"type":"Polygon","coordinates":[[[90.323332,23.803291],[90.323324,23.803658],[90.323129,23.803636],[90.322833,23.803579],[90.322832,23.803579],[90.322659,23.803545],[90.322543,23.80353],[90.322525,23.803527],[90.322553,23.803375],[90.32259,23.80315],[90.322857,23.803183],[90.32284,23.802993],[90.323333,23.802977],[90.323332,23.803291]]]}},{"type":"Feature","properties":{"survey":"bds","sheet":"049","dag":"24043","label_bn":"24043","area_sqm":995.8},"geometry":{"type":"Polygon","coordinates":[[[90.324759,23.80368],[90.324707,23.803685],[90.324671,23.803677],[90.324635,23.803674],[90.324611,23.803673],[90.324822,23.803434],[90.324858,23.803301],[90.324955,23.803038],[90.325,23.803044],[90.324991,23.80312],[90.324973,23.803293],[90.324957,23.803404],[90.324935,23.803555],[90.32492,23.803638],[90.324825,23.803667],[90.324759,23.80368]]]}},{"type":"Feature","properties":{"survey":"bds","sheet":"049","dag":"24041","label_bn":"24041","area_sqm":1811.9},"geometry":{"type":"Polygon","coordinates":[[[90.324382,23.803679],[90.324353,23.803686],[90.324352,23.80366],[90.324315,23.803298],[90.324858,23.803301],[90.324822,23.803434],[90.324611,23.803673],[90.324581,23.803672],[90.324499,23.803673],[90.324418,23.803674],[90.324382,23.803679]]]}},{"type":"Feature","properties":{"survey":"bds","sheet":"049","dag":"24019","label_bn":"24019","area_sqm":1026.9},"geometry":{"type":"Polygon","coordinates":[[[90.323547,23.803574],[90.323505,23.803693],[90.323324,23.803658],[90.323332,23.803291],[90.323607,23.803297],[90.323547,23.803574]]]}},{"type":"Feature","properties":{"survey":"bds","sheet":"049","dag":"24042","label_bn":"24042","area_sqm":74.1},"geometry":{"type":"Polygon","coordinates":[[[90.324588,23.803699],[90.324354,23.803704],[90.324353,23.803686],[90.324382,23.803679],[90.324418,23.803674],[90.324499,23.803673],[90.324581,23.803672],[90.324611,23.803673],[90.324588,23.803699]]]}},{"type":"Feature","properties":{"survey":"bds","sheet":"049","dag":"24039","label_bn":"24039","area_sqm":4443.0},"geometry":{"type":"Polygon","coordinates":[[[90.324254,23.802839],[90.32429,23.802849],[90.324294,23.802925],[90.324315,23.803298],[90.324352,23.80366],[90.324353,23.803686],[90.324354,23.803704],[90.324348,23.803707],[90.323876,23.804023],[90.323877,23.803908],[90.323907,23.803576],[90.323928,23.803418],[90.323961,23.803406],[90.32397,23.803231],[90.323963,23.803208],[90.323978,23.80292],[90.323997,23.802837],[90.324254,23.802839]]]}},{"type":"Feature","properties":{"survey":"bds","sheet":"049","dag":"24044","label_bn":"24044","area_sqm":531.6},"geometry":{"type":"Polygon","coordinates":[[[90.324738,23.803718],[90.324644,23.803749],[90.324614,23.803745],[90.324588,23.803699],[90.324611,23.803673],[90.324635,23.803674],[90.324671,23.803677],[90.324707,23.803685],[90.324759,23.80368],[90.324825,23.803667],[90.32492,23.803638],[90.324935,23.803555],[90.324957,23.803404],[90.324973,23.803293],[90.324991,23.80312],[90.325,23.803044],[90.325046,23.803051],[90.325038,23.80308],[90.325019,23.803185],[90.325011,23.803303],[90.325012,23.803388],[90.325,23.803517],[90.324998,23.803583],[90.324999,23.803667],[90.324951,23.803672],[90.324826,23.803702],[90.324738,23.803718]]]}},{"type":"Feature","properties":{"survey":"bds","sheet":"049","dag":"24045","label_bn":"24045","area_sqm":1760.3},"geometry":{"type":"Polygon","coordinates":[[[90.324987,23.803747],[90.324664,23.803837],[90.324614,23.803745],[90.324644,23.803749],[90.324738,23.803718],[90.324826,23.803702],[90.324951,23.803672],[90.324999,23.803667],[90.324998,23.803583],[90.325,23.803517],[90.325012,23.803388],[90.325011,23.803303],[90.325019,23.803185],[90.325038,23.80308],[90.325046,23.803051],[90.325295,23.803089],[90.32527,23.803271],[90.325091,23.803649],[90.324987,23.803747]]]}},{"type":"Feature","properties":{"survey":"bds","sheet":"049","dag":"24036","label_bn":"24036","area_sqm":108.8},"geometry":{"type":"Polygon","coordinates":[[[90.3239,23.804042],[90.32386,23.804042],[90.323876,23.804023],[90.324348,23.803707],[90.324348,23.803709],[90.324328,23.803722],[90.324251,23.803774],[90.324171,23.803837],[90.324052,23.803933],[90.323967,23.804006],[90.323933,23.804027],[90.323914,23.804038],[90.3239,23.804042]]]}},{"type":"Feature","properties":{"survey":"bds","sheet":"049","dag":"24038","label_bn":"24038","area_sqm":4488.0},"geometry":{"type":"Polygon","coordinates":[[[90.323687,23.80405],[90.323674,23.804051],[90.323667,23.803995],[90.323562,23.803817],[90.323505,23.803693],[90.323547,23.803574],[90.323607,23.803297],[90.323659,23.803031],[90.323743,23.802798],[90.323997,23.802837],[90.323978,23.80292],[90.323963,23.803208],[90.32397,23.803231],[90.323961,23.803406],[90.323928,23.803418],[90.323907,23.803576],[90.323877,23.803908],[90.323876,23.804023],[90.32386,23.804042],[90.3238,23.804043],[90.323687,23.80405]]]}},{"type":"Feature","properties":{"survey":"bds","sheet":"049","dag":"24037","label_bn":"24037","area_sqm":42.7},"geometry":{"type":"Polygon","coordinates":[[[90.323841,23.804064],[90.323677,23.80407],[90.323674,23.804051],[90.323687,23.80405],[90.3238,23.804043],[90.32386,23.804042],[90.323841,23.804064]]]}},{"type":"Feature","properties":{"survey":"bds","sheet":"049","dag":"24021","label_bn":"24021","area_sqm":20.7},"geometry":{"type":"Polygon","coordinates":[[[90.323677,23.80407],[90.323601,23.804085],[90.323594,23.804059],[90.323674,23.804051],[90.323677,23.80407]]]}},{"type":"Feature","properties":{"survey":"bds","sheet":"049","dag":"24020","label_bn":"24020","area_sqm":2474.2},"geometry":{"type":"Polygon","coordinates":[[[90.323404,23.804124],[90.32329,23.804127],[90.323235,23.804121],[90.323089,23.804125],[90.323114,23.80387],[90.323129,23.803636],[90.323324,23.803658],[90.323505,23.803693],[90.323562,23.803817],[90.323667,23.803995],[90.323674,23.804051],[90.323594,23.804059],[90.323601,23.804085],[90.323404,23.804124]]]}},{"type":"Feature","properties":{"survey":"bds","sheet":"049","dag":"24016","label_bn":"24016","area_sqm":1710.8},"geometry":{"type":"Polygon","coordinates":[[[90.322903,23.804126],[90.32281,23.804129],[90.322833,23.803579],[90.323129,23.803636],[90.323114,23.80387],[90.323089,23.804125],[90.322903,23.804126]]]}},{"type":"Feature","properties":{"survey":"bds","sheet":"049","dag":"24015","label_bn":"24015","area_sqm":1138.3},"geometry":{"type":"Polygon","coordinates":[[[90.322653,23.804135],[90.322633,23.804136],[90.322659,23.803545],[90.322832,23.803579],[90.322833,23.803579],[90.32281,23.804129],[90.322809,23.804129],[90.322653,23.804135]]]}},{"type":"Feature","properties":{"survey":"bds","sheet":"049","dag":"24013","label_bn":"24013","area_sqm":1591.1},"geometry":{"type":"Polygon","coordinates":[[[90.322543,23.80353],[90.322546,23.80414],[90.322322,23.804126],[90.32232,23.803524],[90.322315,23.80348],[90.322525,23.803527],[90.322543,23.80353]]]}},{"type":"Feature","properties":{"survey":"bds","sheet":"049","dag":"24014","label_bn":"24014","area_sqm":691.0},"geometry":{"type":"Polygon","coordinates":[[[90.322633,23.804136],[90.322546,23.80414],[90.322543,23.80353],[90.322659,23.803545],[90.322633,23.804136]]]}},{"type":"Feature","properties":{"survey":"bds","sheet":"049","dag":"24009","label_bn":"24009","area_sqm":2586.2},"geometry":{"type":"Polygon","coordinates":[[[90.322903,23.804126],[90.32295,23.804485],[90.322234,23.804482],[90.322322,23.804126],[90.322546,23.80414],[90.322633,23.804136],[90.322653,23.804135],[90.322809,23.804129],[90.32281,23.804129],[90.322903,23.804126]]]}},{"type":"Feature","properties":{"survey":"bds","sheet":"049","dag":"24029","label_bn":"24029","area_sqm":5259.8},"geometry":{"type":"Polygon","coordinates":[[[90.32476,23.804712],[90.324589,23.80479],[90.324598,23.80448],[90.324592,23.804113],[90.324608,23.803987],[90.324664,23.803837],[90.324987,23.803747],[90.325091,23.803649],[90.325102,23.804682],[90.32476,23.804712]]]}},{"type":"Feature","properties":{"survey":"bds","sheet":"049","dag":"24010","label_bn":"24010","area_sqm":9601.6},"geometry":{"type":"Polygon","coordinates":[[[90.321942,23.804791],[90.32169,23.804873],[90.321787,23.803077],[90.322005,23.803135],[90.322147,23.803179],[90.322151,23.803401],[90.322315,23.80348],[90.32232,23.803524],[90.322322,23.804126],[90.322234,23.804482],[90.322206,23.804553],[90.322189,23.804562],[90.322142,23.804606],[90.322137,23.80466],[90.321942,23.804791]]]}},{"type":"Feature","properties":{"survey":"bds","sheet":"049","dag":"24030","label_bn":"24030","area_sqm":4970.0},"geometry":{"type":"Polygon","coordinates":[[[90.323771,23.804884],[90.323771,23.804889],[90.323769,23.804871],[90.32376,23.80477],[90.323759,23.804597],[90.323764,23.804509],[90.323804,23.804319],[90.323833,23.804209],[90.323854,23.80414],[90.323913,23.8041],[90.323992,23.804045],[90.324064,23.804007],[90.324134,23.803962],[90.324292,23.803865],[90.324332,23.803842],[90.324378,23.803811],[90.324443,23.803764],[90.324487,23.80373],[90.3245,23.80373],[90.324566,23.803739],[90.324614,23.803745],[90.324664,23.803837],[90.324608,23.803987],[90.324592,23.804113],[90.324598,23.80448],[90.324309,23.804439],[90.324088,23.804441],[90.323829,23.804475],[90.323782,23.804601],[90.323771,23.804884]]]}},{"type":"Feature","properties":{"survey":"bds","sheet":"049","dag":"24035","label_bn":"24035","area_sqm":1306.7},"geometry":{"type":"Polygon","coordinates":[[[90.323761,23.804979],[90.323742,23.804985],[90.323733,23.80494],[90.323716,23.804866],[90.323708,23.80479],[90.323707,23.804704],[90.323706,23.804584],[90.323706,23.804531],[90.323728,23.804422],[90.323749,23.804327],[90.323768,23.804243],[90.323791,23.804168],[90.323803,23.804128],[90.323728,23.804115],[90.323604,23.804097],[90.323601,23.804085],[90.323677,23.80407],[90.323841,23.804064],[90.32386,23.804042],[90.3239,23.804042],[90.323914,23.804038],[90.323933,23.804027],[90.323967,23.804006],[90.324052,23.803933],[90.324171,23.803837],[90.324251,23.803774],[90.324328,23.803722],[90.324348,23.803709],[90.324348,23.803707],[90.324354,23.803704],[90.324588,23.803699],[90.324614,23.803745],[90.324566,23.803739],[90.3245,23.80373],[90.324487,23.80373],[90.324443,23.803764],[90.324378,23.803811],[90.324332,23.803842],[90.324292,23.803865],[90.324134,23.803962],[90.324064,23.804007],[90.323992,23.804045],[90.323913,23.8041],[90.323854,23.80414],[90.323833,23.804209],[90.323804,23.804319],[90.323764,23.804509],[90.323759,23.804597],[90.32376,23.80477],[90.323769,23.804871],[90.323771,23.804889],[90.323761,23.804979]]]}},{"type":"Feature","properties":{"survey":"bds","sheet":"049","dag":"24034","label_bn":"24034","area_sqm":15.6},"geometry":{"type":"Polygon","coordinates":[[[90.323779,23.804957],[90.323794,23.805014],[90.323761,23.804979],[90.323771,23.804889],[90.323779,23.804957]]]}},{"type":"Feature","properties":{"survey":"bds","sheet":"049","dag":"24033","label_bn":"24033","area_sqm":390.5},"geometry":{"type":"Polygon","coordinates":[[[90.323794,23.805014],[90.3238,23.80502],[90.323824,23.805036],[90.323862,23.805057],[90.323863,23.805057],[90.323973,23.805118],[90.324117,23.805197],[90.324105,23.805326],[90.324045,23.805275],[90.32396,23.805207],[90.323875,23.805149],[90.323785,23.805077],[90.323762,23.805052],[90.323751,23.805034],[90.323742,23.804985],[90.323761,23.804979],[90.323794,23.805014]]]}},{"type":"Feature","properties":{"survey":"bds","sheet":"049","dag":"24022","label_bn":"24022","area_sqm":4270.8},"geometry":{"type":"Polygon","coordinates":[[[90.32351,23.805064],[90.323473,23.805071],[90.323421,23.80501],[90.323342,23.80481],[90.323317,23.804617],[90.323284,23.804377],[90.32329,23.804127],[90.323404,23.804124],[90.323601,23.804085],[90.323604,23.804097],[90.323728,23.804115],[90.323803,23.804128],[90.323791,23.804168],[90.323768,23.804243],[90.323749,23.804327],[90.323728,23.804422],[90.323706,23.804531],[90.323706,23.804584],[90.323707,23.804704],[90.323708,23.80479],[90.323716,23.804866],[90.323733,23.80494],[90.323742,23.804985],[90.32351,23.805064]]]}},{"type":"Feature","properties":{"survey":"bds","sheet":"049","dag":"24007","label_bn":"24007","area_sqm":1839.9},"geometry":{"type":"Polygon","coordinates":[[[90.322529,23.804866],[90.322093,23.805122],[90.321942,23.804791],[90.322137,23.80466],[90.322142,23.804606],[90.322189,23.804562],[90.322206,23.804553],[90.322304,23.804676],[90.322529,23.804866]]]}},{"type":"Feature","properties":{"survey":"bds","sheet":"049","dag":"24008","label_bn":"24008","area_sqm":3696.1},"geometry":{"type":"Polygon","coordinates":[[[90.32295,23.804485],[90.323038,23.805141],[90.3228,23.805066],[90.322529,23.804866],[90.322304,23.804676],[90.322206,23.804553],[90.322234,23.804482],[90.32295,23.804485]]]}},{"type":"Feature","properties":{"survey":"bds","sheet":"049","dag":"24031","label_bn":"24031","area_sqm":5434.9},"geometry":{"type":"Polygon","coordinates":[[[90.324458,23.80494],[90.324144,23.805177],[90.32413,23.805175],[90.32408,23.805166],[90.324057,23.805157],[90.324009,23.805132],[90.323973,23.805118],[90.323863,23.805057],[90.323862,23.805057],[90.323824,23.805036],[90.3238,23.80502],[90.323794,23.805014],[90.323779,23.804957],[90.323771,23.804889],[90.323771,23.804884],[90.323782,23.804601],[90.323829,23.804475],[90.324088,23.804441],[90.324309,23.804439],[90.324598,23.80448],[90.324589,23.80479],[90.324458,23.80494]]]}},{"type":"Feature","properties":{"survey":"bds","sheet":"049","dag":"24032","label_bn":"24032","area_sqm":18.4},"geometry":{"type":"Polygon","coordinates":[[[90.324144,23.805177],[90.324117,23.805197],[90.323973,23.805118],[90.324009,23.805132],[90.324057,23.805157],[90.32408,23.805166],[90.32413,23.805175],[90.324144,23.805177]]]}},{"type":"Feature","properties":{"survey":"bds","sheet":"049","dag":"24023","label_bn":"24023","area_sqm":4346.3},"geometry":{"type":"Polygon","coordinates":[[[90.323421,23.80501],[90.323326,23.805242],[90.323038,23.805141],[90.32295,23.804485],[90.322903,23.804126],[90.323089,23.804125],[90.323235,23.804121],[90.32329,23.804127],[90.323284,23.804377],[90.323317,23.804617],[90.323342,23.80481],[90.323421,23.80501]]]}},{"type":"Feature","properties":{"survey":"bds","sheet":"049","dag":"24006","label_bn":"24006","area_sqm":1899.7},"geometry":{"type":"Polygon","coordinates":[[[90.322161,23.80528],[90.321769,23.805349],[90.32169,23.804873],[90.321942,23.804791],[90.322093,23.805122],[90.322161,23.80528]]]}},{"type":"Feature","properties":{"survey":"bds","sheet":"049","dag":"24024","label_bn":"24024","area_sqm":1757.0},"geometry":{"type":"Polygon","coordinates":[[[90.324104,23.805338],[90.323834,23.805367],[90.323583,23.805339],[90.323577,23.805215],[90.32344,23.805229],[90.323326,23.805242],[90.323421,23.80501],[90.323473,23.805071],[90.32351,23.805064],[90.323742,23.804985],[90.323751,23.805034],[90.323762,23.805052],[90.323785,23.805077],[90.323875,23.805149],[90.32396,23.805207],[90.324045,23.805275],[90.324105,23.805326],[90.324104,23.805338]]]}},{"type":"Feature","properties":{"survey":"bds","sheet":"049","dag":"24005","label_bn":"24005","area_sqm":2563.7},"geometry":{"type":"Polygon","coordinates":[[[90.322551,23.805289],[90.322324,23.805487],[90.322249,23.805429],[90.322202,23.80541],[90.322161,23.80528],[90.322093,23.805122],[90.322529,23.804866],[90.3228,23.805066],[90.322551,23.805289]]]}},{"type":"Feature","properties":{"survey":"bds","sheet":"049","dag":"24004","label_bn":"24004","area_sqm":2408.6},"geometry":{"type":"Polygon","coordinates":[[[90.323102,23.805494],[90.323112,23.805565],[90.322954,23.805505],[90.322551,23.805289],[90.3228,23.805066],[90.323038,23.805141],[90.323326,23.805242],[90.323301,23.805369],[90.323208,23.805464],[90.323102,23.805494]]]}},{"type":"Feature","properties":{"survey":"bds","sheet":"049","dag":"24003","label_bn":"24003","area_sqm":2453.5},"geometry":{"type":"Polygon","coordinates":[[[90.323136,23.805716],[90.323018,23.805856],[90.322324,23.805487],[90.322551,23.805289],[90.322954,23.805505],[90.323112,23.805565],[90.323149,23.805595],[90.323205,23.805618],[90.323136,23.805716]]]}},{"type":"Feature","properties":{"survey":"bds","sheet":"049","dag":"24025","label_bn":"24025","area_sqm":5505.3},"geometry":{"type":"Polygon","coordinates":[[[90.32414,23.805873],[90.323964,23.805876],[90.323663,23.80585],[90.323473,23.805758],[90.323205,23.805618],[90.323149,23.805595],[90.323112,23.805565],[90.323102,23.805494],[90.323208,23.805464],[90.323301,23.805369],[90.323326,23.805242],[90.32344,23.805229],[90.323577,23.805215],[90.323583,23.805339],[90.323834,23.805367],[90.324104,23.805338],[90.324109,23.805394],[90.32408,23.805506],[90.324169,23.805549],[90.324258,23.80568],[90.324326,23.805785],[90.32414,23.805873]]]}},{"type":"Feature","properties":{"survey":"bds","sheet":"049","dag":"24001","label_bn":"24001","area_sqm":2045.1},"geometry":{"type":"Polygon","coordinates":[[[90.321926,23.805968],[90.321919,23.805987],[90.321881,23.805974],[90.321769,23.805349],[90.322161,23.80528],[90.322202,23.80541],[90.322131,23.805489],[90.322094,23.805613],[90.322115,23.8057],[90.321996,23.805916],[90.321934,23.805929],[90.321926,23.805968]]]}},{"type":"Feature","properties":{"survey":"bds","sheet":"049","dag":"24028","label_bn":"24028","area_sqm":23583.5},"geometry":{"type":"Polygon","coordinates":[[[90.326242,23.806012],[90.32485,23.806019],[90.324844,23.806007],[90.324807,23.805943],[90.324785,23.805905],[90.324764,23.805877],[90.324759,23.805858],[90.324784,23.805726],[90.324836,23.805508],[90.324894,23.805298],[90.324798,23.805292],[90.324697,23.805282],[90.32465,23.805276],[90.324591,23.805269],[90.324495,23.805251],[90.324396,23.805231],[90.324301,23.805209],[90.324226,23.805193],[90.324144,23.805177],[90.324458,23.80494],[90.324589,23.80479],[90.32476,23.804712],[90.325102,23.804682],[90.326342,23.804957],[90.326477,23.80502],[90.326336,23.805474],[90.326278,23.805662],[90.326242,23.806012]]]}},{"type":"Feature","properties":{"survey":"bds","sheet":"049","dag":"24027","label_bn":"24027","area_sqm":1132.5},"geometry":{"type":"Polygon","coordinates":[[[90.32485,23.806019],[90.324758,23.80602],[90.324707,23.805933],[90.324706,23.805912],[90.324722,23.805801],[90.32475,23.805657],[90.324788,23.805491],[90.324798,23.805433],[90.324813,23.805384],[90.32483,23.80533],[90.324578,23.80532],[90.324479,23.80532],[90.32433,23.805316],[90.324277,23.805315],[90.324218,23.805323],[90.324107,23.805328],[90.324105,23.805326],[90.324117,23.805197],[90.324144,23.805177],[90.324226,23.805193],[90.324301,23.805209],[90.324396,23.805231],[90.324495,23.805251],[90.324591,23.805269],[90.32465,23.805276],[90.324697,23.805282],[90.324798,23.805292],[90.324894,23.805298],[90.324836,23.805508],[90.324784,23.805726],[90.324759,23.805858],[90.324764,23.805877],[90.324785,23.805905],[90.324807,23.805943],[90.324844,23.806007],[90.32485,23.806019]]]}},{"type":"Feature","properties":{"survey":"bds","sheet":"049","dag":"24026","label_bn":"24026","area_sqm":7646.2},"geometry":{"type":"Polygon","coordinates":[[[90.324758,23.80602],[90.322934,23.806029],[90.323018,23.805856],[90.323136,23.805716],[90.323205,23.805618],[90.323473,23.805758],[90.323663,23.80585],[90.323964,23.805876],[90.32414,23.805873],[90.324326,23.805785],[90.324258,23.80568],[90.324169,23.805549],[90.32408,23.805506],[90.324109,23.805394],[90.324104,23.805338],[90.324105,23.805326],[90.324107,23.805328],[90.324218,23.805323],[90.324277,23.805315],[90.32433,23.805316],[90.324479,23.80532],[90.324578,23.80532],[90.32483,23.80533],[90.324813,23.805384],[90.324798,23.805433],[90.324788,23.805491],[90.32475,23.805657],[90.324722,23.805801],[90.324706,23.805912],[90.324707,23.805933],[90.324758,23.80602]]]}},{"type":"Feature","properties":{"survey":"bds","sheet":"049","dag":"24002","label_bn":"24002","area_sqm":2951.3},"geometry":{"type":"Polygon","coordinates":[[[90.322836,23.805973],[90.322777,23.806057],[90.322115,23.8057],[90.322094,23.805613],[90.322131,23.805489],[90.322202,23.80541],[90.322249,23.805429],[90.322324,23.805487],[90.323018,23.805856],[90.322934,23.806029],[90.322836,23.805973]]]}}]}