{"type":"FeatureCollection","features":[{"type":"Feature","properties":{"survey":"bds","sheet":"050","dag":"24530","label_bn":"24530","area_sqm":3450.9},"geometry":{"type":"Polygon","coordinates":[[[90.320427,23.803745],[90.320441,23.803962],[90.320398,23.803949],[90.319926,23.803867],[90.31987,23.803948],[90.319882,23.80387],[90.319886,23.803814],[90.319886,23.803784],[90.319826,23.803754],[90.319777,23.803723],[90.319713,23.803668],[90.319654,23.803588],[90.319694,23.803543],[90.31972,23.803524],[90.319772,23.803563],[90.319818,23.803596],[90.319864,23.803619],[90.319911,23.803621],[90.319978,23.803626],[90.320015,23.803626],[90.320052,23.803616],[90.320084,23.80361],[90.320123,23.80361],[90.320148,23.803599],[90.320178,23.803569],[90.320208,23.803547],[90.320247,23.803529],[90.320253,23.803521],[90.320261,23.80346],[90.320286,23.803343],[90.320303,23.803272],[90.320319,23.803229],[90.320444,23.803223],[90.320533,23.803219],[90.320551,23.80316],[90.320564,23.803105],[90.320571,23.803038],[90.32057,23.802998],[90.320568,23.802929],[90.320568,23.802852],[90.320574,23.802838],[90.320604,23.802816],[90.320645,23.802789],[90.320497,23.803475],[90.320427,23.803745]]]}},{"type":"Feature","properties":{"survey":"bds","sheet":"050","dag":"24527","label_bn":"24527","area_sqm":10158.2},"geometry":{"type":"Polygon","coordinates":[[[90.319605,23.804198],[90.319586,23.804207],[90.319495,23.804184],[90.319255,23.80387],[90.31903,23.803476],[90.3189,23.8033],[90.318919,23.803292],[90.319039,23.803248],[90.31918,23.803209],[90.319287,23.803185],[90.319424,23.803159],[90.3196,23.803121],[90.319643,23.803112],[90.319713,23.803096],[90.319772,23.803078],[90.319841,23.80306],[90.319903,23.803043],[90.320096,23.802983],[90.320265,23.802928],[90.320388,23.802887],[90.320432,23.802868],[90.32044,23.802873],[90.320455,23.802884],[90.320464,23.802894],[90.32047,23.802904],[90.320479,23.80293],[90.320495,23.803014],[90.320495,23.803015],[90.320495,23.803068],[90.320486,23.803106],[90.320461,23.803177],[90.320415,23.803181],[90.320342,23.803182],[90.320293,23.803176],[90.320283,23.803206],[90.320232,23.803356],[90.3202,23.803449],[90.320196,23.803485],[90.320098,23.80357],[90.320044,23.80358],[90.32002,23.803578],[90.319936,23.803564],[90.31988,23.803551],[90.319828,23.803525],[90.319769,23.80349],[90.319714,23.803463],[90.319709,23.803456],[90.319707,23.80345],[90.319662,23.803457],[90.319648,23.803469],[90.319636,23.803485],[90.319584,23.803561],[90.319571,23.803585],[90.319594,23.803614],[90.319636,23.803659],[90.319652,23.803673],[90.319709,23.803719],[90.319745,23.803738],[90.319782,23.803761],[90.319795,23.803771],[90.319822,23.803795],[90.319836,23.803811],[90.319845,23.803823],[90.319847,23.803834],[90.319845,23.803852],[90.319849,23.803874],[90.319848,23.803911],[90.319837,23.803936],[90.319813,23.803958],[90.31978,23.803987],[90.319746,23.804018],[90.319685,23.80409],[90.319614,23.804186],[90.319605,23.804198]]]}},{"type":"Feature","properties":{"survey":"bds","sheet":"050","dag":"24529","label_bn":"24529","area_sqm":7224.7},"geometry":{"type":"Polygon","coordinates":[[[90.320371,23.804739],[90.320093,23.804881],[90.319962,23.80487],[90.319789,23.804824],[90.31968,23.804768],[90.319677,23.804756],[90.319681,23.804752],[90.319713,23.8047],[90.319736,23.804685],[90.319735,23.804671],[90.319699,23.804565],[90.319643,23.804417],[90.31962,23.804369],[90.319606,23.804339],[90.319604,23.804325],[90.319629,23.804286],[90.319689,23.804196],[90.319738,23.804137],[90.319743,23.804135],[90.31987,23.803948],[90.319926,23.803867],[90.320398,23.803949],[90.320441,23.803962],[90.320371,23.804739]]]}},{"type":"Feature","properties":{"survey":"bds","sheet":"050","dag":"24531","label_bn":"24531","area_sqm":32758.3},"geometry":{"type":"Polygon","coordinates":[[[90.320734,23.804946],[90.320707,23.804999],[90.320442,23.804826],[90.320371,23.804739],[90.320441,23.803962],[90.320427,23.803745],[90.320497,23.803475],[90.320645,23.802789],[90.320683,23.802764],[90.320782,23.802704],[90.320926,23.802638],[90.320991,23.802612],[90.321041,23.802596],[90.321056,23.802602],[90.321094,23.802596],[90.321178,23.802576],[90.321234,23.802555],[90.321262,23.802555],[90.321292,23.802545],[90.321346,23.80252],[90.32138,23.8025],[90.321407,23.802493],[90.321474,23.802458],[90.321475,23.802518],[90.321484,23.802589],[90.321496,23.80268],[90.321615,23.802705],[90.321675,23.802719],[90.32178,23.802739],[90.321789,23.802741],[90.321773,23.802779],[90.321769,23.802797],[90.321785,23.802833],[90.321787,23.803077],[90.32169,23.804873],[90.321389,23.804927],[90.32104,23.804944],[90.321038,23.804911],[90.320969,23.804921],[90.320734,23.804946]]]}},{"type":"Feature","properties":{"survey":"bds","sheet":"050","dag":"24522","label_bn":"24522","area_sqm":687.1},"geometry":{"type":"Polygon","coordinates":[[[90.319635,23.805255],[90.319618,23.805264],[90.319615,23.805243],[90.319598,23.80515],[90.319586,23.805111],[90.319547,23.804989],[90.319541,23.804958],[90.319627,23.804824],[90.319677,23.804756],[90.31968,23.804768],[90.319789,23.804824],[90.319677,23.805135],[90.319635,23.805255]]]}},{"type":"Feature","properties":{"survey":"bds","sheet":"050","dag":"24528","label_bn":"24528","area_sqm":2343.6},"geometry":{"type":"Polygon","coordinates":[[[90.319599,23.805301],[90.319581,23.805304],[90.319565,23.80529],[90.319551,23.805278],[90.319522,23.805259],[90.319514,23.805221],[90.319524,23.805196],[90.319528,23.805185],[90.31953,23.805174],[90.319527,23.80514],[90.319517,23.805093],[90.319505,23.80504],[90.319493,23.804982],[90.319475,23.804941],[90.319533,23.804868],[90.319596,23.804798],[90.319664,23.804701],[90.319676,23.804683],[90.319663,23.804616],[90.319645,23.804556],[90.319633,23.804525],[90.319618,23.804485],[90.319596,23.804429],[90.319546,23.804336],[90.319529,23.804302],[90.319552,23.804274],[90.319566,23.804248],[90.319588,23.80422],[90.319605,23.804198],[90.319614,23.804186],[90.319685,23.80409],[90.319746,23.804018],[90.31978,23.803987],[90.319813,23.803958],[90.319837,23.803936],[90.319848,23.803911],[90.319849,23.803874],[90.319845,23.803852],[90.319847,23.803834],[90.319845,23.803823],[90.319836,23.803811],[90.319822,23.803795],[90.319795,23.803771],[90.319782,23.803761],[90.319745,23.803738],[90.319709,23.803719],[90.319652,23.803673],[90.319636,23.803659],[90.319594,23.803614],[90.319571,23.803585],[90.319584,23.803561],[90.319636,23.803485],[90.319648,23.803469],[90.319662,23.803457],[90.319707,23.80345],[90.319709,23.803456],[90.319714,23.803463],[90.319769,23.80349],[90.319828,23.803525],[90.31988,23.803551],[90.319936,23.803564],[90.32002,23.803578],[90.320044,23.80358],[90.320098,23.80357],[90.320196,23.803485],[90.3202,23.803449],[90.320232,23.803356],[90.320283,23.803206],[90.320293,23.803176],[90.320342,23.803182],[90.320415,23.803181],[90.320461,23.803177],[90.320486,23.803106],[90.320495,23.803068],[90.320495,23.803015],[90.320495,23.803014],[90.320479,23.80293],[90.32047,23.802904],[90.320464,23.802894],[90.320455,23.802884],[90.32044,23.802873],[90.320432,23.802868],[90.320574,23.802838],[90.320568,23.802852],[90.320568,23.802929],[90.32057,23.802998],[90.320571,23.803038],[90.320564,23.803105],[90.320551,23.80316],[90.320533,23.803219],[90.320444,23.803223],[90.320319,23.803229],[90.320303,23.803272],[90.320286,23.803343],[90.320261,23.80346],[90.320253,23.803521],[90.320247,23.803529],[90.320208,23.803547],[90.320178,23.803569],[90.320148,23.803599],[90.320123,23.80361],[90.320084,23.80361],[90.320052,23.803616],[90.320015,23.803626],[90.319978,23.803626],[90.319911,23.803621],[90.319864,23.803619],[90.319818,23.803596],[90.319772,23.803563],[90.31972,23.803524],[90.319694,23.803543],[90.319654,23.803588],[90.319713,23.803668],[90.319777,23.803723],[90.319826,23.803754],[90.319886,23.803784],[90.319886,23.803814],[90.319882,23.80387],[90.31987,23.803948],[90.319743,23.804135],[90.319738,23.804137],[90.319689,23.804196],[90.319629,23.804286],[90.319604,23.804325],[90.319606,23.804339],[90.31962,23.804369],[90.319643,23.804417],[90.319699,23.804565],[90.319735,23.804671],[90.319736,23.804685],[90.319713,23.8047],[90.319681,23.804752],[90.319677,23.804756],[90.319627,23.804824],[90.319541,23.804958],[90.319547,23.804989],[90.319586,23.805111],[90.319598,23.80515],[90.319615,23.805243],[90.319618,23.805264],[90.319622,23.805294],[90.319599,23.805301]]]}},{"type":"Feature","properties":{"survey":"bds","sheet":"050","dag":"24520","label_bn":"24520","area_sqm":1972.1},"geometry":{"type":"Polygon","coordinates":[[[90.320809,23.805356],[90.320555,23.805384],[90.320561,23.805347],[90.320575,23.805325],[90.320597,23.805298],[90.320615,23.805265],[90.320662,23.805132],[90.320682,23.80505],[90.320707,23.804999],[90.320734,23.804946],[90.320969,23.804921],[90.321038,23.804911],[90.32104,23.804944],[90.32109,23.805319],[90.320809,23.805356]]]}},{"type":"Feature","properties":{"survey":"bds","sheet":"050","dag":"24518","label_bn":"24518","area_sqm":1612.5},"geometry":{"type":"Polygon","coordinates":[[[90.321108,23.805394],[90.3211,23.805397],[90.32109,23.805319],[90.32104,23.804944],[90.321389,23.804927],[90.321424,23.805306],[90.321108,23.805394]]]}},{"type":"Feature","properties":{"survey":"bds","sheet":"050","dag":"24526","label_bn":"24526","area_sqm":17297.7},"geometry":{"type":"Polygon","coordinates":[[[90.318959,23.805623],[90.318718,23.805656],[90.318657,23.805592],[90.318698,23.805471],[90.318712,23.805439],[90.318728,23.805389],[90.318777,23.805267],[90.318792,23.80523],[90.318829,23.805165],[90.318823,23.805113],[90.318806,23.805009],[90.318785,23.804883],[90.318764,23.804756],[90.318756,23.804651],[90.318752,23.804619],[90.318748,23.804586],[90.318735,23.804504],[90.318724,23.80443],[90.318712,23.804305],[90.318681,23.803864],[90.318673,23.803699],[90.318655,23.803547],[90.318634,23.803401],[90.318633,23.803394],[90.318674,23.803371],[90.318704,23.803362],[90.318796,23.803348],[90.318816,23.803339],[90.318836,23.803327],[90.3189,23.8033],[90.31903,23.803476],[90.319255,23.80387],[90.319495,23.804184],[90.319586,23.804207],[90.319605,23.804198],[90.319588,23.80422],[90.319566,23.804248],[90.319552,23.804274],[90.319529,23.804302],[90.319546,23.804336],[90.319596,23.804429],[90.319618,23.804485],[90.319633,23.804525],[90.319645,23.804556],[90.319663,23.804616],[90.319676,23.804683],[90.319664,23.804701],[90.319596,23.804798],[90.319533,23.804868],[90.319475,23.804941],[90.319493,23.804982],[90.319505,23.80504],[90.319517,23.805093],[90.319527,23.80514],[90.31953,23.805174],[90.319528,23.805185],[90.319524,23.805196],[90.319514,23.805221],[90.319522,23.805259],[90.319551,23.805278],[90.319565,23.80529],[90.319329,23.805408],[90.319329,23.805408],[90.319102,23.805552],[90.318959,23.805623]]]}},{"type":"Feature","properties":{"survey":"bds","sheet":"050","dag":"24521","label_bn":"24521","area_sqm":7948.2},"geometry":{"type":"Polygon","coordinates":[[[90.320009,23.805748],[90.319808,23.805793],[90.319635,23.805255],[90.319677,23.805135],[90.319789,23.804824],[90.319962,23.80487],[90.320093,23.804881],[90.320371,23.804739],[90.320442,23.804826],[90.320707,23.804999],[90.320682,23.80505],[90.320662,23.805132],[90.320615,23.805265],[90.320597,23.805298],[90.320575,23.805325],[90.320561,23.805347],[90.320555,23.805384],[90.320548,23.80543],[90.320342,23.805471],[90.320207,23.805511],[90.320151,23.805668],[90.320141,23.805688],[90.320009,23.805748]]]}},{"type":"Feature","properties":{"survey":"bds","sheet":"050","dag":"24523","label_bn":"24523","area_sqm":2163.6},"geometry":{"type":"Polygon","coordinates":[[[90.31982,23.805813],[90.319465,23.805904],[90.319329,23.805408],[90.319565,23.80529],[90.319581,23.805304],[90.319599,23.805301],[90.319622,23.805294],[90.319618,23.805264],[90.319635,23.805255],[90.319808,23.805793],[90.31982,23.805813]]]}},{"type":"Feature","properties":{"survey":"bds","sheet":"050","dag":"24517","label_bn":"24517","area_sqm":6165.8},"geometry":{"type":"Polygon","coordinates":[[[90.321769,23.805349],[90.321881,23.805974],[90.321282,23.805955],[90.321249,23.805946],[90.321232,23.805906],[90.321191,23.805711],[90.321156,23.805564],[90.321108,23.805394],[90.321424,23.805306],[90.321389,23.804927],[90.32169,23.804873],[90.321769,23.805349]]]}},{"type":"Feature","properties":{"survey":"bds","sheet":"050","dag":"24519","label_bn":"24519","area_sqm":4367.1},"geometry":{"type":"Polygon","coordinates":[[[90.320895,23.806016],[90.320714,23.806042],[90.320712,23.806042],[90.320676,23.80604],[90.320636,23.80603],[90.320624,23.805905],[90.320599,23.805757],[90.320548,23.80543],[90.320555,23.805384],[90.320809,23.805356],[90.32109,23.805319],[90.3211,23.805397],[90.321108,23.805394],[90.321156,23.805564],[90.321191,23.805711],[90.321232,23.805906],[90.321249,23.805946],[90.320994,23.806001],[90.320895,23.806016]]]}},{"type":"Feature","properties":{"survey":"bds","sheet":"050","dag":"24516","label_bn":"24516","area_sqm":1008.9},"geometry":{"type":"Polygon","coordinates":[[[90.321824,23.80612],[90.321297,23.806124],[90.321282,23.805955],[90.321881,23.805974],[90.321824,23.80612]]]}},{"type":"Feature","properties":{"survey":"bds","sheet":"050","dag":"24515","label_bn":"24515","area_sqm":1024.6},"geometry":{"type":"Polygon","coordinates":[[[90.321297,23.806124],[90.320745,23.806185],[90.320736,23.806125],[90.320728,23.806089],[90.320714,23.806042],[90.320895,23.806016],[90.320994,23.806001],[90.321249,23.805946],[90.321282,23.805955],[90.321297,23.806124]]]}},{"type":"Feature","properties":{"survey":"bds","sheet":"050","dag":"24524","label_bn":"24524","area_sqm":2833.6},"geometry":{"type":"Polygon","coordinates":[[[90.319245,23.806119],[90.319067,23.806232],[90.318959,23.805623],[90.319102,23.805552],[90.319329,23.805408],[90.319329,23.805408],[90.319465,23.805904],[90.319245,23.806119]]]}},{"type":"Feature","properties":{"survey":"bds","sheet":"050","dag":"24514","label_bn":"24514","area_sqm":2426.0},"geometry":{"type":"Polygon","coordinates":[[[90.321267,23.806333],[90.320761,23.806378],[90.320752,23.806282],[90.320748,23.806207],[90.320745,23.806185],[90.321297,23.806124],[90.321824,23.80612],[90.321806,23.80621],[90.321765,23.80633],[90.321267,23.806333]]]}},{"type":"Feature","properties":{"survey":"bds","sheet":"050","dag":"24505","label_bn":"24505","area_sqm":3731.0},"geometry":{"type":"Polygon","coordinates":[[[90.320668,23.806381],[90.32038,23.806385],[90.32036,23.806287],[90.32032,23.80608],[90.320191,23.805774],[90.320141,23.805688],[90.320151,23.805668],[90.320207,23.805511],[90.320342,23.805471],[90.320548,23.80543],[90.320599,23.805757],[90.320624,23.805905],[90.320636,23.80603],[90.320645,23.8061],[90.320655,23.806207],[90.320663,23.806307],[90.320668,23.806376],[90.320668,23.80638],[90.320668,23.806381]]]}},{"type":"Feature","properties":{"survey":"bds","sheet":"050","dag":"24525","label_bn":"24525","area_sqm":2860.1},"geometry":{"type":"Polygon","coordinates":[[[90.318878,23.80639],[90.318742,23.806398],[90.318733,23.806273],[90.318641,23.806268],[90.318646,23.806216],[90.318718,23.805656],[90.318959,23.805623],[90.319067,23.806232],[90.319085,23.806364],[90.318878,23.806394],[90.318878,23.80639]]]}},{"type":"Feature","properties":{"survey":"bds","sheet":"050","dag":"24502","label_bn":"24502","area_sqm":7101.6},"geometry":{"type":"Polygon","coordinates":[[[90.31985,23.806455],[90.319392,23.806513],[90.319085,23.806364],[90.319067,23.806232],[90.319245,23.806119],[90.319465,23.805904],[90.31982,23.805813],[90.319808,23.805793],[90.320009,23.805748],[90.320141,23.805688],[90.320191,23.805774],[90.32032,23.80608],[90.32036,23.806287],[90.319849,23.806308],[90.31985,23.806455]]]}},{"type":"Feature","properties":{"survey":"bds","sheet":"050","dag":"24513","label_bn":"24513","area_sqm":1346.3},"geometry":{"type":"Polygon","coordinates":[[[90.321306,23.806579],[90.32125,23.80659],[90.321013,23.806584],[90.320775,23.806578],[90.32077,23.806482],[90.320762,23.806394],[90.320761,23.806378],[90.321267,23.806333],[90.321306,23.806579]]]}},{"type":"Feature","properties":{"survey":"bds","sheet":"050","dag":"24512","label_bn":"24512","area_sqm":2112.4},"geometry":{"type":"Polygon","coordinates":[[[90.321899,23.806587],[90.321711,23.806598],[90.321306,23.806579],[90.321267,23.806333],[90.321765,23.80633],[90.321806,23.80621],[90.321992,23.806282],[90.321979,23.806332],[90.321899,23.806587]]]}},{"type":"Feature","properties":{"survey":"bds","sheet":"050","dag":"24506","label_bn":"24506","area_sqm":1675.0},"geometry":{"type":"Polygon","coordinates":[[[90.320709,23.806826],[90.320714,23.806851],[90.320368,23.806838],[90.32038,23.806385],[90.320668,23.806381],[90.320683,23.806497],[90.320698,23.806585],[90.320703,23.806638],[90.320703,23.806704],[90.320701,23.806766],[90.320709,23.806826]]]}},{"type":"Feature","properties":{"survey":"bds","sheet":"050","dag":"24511","label_bn":"24511","area_sqm":2184.7},"geometry":{"type":"Polygon","coordinates":[[[90.321711,23.806598],[90.321673,23.807051],[90.321277,23.807023],[90.32125,23.80659],[90.321306,23.806579],[90.321711,23.806598]]]}},{"type":"Feature","properties":{"survey":"bds","sheet":"050","dag":"24510","label_bn":"24510","area_sqm":1352.2},"geometry":{"type":"Polygon","coordinates":[[[90.321277,23.807023],[90.32101,23.807058],[90.320992,23.806772],[90.321013,23.806584],[90.32125,23.80659],[90.321277,23.807023]]]}},{"type":"Feature","properties":{"survey":"bds","sheet":"050","dag":"24509","label_bn":"24509","area_sqm":1272.2},"geometry":{"type":"Polygon","coordinates":[[[90.32101,23.807058],[90.320808,23.807084],[90.320787,23.807006],[90.320773,23.806939],[90.320765,23.80686],[90.32076,23.806704],[90.320771,23.80667],[90.320781,23.806649],[90.320779,23.806627],[90.320775,23.806578],[90.320775,23.806578],[90.321013,23.806584],[90.320992,23.806772],[90.32101,23.807058]]]}},{"type":"Feature","properties":{"survey":"bds","sheet":"050","dag":"24504","label_bn":"24504","area_sqm":4915.3},"geometry":{"type":"Polygon","coordinates":[[[90.320368,23.806838],[90.320359,23.807149],[90.320131,23.807131],[90.319887,23.807147],[90.319864,23.807146],[90.31985,23.806455],[90.319849,23.806308],[90.32036,23.806287],[90.32038,23.806385],[90.320368,23.806838]]]}},{"type":"Feature","properties":{"survey":"bds","sheet":"050","dag":"24503","label_bn":"24503","area_sqm":3465.0},"geometry":{"type":"Polygon","coordinates":[[[90.31966,23.807151],[90.319424,23.80716],[90.319424,23.80716],[90.319387,23.806717],[90.319392,23.806513],[90.31985,23.806455],[90.319864,23.807146],[90.31966,23.807151]]]}},{"type":"Feature","properties":{"survey":"bds","sheet":"050","dag":"24501","label_bn":"24501","area_sqm":4589.0},"geometry":{"type":"Polygon","coordinates":[[[90.319139,23.807225],[90.319012,23.80726],[90.318895,23.807257],[90.318894,23.806809],[90.318878,23.806394],[90.319085,23.806364],[90.319392,23.806513],[90.319387,23.806717],[90.319424,23.80716],[90.319424,23.80716],[90.319134,23.807183],[90.319139,23.807225]]]}},{"type":"Feature","properties":{"survey":"bds","sheet":"050","dag":"24507","label_bn":"24507","area_sqm":1828.2},"geometry":{"type":"Polygon","coordinates":[[[90.320811,23.807276],[90.320823,23.807351],[90.320595,23.807315],[90.320617,23.807217],[90.320359,23.807149],[90.320368,23.806838],[90.320714,23.806851],[90.320743,23.806988],[90.320767,23.807084],[90.320778,23.807108],[90.320787,23.807145],[90.320799,23.807229],[90.320811,23.807276]]]}},{"type":"Feature","properties":{"survey":"bds","sheet":"050","dag":"24508","label_bn":"24508","area_sqm":926.8},"geometry":{"type":"Polygon","coordinates":[[[90.320822,23.807236],[90.320868,23.807358],[90.320823,23.807351],[90.320811,23.807276],[90.320799,23.807229],[90.320787,23.807145],[90.320778,23.807108],[90.320767,23.807084],[90.320743,23.806988],[90.320714,23.806851],[90.320709,23.806826],[90.320701,23.806766],[90.320703,23.806704],[90.320703,23.806638],[90.320698,23.806585],[90.320683,23.806497],[90.320668,23.806381],[90.320668,23.80638],[90.320668,23.806376],[90.320663,23.806307],[90.320655,23.806207],[90.320645,23.8061],[90.320636,23.80603],[90.320676,23.80604],[90.320712,23.806042],[90.320714,23.806042],[90.320728,23.806089],[90.320736,23.806125],[90.320745,23.806185],[90.320748,23.806207],[90.320752,23.806282],[90.320761,23.806378],[90.320762,23.806394],[90.32077,23.806482],[90.320775,23.806578],[90.320775,23.806578],[90.320779,23.806627],[90.320781,23.806649],[90.320771,23.80667],[90.32076,23.806704],[90.320765,23.80686],[90.320773,23.806939],[90.320787,23.807006],[90.320808,23.807084],[90.320786,23.807087],[90.320822,23.807236]]]}}]}