{"type":"FeatureCollection","features":[{"type":"Feature","properties":{"survey":"bds","sheet":"051","dag":"25023","label_bn":"25023","area_sqm":33.7},"geometry":{"type":"Polygon","coordinates":[[[90.318443,23.803407],[90.318245,23.803446],[90.318253,23.803416],[90.318465,23.803404],[90.318443,23.803407]]]}},{"type":"Feature","properties":{"survey":"bds","sheet":"051","dag":"25022","label_bn":"25022","area_sqm":42.5},"geometry":{"type":"Polygon","coordinates":[[[90.31814,23.803468],[90.318137,23.803469],[90.318147,23.80343],[90.318174,23.803422],[90.318174,23.803421],[90.318253,23.803416],[90.318245,23.803446],[90.318227,23.803449],[90.31814,23.803468]]]}},{"type":"Feature","properties":{"survey":"bds","sheet":"051","dag":"25020","label_bn":"25020","area_sqm":179.8},"geometry":{"type":"Polygon","coordinates":[[[90.317742,23.803569],[90.317592,23.803603],[90.317594,23.803579],[90.317855,23.803516],[90.318147,23.80343],[90.318137,23.803469],[90.318025,23.8035],[90.317934,23.803522],[90.317825,23.803551],[90.317742,23.803569]]]}},{"type":"Feature","properties":{"survey":"bds","sheet":"051","dag":"25018","label_bn":"25018","area_sqm":200.4},"geometry":{"type":"Polygon","coordinates":[[[90.316954,23.803646],[90.316953,23.803692],[90.316903,23.803691],[90.316777,23.803685],[90.316689,23.803682],[90.316664,23.803679],[90.316583,23.803665],[90.316582,23.803665],[90.316589,23.803629],[90.3166,23.803631],[90.316845,23.803637],[90.316954,23.803646]]]}},{"type":"Feature","properties":{"survey":"bds","sheet":"051","dag":"25019","label_bn":"25019","area_sqm":270.9},"geometry":{"type":"Polygon","coordinates":[[[90.317078,23.803682],[90.316974,23.803692],[90.316953,23.803692],[90.316954,23.803646],[90.317594,23.803579],[90.317592,23.803603],[90.317584,23.803605],[90.317555,23.803607],[90.317476,23.803614],[90.317304,23.803648],[90.317078,23.803682]]]}},{"type":"Feature","properties":{"survey":"bds","sheet":"051","dag":"25007","label_bn":"25007","area_sqm":143.1},"geometry":{"type":"Polygon","coordinates":[[[90.31559,23.803916],[90.315517,23.803954],[90.315515,23.80394],[90.31594,23.803737],[90.316082,23.803679],[90.316269,23.80362],[90.316364,23.803606],[90.316478,23.803615],[90.31653,23.803622],[90.316525,23.803647],[90.316489,23.803641],[90.316412,23.803633],[90.316355,23.803619],[90.316336,23.803617],[90.316313,23.803619],[90.316253,23.803632],[90.316173,23.803661],[90.31608,23.803697],[90.315967,23.80375],[90.315863,23.803781],[90.315767,23.803822],[90.315673,23.803866],[90.31559,23.803916]]]}},{"type":"Feature","properties":{"survey":"bds","sheet":"051","dag":"25017","label_bn":"25017","area_sqm":4580.3},"geometry":{"type":"Polygon","coordinates":[[[90.317276,23.80437],[90.317268,23.80437],[90.317115,23.8043],[90.317063,23.804239],[90.317026,23.804122],[90.316987,23.804098],[90.31695,23.804089],[90.316953,23.803692],[90.316974,23.803692],[90.317078,23.803682],[90.317304,23.803648],[90.317476,23.803614],[90.317555,23.803607],[90.317584,23.803605],[90.317592,23.803603],[90.317547,23.804356],[90.317276,23.80437]]]}},{"type":"Feature","properties":{"survey":"bds","sheet":"051","dag":"25021","label_bn":"25021","area_sqm":4294.0},"geometry":{"type":"Polygon","coordinates":[[[90.318137,23.803469],[90.317873,23.804457],[90.317608,23.804401],[90.317579,23.804364],[90.317547,23.804356],[90.317592,23.803603],[90.317742,23.803569],[90.317825,23.803551],[90.317934,23.803522],[90.318025,23.8035],[90.318137,23.803469]]]}},{"type":"Feature","properties":{"survey":"bds","sheet":"051","dag":"25030","label_bn":"25030","area_sqm":14359.0},"geometry":{"type":"Polygon","coordinates":[[[90.318344,23.805332],[90.31809,23.805364],[90.317853,23.805245],[90.3178,23.805115],[90.318245,23.803446],[90.318443,23.803407],[90.318465,23.803404],[90.318633,23.803394],[90.318655,23.803547],[90.318673,23.803699],[90.318681,23.803864],[90.318712,23.804305],[90.318724,23.80443],[90.318735,23.804504],[90.318748,23.804586],[90.318752,23.804619],[90.318756,23.804651],[90.318764,23.804756],[90.318785,23.804883],[90.318803,23.804994],[90.318578,23.805096],[90.318324,23.805126],[90.318344,23.805332]]]}},{"type":"Feature","properties":{"survey":"bds","sheet":"051","dag":"25029","label_bn":"25029","area_sqm":1750.3},"geometry":{"type":"Polygon","coordinates":[[[90.318698,23.805471],[90.318657,23.805592],[90.318571,23.805524],[90.318501,23.805314],[90.318344,23.805332],[90.318324,23.805126],[90.318578,23.805096],[90.318803,23.804994],[90.318806,23.805009],[90.318823,23.805113],[90.318829,23.805165],[90.318792,23.80523],[90.318777,23.805267],[90.318728,23.805389],[90.318712,23.805439],[90.318698,23.805471]]]}},{"type":"Feature","properties":{"survey":"bds","sheet":"051","dag":"25015","label_bn":"25015","area_sqm":6883.0},"geometry":{"type":"Polygon","coordinates":[[[90.3177,23.805107],[90.317388,23.805771],[90.317298,23.805765],[90.317229,23.805758],[90.317165,23.805754],[90.317127,23.805755],[90.317176,23.80556],[90.317203,23.805442],[90.317223,23.805313],[90.317236,23.805197],[90.317256,23.805012],[90.317268,23.804921],[90.31727,23.804871],[90.317267,23.804768],[90.317268,23.804659],[90.317266,23.804552],[90.317263,23.804489],[90.317266,23.804445],[90.317276,23.80437],[90.317547,23.804356],[90.317579,23.804364],[90.317608,23.804401],[90.317873,23.804457],[90.3177,23.805107]]]}},{"type":"Feature","properties":{"survey":"bds","sheet":"051","dag":"25016","label_bn":"25016","area_sqm":15742.4},"geometry":{"type":"Polygon","coordinates":[[[90.316574,23.806097],[90.316539,23.806104],[90.316543,23.806064],[90.31645,23.804296],[90.316582,23.803665],[90.316583,23.803665],[90.316664,23.803679],[90.316689,23.803682],[90.316777,23.803685],[90.316903,23.803691],[90.316953,23.803692],[90.31695,23.804089],[90.316987,23.804098],[90.317026,23.804122],[90.317063,23.804239],[90.317115,23.8043],[90.317268,23.80437],[90.317276,23.80437],[90.317266,23.804445],[90.317263,23.804489],[90.317266,23.804552],[90.317268,23.804659],[90.317267,23.804768],[90.31727,23.804871],[90.317268,23.804921],[90.317256,23.805012],[90.317236,23.805197],[90.317223,23.805313],[90.317203,23.805442],[90.317176,23.80556],[90.317127,23.805755],[90.317033,23.80575],[90.316886,23.805756],[90.316788,23.805751],[90.316746,23.805752],[90.316666,23.805752],[90.316606,23.80576],[90.316605,23.805763],[90.316585,23.805947],[90.316576,23.806022],[90.316574,23.806097]]]}},{"type":"Feature","properties":{"survey":"bds","sheet":"051","dag":"25027","label_bn":"25027","area_sqm":3368.2},"geometry":{"type":"Polygon","coordinates":[[[90.317907,23.806132],[90.317903,23.80615],[90.317573,23.806129],[90.317772,23.805219],[90.3178,23.805115],[90.317853,23.805245],[90.31809,23.805364],[90.317907,23.806132]]]}},{"type":"Feature","properties":{"survey":"bds","sheet":"051","dag":"25013","label_bn":"25013","area_sqm":3658.7},"geometry":{"type":"Polygon","coordinates":[[[90.317427,23.80612],[90.317441,23.80617],[90.317294,23.806167],[90.317036,23.806162],[90.316856,23.806143],[90.316699,23.80612],[90.316574,23.806097],[90.316576,23.806022],[90.316585,23.805947],[90.316605,23.805763],[90.316606,23.80576],[90.316666,23.805752],[90.316746,23.805752],[90.316788,23.805751],[90.316886,23.805756],[90.317033,23.80575],[90.317127,23.805755],[90.317165,23.805754],[90.317229,23.805758],[90.317298,23.805765],[90.317388,23.805771],[90.317388,23.805772],[90.317427,23.80612]]]}},{"type":"Feature","properties":{"survey":"bds","sheet":"051","dag":"25014","label_bn":"25014","area_sqm":1026.9},"geometry":{"type":"Polygon","coordinates":[[[90.317675,23.805199],[90.317462,23.806171],[90.317441,23.80617],[90.317427,23.80612],[90.317388,23.805772],[90.317388,23.805771],[90.3177,23.805107],[90.317675,23.805199]]]}},{"type":"Feature","properties":{"survey":"bds","sheet":"051","dag":"25006","label_bn":"25006","area_sqm":20333.6},"geometry":{"type":"Polygon","coordinates":[[[90.316393,23.806133],[90.316082,23.806194],[90.316085,23.806147],[90.315807,23.806144],[90.315823,23.806072],[90.316002,23.805646],[90.316017,23.805517],[90.315988,23.805416],[90.315623,23.805291],[90.315607,23.80484],[90.315581,23.804422],[90.315517,23.803954],[90.31559,23.803916],[90.315673,23.803866],[90.315767,23.803822],[90.315863,23.803781],[90.315967,23.80375],[90.31608,23.803697],[90.316173,23.803661],[90.316253,23.803632],[90.316313,23.803619],[90.316336,23.803617],[90.316355,23.803619],[90.316412,23.803633],[90.316489,23.803641],[90.316525,23.803647],[90.31639,23.804292],[90.316483,23.806063],[90.316478,23.806116],[90.316393,23.806133]]]}},{"type":"Feature","properties":{"survey":"bds","sheet":"051","dag":"25028","label_bn":"25028","area_sqm":6067.6},"geometry":{"type":"Polygon","coordinates":[[[90.318718,23.805656],[90.318646,23.806216],[90.318457,23.806158],[90.317903,23.80615],[90.317907,23.806132],[90.31809,23.805364],[90.318344,23.805332],[90.318501,23.805314],[90.318571,23.805524],[90.318657,23.805592],[90.318718,23.805656]]]}},{"type":"Feature","properties":{"survey":"bds","sheet":"051","dag":"25003","label_bn":"25003","area_sqm":749.7},"geometry":{"type":"Polygon","coordinates":[[[90.316082,23.806194],[90.316062,23.806459],[90.315875,23.806431],[90.315883,23.806368],[90.315807,23.806144],[90.316085,23.806147],[90.316082,23.806194]]]}},{"type":"Feature","properties":{"survey":"bds","sheet":"051","dag":"25004","label_bn":"25004","area_sqm":1084.2},"geometry":{"type":"Polygon","coordinates":[[[90.316393,23.806133],[90.316378,23.80648],[90.316062,23.806459],[90.316082,23.806194],[90.316393,23.806133]]]}},{"type":"Feature","properties":{"survey":"bds","sheet":"051","dag":"25005","label_bn":"25005","area_sqm":302.8},"geometry":{"type":"Polygon","coordinates":[[[90.316478,23.806116],[90.316442,23.80649],[90.316378,23.80648],[90.316393,23.806133],[90.316478,23.806116]]]}},{"type":"Feature","properties":{"survey":"bds","sheet":"051","dag":"25012","label_bn":"25012","area_sqm":4355.2},"geometry":{"type":"Polygon","coordinates":[[[90.317462,23.806171],[90.317362,23.80663],[90.317181,23.806619],[90.316694,23.806528],[90.316501,23.806499],[90.316539,23.806104],[90.316574,23.806097],[90.316699,23.80612],[90.316856,23.806143],[90.317036,23.806162],[90.317294,23.806167],[90.317441,23.80617],[90.317462,23.806171]]]}},{"type":"Feature","properties":{"survey":"bds","sheet":"051","dag":"25011","label_bn":"25011","area_sqm":1291.9},"geometry":{"type":"Polygon","coordinates":[[[90.317235,23.807207],[90.317094,23.807852],[90.317091,23.807852],[90.317181,23.806619],[90.317362,23.80663],[90.317235,23.807207]]]}},{"type":"Feature","properties":{"survey":"bds","sheet":"051","dag":"25026","label_bn":"25026","area_sqm":26241.9},"geometry":{"type":"Polygon","coordinates":[[[90.317834,23.80782],[90.317592,23.807861],[90.317194,23.807856],[90.317332,23.807225],[90.317573,23.806129],[90.317903,23.80615],[90.318457,23.806158],[90.318646,23.806216],[90.318641,23.806268],[90.318733,23.806273],[90.318742,23.806398],[90.318878,23.80639],[90.318894,23.806809],[90.318895,23.807257],[90.318855,23.807453],[90.318865,23.807528],[90.318543,23.807585],[90.318186,23.807747],[90.317834,23.80782]]]}},{"type":"Feature","properties":{"survey":"bds","sheet":"051","dag":"25002","label_bn":"25002","area_sqm":12205.9},"geometry":{"type":"Polygon","coordinates":[[[90.316442,23.80649],[90.316309,23.807866],[90.316285,23.807865],[90.315744,23.807778],[90.315339,23.807737],[90.315239,23.807693],[90.31539,23.807638],[90.315421,23.807517],[90.315508,23.807151],[90.315536,23.807047],[90.315663,23.806946],[90.315663,23.806946],[90.315716,23.80689],[90.315734,23.806837],[90.315816,23.80664],[90.315875,23.806431],[90.316062,23.806459],[90.316378,23.80648],[90.316442,23.80649]]]}},{"type":"Feature","properties":{"survey":"bds","sheet":"051","dag":"25010","label_bn":"25010","area_sqm":10545.2},"geometry":{"type":"Polygon","coordinates":[[[90.317091,23.807852],[90.316752,23.807884],[90.316475,23.80788],[90.316368,23.807871],[90.316501,23.806499],[90.316694,23.806528],[90.317181,23.806619],[90.317091,23.807852]]]}},{"type":"Feature","properties":{"survey":"bds","sheet":"051","dag":"25001","label_bn":"25001","area_sqm":5001.0},"geometry":{"type":"Polygon","coordinates":[[[90.316309,23.807866],[90.316276,23.808205],[90.31596,23.808185],[90.315475,23.808155],[90.315089,23.808141],[90.315118,23.80803],[90.315196,23.807838],[90.315245,23.807701],[90.315239,23.807693],[90.315339,23.807737],[90.315744,23.807778],[90.316285,23.807865],[90.316309,23.807866]]]}},{"type":"Feature","properties":{"survey":"bds","sheet":"051","dag":"25008","label_bn":"25008","area_sqm":3122.2},"geometry":{"type":"Polygon","coordinates":[[[90.316368,23.807871],[90.316336,23.808207],[90.316303,23.808206],[90.316276,23.808205],[90.316309,23.807866],[90.316442,23.80649],[90.316478,23.806116],[90.316483,23.806063],[90.31639,23.804292],[90.316525,23.803647],[90.31653,23.803622],[90.316589,23.803629],[90.316582,23.803665],[90.31645,23.804296],[90.316543,23.806064],[90.316539,23.806104],[90.316501,23.806499],[90.316368,23.807871]]]}},{"type":"Feature","properties":{"survey":"bds","sheet":"051","dag":"25009","label_bn":"25009","area_sqm":2738.6},"geometry":{"type":"Polygon","coordinates":[[[90.317094,23.807852],[90.317011,23.808231],[90.316645,23.808218],[90.316336,23.808207],[90.316368,23.807871],[90.316475,23.80788],[90.316752,23.807884],[90.317091,23.807852],[90.317094,23.807852]]]}},{"type":"Feature","properties":{"survey":"bds","sheet":"051","dag":"25024","label_bn":"25024","area_sqm":5490.6},"geometry":{"type":"Polygon","coordinates":[[[90.317194,23.807856],[90.317111,23.808234],[90.317086,23.808234],[90.317011,23.808231],[90.317094,23.807852],[90.317235,23.807207],[90.317362,23.80663],[90.317462,23.806171],[90.317675,23.805199],[90.3177,23.805107],[90.317873,23.804457],[90.318137,23.803469],[90.31814,23.803468],[90.318227,23.803449],[90.318245,23.803446],[90.3178,23.805115],[90.317772,23.805219],[90.317573,23.806129],[90.317332,23.807225],[90.317194,23.807856]]]}},{"type":"Feature","properties":{"survey":"bds","sheet":"051","dag":"25025","label_bn":"25025","area_sqm":4609.7},"geometry":{"type":"Polygon","coordinates":[[[90.31817,23.808071],[90.317965,23.808258],[90.317671,23.808242],[90.317111,23.808234],[90.317194,23.807856],[90.317592,23.807861],[90.317834,23.80782],[90.318186,23.807747],[90.318175,23.808003],[90.31817,23.808071]]]}}]}