{"type":"FeatureCollection","features":[{"type":"Feature","properties":{"survey":"bds","sheet":"052","dag":"25513","label_bn":"25513","area_sqm":12753.9},"geometry":{"type":"Polygon","coordinates":[[[90.31506,23.804215],[90.313272,23.804221],[90.313248,23.804211],[90.313082,23.804186],[90.31297,23.804002],[90.312826,23.803763],[90.312766,23.803664],[90.313368,23.803718],[90.313552,23.803734],[90.313705,23.803748],[90.313822,23.803758],[90.31411,23.803783],[90.314124,23.803784],[90.314328,23.803801],[90.314514,23.803817],[90.314671,23.803764],[90.314971,23.803663],[90.315103,23.80373],[90.315114,23.803736],[90.315515,23.80394],[90.315358,23.804048],[90.315207,23.804151],[90.315104,23.804215],[90.31506,23.804215]]]}},{"type":"Feature","properties":{"survey":"bds","sheet":"052","dag":"25512","label_bn":"25512","area_sqm":3066.5},"geometry":{"type":"Polygon","coordinates":[[[90.314342,23.804502],[90.314329,23.804516],[90.314274,23.804503],[90.314242,23.804489],[90.314151,23.804446],[90.314081,23.804425],[90.313921,23.804381],[90.313821,23.804364],[90.313676,23.80433],[90.31361,23.804312],[90.313483,23.804271],[90.313418,23.804257],[90.313352,23.804247],[90.313269,23.804239],[90.313272,23.804221],[90.31506,23.804215],[90.314975,23.804271],[90.314904,23.804309],[90.314843,23.804337],[90.314747,23.804389],[90.314645,23.804406],[90.314602,23.804421],[90.31449,23.804449],[90.314422,23.80447],[90.31437,23.804488],[90.314342,23.804502]]]}},{"type":"Feature","properties":{"survey":"bds","sheet":"052","dag":"25507","label_bn":"25507","area_sqm":5144.4},"geometry":{"type":"Polygon","coordinates":[[[90.314489,23.805183],[90.314525,23.805253],[90.314506,23.805249],[90.314485,23.805237],[90.314444,23.80521],[90.31441,23.805177],[90.314386,23.805151],[90.314362,23.805106],[90.314313,23.805011],[90.314292,23.804957],[90.314268,23.804886],[90.314251,23.804803],[90.314244,23.804756],[90.31424,23.804695],[90.31426,23.80466],[90.314307,23.80456],[90.314329,23.804516],[90.314342,23.804502],[90.31437,23.804488],[90.314422,23.80447],[90.31449,23.804449],[90.314602,23.804421],[90.314645,23.804406],[90.314747,23.804389],[90.314843,23.804337],[90.314904,23.804309],[90.314975,23.804271],[90.31506,23.804215],[90.315104,23.804215],[90.315104,23.804215],[90.315132,23.804446],[90.315113,23.804513],[90.315083,23.804706],[90.314634,23.804782],[90.314633,23.804782],[90.314612,23.804807],[90.314612,23.804806],[90.314696,23.805126],[90.314489,23.805183]]]}},{"type":"Feature","properties":{"survey":"bds","sheet":"052","dag":"25508","label_bn":"25508","area_sqm":637.1},"geometry":{"type":"Polygon","coordinates":[[[90.314633,23.805467],[90.314615,23.805508],[90.314566,23.805427],[90.314506,23.805337],[90.314495,23.805319],[90.314489,23.805302],[90.314485,23.805288],[90.314485,23.805274],[90.314479,23.805269],[90.314453,23.805256],[90.314438,23.805239],[90.314411,23.805226],[90.314377,23.805211],[90.314355,23.805203],[90.314348,23.805178],[90.314338,23.805157],[90.314331,23.805144],[90.31432,23.805129],[90.314284,23.805058],[90.314254,23.804986],[90.314228,23.80492],[90.314187,23.804789],[90.314175,23.804723],[90.31417,23.804697],[90.314174,23.804682],[90.314205,23.804641],[90.314238,23.804577],[90.314257,23.804541],[90.314274,23.804503],[90.314329,23.804516],[90.314307,23.80456],[90.31426,23.80466],[90.31424,23.804695],[90.314244,23.804756],[90.314251,23.804803],[90.314268,23.804886],[90.314292,23.804957],[90.314313,23.805011],[90.314362,23.805106],[90.314386,23.805151],[90.31441,23.805177],[90.314444,23.80521],[90.314485,23.805237],[90.314506,23.805249],[90.314525,23.805253],[90.314537,23.805277],[90.314634,23.805466],[90.314633,23.805467]]]}},{"type":"Feature","properties":{"survey":"bds","sheet":"052","dag":"25509","label_bn":"25509","area_sqm":34.3},"geometry":{"type":"Polygon","coordinates":[[[90.314708,23.805588],[90.314718,23.805605],[90.314649,23.805533],[90.314635,23.805546],[90.31463,23.805533],[90.314615,23.805508],[90.314633,23.805467],[90.314646,23.805487],[90.314708,23.805588]]]}},{"type":"Feature","properties":{"survey":"bds","sheet":"052","dag":"25506","label_bn":"25506","area_sqm":11984.7},"geometry":{"type":"Polygon","coordinates":[[[90.314719,23.805605],[90.314718,23.805605],[90.314708,23.805588],[90.314646,23.805487],[90.314633,23.805467],[90.314634,23.805466],[90.314537,23.805277],[90.314525,23.805253],[90.314489,23.805183],[90.314696,23.805126],[90.314612,23.804806],[90.314612,23.804807],[90.314633,23.804782],[90.314634,23.804782],[90.315083,23.804706],[90.315113,23.804513],[90.315132,23.804446],[90.315104,23.804215],[90.315104,23.804215],[90.315207,23.804151],[90.315358,23.804048],[90.315515,23.80394],[90.315517,23.803954],[90.31553,23.804051],[90.315549,23.804187],[90.315581,23.804422],[90.315607,23.80484],[90.315609,23.804886],[90.315623,23.805291],[90.315543,23.805308],[90.315479,23.805322],[90.315394,23.805373],[90.315372,23.805477],[90.314719,23.805605]]]}},{"type":"Feature","properties":{"survey":"bds","sheet":"052","dag":"25505","label_bn":"25505","area_sqm":21.3},"geometry":{"type":"Polygon","coordinates":[[[90.314908,23.805722],[90.3149,23.805723],[90.314887,23.805689],[90.314812,23.80566],[90.314843,23.805665],[90.314912,23.805685],[90.314934,23.805696],[90.314934,23.805707],[90.314922,23.805718],[90.314908,23.805722]]]}},{"type":"Feature","properties":{"survey":"bds","sheet":"052","dag":"25510","label_bn":"25510","area_sqm":184.0},"geometry":{"type":"Polygon","coordinates":[[[90.314435,23.805734],[90.314351,23.805799],[90.314363,23.805757],[90.31441,23.805674],[90.31457,23.80556],[90.314602,23.805537],[90.314615,23.805508],[90.31463,23.805533],[90.314635,23.805546],[90.314595,23.805585],[90.314577,23.805602],[90.314574,23.805605],[90.314542,23.805637],[90.314435,23.805734]]]}},{"type":"Feature","properties":{"survey":"bds","sheet":"052","dag":"25511","label_bn":"25511","area_sqm":14659.7},"geometry":{"type":"Polygon","coordinates":[[[90.314351,23.805799],[90.314323,23.805821],[90.314143,23.80576],[90.314023,23.805724],[90.313902,23.805688],[90.313662,23.805639],[90.313591,23.805628],[90.313592,23.805494],[90.313552,23.80532],[90.313506,23.805234],[90.313444,23.805152],[90.313362,23.804926],[90.313361,23.804926],[90.31336,23.804926],[90.313356,23.804925],[90.313337,23.804919],[90.313311,23.804864],[90.313263,23.80477],[90.313218,23.804698],[90.313206,23.804612],[90.313211,23.804523],[90.313224,23.804399],[90.313225,23.804393],[90.313239,23.804349],[90.313266,23.804266],[90.313269,23.804239],[90.313352,23.804247],[90.313418,23.804257],[90.313483,23.804271],[90.31361,23.804312],[90.313676,23.80433],[90.313821,23.804364],[90.313921,23.804381],[90.314081,23.804425],[90.314151,23.804446],[90.314242,23.804489],[90.314274,23.804503],[90.314257,23.804541],[90.314238,23.804577],[90.314205,23.804641],[90.314174,23.804682],[90.31417,23.804697],[90.314175,23.804723],[90.314187,23.804789],[90.314228,23.80492],[90.314254,23.804986],[90.314284,23.805058],[90.31432,23.805129],[90.314331,23.805144],[90.314338,23.805157],[90.314348,23.805178],[90.314355,23.805203],[90.314377,23.805211],[90.314411,23.805226],[90.314438,23.805239],[90.314453,23.805256],[90.314479,23.805269],[90.314485,23.805274],[90.314485,23.805288],[90.314489,23.805302],[90.314495,23.805319],[90.314506,23.805337],[90.314566,23.805427],[90.314615,23.805508],[90.314602,23.805537],[90.31457,23.80556],[90.31441,23.805674],[90.314363,23.805757],[90.314351,23.805799]]]}},{"type":"Feature","properties":{"survey":"bds","sheet":"052","dag":"25503","label_bn":"25503","area_sqm":1370.5},"geometry":{"type":"Polygon","coordinates":[[[90.315576,23.805811],[90.315517,23.806013],[90.315379,23.806002],[90.315243,23.805919],[90.315372,23.805477],[90.315563,23.805545],[90.315511,23.805716],[90.315577,23.805753],[90.315576,23.805811]]]}},{"type":"Feature","properties":{"survey":"bds","sheet":"052","dag":"25502","label_bn":"25502","area_sqm":3699.5},"geometry":{"type":"Polygon","coordinates":[[[90.315823,23.806072],[90.315807,23.806144],[90.315571,23.806037],[90.315517,23.806013],[90.315576,23.805811],[90.315577,23.805753],[90.315511,23.805716],[90.315563,23.805545],[90.315372,23.805477],[90.315394,23.805373],[90.315479,23.805322],[90.315543,23.805308],[90.315623,23.805291],[90.315988,23.805416],[90.316017,23.805517],[90.316014,23.805549],[90.316007,23.80561],[90.316002,23.805646],[90.315823,23.806072]]]}},{"type":"Feature","properties":{"survey":"bds","sheet":"052","dag":"25504","label_bn":"25504","area_sqm":2550.6},"geometry":{"type":"Polygon","coordinates":[[[90.315278,23.80609],[90.315235,23.806759],[90.31523,23.806741],[90.315215,23.806688],[90.315212,23.80662],[90.31521,23.806593],[90.315208,23.806551],[90.315216,23.806448],[90.315224,23.806344],[90.315223,23.806334],[90.31522,23.806278],[90.315215,23.806211],[90.315187,23.806139],[90.315173,23.806105],[90.315109,23.805989],[90.314963,23.805861],[90.314935,23.805812],[90.3149,23.805723],[90.314908,23.805722],[90.314922,23.805718],[90.314934,23.805707],[90.314934,23.805696],[90.314912,23.805685],[90.314843,23.805665],[90.314812,23.80566],[90.314801,23.805655],[90.314721,23.805607],[90.314718,23.805605],[90.314719,23.805605],[90.315372,23.805477],[90.315243,23.805919],[90.315379,23.806002],[90.315354,23.806024],[90.315278,23.80609]]]}},{"type":"Feature","properties":{"survey":"bds","sheet":"052","dag":"25501","label_bn":"25501","area_sqm":7863.2},"geometry":{"type":"Polygon","coordinates":[[[90.315246,23.807691],[90.315243,23.807692],[90.315238,23.807668],[90.315214,23.807551],[90.315209,23.807492],[90.315174,23.807401],[90.315139,23.807309],[90.315129,23.807269],[90.315118,23.807228],[90.315114,23.807182],[90.315112,23.807148],[90.315111,23.807137],[90.315156,23.807121],[90.3152,23.807106],[90.315257,23.807086],[90.315308,23.807068],[90.315313,23.807067],[90.315313,23.807023],[90.315302,23.806933],[90.31528,23.80688],[90.315273,23.806863],[90.315258,23.806828],[90.315244,23.806793],[90.315235,23.806759],[90.315278,23.80609],[90.315354,23.806024],[90.315379,23.806002],[90.315517,23.806013],[90.315571,23.806037],[90.315807,23.806144],[90.315868,23.806323],[90.315883,23.806368],[90.315875,23.806431],[90.315816,23.80664],[90.315734,23.806837],[90.315716,23.80689],[90.315663,23.806946],[90.315663,23.806946],[90.315536,23.807047],[90.315509,23.807147],[90.315508,23.807151],[90.315421,23.807517],[90.31539,23.807638],[90.315246,23.807691]]]}}]}