{"type":"FeatureCollection","features":[{"type":"Feature","properties":{"survey":"bds","sheet":"053","dag":"26018","label_bn":"26018","area_sqm":16554.6},"geometry":{"type":"Polygon","coordinates":[[[90.310339,23.804363],[90.310209,23.804376],[90.310185,23.804327],[90.310154,23.80426],[90.31009,23.804148],[90.310036,23.804045],[90.309971,23.803903],[90.309935,23.803823],[90.309918,23.803793],[90.309906,23.803772],[90.309886,23.803737],[90.309924,23.803771],[90.309959,23.803784],[90.310066,23.803824],[90.310164,23.803841],[90.310358,23.8038],[90.31037,23.803798],[90.310645,23.803765],[90.310889,23.803703],[90.311167,23.80369],[90.311543,23.803701],[90.311895,23.803692],[90.312195,23.803699],[90.312197,23.803699],[90.312293,23.803693],[90.312766,23.803664],[90.312826,23.803763],[90.31297,23.804002],[90.313082,23.804186],[90.312847,23.804179],[90.31278,23.804152],[90.312581,23.80413],[90.312449,23.804133],[90.312397,23.804152],[90.31227,23.804175],[90.312144,23.804199],[90.311981,23.804215],[90.31192,23.804155],[90.311606,23.804145],[90.31156,23.804144],[90.31131,23.804159],[90.311268,23.804189],[90.311243,23.804232],[90.311228,23.804256],[90.311167,23.804262],[90.310891,23.804283],[90.310625,23.804324],[90.310339,23.804363]]]}},{"type":"Feature","properties":{"survey":"bds","sheet":"053","dag":"26013","label_bn":"26013","area_sqm":12837.4},"geometry":{"type":"Polygon","coordinates":[[[90.308982,23.805026],[90.309035,23.805138],[90.308963,23.80512],[90.308776,23.805072],[90.308766,23.805068],[90.308684,23.805036],[90.308613,23.804995],[90.308514,23.804906],[90.308294,23.804661],[90.308411,23.804595],[90.308521,23.804533],[90.308606,23.804481],[90.308749,23.804386],[90.308872,23.804303],[90.308953,23.804244],[90.309013,23.804197],[90.309083,23.804132],[90.309151,23.80406],[90.309231,23.803986],[90.309255,23.803981],[90.309311,23.803977],[90.309394,23.803973],[90.309495,23.803952],[90.309552,23.803937],[90.309612,23.803913],[90.309652,23.803889],[90.30969,23.803863],[90.309733,23.803844],[90.309809,23.803826],[90.309862,23.803808],[90.309918,23.803793],[90.309935,23.803823],[90.309971,23.803903],[90.310036,23.804045],[90.31009,23.804148],[90.310154,23.80426],[90.310185,23.804327],[90.310209,23.804376],[90.310079,23.80439],[90.309806,23.804481],[90.309138,23.804872],[90.308982,23.805026]]]}},{"type":"Feature","properties":{"survey":"bds","sheet":"053","dag":"26015","label_bn":"26015","area_sqm":8091.1},"geometry":{"type":"Polygon","coordinates":[[[90.31065,23.805142],[90.310496,23.805144],[90.310349,23.80514],[90.310406,23.805064],[90.310455,23.805023],[90.310457,23.80497],[90.310409,23.804849],[90.310244,23.804592],[90.31012,23.804428],[90.310079,23.80439],[90.310209,23.804376],[90.310339,23.804363],[90.310625,23.804324],[90.310891,23.804283],[90.311167,23.804262],[90.311228,23.804256],[90.311205,23.805054],[90.311191,23.805059],[90.31065,23.805089],[90.31065,23.805142]]]}},{"type":"Feature","properties":{"survey":"bds","sheet":"053","dag":"26014","label_bn":"26014","area_sqm":7469.8},"geometry":{"type":"Polygon","coordinates":[[[90.310349,23.80514],[90.310306,23.80516],[90.309936,23.805118],[90.309922,23.805099],[90.309841,23.805078],[90.309724,23.805091],[90.30932,23.805087],[90.309115,23.805081],[90.308982,23.805026],[90.309138,23.804872],[90.309806,23.804481],[90.310079,23.80439],[90.31012,23.804428],[90.310244,23.804592],[90.310409,23.804849],[90.310457,23.80497],[90.310455,23.805023],[90.310406,23.805064],[90.310349,23.80514]]]}},{"type":"Feature","properties":{"survey":"bds","sheet":"053","dag":"26012","label_bn":"26012","area_sqm":337.1},"geometry":{"type":"Polygon","coordinates":[[[90.30932,23.805087],[90.30932,23.805211],[90.309035,23.805138],[90.308982,23.805026],[90.309115,23.805081],[90.30932,23.805087]]]}},{"type":"Feature","properties":{"survey":"bds","sheet":"053","dag":"26016","label_bn":"26016","area_sqm":533.5},"geometry":{"type":"Polygon","coordinates":[[[90.310544,23.80522],[90.310506,23.805351],[90.310496,23.805144],[90.31065,23.805142],[90.31065,23.805089],[90.311191,23.805059],[90.311054,23.805105],[90.310713,23.805213],[90.310587,23.805143],[90.310544,23.80522]]]}},{"type":"Feature","properties":{"survey":"bds","sheet":"053","dag":"26011","label_bn":"26011","area_sqm":2153.9},"geometry":{"type":"Polygon","coordinates":[[[90.309936,23.805118],[90.30988,23.805434],[90.309575,23.805422],[90.309363,23.805414],[90.309367,23.805362],[90.309347,23.805218],[90.30932,23.805211],[90.30932,23.805087],[90.309724,23.805091],[90.309841,23.805078],[90.309922,23.805099],[90.309936,23.805118]]]}},{"type":"Feature","properties":{"survey":"bds","sheet":"053","dag":"26010","label_bn":"26010","area_sqm":2022.5},"geometry":{"type":"Polygon","coordinates":[[[90.310472,23.805467],[90.310476,23.805471],[90.310328,23.805457],[90.310215,23.805428],[90.310057,23.805431],[90.30988,23.805434],[90.309936,23.805118],[90.310306,23.80516],[90.310349,23.80514],[90.310496,23.805144],[90.310506,23.805351],[90.310472,23.805467]]]}},{"type":"Feature","properties":{"survey":"bds","sheet":"053","dag":"26003","label_bn":"26003","area_sqm":529.2},"geometry":{"type":"Polygon","coordinates":[[[90.309575,23.805422],[90.30954,23.805636],[90.30934,23.80563],[90.309338,23.805616],[90.309335,23.805487],[90.309363,23.805417],[90.309363,23.805414],[90.309575,23.805422]]]}},{"type":"Feature","properties":{"survey":"bds","sheet":"053","dag":"26008","label_bn":"26008","area_sqm":173.5},"geometry":{"type":"Polygon","coordinates":[[[90.310599,23.805623],[90.310646,23.80571],[90.310499,23.805705],[90.31051,23.805513],[90.310599,23.805623]]]}},{"type":"Feature","properties":{"survey":"bds","sheet":"053","dag":"26009","label_bn":"26009","area_sqm":1295.0},"geometry":{"type":"Polygon","coordinates":[[[90.310499,23.805705],[90.310094,23.805724],[90.310057,23.805431],[90.310215,23.805428],[90.310328,23.805457],[90.310476,23.805471],[90.31051,23.805513],[90.310499,23.805705]]]}},{"type":"Feature","properties":{"survey":"bds","sheet":"053","dag":"26004","label_bn":"26004","area_sqm":1721.2},"geometry":{"type":"Polygon","coordinates":[[[90.309856,23.805726],[90.309614,23.805736],[90.309594,23.805672],[90.30954,23.805636],[90.309575,23.805422],[90.30988,23.805434],[90.310057,23.805431],[90.310094,23.805724],[90.309856,23.805726]]]}},{"type":"Feature","properties":{"survey":"bds","sheet":"053","dag":"26007","label_bn":"26007","area_sqm":57.5},"geometry":{"type":"Polygon","coordinates":[[[90.310608,23.805738],[90.310497,23.805746],[90.310499,23.805705],[90.310646,23.80571],[90.31066,23.805734],[90.310608,23.805738]]]}},{"type":"Feature","properties":{"survey":"bds","sheet":"053","dag":"26002","label_bn":"26002","area_sqm":317.9},"geometry":{"type":"Polygon","coordinates":[[[90.309547,23.805741],[90.30935,23.805757],[90.30934,23.80563],[90.30954,23.805636],[90.309594,23.805672],[90.309614,23.805736],[90.309547,23.805741]]]}},{"type":"Feature","properties":{"survey":"bds","sheet":"053","dag":"26006","label_bn":"26006","area_sqm":332.4},"geometry":{"type":"Polygon","coordinates":[[[90.310343,23.805757],[90.309855,23.805779],[90.309856,23.805726],[90.310094,23.805724],[90.310499,23.805705],[90.310497,23.805746],[90.310343,23.805757]]]}},{"type":"Feature","properties":{"survey":"bds","sheet":"053","dag":"26005","label_bn":"26005","area_sqm":182.9},"geometry":{"type":"Polygon","coordinates":[[[90.30971,23.805785],[90.309545,23.805789],[90.309547,23.805741],[90.309614,23.805736],[90.309856,23.805726],[90.309855,23.805779],[90.30971,23.805785]]]}},{"type":"Feature","properties":{"survey":"bds","sheet":"053","dag":"26001","label_bn":"26001","area_sqm":93.5},"geometry":{"type":"Polygon","coordinates":[[[90.309545,23.805789],[90.309354,23.805794],[90.30935,23.805757],[90.309547,23.805741],[90.309545,23.805789]]]}},{"type":"Feature","properties":{"survey":"bds","sheet":"053","dag":"26017","label_bn":"26017","area_sqm":45721.8},"geometry":{"type":"Polygon","coordinates":[[[90.312592,23.806455],[90.312523,23.806457],[90.312487,23.806362],[90.312359,23.806326],[90.312284,23.806295],[90.312228,23.806272],[90.312205,23.80611],[90.312174,23.806012],[90.312105,23.805893],[90.311949,23.805672],[90.311604,23.805788],[90.311594,23.805637],[90.311597,23.805311],[90.311585,23.805032],[90.311383,23.804993],[90.311205,23.805054],[90.311228,23.804256],[90.311243,23.804232],[90.311268,23.804189],[90.31131,23.804159],[90.31156,23.804144],[90.311606,23.804145],[90.31192,23.804155],[90.311981,23.804215],[90.312144,23.804199],[90.31227,23.804175],[90.312397,23.804152],[90.312449,23.804133],[90.312581,23.80413],[90.31278,23.804152],[90.312847,23.804179],[90.313082,23.804186],[90.313248,23.804211],[90.313272,23.804221],[90.313269,23.804239],[90.313266,23.804266],[90.313239,23.804349],[90.313225,23.804393],[90.313224,23.804399],[90.313211,23.804523],[90.313206,23.804612],[90.313218,23.804698],[90.313263,23.80477],[90.313311,23.804864],[90.313337,23.804919],[90.31336,23.804926],[90.313361,23.804926],[90.313362,23.804926],[90.313444,23.805152],[90.313506,23.805234],[90.313552,23.80532],[90.313592,23.805494],[90.313591,23.805628],[90.313565,23.805624],[90.313551,23.805822],[90.313516,23.806036],[90.313421,23.806421],[90.313227,23.806436],[90.31308,23.806441],[90.312837,23.806449],[90.312592,23.806455]]]}}]}