{"type":"FeatureCollection","features":[{"type":"Feature","properties":{"survey":"bds","sheet":"054","dag":"26506","label_bn":"26506","area_sqm":1351.1},"geometry":{"type":"Polygon","coordinates":[[[90.308709,23.801136],[90.308638,23.801172],[90.308616,23.801143],[90.308681,23.80108],[90.308755,23.800998],[90.308863,23.800959],[90.309072,23.800944],[90.309174,23.80092],[90.309216,23.800885],[90.309545,23.800882],[90.309692,23.800917],[90.309631,23.800943],[90.309549,23.800973],[90.309473,23.800993],[90.309383,23.801019],[90.309313,23.801039],[90.309281,23.801048],[90.309234,23.801057],[90.309155,23.801066],[90.309047,23.801073],[90.30893,23.801073],[90.308852,23.801072],[90.308799,23.80109],[90.30875,23.801112],[90.308709,23.801136]]]}},{"type":"Feature","properties":{"survey":"bds","sheet":"054","dag":"26505","label_bn":"26505","area_sqm":893.0},"geometry":{"type":"Polygon","coordinates":[[[90.309503,23.801457],[90.309486,23.801477],[90.309393,23.801396],[90.309313,23.801325],[90.309228,23.801256],[90.309153,23.8012],[90.309096,23.801162],[90.309072,23.801142],[90.309056,23.801133],[90.309034,23.801131],[90.308951,23.801131],[90.308887,23.801134],[90.308848,23.801142],[90.308811,23.801156],[90.308765,23.801182],[90.308692,23.801236],[90.308638,23.801172],[90.308709,23.801136],[90.30875,23.801112],[90.308799,23.80109],[90.308852,23.801072],[90.30893,23.801073],[90.309047,23.801073],[90.309155,23.801066],[90.309234,23.801057],[90.309281,23.801048],[90.309313,23.801039],[90.309383,23.801019],[90.309473,23.800993],[90.309549,23.800973],[90.309631,23.800943],[90.309692,23.800917],[90.309819,23.800955],[90.309803,23.800959],[90.309713,23.800984],[90.309648,23.801],[90.30959,23.801006],[90.309552,23.801012],[90.309509,23.80102],[90.309462,23.801032],[90.309366,23.801059],[90.309282,23.801082],[90.309213,23.801102],[90.309147,23.801131],[90.309175,23.801161],[90.309208,23.801192],[90.309297,23.801273],[90.309345,23.801317],[90.309406,23.801367],[90.309464,23.801419],[90.309503,23.801457]]]}},{"type":"Feature","properties":{"survey":"bds","sheet":"054","dag":"26504","label_bn":"26504","area_sqm":40166.3},"geometry":{"type":"Polygon","coordinates":[[[90.309599,23.802184],[90.309333,23.802323],[90.309301,23.802246],[90.309277,23.802189],[90.309233,23.802143],[90.309119,23.802036],[90.309071,23.80199],[90.309053,23.801967],[90.308964,23.801827],[90.308914,23.801761],[90.308874,23.80169],[90.308863,23.801673],[90.308829,23.801586],[90.30879,23.801506],[90.308766,23.801452],[90.30874,23.801388],[90.308724,23.801352],[90.30871,23.801298],[90.308696,23.801246],[90.308692,23.801236],[90.308765,23.801182],[90.308811,23.801156],[90.308848,23.801142],[90.308887,23.801134],[90.308951,23.801131],[90.309034,23.801131],[90.309056,23.801133],[90.309072,23.801142],[90.309096,23.801162],[90.309153,23.8012],[90.309228,23.801256],[90.309313,23.801325],[90.309393,23.801396],[90.309486,23.801477],[90.309503,23.801457],[90.309464,23.801419],[90.309406,23.801367],[90.309345,23.801317],[90.309297,23.801273],[90.309208,23.801192],[90.309175,23.801161],[90.309147,23.801131],[90.309213,23.801102],[90.309282,23.801082],[90.309366,23.801059],[90.309462,23.801032],[90.309509,23.80102],[90.309552,23.801012],[90.30959,23.801006],[90.309648,23.801],[90.309713,23.800984],[90.309803,23.800959],[90.309819,23.800955],[90.309946,23.800994],[90.310332,23.801094],[90.310558,23.80113],[90.311074,23.801118],[90.311338,23.800981],[90.312442,23.800909],[90.312449,23.800954],[90.312492,23.80115],[90.312518,23.801308],[90.312521,23.801396],[90.312497,23.801623],[90.31252,23.801694],[90.312482,23.801777],[90.312426,23.801829],[90.312203,23.801875],[90.311932,23.801902],[90.311797,23.801886],[90.31155,23.801874],[90.311329,23.80188],[90.311252,23.802081],[90.31077,23.802048],[90.310534,23.802075],[90.310485,23.802055],[90.310352,23.802045],[90.310073,23.801991],[90.30987,23.801987],[90.309699,23.802048],[90.3096,23.802183],[90.309599,23.802184]]]}},{"type":"Feature","properties":{"survey":"bds","sheet":"054","dag":"26503","label_bn":"26503","area_sqm":1144.2},"geometry":{"type":"Polygon","coordinates":[[[90.312293,23.803693],[90.312196,23.803699],[90.312212,23.803646],[90.312214,23.803625],[90.312209,23.803581],[90.312184,23.803435],[90.312185,23.80333],[90.312233,23.803302],[90.312344,23.803252],[90.312417,23.803228],[90.31242,23.803159],[90.312419,23.803121],[90.312334,23.803125],[90.312273,23.803125],[90.312186,23.803115],[90.312106,23.8031],[90.312076,23.803089],[90.312069,23.80305],[90.312075,23.803],[90.312104,23.802925],[90.312123,23.802888],[90.312162,23.802894],[90.312208,23.802896],[90.31225,23.802896],[90.312284,23.80289],[90.312307,23.80288],[90.312317,23.802866],[90.312324,23.80285],[90.312328,23.802828],[90.312331,23.802794],[90.31233,23.802761],[90.312324,23.802729],[90.31231,23.802678],[90.312286,23.802625],[90.312265,23.802586],[90.312247,23.802562],[90.312216,23.802518],[90.312204,23.802497],[90.312086,23.802487],[90.31199,23.802479],[90.31197,23.802478],[90.311967,23.80243],[90.312023,23.80243],[90.312095,23.802439],[90.312166,23.802456],[90.312244,23.802482],[90.312267,23.802493],[90.312277,23.802511],[90.312287,23.80253],[90.312321,23.802584],[90.312344,23.802641],[90.312369,23.802734],[90.312375,23.802785],[90.312376,23.802844],[90.312371,23.802879],[90.312364,23.802893],[90.312349,23.802909],[90.312323,23.80292],[90.312298,23.802927],[90.312245,23.802935],[90.312197,23.802935],[90.312154,23.802933],[90.31213,23.802995],[90.312125,23.803046],[90.312125,23.803067],[90.312173,23.80308],[90.312261,23.803086],[90.312354,23.803083],[90.3124,23.803074],[90.312456,23.803059],[90.312464,23.803086],[90.312475,23.80318],[90.312484,23.80324],[90.31241,23.803275],[90.312345,23.803305],[90.312305,23.803321],[90.312217,23.803356],[90.312237,23.80348],[90.312254,23.803546],[90.312282,23.803652],[90.312293,23.803693]]]}},{"type":"Feature","properties":{"survey":"bds","sheet":"054","dag":"26501","label_bn":"26501","area_sqm":5132.6},"geometry":{"type":"Polygon","coordinates":[[[90.310053,23.80367],[90.310089,23.803828],[90.310066,23.803824],[90.309924,23.803771],[90.309886,23.803737],[90.309877,23.803721],[90.309869,23.803696],[90.309836,23.803633],[90.309804,23.803569],[90.30976,23.803474],[90.30973,23.803348],[90.309703,23.803254],[90.309688,23.80318],[90.309667,23.803121],[90.309656,23.803096],[90.309649,23.803078],[90.309631,23.803043],[90.309616,23.803014],[90.309592,23.802971],[90.309568,23.802929],[90.309538,23.802879],[90.309513,23.802843],[90.309488,23.802806],[90.309481,23.802797],[90.309477,23.802791],[90.309466,23.802775],[90.309446,23.802733],[90.309426,23.80269],[90.309411,23.80265],[90.309396,23.80261],[90.309374,23.802564],[90.309367,23.802545],[90.309364,23.802536],[90.30936,23.802526],[90.309343,23.802491],[90.309326,23.802458],[90.309256,23.802385],[90.309242,23.802371],[90.309179,23.802306],[90.309104,23.802222],[90.309057,23.802168],[90.309043,23.802152],[90.30903,23.802136],[90.308999,23.802097],[90.308967,23.802058],[90.308941,23.802025],[90.308925,23.801998],[90.30891,23.801971],[90.308873,23.801916],[90.308829,23.801842],[90.308786,23.801775],[90.308759,23.801733],[90.308732,23.801692],[90.308724,23.80168],[90.308692,23.801639],[90.308669,23.801599],[90.308647,23.801558],[90.308623,23.801526],[90.3086,23.801493],[90.308585,23.80147],[90.30857,23.801447],[90.308556,23.801422],[90.308541,23.801395],[90.308526,23.801368],[90.308499,23.801324],[90.308476,23.801292],[90.308478,23.801285],[90.308478,23.801274],[90.308542,23.801215],[90.308616,23.801143],[90.308638,23.801172],[90.308692,23.801236],[90.308696,23.801246],[90.30871,23.801298],[90.308724,23.801352],[90.30874,23.801388],[90.308766,23.801452],[90.30879,23.801506],[90.308829,23.801586],[90.308863,23.801673],[90.308874,23.80169],[90.308914,23.801761],[90.308964,23.801827],[90.309053,23.801967],[90.309071,23.80199],[90.309119,23.802036],[90.309233,23.802143],[90.309277,23.802189],[90.309301,23.802246],[90.309333,23.802323],[90.309333,23.802323],[90.309402,23.802444],[90.309449,23.80253],[90.309487,23.80259],[90.309542,23.80266],[90.309639,23.802799],[90.309712,23.802898],[90.309728,23.802917],[90.309736,23.802924],[90.309762,23.802952],[90.30978,23.802978],[90.309836,23.803055],[90.309858,23.803092],[90.30989,23.803166],[90.309943,23.803295],[90.309984,23.803421],[90.309988,23.803439],[90.310053,23.80367]]]}},{"type":"Feature","properties":{"survey":"bds","sheet":"054","dag":"26502","label_bn":"26502","area_sqm":61585.0},"geometry":{"type":"Polygon","coordinates":[[[90.31037,23.803798],[90.310164,23.803841],[90.310089,23.803828],[90.310053,23.80367],[90.309988,23.803439],[90.309984,23.803421],[90.309943,23.803295],[90.30989,23.803166],[90.309858,23.803092],[90.309836,23.803055],[90.30978,23.802978],[90.309762,23.802952],[90.309736,23.802924],[90.309728,23.802917],[90.309712,23.802898],[90.309639,23.802799],[90.309542,23.80266],[90.309487,23.80259],[90.309449,23.80253],[90.309402,23.802444],[90.309333,23.802323],[90.309333,23.802323],[90.309599,23.802184],[90.3096,23.802183],[90.309699,23.802048],[90.30987,23.801987],[90.310073,23.801991],[90.310352,23.802045],[90.310485,23.802055],[90.310534,23.802075],[90.31077,23.802048],[90.311252,23.802081],[90.311329,23.80188],[90.31155,23.801874],[90.311797,23.801886],[90.311932,23.801902],[90.312203,23.801875],[90.312426,23.801829],[90.312482,23.801777],[90.31252,23.801694],[90.312611,23.801736],[90.312741,23.801743],[90.312912,23.801729],[90.312766,23.803664],[90.312293,23.803693],[90.312282,23.803652],[90.312254,23.803546],[90.312237,23.80348],[90.312217,23.803356],[90.312305,23.803321],[90.312345,23.803305],[90.31241,23.803275],[90.312484,23.80324],[90.312475,23.80318],[90.312464,23.803086],[90.312456,23.803059],[90.3124,23.803074],[90.312354,23.803083],[90.312261,23.803086],[90.312173,23.80308],[90.312125,23.803067],[90.312125,23.803046],[90.31213,23.802995],[90.312154,23.802933],[90.312197,23.802935],[90.312245,23.802935],[90.312298,23.802927],[90.312323,23.80292],[90.312349,23.802909],[90.312364,23.802893],[90.312371,23.802879],[90.312376,23.802844],[90.312375,23.802785],[90.312369,23.802734],[90.312344,23.802641],[90.312321,23.802584],[90.312287,23.80253],[90.312277,23.802511],[90.312267,23.802493],[90.312244,23.802482],[90.312166,23.802456],[90.312095,23.802439],[90.312023,23.80243],[90.311967,23.80243],[90.31197,23.802478],[90.31199,23.802479],[90.312086,23.802487],[90.312204,23.802497],[90.312216,23.802518],[90.312247,23.802562],[90.312265,23.802586],[90.312286,23.802625],[90.31231,23.802678],[90.312324,23.802729],[90.31233,23.802761],[90.312331,23.802794],[90.312328,23.802828],[90.312324,23.80285],[90.312317,23.802866],[90.312307,23.80288],[90.312284,23.80289],[90.31225,23.802896],[90.312208,23.802896],[90.312162,23.802894],[90.312123,23.802888],[90.312104,23.802925],[90.312075,23.803],[90.312069,23.80305],[90.312076,23.803089],[90.312106,23.8031],[90.312186,23.803115],[90.312273,23.803125],[90.312334,23.803125],[90.312419,23.803121],[90.31242,23.803159],[90.312417,23.803228],[90.312344,23.803252],[90.312233,23.803302],[90.312185,23.80333],[90.312184,23.803435],[90.312209,23.803581],[90.312214,23.803625],[90.312212,23.803646],[90.312196,23.803699],[90.311895,23.803692],[90.311543,23.803701],[90.311167,23.80369],[90.310889,23.803703],[90.310645,23.803765],[90.31037,23.803798]]]}}]}