{"type":"FeatureCollection","features":[{"type":"Feature","properties":{"survey":"bds","sheet":"055","dag":"27004","label_bn":"27004","area_sqm":2701.2},"geometry":{"type":"Polygon","coordinates":[[[90.31378,23.80168],[90.313722,23.801681],[90.313723,23.801678],[90.313724,23.801625],[90.313696,23.801616],[90.313719,23.801604],[90.313731,23.801598],[90.313763,23.801572],[90.313851,23.801485],[90.313953,23.801376],[90.313996,23.801315],[90.314009,23.801281],[90.314018,23.801216],[90.314033,23.801117],[90.314047,23.800977],[90.314063,23.800853],[90.314062,23.800756],[90.314045,23.800671],[90.31402,23.800597],[90.313979,23.800484],[90.313957,23.800427],[90.313925,23.800361],[90.313899,23.800317],[90.313882,23.800275],[90.313874,23.800234],[90.31385,23.80014],[90.313834,23.800082],[90.313832,23.800021],[90.313818,23.799891],[90.313792,23.799766],[90.314005,23.799761],[90.31403,23.799925],[90.314044,23.800037],[90.314046,23.80008],[90.314064,23.800182],[90.314112,23.800331],[90.314161,23.800466],[90.314154,23.800511],[90.314145,23.800579],[90.31414,23.800642],[90.31412,23.800707],[90.314109,23.800749],[90.314106,23.800831],[90.314099,23.801013],[90.314083,23.801209],[90.314067,23.801263],[90.314114,23.801278],[90.31418,23.801299],[90.314162,23.80133],[90.314151,23.801347],[90.314144,23.801351],[90.314115,23.801341],[90.314057,23.801333],[90.313988,23.801395],[90.313929,23.801451],[90.313882,23.801497],[90.313847,23.801551],[90.313796,23.801641],[90.31378,23.80168]]]}},{"type":"Feature","properties":{"survey":"bds","sheet":"055","dag":"27003","label_bn":"27003","area_sqm":29476.8},"geometry":{"type":"Polygon","coordinates":[[[90.313652,23.801682],[90.31351,23.801694],[90.313376,23.801635],[90.313376,23.801635],[90.313262,23.801608],[90.312987,23.801623],[90.312708,23.80165],[90.312626,23.801622],[90.312592,23.801528],[90.312579,23.801304],[90.312554,23.801139],[90.312517,23.800954],[90.312502,23.800851],[90.312512,23.800746],[90.312527,23.800591],[90.31254,23.800412],[90.312536,23.80026],[90.312521,23.799988],[90.312511,23.799861],[90.312503,23.799798],[90.313792,23.799766],[90.313818,23.799891],[90.313832,23.800021],[90.313834,23.800082],[90.31385,23.80014],[90.313874,23.800234],[90.313882,23.800275],[90.313899,23.800317],[90.313925,23.800361],[90.313957,23.800427],[90.313979,23.800484],[90.31402,23.800597],[90.314045,23.800671],[90.314062,23.800756],[90.314063,23.800853],[90.314047,23.800977],[90.314033,23.801117],[90.314018,23.801216],[90.314009,23.801281],[90.313996,23.801315],[90.313953,23.801376],[90.313851,23.801485],[90.313763,23.801572],[90.313731,23.801598],[90.313719,23.801604],[90.313696,23.801616],[90.313724,23.801625],[90.313723,23.801678],[90.313722,23.801681],[90.313652,23.801682]]]}},{"type":"Feature","properties":{"survey":"bds","sheet":"055","dag":"27005","label_bn":"27005","area_sqm":21648.3},"geometry":{"type":"Polygon","coordinates":[[[90.314841,23.801655],[90.314773,23.801713],[90.314764,23.801691],[90.314374,23.801674],[90.313855,23.801679],[90.31378,23.80168],[90.313796,23.801641],[90.313847,23.801551],[90.313882,23.801497],[90.313929,23.801451],[90.313988,23.801395],[90.314057,23.801333],[90.314115,23.801341],[90.314144,23.801351],[90.314151,23.801347],[90.314162,23.80133],[90.31418,23.801299],[90.314114,23.801278],[90.314067,23.801263],[90.314083,23.801209],[90.314099,23.801013],[90.314106,23.800831],[90.314109,23.800749],[90.31412,23.800707],[90.31414,23.800642],[90.314145,23.800579],[90.314154,23.800511],[90.314161,23.800466],[90.314112,23.800331],[90.314064,23.800182],[90.314046,23.80008],[90.314044,23.800037],[90.31403,23.799925],[90.314005,23.799761],[90.315275,23.799729],[90.31492,23.801198],[90.314899,23.801346],[90.314869,23.801569],[90.314841,23.801655]]]}},{"type":"Feature","properties":{"survey":"bds","sheet":"055","dag":"27002","label_bn":"27002","area_sqm":2393.1},"geometry":{"type":"Polygon","coordinates":[[[90.312912,23.801729],[90.312741,23.801743],[90.312611,23.801736],[90.31252,23.801694],[90.312497,23.801623],[90.312521,23.801396],[90.312518,23.801308],[90.312492,23.80115],[90.312449,23.800954],[90.312435,23.800865],[90.312435,23.800865],[90.312443,23.80069],[90.31245,23.80056],[90.312456,23.800392],[90.312452,23.800259],[90.312467,23.80013],[90.312467,23.799908],[90.312449,23.799835],[90.312503,23.799798],[90.312511,23.799861],[90.312521,23.799988],[90.312536,23.80026],[90.31254,23.800412],[90.312527,23.800591],[90.312512,23.800746],[90.312502,23.800851],[90.312517,23.800954],[90.312554,23.801139],[90.312579,23.801304],[90.312592,23.801528],[90.312626,23.801622],[90.312708,23.80165],[90.312987,23.801623],[90.313262,23.801608],[90.313376,23.801635],[90.313376,23.801635],[90.31351,23.801694],[90.313122,23.801699],[90.312912,23.801729]]]}},{"type":"Feature","properties":{"survey":"bds","sheet":"055","dag":"27009","label_bn":"27009","area_sqm":26968.4},"geometry":{"type":"Polygon","coordinates":[[[90.315004,23.802773],[90.314991,23.80281],[90.31491,23.802797],[90.314803,23.80277],[90.314795,23.802588],[90.314806,23.802366],[90.314818,23.802006],[90.314782,23.801735],[90.314773,23.801713],[90.314841,23.801655],[90.314869,23.801569],[90.314899,23.801346],[90.31492,23.801198],[90.315275,23.799729],[90.315398,23.799752],[90.315624,23.799746],[90.31568,23.799758],[90.315766,23.799819],[90.315797,23.799883],[90.315829,23.800104],[90.315847,23.800228],[90.31587,23.800277],[90.315876,23.800442],[90.315909,23.800574],[90.315969,23.800679],[90.315858,23.801928],[90.31573,23.801924],[90.315607,23.801965],[90.315594,23.802018],[90.315376,23.802207],[90.315348,23.802254],[90.315354,23.802411],[90.315334,23.802563],[90.315239,23.802653],[90.315168,23.802704],[90.315028,23.80275],[90.315004,23.802773]]]}},{"type":"Feature","properties":{"survey":"bds","sheet":"055","dag":"27008","label_bn":"27008","area_sqm":9879.9},"geometry":{"type":"Polygon","coordinates":[[[90.31558,23.803489],[90.314971,23.803663],[90.315001,23.803314],[90.315002,23.80313],[90.314997,23.802981],[90.314991,23.80281],[90.315004,23.802773],[90.315028,23.80275],[90.315168,23.802704],[90.315239,23.802653],[90.315334,23.802563],[90.315354,23.802411],[90.315348,23.802254],[90.315376,23.802207],[90.315594,23.802018],[90.315607,23.801965],[90.31573,23.801924],[90.315858,23.801928],[90.315851,23.802027],[90.31558,23.803489]]]}},{"type":"Feature","properties":{"survey":"bds","sheet":"055","dag":"27001","label_bn":"27001","area_sqm":18368.1},"geometry":{"type":"Polygon","coordinates":[[[90.313386,23.803709],[90.313368,23.803718],[90.312766,23.803664],[90.312912,23.801729],[90.313122,23.801699],[90.31351,23.801694],[90.313652,23.801682],[90.313722,23.801681],[90.313675,23.801877],[90.313607,23.802133],[90.313545,23.80234],[90.313524,23.802384],[90.313512,23.802409],[90.313513,23.802424],[90.313515,23.802486],[90.313514,23.802605],[90.313489,23.802807],[90.313482,23.802892],[90.313556,23.802939],[90.313679,23.803022],[90.313862,23.803152],[90.313912,23.803194],[90.313898,23.803261],[90.313889,23.803301],[90.313842,23.803425],[90.313813,23.803511],[90.313797,23.803551],[90.313775,23.803598],[90.313727,23.803607],[90.313673,23.803618],[90.313552,23.803653],[90.313433,23.803691],[90.313386,23.803709]]]}},{"type":"Feature","properties":{"survey":"bds","sheet":"055","dag":"27006","label_bn":"27006","area_sqm":1471.6},"geometry":{"type":"Polygon","coordinates":[[[90.31356,23.803687],[90.313552,23.803734],[90.313368,23.803718],[90.313386,23.803709],[90.313433,23.803691],[90.313552,23.803653],[90.313673,23.803618],[90.313727,23.803607],[90.313775,23.803598],[90.313797,23.803551],[90.313813,23.803511],[90.313842,23.803425],[90.313889,23.803301],[90.313898,23.803261],[90.313912,23.803194],[90.313862,23.803152],[90.313679,23.803022],[90.313556,23.802939],[90.313482,23.802892],[90.313489,23.802807],[90.313514,23.802605],[90.313515,23.802486],[90.313513,23.802424],[90.313512,23.802409],[90.313524,23.802384],[90.313545,23.80234],[90.313607,23.802133],[90.313675,23.801877],[90.313722,23.801681],[90.31378,23.80168],[90.313766,23.801716],[90.313734,23.801814],[90.313686,23.802004],[90.313652,23.802103],[90.313631,23.802186],[90.313613,23.802271],[90.313595,23.80232],[90.313578,23.802364],[90.313553,23.802449],[90.313553,23.802498],[90.313562,23.80261],[90.313586,23.802759],[90.313607,23.802931],[90.313654,23.802964],[90.313775,23.803047],[90.313851,23.803097],[90.313936,23.803159],[90.313982,23.803196],[90.313995,23.80321],[90.313984,23.803233],[90.313955,23.803287],[90.313935,23.803342],[90.313872,23.803483],[90.313839,23.803561],[90.3138,23.803646],[90.313762,23.803655],[90.31371,23.803665],[90.313624,23.803675],[90.31356,23.803687]]]}},{"type":"Feature","properties":{"survey":"bds","sheet":"055","dag":"27007","label_bn":"27007","area_sqm":27938.8},"geometry":{"type":"Polygon","coordinates":[[[90.314971,23.803663],[90.314514,23.803817],[90.313822,23.803758],[90.313552,23.803734],[90.31356,23.803687],[90.313624,23.803675],[90.31371,23.803665],[90.313762,23.803655],[90.3138,23.803646],[90.313839,23.803561],[90.313872,23.803483],[90.313935,23.803342],[90.313955,23.803287],[90.313984,23.803233],[90.313995,23.80321],[90.313982,23.803196],[90.313936,23.803159],[90.313851,23.803097],[90.313775,23.803047],[90.313654,23.802964],[90.313607,23.802931],[90.313586,23.802759],[90.313562,23.80261],[90.313553,23.802498],[90.313553,23.802449],[90.313578,23.802364],[90.313595,23.80232],[90.313613,23.802271],[90.313631,23.802186],[90.313652,23.802103],[90.313686,23.802004],[90.313734,23.801814],[90.313766,23.801716],[90.31378,23.80168],[90.313855,23.801679],[90.314374,23.801674],[90.314764,23.801691],[90.314773,23.801713],[90.314782,23.801735],[90.314818,23.802006],[90.314806,23.802366],[90.314795,23.802588],[90.314803,23.80277],[90.31491,23.802797],[90.314991,23.80281],[90.314997,23.802981],[90.315002,23.80313],[90.315001,23.803314],[90.314971,23.803663]]]}}]}