{"type":"FeatureCollection","features":[{"type":"Feature","properties":{"survey":"bds","sheet":"056","dag":"27561","label_bn":"27561","area_sqm":11.9},"geometry":{"type":"Polygon","coordinates":[[[90.318712,23.799414],[90.318702,23.799478],[90.31869,23.799468],[90.318693,23.799405],[90.318712,23.799414]]]}},{"type":"Feature","properties":{"survey":"bds","sheet":"056","dag":"27559","label_bn":"27559","area_sqm":63.1},"geometry":{"type":"Polygon","coordinates":[[[90.31869,23.799468],[90.318689,23.799505],[90.318684,23.799502],[90.318619,23.799456],[90.318604,23.799451],[90.318541,23.799452],[90.318468,23.799457],[90.318398,23.79946],[90.3184,23.799459],[90.318463,23.799437],[90.318508,23.79943],[90.318572,23.79943],[90.318687,23.799465],[90.31869,23.799468]]]}},{"type":"Feature","properties":{"survey":"bds","sheet":"056","dag":"27558","label_bn":"27558","area_sqm":7.6},"geometry":{"type":"Polygon","coordinates":[[[90.31871,23.799506],[90.31871,23.799519],[90.318708,23.799518],[90.318689,23.799505],[90.31869,23.799468],[90.318702,23.799478],[90.318708,23.799499],[90.31871,23.799506]]]}},{"type":"Feature","properties":{"survey":"bds","sheet":"056","dag":"27557","label_bn":"27557","area_sqm":12.8},"geometry":{"type":"Polygon","coordinates":[[[90.31871,23.799519],[90.318707,23.799569],[90.318706,23.799568],[90.318686,23.79956],[90.318689,23.799505],[90.318708,23.799518],[90.31871,23.799519]]]}},{"type":"Feature","properties":{"survey":"bds","sheet":"056","dag":"27556","label_bn":"27556","area_sqm":226.8},"geometry":{"type":"Polygon","coordinates":[[[90.318257,23.799583],[90.318234,23.799601],[90.318349,23.799494],[90.318398,23.79946],[90.318468,23.799457],[90.318541,23.799452],[90.318604,23.799451],[90.318619,23.799456],[90.318684,23.799502],[90.318689,23.799505],[90.318686,23.79956],[90.318623,23.799533],[90.318551,23.799515],[90.318482,23.799506],[90.318435,23.799506],[90.318379,23.799512],[90.318339,23.799518],[90.318319,23.79953],[90.318257,23.799583]]]}},{"type":"Feature","properties":{"survey":"bds","sheet":"056","dag":"27555","label_bn":"27555","area_sqm":32.9},"geometry":{"type":"Polygon","coordinates":[[[90.318699,23.799678],[90.318679,23.79974],[90.318686,23.79956],[90.318706,23.799568],[90.318707,23.799569],[90.318706,23.799591],[90.318704,23.799636],[90.318703,23.799665],[90.318702,23.79967],[90.318699,23.799678]]]}},{"type":"Feature","properties":{"survey":"bds","sheet":"056","dag":"27560","label_bn":"27560","area_sqm":692.5},"geometry":{"type":"Polygon","coordinates":[[[90.317783,23.799853],[90.317653,23.799878],[90.317651,23.79984],[90.31765,23.799828],[90.31768,23.799822],[90.317863,23.799786],[90.317993,23.799727],[90.31812,23.799626],[90.318323,23.799462],[90.31839,23.799407],[90.318536,23.799374],[90.318634,23.799379],[90.318693,23.799405],[90.31869,23.799468],[90.318687,23.799465],[90.318572,23.79943],[90.318508,23.79943],[90.318463,23.799437],[90.3184,23.799459],[90.318398,23.79946],[90.318349,23.799494],[90.318234,23.799601],[90.318153,23.799677],[90.31809,23.799721],[90.31802,23.79977],[90.317904,23.799824],[90.317871,23.799832],[90.317783,23.799853]]]}},{"type":"Feature","properties":{"survey":"bds","sheet":"056","dag":"27509","label_bn":"27509","area_sqm":133.2},"geometry":{"type":"Polygon","coordinates":[[[90.317041,23.800151],[90.316952,23.800157],[90.316908,23.800117],[90.31686,23.800065],[90.316834,23.800034],[90.316834,23.800033],[90.316862,23.800037],[90.31694,23.800058],[90.317044,23.800127],[90.317055,23.800134],[90.317053,23.80015],[90.317041,23.800151]]]}},{"type":"Feature","properties":{"survey":"bds","sheet":"056","dag":"27508","label_bn":"27508","area_sqm":91.8},"geometry":{"type":"Polygon","coordinates":[[[90.316952,23.800157],[90.31691,23.800159],[90.316846,23.800113],[90.316801,23.800074],[90.316775,23.800047],[90.316748,23.80002],[90.316834,23.800033],[90.316834,23.800034],[90.31686,23.800065],[90.316908,23.800117],[90.316952,23.800157]]]}},{"type":"Feature","properties":{"survey":"bds","sheet":"056","dag":"27513","label_bn":"27513","area_sqm":77.5},"geometry":{"type":"Polygon","coordinates":[[[90.317155,23.800179],[90.317107,23.800199],[90.317113,23.800153],[90.317114,23.800144],[90.317136,23.800141],[90.31717,23.800136],[90.317388,23.800106],[90.317367,23.800115],[90.317317,23.800127],[90.317191,23.800168],[90.317162,23.800177],[90.317155,23.800179]]]}},{"type":"Feature","properties":{"survey":"bds","sheet":"056","dag":"27510","label_bn":"27510","area_sqm":35.9},"geometry":{"type":"Polygon","coordinates":[[[90.317012,23.8002],[90.317002,23.8002],[90.316987,23.800187],[90.316955,23.800159],[90.316952,23.800157],[90.317041,23.800151],[90.317053,23.80015],[90.317049,23.800183],[90.317036,23.800189],[90.317012,23.8002]]]}},{"type":"Feature","properties":{"survey":"bds","sheet":"056","dag":"27512","label_bn":"27512","area_sqm":46.1},"geometry":{"type":"Polygon","coordinates":[[[90.317113,23.800153],[90.317107,23.800199],[90.317076,23.800212],[90.317044,23.800226],[90.317049,23.800183],[90.317053,23.80015],[90.317055,23.800134],[90.317077,23.800149],[90.317114,23.800144],[90.317113,23.800153]]]}},{"type":"Feature","properties":{"survey":"bds","sheet":"056","dag":"27507","label_bn":"27507","area_sqm":2810.2},"geometry":{"type":"Polygon","coordinates":[[[90.315924,23.800265],[90.31587,23.800277],[90.315847,23.800228],[90.315829,23.800104],[90.315797,23.799883],[90.315886,23.799896],[90.316106,23.799928],[90.316445,23.799977],[90.316748,23.80002],[90.316775,23.800047],[90.316801,23.800074],[90.316846,23.800113],[90.31691,23.800159],[90.316515,23.800183],[90.316248,23.8002],[90.31594,23.800262],[90.315924,23.800265]]]}},{"type":"Feature","properties":{"survey":"bds","sheet":"056","dag":"27511","label_bn":"27511","area_sqm":377.2},"geometry":{"type":"Polygon","coordinates":[[[90.316717,23.80054],[90.316682,23.800562],[90.316654,23.800493],[90.316766,23.800457],[90.316816,23.800446],[90.316905,23.800423],[90.316957,23.800403],[90.316975,23.800323],[90.316985,23.800283],[90.316993,23.800239],[90.316993,23.800227],[90.316985,23.800218],[90.316915,23.800163],[90.31691,23.800159],[90.316952,23.800157],[90.316955,23.800159],[90.316987,23.800187],[90.317002,23.8002],[90.317012,23.8002],[90.317036,23.800189],[90.317049,23.800183],[90.317044,23.800226],[90.317022,23.800418],[90.316956,23.800453],[90.316874,23.800484],[90.316779,23.800516],[90.316732,23.800533],[90.316717,23.80054]]]}},{"type":"Feature","properties":{"survey":"bds","sheet":"056","dag":"27553","label_bn":"27553","area_sqm":105.1},"geometry":{"type":"Polygon","coordinates":[[[90.318665,23.800861],[90.318651,23.80089],[90.318644,23.80089],[90.318646,23.800855],[90.318658,23.800405],[90.318674,23.800531],[90.318674,23.800533],[90.318675,23.800733],[90.318668,23.800855],[90.318665,23.800861]]]}},{"type":"Feature","properties":{"survey":"bds","sheet":"056","dag":"27554","label_bn":"27554","area_sqm":15676.9},"geometry":{"type":"Polygon","coordinates":[[[90.318572,23.800889],[90.318355,23.800902],[90.31813,23.800848],[90.318076,23.800835],[90.31805,23.800828],[90.317835,23.8008],[90.317642,23.800809],[90.317568,23.800831],[90.317467,23.800859],[90.317396,23.800879],[90.317394,23.800698],[90.31739,23.800342],[90.317388,23.800106],[90.31763,23.800072],[90.317643,23.799962],[90.317653,23.799878],[90.317783,23.799853],[90.317871,23.799832],[90.317904,23.799824],[90.31802,23.79977],[90.31809,23.799721],[90.318153,23.799677],[90.318234,23.799601],[90.318257,23.799583],[90.318319,23.79953],[90.318339,23.799518],[90.318379,23.799512],[90.318435,23.799506],[90.318482,23.799506],[90.318551,23.799515],[90.318623,23.799533],[90.318686,23.79956],[90.318679,23.79974],[90.318669,23.799773],[90.318661,23.799915],[90.318644,23.800181],[90.318646,23.800214],[90.318654,23.800379],[90.318658,23.800405],[90.318646,23.800855],[90.318644,23.80089],[90.318641,23.80089],[90.318572,23.800889]]]}},{"type":"Feature","properties":{"survey":"bds","sheet":"056","dag":"27514","label_bn":"27514","area_sqm":2093.4},"geometry":{"type":"Polygon","coordinates":[[[90.317246,23.80092],[90.317103,23.800932],[90.317124,23.800795],[90.317147,23.800628],[90.317159,23.800509],[90.317166,23.800432],[90.317191,23.800168],[90.317317,23.800127],[90.317367,23.800115],[90.317388,23.800106],[90.31739,23.800342],[90.317394,23.800698],[90.317396,23.800879],[90.317246,23.80092]]]}},{"type":"Feature","properties":{"survey":"bds","sheet":"056","dag":"275552","label_bn":"275552","area_sqm":4292.2},"geometry":{"type":"Polygon","coordinates":[[[90.318641,23.800937],[90.318633,23.800984],[90.318611,23.801201],[90.318595,23.801454],[90.318589,23.801631],[90.318476,23.801617],[90.31833,23.801598],[90.318151,23.801563],[90.318078,23.801548],[90.318033,23.801543],[90.318045,23.801445],[90.318071,23.801285],[90.318088,23.801139],[90.318113,23.800971],[90.31813,23.800848],[90.318355,23.800902],[90.318572,23.800889],[90.318641,23.80089],[90.318644,23.80089],[90.318651,23.80089],[90.318641,23.800937]]]}},{"type":"Feature","properties":{"survey":"bds","sheet":"056","dag":"27518","label_bn":"27518","area_sqm":719.0},"geometry":{"type":"Polygon","coordinates":[[[90.317031,23.800938],[90.317023,23.800942],[90.317107,23.800199],[90.317155,23.800179],[90.317162,23.800177],[90.317191,23.800168],[90.317166,23.800432],[90.317159,23.800509],[90.317147,23.800628],[90.317124,23.800795],[90.317103,23.800932],[90.317031,23.800938]]]}},{"type":"Feature","properties":{"survey":"bds","sheet":"056","dag":"27519","label_bn":"27519","area_sqm":507.6},"geometry":{"type":"Polygon","coordinates":[[[90.317023,23.800942],[90.316959,23.800971],[90.317022,23.800418],[90.317044,23.800226],[90.317076,23.800212],[90.317107,23.800199],[90.317023,23.800942]]]}},{"type":"Feature","properties":{"survey":"bds","sheet":"056","dag":"27520","label_bn":"27520","area_sqm":8288.0},"geometry":{"type":"Polygon","coordinates":[[[90.316852,23.801065],[90.316817,23.801067],[90.316812,23.801066],[90.316608,23.801034],[90.316516,23.801008],[90.31642,23.800956],[90.316264,23.800847],[90.316122,23.800749],[90.316055,23.800697],[90.315998,23.800633],[90.315969,23.800569],[90.31596,23.80055],[90.315959,23.800542],[90.315924,23.800265],[90.31594,23.800262],[90.316248,23.8002],[90.316515,23.800183],[90.31691,23.800159],[90.316915,23.800163],[90.316985,23.800218],[90.316993,23.800227],[90.316993,23.800239],[90.316985,23.800283],[90.316975,23.800323],[90.316957,23.800403],[90.316905,23.800423],[90.316816,23.800446],[90.316766,23.800457],[90.316654,23.800493],[90.316682,23.800562],[90.316717,23.80054],[90.316732,23.800533],[90.316779,23.800516],[90.316874,23.800484],[90.316956,23.800453],[90.317022,23.800418],[90.316959,23.800971],[90.316921,23.80099],[90.316878,23.801041],[90.316852,23.801065]]]}},{"type":"Feature","properties":{"survey":"bds","sheet":"056","dag":"27551","label_bn":"27551","area_sqm":113.6},"geometry":{"type":"Polygon","coordinates":[[[90.318641,23.800937],[90.318604,23.801633],[90.318589,23.801631],[90.318595,23.801454],[90.318611,23.801201],[90.318633,23.800984],[90.318641,23.800937]]]}},{"type":"Feature","properties":{"survey":"bds","sheet":"056","dag":"27550","label_bn":"27550","area_sqm":300.9},"geometry":{"type":"Polygon","coordinates":[[[90.318625,23.801614],[90.318624,23.801636],[90.318624,23.801636],[90.318604,23.801633],[90.318641,23.800937],[90.318651,23.80089],[90.318664,23.80089],[90.318708,23.800888],[90.318695,23.80099],[90.318677,23.801136],[90.318636,23.801403],[90.318635,23.801414],[90.318625,23.801614]]]}},{"type":"Feature","properties":{"survey":"bds","sheet":"056","dag":"27549","label_bn":"27549","area_sqm":73.5},"geometry":{"type":"Polygon","coordinates":[[[90.318583,23.801853],[90.318562,23.801858],[90.3186,23.801713],[90.318604,23.801633],[90.318624,23.801636],[90.318624,23.801636],[90.318614,23.801847],[90.318584,23.801853],[90.318583,23.801853]]]}},{"type":"Feature","properties":{"survey":"bds","sheet":"056","dag":"27548","label_bn":"27548","area_sqm":126.1},"geometry":{"type":"Polygon","coordinates":[[[90.318539,23.802021],[90.318518,23.802025],[90.318562,23.801858],[90.318583,23.801853],[90.318584,23.801853],[90.318614,23.801847],[90.318618,23.801909],[90.318592,23.802013],[90.318581,23.802014],[90.318539,23.802021]]]}},{"type":"Feature","properties":{"survey":"bds","sheet":"056","dag":"27547","label_bn":"27547","area_sqm":284.4},"geometry":{"type":"Polygon","coordinates":[[[90.31847,23.802032],[90.318373,23.802043],[90.318376,23.801985],[90.318375,23.801977],[90.318384,23.801894],[90.318562,23.801858],[90.318518,23.802025],[90.31847,23.802032]]]}},{"type":"Feature","properties":{"survey":"bds","sheet":"056","dag":"27521","label_bn":"27521","area_sqm":556.2},"geometry":{"type":"Polygon","coordinates":[[[90.316938,23.801154],[90.316826,23.802102],[90.316826,23.80207],[90.31682,23.801994],[90.316809,23.801926],[90.316839,23.801683],[90.31688,23.801242],[90.316877,23.801142],[90.316817,23.801067],[90.316852,23.801065],[90.316878,23.801041],[90.316921,23.80099],[90.316959,23.800971],[90.316938,23.801154]]]}},{"type":"Feature","properties":{"survey":"bds","sheet":"056","dag":"27515","label_bn":"27515","area_sqm":2239.0},"geometry":{"type":"Polygon","coordinates":[[[90.317568,23.800831],[90.31738,23.802124],[90.317297,23.802105],[90.317265,23.802098],[90.317233,23.802099],[90.317249,23.801979],[90.317385,23.800967],[90.317396,23.800879],[90.317467,23.800859],[90.317568,23.800831]]]}},{"type":"Feature","properties":{"survey":"bds","sheet":"056","dag":"27522","label_bn":"27522","area_sqm":815.6},"geometry":{"type":"Polygon","coordinates":[[[90.316998,23.80116],[90.316881,23.802148],[90.316837,23.802152],[90.31682,23.802153],[90.316815,23.802154],[90.316824,23.802127],[90.316826,23.802102],[90.316938,23.801154],[90.316959,23.800971],[90.317023,23.800942],[90.316998,23.80116]]]}},{"type":"Feature","properties":{"survey":"bds","sheet":"056","dag":"27505","label_bn":"27505","area_sqm":10982.8},"geometry":{"type":"Polygon","coordinates":[[[90.316209,23.802137],[90.316173,23.802131],[90.316165,23.80213],[90.316113,23.802122],[90.316072,23.802084],[90.315996,23.802073],[90.315851,23.802027],[90.315858,23.801928],[90.315858,23.801928],[90.315863,23.801879],[90.31588,23.80169],[90.315969,23.800679],[90.315978,23.800688],[90.316101,23.800814],[90.316155,23.80085],[90.316276,23.800931],[90.316441,23.801041],[90.316715,23.801102],[90.316786,23.801134],[90.316797,23.801176],[90.316802,23.801195],[90.316817,23.801406],[90.316757,23.801965],[90.316757,23.801965],[90.316702,23.801995],[90.316683,23.802005],[90.316538,23.802023],[90.316262,23.80201],[90.316209,23.802137]]]}},{"type":"Feature","properties":{"survey":"bds","sheet":"056","dag":"27516","label_bn":"27516","area_sqm":3733.4},"geometry":{"type":"Polygon","coordinates":[[[90.317096,23.802122],[90.316954,23.802141],[90.316985,23.801981],[90.317005,23.801886],[90.31702,23.80182],[90.317028,23.801691],[90.317034,23.801588],[90.317043,23.801517],[90.317045,23.801443],[90.317054,23.80133],[90.317075,23.801132],[90.317097,23.80097],[90.317103,23.800932],[90.317246,23.80092],[90.317396,23.800879],[90.317385,23.800967],[90.317249,23.801979],[90.317233,23.802099],[90.317096,23.802122]]]}},{"type":"Feature","properties":{"survey":"bds","sheet":"056","dag":"27517","label_bn":"27517","area_sqm":1136.5},"geometry":{"type":"Polygon","coordinates":[[[90.316954,23.802141],[90.316881,23.802148],[90.316998,23.80116],[90.317023,23.800942],[90.317031,23.800938],[90.317103,23.800932],[90.317097,23.80097],[90.317075,23.801132],[90.317054,23.80133],[90.317045,23.801443],[90.317043,23.801517],[90.317034,23.801588],[90.317028,23.801691],[90.31702,23.80182],[90.317005,23.801886],[90.316985,23.801981],[90.316954,23.802141]]]}},{"type":"Feature","properties":{"survey":"bds","sheet":"056","dag":"27506","label_bn":"27506","area_sqm":1553.1},"geometry":{"type":"Polygon","coordinates":[[[90.316824,23.802127],[90.316815,23.802154],[90.316767,23.802145],[90.316771,23.802075],[90.316768,23.801995],[90.316757,23.801965],[90.316757,23.801965],[90.316817,23.801406],[90.316802,23.801195],[90.316797,23.801176],[90.316786,23.801134],[90.316715,23.801102],[90.316441,23.801041],[90.316276,23.800931],[90.316155,23.80085],[90.316101,23.800814],[90.315978,23.800688],[90.315969,23.800679],[90.315909,23.800574],[90.315901,23.800545],[90.315876,23.800442],[90.31587,23.800277],[90.315924,23.800265],[90.315959,23.800542],[90.31596,23.80055],[90.315969,23.800569],[90.315998,23.800633],[90.316055,23.800697],[90.316122,23.800749],[90.316264,23.800847],[90.31642,23.800956],[90.316516,23.801008],[90.316608,23.801034],[90.316812,23.801066],[90.316817,23.801067],[90.316877,23.801142],[90.31688,23.801242],[90.316839,23.801683],[90.316809,23.801926],[90.31682,23.801994],[90.316826,23.80207],[90.316826,23.802102],[90.316824,23.802127]]]}},{"type":"Feature","properties":{"survey":"bds","sheet":"056","dag":"27537","label_bn":"27537","area_sqm":8297.6},"geometry":{"type":"Polygon","coordinates":[[[90.317894,23.802077],[90.317883,23.802159],[90.31787,23.802156],[90.31786,23.802154],[90.317796,23.802148],[90.317711,23.802148],[90.317626,23.802149],[90.317561,23.802146],[90.317474,23.802139],[90.317423,23.802133],[90.31738,23.802124],[90.317568,23.800831],[90.317642,23.800809],[90.317835,23.8008],[90.31805,23.800828],[90.318076,23.800835],[90.31813,23.800848],[90.318113,23.800971],[90.318088,23.801139],[90.318071,23.801285],[90.318045,23.801445],[90.318033,23.801543],[90.31802,23.801622],[90.318001,23.801691],[90.317973,23.801761],[90.317946,23.801845],[90.317914,23.801944],[90.317904,23.801994],[90.317894,23.802077]]]}},{"type":"Feature","properties":{"survey":"bds","sheet":"056","dag":"27546","label_bn":"27546","area_sqm":132.6},"geometry":{"type":"Polygon","coordinates":[[[90.318502,23.802163],[90.318481,23.802164],[90.318518,23.802025],[90.318539,23.802021],[90.318581,23.802014],[90.318592,23.802013],[90.318584,23.802086],[90.318583,23.802095],[90.318576,23.802157],[90.318565,23.802158],[90.318502,23.802163]]]}},{"type":"Feature","properties":{"survey":"bds","sheet":"056","dag":"27538","label_bn":"27538","area_sqm":3726.0},"geometry":{"type":"Polygon","coordinates":[[[90.318213,23.802176],[90.318153,23.802177],[90.318009,23.802168],[90.317883,23.802159],[90.317894,23.802077],[90.317904,23.801994],[90.317914,23.801944],[90.317946,23.801845],[90.317973,23.801761],[90.318001,23.801691],[90.31802,23.801622],[90.318033,23.801543],[90.318078,23.801548],[90.318151,23.801563],[90.31833,23.801598],[90.318476,23.801617],[90.318589,23.801631],[90.318604,23.801633],[90.3186,23.801713],[90.318562,23.801858],[90.318384,23.801894],[90.318375,23.801977],[90.318376,23.801985],[90.318373,23.802043],[90.31847,23.802032],[90.318518,23.802025],[90.318481,23.802164],[90.3184,23.802171],[90.318242,23.802175],[90.318213,23.802176]]]}},{"type":"Feature","properties":{"survey":"bds","sheet":"056","dag":"27523","label_bn":"27523","area_sqm":107.4},"geometry":{"type":"Polygon","coordinates":[[[90.316857,23.802306],[90.316802,23.802311],[90.31682,23.802153],[90.316837,23.802152],[90.316881,23.802148],[90.316863,23.802306],[90.316857,23.802306]]]}},{"type":"Feature","properties":{"survey":"bds","sheet":"056","dag":"27526","label_bn":"27526","area_sqm":56.8},"geometry":{"type":"Polygon","coordinates":[[[90.316802,23.802311],[90.316744,23.802317],[90.316777,23.802235],[90.316808,23.802177],[90.316815,23.802154],[90.31682,23.802153],[90.316802,23.802311]]]}},{"type":"Feature","properties":{"survey":"bds","sheet":"056","dag":"27504","label_bn":"27504","area_sqm":1692.7},"geometry":{"type":"Polygon","coordinates":[[[90.316242,23.802341],[90.316236,23.802344],[90.316238,23.802322],[90.316254,23.802272],[90.316265,23.802247],[90.31628,23.802224],[90.3163,23.802186],[90.316243,23.802175],[90.31622,23.802163],[90.316173,23.802131],[90.316209,23.802137],[90.316262,23.80201],[90.316538,23.802023],[90.316683,23.802005],[90.316702,23.801995],[90.316757,23.801965],[90.316768,23.801995],[90.316771,23.802075],[90.316767,23.802145],[90.316761,23.802157],[90.316745,23.802191],[90.316715,23.802252],[90.316659,23.802291],[90.316468,23.80231],[90.316456,23.802311],[90.3163,23.802326],[90.316242,23.802341]]]}},{"type":"Feature","properties":{"survey":"bds","sheet":"056","dag":"27536","label_bn":"27536","area_sqm":2853.0},"geometry":{"type":"Polygon","coordinates":[[[90.317638,23.802413],[90.317422,23.802415],[90.317215,23.802409],[90.317126,23.802406],[90.317055,23.802365],[90.316952,23.802312],[90.316863,23.802306],[90.316881,23.802148],[90.316954,23.802141],[90.317096,23.802122],[90.317233,23.802099],[90.317265,23.802098],[90.317297,23.802105],[90.31738,23.802124],[90.317423,23.802133],[90.317474,23.802139],[90.317561,23.802146],[90.317626,23.802149],[90.317711,23.802148],[90.317796,23.802148],[90.31786,23.802154],[90.31787,23.802156],[90.317803,23.802404],[90.317638,23.802413]]]}},{"type":"Feature","properties":{"survey":"bds","sheet":"056","dag":"27530","label_bn":"27530","area_sqm":2438.2},"geometry":{"type":"Polygon","coordinates":[[[90.316757,23.802429],[90.316766,23.80249],[90.316606,23.803258],[90.316557,23.80326],[90.316546,23.80322],[90.316533,23.803176],[90.316516,23.803055],[90.31651,23.802989],[90.316505,23.8029],[90.316506,23.802757],[90.316495,23.802633],[90.316483,23.802542],[90.316412,23.802522],[90.316308,23.802491],[90.316227,23.802473],[90.316226,23.802459],[90.316223,23.802417],[90.316222,23.802417],[90.316231,23.802405],[90.316248,23.802382],[90.316295,23.802368],[90.316371,23.802353],[90.31646,23.802346],[90.316663,23.802331],[90.316731,23.802319],[90.316757,23.802429]]]}},{"type":"Feature","properties":{"survey":"bds","sheet":"056","dag":"27525","label_bn":"27525","area_sqm":68.4},"geometry":{"type":"Polygon","coordinates":[[[90.3168,23.802329],[90.316766,23.80249],[90.316757,23.802429],[90.316731,23.802319],[90.316744,23.802317],[90.316802,23.802311],[90.3168,23.802329]]]}},{"type":"Feature","properties":{"survey":"bds","sheet":"056","dag":"27503","label_bn":"27503","area_sqm":187.2},"geometry":{"type":"Polygon","coordinates":[[[90.316181,23.802399],[90.316184,23.80249],[90.31618,23.802488],[90.316174,23.802465],[90.316171,23.802441],[90.316187,23.802365],[90.316195,23.80227],[90.316192,23.802234],[90.316172,23.802189],[90.316143,23.802155],[90.316165,23.80213],[90.316173,23.802131],[90.31622,23.802163],[90.316243,23.802175],[90.3163,23.802186],[90.31628,23.802224],[90.316265,23.802247],[90.316254,23.802272],[90.316238,23.802322],[90.316236,23.802344],[90.316211,23.802356],[90.316181,23.802399]]]}},{"type":"Feature","properties":{"survey":"bds","sheet":"056","dag":"27544","label_bn":"27544","area_sqm":924.6},"geometry":{"type":"Polygon","coordinates":[[[90.318568,23.802222],[90.318555,23.802342],[90.3185,23.802482],[90.318478,23.802565],[90.318362,23.803005],[90.318341,23.80301],[90.318322,23.803014],[90.318319,23.802859],[90.318318,23.802788],[90.318481,23.802164],[90.318502,23.802163],[90.318565,23.802158],[90.318576,23.802157],[90.318568,23.802222]]]}},{"type":"Feature","properties":{"survey":"bds","sheet":"056","dag":"27524","label_bn":"27524","area_sqm":183.2},"geometry":{"type":"Polygon","coordinates":[[[90.316859,23.802337],[90.316792,23.802658],[90.316775,23.80255],[90.316766,23.80249],[90.3168,23.802329],[90.316802,23.802311],[90.316857,23.802306],[90.316863,23.802306],[90.316859,23.802337]]]}},{"type":"Feature","properties":{"survey":"bds","sheet":"056","dag":"27545","label_bn":"27545","area_sqm":785.8},"geometry":{"type":"Polygon","coordinates":[[[90.318481,23.802164],[90.318318,23.802788],[90.318314,23.802606],[90.318257,23.802305],[90.318242,23.802175],[90.3184,23.802171],[90.318481,23.802164]]]}},{"type":"Feature","properties":{"survey":"bds","sheet":"056","dag":"27543","label_bn":"27543","area_sqm":141.9},"geometry":{"type":"Polygon","coordinates":[[[90.31837,23.803003],[90.318362,23.803005],[90.318478,23.802565],[90.318414,23.802955],[90.318579,23.802955],[90.31837,23.803003]]]}},{"type":"Feature","properties":{"survey":"bds","sheet":"056","dag":"27540","label_bn":"27540","area_sqm":87.2},"geometry":{"type":"Polygon","coordinates":[[[90.318276,23.803024],[90.318254,23.803028],[90.31826,23.803006],[90.318318,23.802788],[90.318319,23.802859],[90.318322,23.803014],[90.318276,23.803024]]]}},{"type":"Feature","properties":{"survey":"bds","sheet":"056","dag":"27539","label_bn":"27539","area_sqm":4504.6},"geometry":{"type":"Polygon","coordinates":[[[90.317964,23.803093],[90.317901,23.803111],[90.317842,23.802727],[90.317828,23.802642],[90.317803,23.802404],[90.31787,23.802156],[90.317883,23.802159],[90.318009,23.802168],[90.318153,23.802177],[90.318213,23.802176],[90.318242,23.802175],[90.318257,23.802305],[90.318314,23.802606],[90.318318,23.802788],[90.31826,23.803006],[90.318254,23.803028],[90.318109,23.803059],[90.317964,23.803093]]]}},{"type":"Feature","properties":{"survey":"bds","sheet":"056","dag":"27531","label_bn":"27531","area_sqm":475.5},"geometry":{"type":"Polygon","coordinates":[[[90.316792,23.802658],[90.316665,23.803268],[90.316653,23.803265],[90.316606,23.803258],[90.316606,23.803258],[90.316766,23.80249],[90.316775,23.80255],[90.316792,23.802658]]]}},{"type":"Feature","properties":{"survey":"bds","sheet":"056","dag":"27529","label_bn":"27529","area_sqm":522.2},"geometry":{"type":"Polygon","coordinates":[[[90.316557,23.80326],[90.316514,23.803274],[90.316504,23.80323],[90.316497,23.803204],[90.316476,23.803117],[90.316463,23.803051],[90.316457,23.802988],[90.316455,23.802878],[90.316457,23.802704],[90.316456,23.802632],[90.316445,23.802613],[90.316418,23.802592],[90.316345,23.802557],[90.316286,23.802528],[90.31623,23.802508],[90.316227,23.802473],[90.316308,23.802491],[90.316412,23.802522],[90.316483,23.802542],[90.316495,23.802633],[90.316506,23.802757],[90.316505,23.8029],[90.31651,23.802989],[90.316516,23.803055],[90.316533,23.803176],[90.316546,23.80322],[90.316557,23.80326]]]}},{"type":"Feature","properties":{"survey":"bds","sheet":"056","dag":"27528","label_bn":"27528","area_sqm":1658.4},"geometry":{"type":"Polygon","coordinates":[[[90.316334,23.803305],[90.316307,23.803312],[90.316271,23.802964],[90.316247,23.802708],[90.31623,23.802508],[90.316286,23.802528],[90.316345,23.802557],[90.316418,23.802592],[90.316445,23.802613],[90.316456,23.802632],[90.316457,23.802704],[90.316455,23.802878],[90.316457,23.802988],[90.316463,23.803051],[90.316476,23.803117],[90.316497,23.803204],[90.316504,23.80323],[90.316514,23.803274],[90.316334,23.803305]]]}},{"type":"Feature","properties":{"survey":"bds","sheet":"056","dag":"27527","label_bn":"27527","area_sqm":1108.1},"geometry":{"type":"Polygon","coordinates":[[[90.316268,23.803321],[90.316189,23.803325],[90.316189,23.802864],[90.316192,23.802704],[90.316184,23.80249],[90.316181,23.802399],[90.316211,23.802356],[90.316236,23.802344],[90.316242,23.802341],[90.3163,23.802326],[90.316456,23.802311],[90.316468,23.80231],[90.316659,23.802291],[90.316715,23.802252],[90.316745,23.802191],[90.316761,23.802157],[90.316767,23.802145],[90.316815,23.802154],[90.316808,23.802177],[90.316777,23.802235],[90.316744,23.802317],[90.316731,23.802319],[90.316663,23.802331],[90.31646,23.802346],[90.316371,23.802353],[90.316295,23.802368],[90.316248,23.802382],[90.316231,23.802405],[90.316222,23.802417],[90.316223,23.802417],[90.316226,23.802459],[90.316227,23.802473],[90.31623,23.802508],[90.316247,23.802708],[90.316271,23.802964],[90.316307,23.803312],[90.316268,23.803321]]]}},{"type":"Feature","properties":{"survey":"bds","sheet":"056","dag":"27535","label_bn":"27535","area_sqm":9772.2},"geometry":{"type":"Polygon","coordinates":[[[90.316911,23.80332],[90.31688,23.803328],[90.316856,23.803009],[90.316807,23.802755],[90.316792,23.802658],[90.316859,23.802337],[90.316863,23.802306],[90.316952,23.802312],[90.317055,23.802365],[90.317126,23.802406],[90.317215,23.802409],[90.317422,23.802415],[90.317638,23.802413],[90.317803,23.802404],[90.317828,23.802642],[90.317842,23.802727],[90.317901,23.803111],[90.317786,23.803146],[90.317706,23.803174],[90.317669,23.803187],[90.317586,23.803206],[90.317365,23.803244],[90.317093,23.803292],[90.316975,23.803306],[90.316911,23.80332]]]}},{"type":"Feature","properties":{"survey":"bds","sheet":"056","dag":"27534","label_bn":"27534","area_sqm":871.6},"geometry":{"type":"Polygon","coordinates":[[[90.31688,23.803328],[90.316869,23.803331],[90.316834,23.803331],[90.316798,23.80332],[90.316755,23.803305],[90.316712,23.803287],[90.316682,23.803272],[90.316665,23.803268],[90.316792,23.802658],[90.316807,23.802755],[90.316856,23.803009],[90.31688,23.803328]]]}},{"type":"Feature","properties":{"survey":"bds","sheet":"056","dag":"27502","label_bn":"27502","area_sqm":6630.7},"geometry":{"type":"Polygon","coordinates":[[[90.31574,23.803348],[90.315598,23.803392],[90.3158,23.802301],[90.315833,23.802123],[90.315851,23.802027],[90.315996,23.802073],[90.316072,23.802084],[90.316113,23.802122],[90.316165,23.80213],[90.316143,23.802155],[90.316172,23.802189],[90.316192,23.802234],[90.316195,23.80227],[90.316187,23.802365],[90.316171,23.802441],[90.316174,23.802465],[90.31618,23.802488],[90.316184,23.80249],[90.316192,23.802704],[90.316189,23.802864],[90.316189,23.803325],[90.316137,23.803328],[90.316057,23.803338],[90.315946,23.803353],[90.315891,23.803342],[90.315846,23.803325],[90.315828,23.803325],[90.315796,23.803331],[90.31574,23.803348]]]}},{"type":"Feature","properties":{"survey":"bds","sheet":"056","dag":"27542","label_bn":"27542","area_sqm":1816.4},"geometry":{"type":"Polygon","coordinates":[[[90.318633,23.803394],[90.318253,23.803416],[90.318357,23.803027],[90.318362,23.803005],[90.31837,23.803003],[90.318579,23.802955],[90.31868,23.802956],[90.318686,23.803145],[90.318692,23.803366],[90.318674,23.803371],[90.318633,23.803394]]]}},{"type":"Feature","properties":{"survey":"bds","sheet":"056","dag":"27541","label_bn":"27541","area_sqm":466.7},"geometry":{"type":"Polygon","coordinates":[[[90.318174,23.803422],[90.318147,23.80343],[90.318254,23.803028],[90.318276,23.803024],[90.318322,23.803014],[90.318341,23.80301],[90.318362,23.803005],[90.318357,23.803027],[90.318253,23.803416],[90.318174,23.803421],[90.318174,23.803422]]]}},{"type":"Feature","properties":{"survey":"bds","sheet":"056","dag":"27532","label_bn":"27532","area_sqm":250.7},"geometry":{"type":"Polygon","coordinates":[[[90.316665,23.803268],[90.316589,23.803629],[90.31653,23.803622],[90.316606,23.803258],[90.316606,23.803258],[90.316653,23.803265],[90.316665,23.803268]]]}},{"type":"Feature","properties":{"survey":"bds","sheet":"056","dag":"27533","label_bn":"27533","area_sqm":6434.5},"geometry":{"type":"Polygon","coordinates":[[[90.317594,23.803579],[90.316954,23.803646],[90.316846,23.803637],[90.3166,23.803631],[90.316589,23.803629],[90.316665,23.803268],[90.316682,23.803272],[90.316712,23.803287],[90.316755,23.803305],[90.316798,23.80332],[90.316834,23.803331],[90.316869,23.803331],[90.31688,23.803328],[90.316911,23.80332],[90.316975,23.803306],[90.317093,23.803292],[90.317365,23.803244],[90.317586,23.803206],[90.317669,23.803187],[90.317706,23.803174],[90.317786,23.803146],[90.317901,23.803111],[90.317964,23.803093],[90.318109,23.803059],[90.318254,23.803028],[90.318147,23.80343],[90.317855,23.803516],[90.317594,23.803579]]]}},{"type":"Feature","properties":{"survey":"bds","sheet":"056","dag":"27501","label_bn":"27501","area_sqm":5923.5},"geometry":{"type":"Polygon","coordinates":[[[90.31594,23.803737],[90.315515,23.80394],[90.315114,23.803736],[90.315103,23.80373],[90.314971,23.803663],[90.315091,23.803629],[90.315208,23.803596],[90.31558,23.803489],[90.315598,23.803392],[90.31574,23.803348],[90.315796,23.803331],[90.315828,23.803325],[90.315846,23.803325],[90.315891,23.803342],[90.315946,23.803353],[90.316057,23.803338],[90.316137,23.803328],[90.316189,23.803325],[90.316268,23.803321],[90.316307,23.803312],[90.316334,23.803305],[90.316514,23.803274],[90.316557,23.80326],[90.316606,23.803258],[90.31653,23.803622],[90.316478,23.803615],[90.316364,23.803606],[90.316269,23.80362],[90.316082,23.803679],[90.31594,23.803737]]]}}]}