{"type":"FeatureCollection","features":[{"type":"Feature","properties":{"survey":"bds","sheet":"057","dag":"28040","label_bn":"28040","area_sqm":1499.2},"geometry":{"type":"Polygon","coordinates":[[[90.321335,23.799141],[90.321285,23.799142],[90.321281,23.799117],[90.321278,23.798998],[90.321267,23.798926],[90.321223,23.79893],[90.321186,23.798928],[90.321134,23.798933],[90.321065,23.798946],[90.320956,23.798974],[90.320983,23.798907],[90.320998,23.798871],[90.32104,23.798786],[90.321087,23.798693],[90.321114,23.798637],[90.321146,23.798582],[90.321185,23.798603],[90.321218,23.798622],[90.321266,23.798683],[90.321282,23.798698],[90.321326,23.798727],[90.321355,23.798742],[90.321396,23.798752],[90.321426,23.798754],[90.321467,23.798768],[90.321449,23.798804],[90.321431,23.798866],[90.321425,23.798886],[90.321407,23.798997],[90.321396,23.799099],[90.321392,23.799129],[90.321378,23.799137],[90.321335,23.799141]]]}},{"type":"Feature","properties":{"survey":"bds","sheet":"057","dag":"28035","label_bn":"28035","area_sqm":3009.7},"geometry":{"type":"Polygon","coordinates":[[[90.320282,23.799255],[90.320251,23.799258],[90.320193,23.799212],[90.320131,23.799152],[90.320094,23.799098],[90.320062,23.799027],[90.320001,23.798861],[90.319987,23.798817],[90.319985,23.798796],[90.320037,23.798798],[90.320132,23.798795],[90.32021,23.798782],[90.320215,23.798774],[90.320379,23.798823],[90.320459,23.798845],[90.32052,23.798865],[90.320713,23.79893],[90.320724,23.799089],[90.32074,23.79923],[90.320527,23.799248],[90.320282,23.799255]]]}},{"type":"Feature","properties":{"survey":"bds","sheet":"057","dag":"28037","label_bn":"28037","area_sqm":3228.9},"geometry":{"type":"Polygon","coordinates":[[[90.321367,23.799366],[90.321338,23.799462],[90.321162,23.799456],[90.321037,23.799445],[90.320925,23.799437],[90.320788,23.799436],[90.32074,23.79923],[90.320724,23.799089],[90.320713,23.79893],[90.3208,23.798957],[90.32095,23.798988],[90.320956,23.798974],[90.321065,23.798946],[90.321134,23.798933],[90.321186,23.798928],[90.321223,23.79893],[90.321267,23.798926],[90.321278,23.798998],[90.321281,23.799117],[90.321285,23.799142],[90.321302,23.799239],[90.321358,23.799272],[90.321391,23.799296],[90.321367,23.799366]]]}},{"type":"Feature","properties":{"survey":"bds","sheet":"057","dag":"28031","label_bn":"28031","area_sqm":101.7},"geometry":{"type":"Polygon","coordinates":[[[90.31879,23.79945],[90.318785,23.799563],[90.318726,23.79953],[90.31871,23.799519],[90.31871,23.799506],[90.318702,23.799478],[90.318712,23.799414],[90.31879,23.79945]]]}},{"type":"Feature","properties":{"survey":"bds","sheet":"057","dag":"28032","label_bn":"28032","area_sqm":2553.5},"geometry":{"type":"Polygon","coordinates":[[[90.31895,23.799578],[90.318876,23.799616],[90.318854,23.7996],[90.318797,23.799569],[90.318785,23.799563],[90.31879,23.79945],[90.31879,23.79945],[90.31892,23.798542],[90.319168,23.798556],[90.319144,23.798613],[90.319131,23.798652],[90.319073,23.798873],[90.319051,23.79897],[90.319047,23.799001],[90.31904,23.799048],[90.319043,23.799111],[90.319042,23.799174],[90.31904,23.799234],[90.319035,23.7993],[90.319029,23.799369],[90.319025,23.79949],[90.319027,23.799541],[90.31895,23.799578]]]}},{"type":"Feature","properties":{"survey":"bds","sheet":"057","dag":"28030","label_bn":"28030","area_sqm":46.3},"geometry":{"type":"Polygon","coordinates":[[[90.318785,23.799563],[90.318783,23.799622],[90.318714,23.799572],[90.318707,23.799569],[90.31871,23.799519],[90.318726,23.79953],[90.318785,23.799563]]]}},{"type":"Feature","properties":{"survey":"bds","sheet":"057","dag":"28033","label_bn":"28033","area_sqm":3819.7},"geometry":{"type":"Polygon","coordinates":[[[90.319342,23.799327],[90.319253,23.799786],[90.319101,23.799734],[90.319049,23.799707],[90.319032,23.799594],[90.319027,23.799541],[90.319025,23.79949],[90.319029,23.799369],[90.319035,23.7993],[90.31904,23.799234],[90.319042,23.799174],[90.319043,23.799111],[90.31904,23.799048],[90.319047,23.799001],[90.319051,23.79897],[90.319073,23.798873],[90.319131,23.798652],[90.319227,23.798663],[90.319344,23.798677],[90.319463,23.798707],[90.319342,23.799327]]]}},{"type":"Feature","properties":{"survey":"bds","sheet":"057","dag":"28034","label_bn":"28034","area_sqm":10342.8},"geometry":{"type":"Polygon","coordinates":[[[90.320192,23.799935],[90.320177,23.799959],[90.319942,23.799914],[90.319572,23.799853],[90.319359,23.799821],[90.319294,23.7998],[90.319253,23.799786],[90.319342,23.799327],[90.319463,23.798707],[90.319484,23.798712],[90.319531,23.798723],[90.319638,23.798742],[90.319739,23.798757],[90.319834,23.798768],[90.319985,23.798796],[90.319987,23.798817],[90.320001,23.798861],[90.320062,23.799027],[90.320094,23.799098],[90.320131,23.799152],[90.320193,23.799212],[90.320251,23.799258],[90.320256,23.799282],[90.32025,23.799364],[90.32023,23.799494],[90.320213,23.799645],[90.320196,23.799852],[90.320192,23.799935]]]}},{"type":"Feature","properties":{"survey":"bds","sheet":"057","dag":"28036","label_bn":"28036","area_sqm":4178.3},"geometry":{"type":"Polygon","coordinates":[[[90.320675,23.799885],[90.320643,23.799986],[90.320554,23.799982],[90.3204,23.799968],[90.320265,23.79995],[90.320192,23.799935],[90.320196,23.799852],[90.320213,23.799645],[90.32023,23.799494],[90.32025,23.799364],[90.320256,23.799282],[90.320251,23.799258],[90.320282,23.799255],[90.320527,23.799248],[90.32074,23.79923],[90.320788,23.799436],[90.320704,23.79976],[90.320675,23.799885]]]}},{"type":"Feature","properties":{"survey":"bds","sheet":"057","dag":"28038","label_bn":"28038","area_sqm":3570.5},"geometry":{"type":"Polygon","coordinates":[[[90.321263,23.799856],[90.32123,23.800022],[90.321142,23.800013],[90.320996,23.799999],[90.320836,23.799992],[90.320643,23.799986],[90.320675,23.799885],[90.320704,23.79976],[90.320788,23.799436],[90.320925,23.799437],[90.321037,23.799445],[90.321162,23.799456],[90.321338,23.799462],[90.321304,23.799596],[90.321288,23.799699],[90.321263,23.799856]]]}},{"type":"Feature","properties":{"survey":"bds","sheet":"057","dag":"28039","label_bn":"28039","area_sqm":5337.0},"geometry":{"type":"Polygon","coordinates":[[[90.32166,23.800071],[90.321586,23.800108],[90.321484,23.800099],[90.321387,23.800084],[90.32132,23.800068],[90.32129,23.800053],[90.321258,23.800035],[90.32123,23.800022],[90.321263,23.799856],[90.321288,23.799699],[90.321304,23.799596],[90.321338,23.799462],[90.321367,23.799366],[90.321391,23.799296],[90.321358,23.799272],[90.321302,23.799239],[90.321285,23.799142],[90.321335,23.799141],[90.321378,23.799137],[90.321392,23.799129],[90.321396,23.799099],[90.321407,23.798997],[90.321425,23.798886],[90.321431,23.798866],[90.321604,23.798837],[90.321805,23.799896],[90.321659,23.800031],[90.32166,23.800071]]]}},{"type":"Feature","properties":{"survey":"bds","sheet":"057","dag":"28029","label_bn":"28029","area_sqm":2516.6},"geometry":{"type":"Polygon","coordinates":[[[90.320177,23.799959],[90.320135,23.800185],[90.320055,23.800148],[90.319975,23.800121],[90.319871,23.800091],[90.319713,23.800057],[90.319575,23.800025],[90.319502,23.800007],[90.31942,23.799988],[90.319288,23.799963],[90.319207,23.799949],[90.319152,23.799936],[90.319094,23.799877],[90.319022,23.799788],[90.318932,23.799688],[90.318876,23.799616],[90.31895,23.799578],[90.319027,23.799541],[90.319032,23.799594],[90.319049,23.799707],[90.319101,23.799734],[90.319253,23.799786],[90.319294,23.7998],[90.319359,23.799821],[90.319572,23.799853],[90.319942,23.799914],[90.320177,23.799959]]]}},{"type":"Feature","properties":{"survey":"bds","sheet":"057","dag":"28009","label_bn":"28009","area_sqm":90.1},"geometry":{"type":"Polygon","coordinates":[[[90.318667,23.800033],[90.318658,23.800405],[90.318654,23.800379],[90.318644,23.800181],[90.318661,23.799915],[90.318669,23.799773],[90.318679,23.79974],[90.318667,23.800033]]]}},{"type":"Feature","properties":{"survey":"bds","sheet":"057","dag":"28013","label_bn":"28013","area_sqm":5124.2},"geometry":{"type":"Polygon","coordinates":[[[90.319867,23.80075],[90.319834,23.80086],[90.319731,23.800842],[90.319489,23.800811],[90.319402,23.800804],[90.319332,23.800795],[90.319338,23.800742],[90.319336,23.800699],[90.319324,23.800619],[90.319322,23.800486],[90.319328,23.800404],[90.319358,23.800218],[90.31939,23.800041],[90.319454,23.800051],[90.319646,23.80009],[90.319755,23.80011],[90.319836,23.800129],[90.319907,23.800155],[90.320025,23.8002],[90.32005,23.800217],[90.320069,23.800252],[90.32003,23.800348],[90.319982,23.80045],[90.319908,23.800634],[90.319867,23.80075]]]}},{"type":"Feature","properties":{"survey":"bds","sheet":"057","dag":"28028","label_bn":"28028","area_sqm":11426.7},"geometry":{"type":"Polygon","coordinates":[[[90.321637,23.80076],[90.32168,23.800896],[90.321444,23.800839],[90.321366,23.800812],[90.321314,23.800788],[90.321174,23.800734],[90.320938,23.800661],[90.320845,23.800631],[90.320821,23.800623],[90.320694,23.800584],[90.320644,23.800576],[90.320636,23.800628],[90.320615,23.800806],[90.320588,23.800783],[90.320575,23.800767],[90.32053,23.800716],[90.320461,23.800642],[90.320378,23.800544],[90.320328,23.800488],[90.320308,23.800455],[90.320241,23.800361],[90.320218,23.800327],[90.32018,23.800247],[90.320154,23.800202],[90.320135,23.800185],[90.320177,23.799959],[90.320192,23.799935],[90.320265,23.79995],[90.3204,23.799968],[90.320554,23.799982],[90.320643,23.799986],[90.320836,23.799992],[90.320996,23.799999],[90.321142,23.800013],[90.32123,23.800022],[90.321258,23.800035],[90.32129,23.800053],[90.32132,23.800068],[90.321387,23.800084],[90.321484,23.800099],[90.321586,23.800108],[90.32166,23.800071],[90.321662,23.800156],[90.321706,23.800216],[90.32169,23.800261],[90.321693,23.800433],[90.321688,23.800627],[90.321648,23.800671],[90.32164,23.800751],[90.321637,23.80076]]]}},{"type":"Feature","properties":{"survey":"bds","sheet":"057","dag":"28027","label_bn":"28027","area_sqm":709.0},"geometry":{"type":"Polygon","coordinates":[[[90.320845,23.800631],[90.320804,23.800996],[90.320771,23.800961],[90.320687,23.800875],[90.320615,23.800806],[90.320636,23.800628],[90.320644,23.800576],[90.320694,23.800584],[90.320821,23.800623],[90.320845,23.800631]]]}},{"type":"Feature","properties":{"survey":"bds","sheet":"057","dag":"28010","label_bn":"28010","area_sqm":1369.1},"geometry":{"type":"Polygon","coordinates":[[[90.318745,23.800859],[90.318738,23.800995],[90.318695,23.80099],[90.318708,23.800888],[90.318651,23.80089],[90.318668,23.800855],[90.318675,23.800733],[90.318674,23.800533],[90.318658,23.800405],[90.318667,23.800033],[90.318679,23.79974],[90.318703,23.799665],[90.318706,23.799591],[90.318707,23.799569],[90.318714,23.799572],[90.318783,23.799622],[90.318766,23.800035],[90.318745,23.800859]]]}},{"type":"Feature","properties":{"survey":"bds","sheet":"057","dag":"28011","label_bn":"28011","area_sqm":3662.1},"geometry":{"type":"Polygon","coordinates":[[[90.318963,23.800787],[90.318974,23.801014],[90.318835,23.801005],[90.318738,23.800995],[90.318745,23.800859],[90.318766,23.800035],[90.318783,23.799622],[90.318788,23.799626],[90.318848,23.799675],[90.31892,23.799736],[90.318972,23.799787],[90.319005,23.799825],[90.319054,23.799895],[90.319108,23.799968],[90.319066,23.800074],[90.31904,23.800163],[90.319013,23.800279],[90.318997,23.800423],[90.318972,23.80063],[90.318963,23.800787]]]}},{"type":"Feature","properties":{"survey":"bds","sheet":"057","dag":"28012","label_bn":"28012","area_sqm":3895.0},"geometry":{"type":"Polygon","coordinates":[[[90.319263,23.801019],[90.319243,23.801056],[90.319186,23.801044],[90.31913,23.801033],[90.319079,23.801023],[90.319008,23.801014],[90.318974,23.801014],[90.318963,23.800787],[90.318972,23.80063],[90.318997,23.800423],[90.319013,23.800279],[90.31904,23.800163],[90.319066,23.800074],[90.319108,23.799968],[90.319131,23.799983],[90.319163,23.799988],[90.319194,23.799995],[90.319298,23.800024],[90.31939,23.800041],[90.319358,23.800218],[90.319328,23.800404],[90.319322,23.800486],[90.319324,23.800619],[90.319336,23.800699],[90.319338,23.800742],[90.319332,23.800795],[90.319318,23.80085],[90.319286,23.800961],[90.319263,23.801019]]]}},{"type":"Feature","properties":{"survey":"bds","sheet":"057","dag":"28026","label_bn":"28026","area_sqm":2791.0},"geometry":{"type":"Polygon","coordinates":[[[90.321153,23.801282],[90.321132,23.801322],[90.321103,23.801308],[90.321038,23.801244],[90.320969,23.801165],[90.320926,23.801119],[90.320853,23.801049],[90.320804,23.800996],[90.320845,23.800631],[90.320938,23.800661],[90.321174,23.800734],[90.321314,23.800788],[90.321366,23.800812],[90.321444,23.800839],[90.321334,23.800992],[90.321245,23.801139],[90.321153,23.801282]]]}},{"type":"Feature","properties":{"survey":"bds","sheet":"057","dag":"28025","label_bn":"28025","area_sqm":3567.9},"geometry":{"type":"Polygon","coordinates":[[[90.321852,23.801431],[90.321866,23.80156],[90.321764,23.801543],[90.321675,23.801526],[90.321514,23.801481],[90.321316,23.80141],[90.321214,23.80136],[90.321157,23.801336],[90.321132,23.801322],[90.321153,23.801282],[90.321245,23.801139],[90.321334,23.800992],[90.321444,23.800839],[90.32168,23.800896],[90.321852,23.801431]]]}},{"type":"Feature","properties":{"survey":"bds","sheet":"057","dag":"28014","label_bn":"28014","area_sqm":3503.4},"geometry":{"type":"Polygon","coordinates":[[[90.319891,23.801592],[90.319875,23.801624],[90.319852,23.801598],[90.319826,23.80157],[90.319793,23.801549],[90.319806,23.801398],[90.319813,23.801234],[90.31982,23.801086],[90.319818,23.800901],[90.319834,23.80086],[90.319867,23.80075],[90.319908,23.800634],[90.319982,23.80045],[90.32003,23.800348],[90.320069,23.800252],[90.320133,23.800365],[90.320171,23.800437],[90.320204,23.800514],[90.32021,23.800525],[90.320233,23.800555],[90.320207,23.80063],[90.320183,23.800702],[90.320146,23.800835],[90.320122,23.80093],[90.320109,23.801046],[90.320081,23.801178],[90.320043,23.80131],[90.320031,23.801343],[90.319997,23.801407],[90.319929,23.801529],[90.319891,23.801592]]]}},{"type":"Feature","properties":{"survey":"bds","sheet":"057","dag":"28024","label_bn":"28024","area_sqm":764.7},"geometry":{"type":"Polygon","coordinates":[[[90.321866,23.80156],[90.321882,23.801703],[90.321866,23.801694],[90.321724,23.801634],[90.321595,23.801582],[90.321509,23.80155],[90.321425,23.801526],[90.321332,23.801507],[90.32128,23.801497],[90.32125,23.80149],[90.321233,23.80148],[90.321205,23.801449],[90.321155,23.801389],[90.32113,23.801345],[90.321103,23.801308],[90.321132,23.801322],[90.321157,23.801336],[90.321214,23.80136],[90.321316,23.80141],[90.321514,23.801481],[90.321675,23.801526],[90.321764,23.801543],[90.321866,23.80156]]]}},{"type":"Feature","properties":{"survey":"bds","sheet":"057","dag":"28023","label_bn":"28023","area_sqm":2583.3},"geometry":{"type":"Polygon","coordinates":[[[90.321882,23.801703],[90.32189,23.801775],[90.321802,23.801737],[90.321678,23.801686],[90.321565,23.80164],[90.3215,23.801615],[90.321439,23.8016],[90.321381,23.801584],[90.321291,23.801547],[90.321235,23.801527],[90.321188,23.80151],[90.321156,23.801489],[90.321126,23.801448],[90.321049,23.801331],[90.32097,23.801222],[90.320906,23.801152],[90.320821,23.801068],[90.320814,23.80106],[90.320757,23.800994],[90.320724,23.800961],[90.320647,23.800896],[90.320562,23.800822],[90.320519,23.800789],[90.320458,23.800736],[90.320384,23.800655],[90.320359,23.800629],[90.320331,23.800608],[90.320303,23.800589],[90.320267,23.80057],[90.320233,23.800555],[90.32021,23.800525],[90.320204,23.800514],[90.320171,23.800437],[90.320133,23.800365],[90.320069,23.800252],[90.32005,23.800217],[90.320025,23.8002],[90.319907,23.800155],[90.319836,23.800129],[90.319755,23.80011],[90.319646,23.80009],[90.319454,23.800051],[90.31939,23.800041],[90.319298,23.800024],[90.319194,23.799995],[90.319163,23.799988],[90.319131,23.799983],[90.319108,23.799968],[90.319054,23.799895],[90.319005,23.799825],[90.318972,23.799787],[90.31892,23.799736],[90.318848,23.799675],[90.318788,23.799626],[90.318783,23.799622],[90.318785,23.799563],[90.318797,23.799569],[90.318854,23.7996],[90.318876,23.799616],[90.318932,23.799688],[90.319022,23.799788],[90.319094,23.799877],[90.319152,23.799936],[90.319207,23.799949],[90.319288,23.799963],[90.31942,23.799988],[90.319502,23.800007],[90.319575,23.800025],[90.319713,23.800057],[90.319871,23.800091],[90.319975,23.800121],[90.320055,23.800148],[90.320135,23.800185],[90.320154,23.800202],[90.32018,23.800247],[90.320218,23.800327],[90.320241,23.800361],[90.320308,23.800455],[90.320328,23.800488],[90.320378,23.800544],[90.320461,23.800642],[90.32053,23.800716],[90.320575,23.800767],[90.320588,23.800783],[90.320615,23.800806],[90.320687,23.800875],[90.320771,23.800961],[90.320804,23.800996],[90.320853,23.801049],[90.320926,23.801119],[90.320969,23.801165],[90.321038,23.801244],[90.321103,23.801308],[90.32113,23.801345],[90.321155,23.801389],[90.321205,23.801449],[90.321233,23.80148],[90.32125,23.80149],[90.32128,23.801497],[90.321332,23.801507],[90.321425,23.801526],[90.321509,23.80155],[90.321595,23.801582],[90.321724,23.801634],[90.321866,23.801694],[90.321882,23.801703]]]}},{"type":"Feature","properties":{"survey":"bds","sheet":"057","dag":"28008","label_bn":"28008","area_sqm":691.7},"geometry":{"type":"Polygon","coordinates":[[[90.318699,23.801726],[90.31865,23.80191],[90.318618,23.801909],[90.318614,23.801847],[90.318635,23.801414],[90.318677,23.801136],[90.318695,23.80099],[90.318738,23.800995],[90.318699,23.801726]]]}},{"type":"Feature","properties":{"survey":"bds","sheet":"057","dag":"28007","label_bn":"28007","area_sqm":3067.3},"geometry":{"type":"Polygon","coordinates":[[[90.31888,23.801883],[90.318662,23.801911],[90.31865,23.80191],[90.318699,23.801726],[90.318738,23.800995],[90.318835,23.801005],[90.318974,23.801014],[90.318986,23.801172],[90.318998,23.801258],[90.31902,23.801427],[90.31904,23.801569],[90.319062,23.801675],[90.319067,23.801733],[90.318983,23.801858],[90.31897,23.801882],[90.31888,23.801883]]]}},{"type":"Feature","properties":{"survey":"bds","sheet":"057","dag":"28019","label_bn":"28019","area_sqm":2866.1},"geometry":{"type":"Polygon","coordinates":[[[90.320477,23.80194],[90.320425,23.801946],[90.320427,23.801819],[90.320441,23.801694],[90.320448,23.801561],[90.320469,23.801339],[90.320485,23.801112],[90.320499,23.800951],[90.320519,23.800789],[90.320562,23.800822],[90.320647,23.800896],[90.320651,23.800951],[90.32066,23.801046],[90.320669,23.801095],[90.320687,23.801198],[90.320701,23.801316],[90.320716,23.801421],[90.320737,23.801532],[90.32076,23.80167],[90.320715,23.801777],[90.32069,23.801832],[90.320671,23.801882],[90.320606,23.801908],[90.320552,23.80193],[90.320477,23.80194]]]}},{"type":"Feature","properties":{"survey":"bds","sheet":"057","dag":"28022","label_bn":"28022","area_sqm":1776.1},"geometry":{"type":"Polygon","coordinates":[[[90.321845,23.801937],[90.321752,23.801969],[90.321742,23.801926],[90.321729,23.801896],[90.321711,23.801887],[90.321641,23.801864],[90.321595,23.801848],[90.321538,23.801835],[90.32145,23.801813],[90.321393,23.801796],[90.321292,23.801766],[90.321223,23.801739],[90.32118,23.801717],[90.321137,23.801677],[90.321103,23.801634],[90.321077,23.801606],[90.321108,23.801554],[90.321144,23.801497],[90.321156,23.801489],[90.321188,23.80151],[90.321235,23.801527],[90.321291,23.801547],[90.321381,23.801584],[90.321439,23.8016],[90.3215,23.801615],[90.321565,23.80164],[90.321678,23.801686],[90.321802,23.801737],[90.32189,23.801775],[90.321892,23.801795],[90.321847,23.801936],[90.321845,23.801937]]]}},{"type":"Feature","properties":{"survey":"bds","sheet":"057","dag":"28018","label_bn":"28018","area_sqm":6584.3},"geometry":{"type":"Polygon","coordinates":[[[90.320233,23.801985],[90.320154,23.801989],[90.320136,23.801981],[90.320112,23.80197],[90.320084,23.801957],[90.32004,23.80194],[90.320008,23.801921],[90.319943,23.801872],[90.31992,23.801854],[90.319887,23.801822],[90.319888,23.801779],[90.319887,23.801695],[90.319884,23.801651],[90.319881,23.801639],[90.319875,23.801624],[90.319891,23.801592],[90.319929,23.801529],[90.319997,23.801407],[90.320031,23.801343],[90.320043,23.80131],[90.320081,23.801178],[90.320109,23.801046],[90.320122,23.80093],[90.320146,23.800835],[90.320183,23.800702],[90.320207,23.80063],[90.320233,23.800555],[90.320267,23.80057],[90.320303,23.800589],[90.320331,23.800608],[90.320359,23.800629],[90.320384,23.800655],[90.320458,23.800736],[90.320519,23.800789],[90.320499,23.800951],[90.320485,23.801112],[90.320469,23.801339],[90.320448,23.801561],[90.320441,23.801694],[90.320427,23.801819],[90.320425,23.801946],[90.320323,23.801974],[90.320233,23.801985]]]}},{"type":"Feature","properties":{"survey":"bds","sheet":"057","dag":"28006","label_bn":"28006","area_sqm":214.3},"geometry":{"type":"Polygon","coordinates":[[[90.318743,23.801947],[90.318627,23.801997],[90.31865,23.80191],[90.318662,23.801911],[90.31888,23.801883],[90.31897,23.801882],[90.318937,23.801944],[90.318936,23.801948],[90.318743,23.801947]]]}},{"type":"Feature","properties":{"survey":"bds","sheet":"057","dag":"28005","label_bn":"28005","area_sqm":34.2},"geometry":{"type":"Polygon","coordinates":[[[90.318627,23.801997],[90.318592,23.802013],[90.318618,23.801909],[90.31865,23.80191],[90.318627,23.801997]]]}},{"type":"Feature","properties":{"survey":"bds","sheet":"057","dag":"28021","label_bn":"28021","area_sqm":4138.3},"geometry":{"type":"Polygon","coordinates":[[[90.320819,23.801094],[90.320814,23.80106],[90.320821,23.801068],[90.320906,23.801152],[90.32097,23.801222],[90.321049,23.801331],[90.321126,23.801448],[90.321156,23.801489],[90.321144,23.801497],[90.321108,23.801554],[90.321077,23.801606],[90.321103,23.801634],[90.321137,23.801677],[90.32118,23.801717],[90.321223,23.801739],[90.321292,23.801766],[90.321393,23.801796],[90.32145,23.801813],[90.321538,23.801835],[90.321595,23.801848],[90.321641,23.801864],[90.321711,23.801887],[90.321729,23.801896],[90.321742,23.801926],[90.321752,23.801969],[90.321673,23.801988],[90.321603,23.802009],[90.321524,23.802034],[90.321314,23.802112],[90.32123,23.802148],[90.321149,23.802177],[90.321078,23.8022],[90.321074,23.802177],[90.321076,23.802135],[90.321072,23.802105],[90.321067,23.802089],[90.321057,23.802075],[90.321027,23.802037],[90.321003,23.802013],[90.320964,23.801988],[90.320898,23.801948],[90.320823,23.801911],[90.320773,23.801893],[90.320773,23.801893],[90.320773,23.801893],[90.320924,23.801752],[90.320819,23.801094]]]}},{"type":"Feature","properties":{"survey":"bds","sheet":"057","dag":"28004","label_bn":"28004","area_sqm":39.6},"geometry":{"type":"Polygon","coordinates":[[[90.318627,23.801997],[90.318568,23.802222],[90.318592,23.802013],[90.318627,23.801997]]]}},{"type":"Feature","properties":{"survey":"bds","sheet":"057","dag":"28015","label_bn":"28015","area_sqm":12153.9},"geometry":{"type":"Polygon","coordinates":[[[90.319181,23.802402],[90.319178,23.802416],[90.319073,23.802345],[90.319007,23.802306],[90.318984,23.802297],[90.31894,23.802268],[90.318903,23.802239],[90.31885,23.802188],[90.31884,23.802178],[90.31884,23.802171],[90.318895,23.802038],[90.318936,23.801948],[90.318937,23.801944],[90.31897,23.801882],[90.318983,23.801858],[90.319067,23.801733],[90.319062,23.801675],[90.31904,23.801569],[90.31902,23.801427],[90.318998,23.801258],[90.318986,23.801172],[90.318974,23.801014],[90.319008,23.801014],[90.319079,23.801023],[90.31913,23.801033],[90.319186,23.801044],[90.319243,23.801056],[90.319263,23.801019],[90.319286,23.800961],[90.319318,23.80085],[90.319332,23.800795],[90.319402,23.800804],[90.319489,23.800811],[90.319731,23.800842],[90.319834,23.80086],[90.319818,23.800901],[90.31982,23.801086],[90.319813,23.801234],[90.319806,23.801398],[90.319793,23.801549],[90.319826,23.80157],[90.319852,23.801598],[90.319875,23.801624],[90.319881,23.801639],[90.319884,23.801651],[90.319887,23.801695],[90.319888,23.801779],[90.319887,23.801822],[90.319794,23.801877],[90.319681,23.801958],[90.319593,23.802028],[90.319488,23.802113],[90.319371,23.802192],[90.319286,23.802272],[90.319221,23.802344],[90.319186,23.802392],[90.319181,23.802402]]]}},{"type":"Feature","properties":{"survey":"bds","sheet":"057","dag":"28017","label_bn":"28017","area_sqm":5886.9},"geometry":{"type":"Polygon","coordinates":[[[90.319822,23.802671],[90.319756,23.802686],[90.319758,23.802667],[90.319809,23.802554],[90.319893,23.802402],[90.31999,23.802225],[90.320086,23.802065],[90.320119,23.802011],[90.320136,23.801981],[90.320154,23.801989],[90.320233,23.801985],[90.320323,23.801974],[90.320425,23.801946],[90.320477,23.80194],[90.320552,23.80193],[90.320606,23.801908],[90.320671,23.801882],[90.320734,23.801886],[90.320771,23.801893],[90.320823,23.801911],[90.320898,23.801948],[90.320964,23.801988],[90.321003,23.802013],[90.321027,23.802037],[90.321057,23.802075],[90.321067,23.802089],[90.321072,23.802105],[90.321076,23.802135],[90.321074,23.802177],[90.321078,23.8022],[90.320895,23.802266],[90.320714,23.802331],[90.320503,23.802406],[90.320378,23.802457],[90.320335,23.802476],[90.320242,23.802518],[90.320119,23.802574],[90.320055,23.802596],[90.319944,23.802631],[90.319822,23.802671]]]}},{"type":"Feature","properties":{"survey":"bds","sheet":"057","dag":"28016","label_bn":"28016","area_sqm":6298.3},"geometry":{"type":"Polygon","coordinates":[[[90.31902,23.802856],[90.31898,23.802868],[90.318982,23.802855],[90.319015,23.802793],[90.319073,23.802662],[90.319119,23.802559],[90.319159,23.802474],[90.319174,23.80243],[90.319178,23.802416],[90.319181,23.802402],[90.319186,23.802392],[90.319221,23.802344],[90.319286,23.802272],[90.319371,23.802192],[90.319488,23.802113],[90.319593,23.802028],[90.319681,23.801958],[90.319794,23.801877],[90.319887,23.801822],[90.31992,23.801854],[90.319943,23.801872],[90.320008,23.801921],[90.32004,23.80194],[90.320084,23.801957],[90.320112,23.80197],[90.320136,23.801981],[90.320119,23.802011],[90.320086,23.802065],[90.31999,23.802225],[90.319893,23.802402],[90.319809,23.802554],[90.319758,23.802667],[90.319756,23.802686],[90.319569,23.802727],[90.319383,23.802774],[90.319198,23.802814],[90.319076,23.802842],[90.31902,23.802856]]]}},{"type":"Feature","properties":{"survey":"bds","sheet":"057","dag":"28002","label_bn":"28002","area_sqm":1464.7},"geometry":{"type":"Polygon","coordinates":[[[90.31898,23.802868],[90.318893,23.802887],[90.318841,23.802768],[90.318815,23.80269],[90.318804,23.802642],[90.318798,23.802579],[90.31884,23.802501],[90.31888,23.802442],[90.31893,23.802374],[90.318984,23.802297],[90.319007,23.802306],[90.319073,23.802345],[90.319178,23.802416],[90.319174,23.80243],[90.319159,23.802474],[90.319119,23.802559],[90.319073,23.802662],[90.319015,23.802793],[90.318982,23.802855],[90.31898,23.802868]]]}},{"type":"Feature","properties":{"survey":"bds","sheet":"057","dag":"28003","label_bn":"28003","area_sqm":3911.2},"geometry":{"type":"Polygon","coordinates":[[[90.318655,23.802938],[90.318579,23.802955],[90.318414,23.802955],[90.318486,23.802518],[90.318555,23.802342],[90.318568,23.802222],[90.318627,23.801997],[90.318743,23.801947],[90.318936,23.801948],[90.318895,23.802038],[90.31884,23.802171],[90.31884,23.802178],[90.31885,23.802188],[90.318903,23.802239],[90.31894,23.802268],[90.318984,23.802297],[90.31893,23.802374],[90.31888,23.802442],[90.31884,23.802501],[90.318798,23.802579],[90.318804,23.802642],[90.318815,23.80269],[90.318841,23.802768],[90.318893,23.802887],[90.3188,23.802905],[90.318655,23.802938]]]}},{"type":"Feature","properties":{"survey":"bds","sheet":"057","dag":"28001","label_bn":"28001","area_sqm":14266.8},"geometry":{"type":"Polygon","coordinates":[[[90.318704,23.803362],[90.318692,23.803366],[90.31868,23.802956],[90.318579,23.802955],[90.318655,23.802938],[90.3188,23.802905],[90.318893,23.802887],[90.31898,23.802868],[90.31902,23.802856],[90.319076,23.802842],[90.319198,23.802814],[90.319383,23.802774],[90.319569,23.802727],[90.319756,23.802686],[90.319822,23.802671],[90.319944,23.802631],[90.320055,23.802596],[90.320119,23.802574],[90.320242,23.802518],[90.320335,23.802476],[90.320378,23.802457],[90.320503,23.802406],[90.320714,23.802331],[90.320895,23.802266],[90.321078,23.8022],[90.321149,23.802177],[90.32123,23.802148],[90.321314,23.802112],[90.321524,23.802034],[90.321603,23.802009],[90.321673,23.801988],[90.321752,23.801969],[90.321845,23.801937],[90.321847,23.801936],[90.321717,23.802345],[90.321642,23.802382],[90.321589,23.802407],[90.321537,23.802432],[90.321474,23.802458],[90.321407,23.802493],[90.32138,23.8025],[90.321346,23.80252],[90.321319,23.802533],[90.321292,23.802545],[90.321262,23.802555],[90.321234,23.802555],[90.321178,23.802576],[90.321136,23.802586],[90.321094,23.802596],[90.321056,23.802602],[90.321041,23.802596],[90.320991,23.802612],[90.320929,23.802637],[90.320854,23.802671],[90.320782,23.802704],[90.320732,23.802734],[90.320683,23.802764],[90.320604,23.802816],[90.320574,23.802838],[90.320432,23.802868],[90.320388,23.802887],[90.320327,23.802907],[90.320265,23.802928],[90.32018,23.802956],[90.320096,23.802983],[90.319999,23.803013],[90.319903,23.803043],[90.319872,23.803051],[90.319841,23.80306],[90.319806,23.803069],[90.319772,23.803078],[90.319713,23.803096],[90.319643,23.803112],[90.3196,23.803121],[90.319512,23.80314],[90.319424,23.803159],[90.319356,23.803172],[90.319287,23.803185],[90.31918,23.803209],[90.319039,23.803248],[90.318919,23.803292],[90.318836,23.803327],[90.318816,23.803339],[90.318796,23.803348],[90.318704,23.803362]]]}},{"type":"Feature","properties":{"survey":"bds","sheet":"057","dag":"28020","label_bn":"28020","area_sqm":1603.5},"geometry":{"type":"Polygon","coordinates":[[[90.320773,23.801893],[90.320773,23.801893],[90.320771,23.801893],[90.320734,23.801886],[90.320671,23.801882],[90.32069,23.801832],[90.320715,23.801777],[90.32076,23.80167],[90.320737,23.801532],[90.320716,23.801421],[90.320701,23.801316],[90.320687,23.801198],[90.320669,23.801095],[90.32066,23.801046],[90.320651,23.800951],[90.320647,23.800896],[90.320724,23.800961],[90.320757,23.800994],[90.320814,23.80106],[90.320819,23.801094],[90.320924,23.801752],[90.320773,23.801893],[90.320773,23.801893],[90.320773,23.801893]]]}}]}