{"type":"FeatureCollection","features":[{"type":"Feature","properties":{"survey":"bds","sheet":"058","dag":"28543","label_bn":"28543","area_sqm":763.2},"geometry":{"type":"Polygon","coordinates":[[[90.324818,23.800285],[90.324805,23.800399],[90.324667,23.800382],[90.324547,23.800381],[90.324561,23.80028],[90.324566,23.800231],[90.32457,23.800131],[90.324836,23.800125],[90.324832,23.800173],[90.324818,23.800285]]]}},{"type":"Feature","properties":{"survey":"bds","sheet":"058","dag":"28539","label_bn":"28539","area_sqm":1016.0},"geometry":{"type":"Polygon","coordinates":[[[90.32346,23.80028],[90.323447,23.800434],[90.323369,23.800433],[90.323244,23.800426],[90.323128,23.800417],[90.323127,23.800331],[90.323135,23.80016],[90.32348,23.800153],[90.32346,23.80028]]]}},{"type":"Feature","properties":{"survey":"bds","sheet":"058","dag":"28540","label_bn":"28540","area_sqm":2087.4},"geometry":{"type":"Polygon","coordinates":[[[90.323805,23.800438],[90.323711,23.80044],[90.323577,23.800434],[90.323447,23.800434],[90.32346,23.80028],[90.32348,23.800153],[90.324106,23.80014],[90.324098,23.800296],[90.324085,23.800437],[90.323983,23.800434],[90.323899,23.800438],[90.323805,23.800438]]]}},{"type":"Feature","properties":{"survey":"bds","sheet":"058","dag":"28544","label_bn":"28544","area_sqm":2180.1},"geometry":{"type":"Polygon","coordinates":[[[90.325382,23.800387],[90.32537,23.800465],[90.325346,23.800461],[90.325242,23.800451],[90.325051,23.800426],[90.324911,23.800415],[90.32485,23.800409],[90.324805,23.800399],[90.324818,23.800285],[90.324832,23.800173],[90.324836,23.800125],[90.325501,23.800111],[90.325382,23.800387]]]}},{"type":"Feature","properties":{"survey":"bds","sheet":"058","dag":"28538","label_bn":"28538","area_sqm":1864.3},"geometry":{"type":"Polygon","coordinates":[[[90.32268,23.800527],[90.322654,23.800533],[90.322639,23.800463],[90.322625,23.800403],[90.322605,23.800355],[90.322541,23.800213],[90.322529,23.800173],[90.322931,23.800165],[90.323135,23.80016],[90.323127,23.800331],[90.323128,23.800417],[90.32312,23.800415],[90.323108,23.800413],[90.323052,23.800424],[90.322929,23.800459],[90.322747,23.800506],[90.32268,23.800527]]]}},{"type":"Feature","properties":{"survey":"bds","sheet":"058","dag":"28542","label_bn":"28542","area_sqm":2878.3},"geometry":{"type":"Polygon","coordinates":[[[90.324442,23.800689],[90.324216,23.800697],[90.324149,23.800696],[90.324082,23.800694],[90.32405,23.800691],[90.324068,23.800567],[90.324085,23.800437],[90.324098,23.800296],[90.324106,23.80014],[90.32457,23.800131],[90.324566,23.800231],[90.324561,23.80028],[90.324547,23.800381],[90.324537,23.800445],[90.324525,23.800519],[90.324515,23.80057],[90.3245,23.800649],[90.324493,23.800685],[90.324442,23.800689]]]}},{"type":"Feature","properties":{"survey":"bds","sheet":"058","dag":"28535","label_bn":"28535","area_sqm":827.2},"geometry":{"type":"Polygon","coordinates":[[[90.322156,23.800614],[90.322173,23.800709],[90.322105,23.800701],[90.321955,23.80067],[90.321983,23.800488],[90.322013,23.800265],[90.322027,23.800118],[90.32206,23.800157],[90.322061,23.800159],[90.322081,23.800215],[90.322125,23.800347],[90.322131,23.800377],[90.322132,23.800457],[90.322144,23.800564],[90.322156,23.800614]]]}},{"type":"Feature","properties":{"survey":"bds","sheet":"058","dag":"28534","label_bn":"28534","area_sqm":3246.8},"geometry":{"type":"Polygon","coordinates":[[[90.321941,23.800755],[90.321889,23.800943],[90.321834,23.800926],[90.321763,23.800909],[90.32168,23.800896],[90.321637,23.80076],[90.32164,23.800751],[90.321648,23.800671],[90.321688,23.800627],[90.321693,23.800433],[90.32169,23.800261],[90.321706,23.800216],[90.321662,23.800156],[90.321659,23.800031],[90.321805,23.799896],[90.32189,23.799961],[90.322027,23.800118],[90.322013,23.800265],[90.321983,23.800488],[90.321955,23.80067],[90.321941,23.800755]]]}},{"type":"Feature","properties":{"survey":"bds","sheet":"058","dag":"28541","label_bn":"28541","area_sqm":3999.1},"geometry":{"type":"Polygon","coordinates":[[[90.323448,23.80113],[90.323439,23.80114],[90.323413,23.800983],[90.323229,23.800683],[90.32315,23.800455],[90.32312,23.800415],[90.323128,23.800417],[90.323244,23.800426],[90.323369,23.800433],[90.323447,23.800434],[90.323577,23.800434],[90.323711,23.80044],[90.323805,23.800438],[90.323899,23.800438],[90.323983,23.800434],[90.324085,23.800437],[90.324068,23.800567],[90.32405,23.800691],[90.324017,23.800691],[90.323958,23.800702],[90.32388,23.800721],[90.323798,23.800752],[90.323774,23.800767],[90.323702,23.800828],[90.323664,23.800864],[90.323613,23.800926],[90.323538,23.801007],[90.323494,23.801065],[90.323448,23.80113]]]}},{"type":"Feature","properties":{"survey":"bds","sheet":"058","dag":"28545","label_bn":"28545","area_sqm":3043.7},"geometry":{"type":"Polygon","coordinates":[[[90.324617,23.801164],[90.324612,23.801199],[90.324546,23.801149],[90.324543,23.801148],[90.324427,23.801054],[90.324371,23.801006],[90.32435,23.800986],[90.324328,23.800963],[90.324292,23.800916],[90.324267,23.800894],[90.324237,23.800863],[90.324191,23.800805],[90.324164,23.800766],[90.324145,23.800742],[90.324082,23.800694],[90.324149,23.800696],[90.324216,23.800697],[90.324442,23.800689],[90.324493,23.800685],[90.3245,23.800649],[90.324515,23.80057],[90.324525,23.800519],[90.324537,23.800445],[90.324547,23.800381],[90.324667,23.800382],[90.324805,23.800399],[90.32485,23.800409],[90.32482,23.800502],[90.324783,23.800631],[90.324715,23.800853],[90.324665,23.80101],[90.324617,23.801164]]]}},{"type":"Feature","properties":{"survey":"bds","sheet":"058","dag":"28533","label_bn":"28533","area_sqm":429.8},"geometry":{"type":"Polygon","coordinates":[[[90.321808,23.801277],[90.321807,23.801288],[90.32168,23.800896],[90.321763,23.800909],[90.321834,23.800926],[90.321889,23.800943],[90.321831,23.801168],[90.321808,23.801277]]]}},{"type":"Feature","properties":{"survey":"bds","sheet":"058","dag":"28550","label_bn":"28550","area_sqm":1310.9},"geometry":{"type":"Polygon","coordinates":[[[90.325815,23.801372],[90.325766,23.801372],[90.325769,23.801337],[90.325774,23.801256],[90.325774,23.801101],[90.325772,23.801014],[90.32578,23.800886],[90.325793,23.800781],[90.32581,23.800681],[90.32582,23.800587],[90.325836,23.800506],[90.325912,23.800529],[90.325952,23.800527],[90.325943,23.800591],[90.325941,23.800882],[90.325892,23.801305],[90.325861,23.801334],[90.325815,23.801372]]]}},{"type":"Feature","properties":{"survey":"bds","sheet":"058","dag":"28527","label_bn":"28527","area_sqm":251.2},"geometry":{"type":"Polygon","coordinates":[[[90.32336,23.801375],[90.323338,23.801386],[90.323279,23.801329],[90.323308,23.801291],[90.323366,23.801224],[90.323439,23.80114],[90.32345,23.801209],[90.323488,23.801255],[90.323438,23.801304],[90.323386,23.801358],[90.32336,23.801375]]]}},{"type":"Feature","properties":{"survey":"bds","sheet":"058","dag":"28549","label_bn":"28549","area_sqm":4065.5},"geometry":{"type":"Polygon","coordinates":[[[90.325641,23.801389],[90.32553,23.80139],[90.325431,23.801388],[90.325329,23.801378],[90.325475,23.800416],[90.325502,23.800424],[90.325618,23.800465],[90.325792,23.800492],[90.325836,23.800506],[90.32582,23.800587],[90.32581,23.800681],[90.325793,23.800781],[90.32578,23.800886],[90.325772,23.801014],[90.325774,23.801101],[90.325774,23.801256],[90.325769,23.801337],[90.32573,23.801352],[90.325681,23.801378],[90.325641,23.801389]]]}},{"type":"Feature","properties":{"survey":"bds","sheet":"058","dag":"28526","label_bn":"28526","area_sqm":187.9},"geometry":{"type":"Polygon","coordinates":[[[90.323488,23.801255],[90.323604,23.801396],[90.323389,23.801383],[90.323338,23.801386],[90.32336,23.801375],[90.323386,23.801358],[90.323438,23.801304],[90.323488,23.801255]]]}},{"type":"Feature","properties":{"survey":"bds","sheet":"058","dag":"28537","label_bn":"28537","area_sqm":5161.7},"geometry":{"type":"Polygon","coordinates":[[[90.323067,23.801452],[90.322997,23.801474],[90.322987,23.801389],[90.322987,23.801299],[90.322979,23.801201],[90.322972,23.801159],[90.322925,23.801081],[90.322869,23.800997],[90.322845,23.800954],[90.322765,23.800817],[90.322726,23.800759],[90.322708,23.80073],[90.322672,23.800637],[90.322661,23.800588],[90.322654,23.800533],[90.32268,23.800527],[90.322747,23.800506],[90.322929,23.800459],[90.323052,23.800424],[90.323108,23.800413],[90.32312,23.800415],[90.32315,23.800455],[90.323229,23.800683],[90.323413,23.800983],[90.323439,23.80114],[90.323366,23.801224],[90.323308,23.801291],[90.323279,23.801329],[90.323258,23.801347],[90.32323,23.801365],[90.323164,23.801408],[90.323127,23.801429],[90.323067,23.801452]]]}},{"type":"Feature","properties":{"survey":"bds","sheet":"058","dag":"28536","label_bn":"28536","area_sqm":8054.5},"geometry":{"type":"Polygon","coordinates":[[[90.322997,23.801474],[90.322512,23.801548],[90.322512,23.801502],[90.322503,23.801481],[90.322461,23.801375],[90.32241,23.801246],[90.3223,23.801022],[90.322241,23.800896],[90.322215,23.800828],[90.322184,23.800739],[90.322173,23.800709],[90.322156,23.800614],[90.322144,23.800564],[90.322132,23.800457],[90.322131,23.800377],[90.322125,23.800347],[90.322081,23.800215],[90.322061,23.800159],[90.32206,23.800157],[90.322082,23.800182],[90.322529,23.800173],[90.322541,23.800213],[90.322605,23.800355],[90.322625,23.800403],[90.322639,23.800463],[90.322654,23.800533],[90.322661,23.800588],[90.322672,23.800637],[90.322708,23.80073],[90.322726,23.800759],[90.322765,23.800817],[90.322845,23.800954],[90.322869,23.800997],[90.322925,23.801081],[90.322972,23.801159],[90.322979,23.801201],[90.322987,23.801299],[90.322987,23.801389],[90.322997,23.801474]]]}},{"type":"Feature","properties":{"survey":"bds","sheet":"058","dag":"28528","label_bn":"28528","area_sqm":277.6},"geometry":{"type":"Polygon","coordinates":[[[90.323069,23.801536],[90.323024,23.801577],[90.322997,23.801474],[90.323067,23.801452],[90.323127,23.801429],[90.323164,23.801408],[90.32323,23.801365],[90.323258,23.801347],[90.323279,23.801329],[90.323338,23.801386],[90.323233,23.801441],[90.32321,23.801453],[90.323196,23.801462],[90.323131,23.801497],[90.323069,23.801536]]]}},{"type":"Feature","properties":{"survey":"bds","sheet":"058","dag":"28532","label_bn":"28532","area_sqm":4848.2},"geometry":{"type":"Polygon","coordinates":[[[90.322182,23.801586],[90.32205,23.801589],[90.322016,23.801585],[90.321906,23.801566],[90.321866,23.80156],[90.321852,23.801431],[90.321807,23.801288],[90.321808,23.801277],[90.321831,23.801168],[90.321889,23.800943],[90.321941,23.800755],[90.321955,23.80067],[90.322105,23.800701],[90.322173,23.800709],[90.322184,23.800739],[90.322215,23.800828],[90.322241,23.800896],[90.3223,23.801022],[90.32241,23.801246],[90.322461,23.801375],[90.322503,23.801481],[90.322512,23.801502],[90.322512,23.801548],[90.322438,23.801557],[90.322363,23.801569],[90.322275,23.801579],[90.322182,23.801586]]]}},{"type":"Feature","properties":{"survey":"bds","sheet":"058","dag":"28547","label_bn":"28547","area_sqm":8399.2},"geometry":{"type":"Polygon","coordinates":[[[90.325252,23.801603],[90.325237,23.801633],[90.325196,23.801616],[90.325089,23.801586],[90.325072,23.80158],[90.325014,23.80156],[90.325003,23.801556],[90.324935,23.801534],[90.32488,23.80151],[90.324851,23.801485],[90.324819,23.801448],[90.324772,23.801398],[90.324742,23.801366],[90.32469,23.801298],[90.324638,23.801234],[90.324612,23.801199],[90.324617,23.801164],[90.324665,23.80101],[90.324715,23.800853],[90.324783,23.800631],[90.32482,23.800502],[90.32485,23.800409],[90.324911,23.800415],[90.325051,23.800426],[90.325242,23.800451],[90.325346,23.800461],[90.32537,23.800465],[90.325382,23.800387],[90.325475,23.800416],[90.325329,23.801378],[90.325317,23.80145],[90.325281,23.801544],[90.325252,23.801603]]]}},{"type":"Feature","properties":{"survey":"bds","sheet":"058","dag":"28546","label_bn":"28546","area_sqm":2604.1},"geometry":{"type":"Polygon","coordinates":[[[90.325034,23.801669],[90.325009,23.801672],[90.324969,23.80167],[90.32494,23.80166],[90.324919,23.801654],[90.324903,23.801646],[90.324878,23.801628],[90.324844,23.801594],[90.32479,23.801531],[90.324742,23.801484],[90.324673,23.801418],[90.32464,23.801373],[90.324565,23.801281],[90.324506,23.801219],[90.324499,23.801211],[90.324466,23.801181],[90.324372,23.801106],[90.324301,23.801052],[90.324247,23.80102],[90.324216,23.801002],[90.324191,23.800983],[90.324157,23.800943],[90.324137,23.800913],[90.324095,23.800846],[90.324072,23.80082],[90.324043,23.80082],[90.323979,23.800833],[90.323912,23.800852],[90.323857,23.800866],[90.32383,23.800896],[90.32376,23.800968],[90.323657,23.801081],[90.323572,23.801173],[90.323488,23.801255],[90.32345,23.801209],[90.323439,23.80114],[90.323448,23.80113],[90.323494,23.801065],[90.323538,23.801007],[90.323613,23.800926],[90.323664,23.800864],[90.323702,23.800828],[90.323774,23.800767],[90.323798,23.800752],[90.32388,23.800721],[90.323958,23.800702],[90.324017,23.800691],[90.32405,23.800691],[90.324082,23.800694],[90.324145,23.800742],[90.324164,23.800766],[90.324191,23.800805],[90.324237,23.800863],[90.324267,23.800894],[90.324292,23.800916],[90.324328,23.800963],[90.32435,23.800986],[90.324371,23.801006],[90.324427,23.801054],[90.324543,23.801148],[90.324546,23.801149],[90.324612,23.801199],[90.324638,23.801234],[90.32469,23.801298],[90.324742,23.801366],[90.324772,23.801398],[90.324819,23.801448],[90.324851,23.801485],[90.32488,23.80151],[90.324935,23.801534],[90.325003,23.801556],[90.325014,23.80156],[90.325072,23.80158],[90.325063,23.801669],[90.32506,23.801669],[90.325034,23.801669]]]}},{"type":"Feature","properties":{"survey":"bds","sheet":"058","dag":"28522","label_bn":"28522","area_sqm":8174.5},"geometry":{"type":"Polygon","coordinates":[[[90.324139,23.801652],[90.323638,23.801701],[90.323634,23.801668],[90.323621,23.801567],[90.323604,23.801396],[90.323488,23.801255],[90.323572,23.801173],[90.323657,23.801081],[90.32376,23.800968],[90.32383,23.800896],[90.323857,23.800866],[90.323912,23.800852],[90.323979,23.800833],[90.324043,23.80082],[90.324072,23.80082],[90.324095,23.800846],[90.324137,23.800913],[90.324157,23.800943],[90.324191,23.800983],[90.324216,23.801002],[90.324247,23.80102],[90.324301,23.801052],[90.324372,23.801106],[90.324466,23.801181],[90.324499,23.801211],[90.324506,23.801219],[90.324565,23.801281],[90.32464,23.801373],[90.324673,23.801418],[90.324742,23.801484],[90.32479,23.801531],[90.324844,23.801594],[90.324878,23.801628],[90.324903,23.801646],[90.324919,23.801654],[90.324886,23.801655],[90.324765,23.801665],[90.324612,23.801666],[90.324423,23.801667],[90.324327,23.801665],[90.324277,23.801661],[90.324139,23.801652]]]}},{"type":"Feature","properties":{"survey":"bds","sheet":"058","dag":"28548","label_bn":"28548","area_sqm":1524.0},"geometry":{"type":"Polygon","coordinates":[[[90.325815,23.801372],[90.325721,23.801722],[90.325579,23.801679],[90.325337,23.801612],[90.325252,23.801603],[90.325281,23.801544],[90.325317,23.80145],[90.325329,23.801378],[90.325431,23.801388],[90.32553,23.80139],[90.325641,23.801389],[90.325681,23.801378],[90.32573,23.801352],[90.325769,23.801337],[90.325766,23.801372],[90.325815,23.801372]]]}},{"type":"Feature","properties":{"survey":"bds","sheet":"058","dag":"28531","label_bn":"28531","area_sqm":1360.8},"geometry":{"type":"Polygon","coordinates":[[[90.322124,23.801845],[90.322081,23.801867],[90.322048,23.801824],[90.322009,23.80178],[90.321976,23.801756],[90.321963,23.801747],[90.321882,23.801703],[90.321866,23.80156],[90.321906,23.801566],[90.322016,23.801585],[90.32205,23.801589],[90.322182,23.801586],[90.322275,23.801579],[90.322363,23.801569],[90.322438,23.801557],[90.322512,23.801548],[90.322437,23.80171],[90.32236,23.801749],[90.322238,23.801797],[90.322124,23.801845]]]}},{"type":"Feature","properties":{"survey":"bds","sheet":"058","dag":"28521","label_bn":"28521","area_sqm":2590.9},"geometry":{"type":"Polygon","coordinates":[[[90.325031,23.801862],[90.325024,23.801936],[90.324783,23.801917],[90.324696,23.801914],[90.324625,23.801918],[90.324502,23.801911],[90.324352,23.801894],[90.324256,23.801891],[90.324162,23.801892],[90.324095,23.801883],[90.324111,23.801823],[90.324125,23.80174],[90.32413,23.801714],[90.324134,23.801686],[90.324139,23.801652],[90.324277,23.801661],[90.324327,23.801665],[90.324423,23.801667],[90.324612,23.801666],[90.324765,23.801665],[90.324886,23.801655],[90.324919,23.801654],[90.32494,23.80166],[90.324969,23.80167],[90.325009,23.801672],[90.325034,23.801669],[90.32506,23.801669],[90.325063,23.801669],[90.325056,23.801731],[90.325031,23.801862]]]}},{"type":"Feature","properties":{"survey":"bds","sheet":"058","dag":"28530","label_bn":"28530","area_sqm":289.9},"geometry":{"type":"Polygon","coordinates":[[[90.322006,23.801882],[90.321847,23.801936],[90.321892,23.801795],[90.32189,23.801775],[90.321882,23.801703],[90.321963,23.801747],[90.321976,23.801756],[90.322009,23.80178],[90.322048,23.801824],[90.322081,23.801867],[90.322006,23.801882]]]}},{"type":"Feature","properties":{"survey":"bds","sheet":"058","dag":"28519","label_bn":"28519","area_sqm":911.6},"geometry":{"type":"Polygon","coordinates":[[[90.325324,23.80198],[90.325321,23.801995],[90.325259,23.801976],[90.32517,23.801961],[90.325024,23.801936],[90.325031,23.801862],[90.325056,23.801731],[90.325063,23.801669],[90.325125,23.80168],[90.325182,23.80169],[90.325244,23.801706],[90.325293,23.801725],[90.325347,23.801749],[90.325354,23.801756],[90.325356,23.80177],[90.325353,23.801808],[90.325341,23.801894],[90.325324,23.80198]]]}},{"type":"Feature","properties":{"survey":"bds","sheet":"058","dag":"28518","label_bn":"28518","area_sqm":475.5},"geometry":{"type":"Polygon","coordinates":[[[90.325376,23.801999],[90.325366,23.802031],[90.325317,23.80202],[90.325321,23.801995],[90.325324,23.80198],[90.325341,23.801894],[90.325353,23.801808],[90.325356,23.80177],[90.325354,23.801756],[90.325347,23.801749],[90.325293,23.801725],[90.325244,23.801706],[90.325182,23.80169],[90.325125,23.80168],[90.325063,23.801669],[90.325072,23.80158],[90.325089,23.801586],[90.325196,23.801616],[90.325237,23.801633],[90.325282,23.801658],[90.325341,23.801695],[90.325425,23.801754],[90.325444,23.801769],[90.325432,23.801832],[90.325415,23.801887],[90.325376,23.801999]]]}},{"type":"Feature","properties":{"survey":"bds","sheet":"058","dag":"28517","label_bn":"28517","area_sqm":572.4},"geometry":{"type":"Polygon","coordinates":[[[90.32543,23.802019],[90.325427,23.802045],[90.325366,23.802031],[90.325376,23.801999],[90.325415,23.801887],[90.325432,23.801832],[90.325444,23.801769],[90.325425,23.801754],[90.325341,23.801695],[90.325282,23.801658],[90.325237,23.801633],[90.325252,23.801603],[90.325337,23.801612],[90.325579,23.801679],[90.325508,23.801862],[90.32543,23.802019]]]}},{"type":"Feature","properties":{"survey":"bds","sheet":"058","dag":"28525","label_bn":"28525","area_sqm":5419.9},"geometry":{"type":"Polygon","coordinates":[[[90.323298,23.802236],[90.323277,23.802249],[90.323227,23.802191],[90.323188,23.802126],[90.323178,23.802107],[90.323164,23.80209],[90.323101,23.802003],[90.32305,23.801936],[90.322995,23.801842],[90.322948,23.801771],[90.322887,23.80171],[90.32291,23.801686],[90.322937,23.801656],[90.322978,23.801618],[90.323024,23.801577],[90.323069,23.801536],[90.323131,23.801497],[90.323196,23.801462],[90.32321,23.801453],[90.323233,23.801441],[90.323338,23.801386],[90.323389,23.801383],[90.323604,23.801396],[90.323621,23.801567],[90.323634,23.801668],[90.323638,23.801701],[90.323701,23.802196],[90.323298,23.802236]]]}},{"type":"Feature","properties":{"survey":"bds","sheet":"058","dag":"28529","label_bn":"28529","area_sqm":4555.9},"geometry":{"type":"Polygon","coordinates":[[[90.321806,23.802301],[90.321717,23.802345],[90.321847,23.801936],[90.322006,23.801882],[90.322081,23.801867],[90.322124,23.801845],[90.322238,23.801797],[90.32236,23.801749],[90.322437,23.80171],[90.322512,23.801548],[90.322997,23.801474],[90.323024,23.801577],[90.322978,23.801618],[90.322937,23.801656],[90.32291,23.801686],[90.322887,23.80171],[90.32283,23.801761],[90.322747,23.801822],[90.322682,23.80187],[90.322595,23.80194],[90.322467,23.802036],[90.322404,23.802075],[90.322356,23.802101],[90.322279,23.802129],[90.322206,23.802158],[90.322181,23.802165],[90.322138,23.802172],[90.322002,23.802221],[90.321899,23.80226],[90.321806,23.802301]]]}},{"type":"Feature","properties":{"survey":"bds","sheet":"058","dag":"28524","label_bn":"28524","area_sqm":921.6},"geometry":{"type":"Polygon","coordinates":[[[90.323701,23.802196],[90.323732,23.802432],[90.323634,23.802428],[90.323374,23.802428],[90.323375,23.802415],[90.323374,23.802377],[90.323356,23.802344],[90.323313,23.802291],[90.323277,23.802249],[90.323298,23.802236],[90.323701,23.802196]]]}},{"type":"Feature","properties":{"survey":"bds","sheet":"058","dag":"28523","label_bn":"28523","area_sqm":3447.3},"geometry":{"type":"Polygon","coordinates":[[[90.323794,23.802467],[90.323738,23.802478],[90.323732,23.802432],[90.323701,23.802196],[90.323638,23.801701],[90.324139,23.801652],[90.324134,23.801686],[90.32413,23.801714],[90.324125,23.80174],[90.324111,23.801823],[90.324095,23.801883],[90.324089,23.80193],[90.324077,23.802019],[90.324055,23.802154],[90.324048,23.802209],[90.324034,23.802311],[90.324021,23.802432],[90.324018,23.802461],[90.323937,23.80246],[90.323794,23.802467]]]}},{"type":"Feature","properties":{"survey":"bds","sheet":"058","dag":"28510","label_bn":"28510","area_sqm":274.1},"geometry":{"type":"Polygon","coordinates":[[[90.323738,23.802478],[90.323689,23.8025],[90.323368,23.802492],[90.323374,23.802428],[90.323634,23.802428],[90.323732,23.802432],[90.323738,23.802478]]]}},{"type":"Feature","properties":{"survey":"bds","sheet":"058","dag":"28503","label_bn":"28503","area_sqm":2169.9},"geometry":{"type":"Polygon","coordinates":[[[90.322357,23.802525],[90.322278,23.802526],[90.322165,23.802507],[90.321847,23.802444],[90.32175,23.802421],[90.321689,23.802399],[90.321642,23.802382],[90.321717,23.802345],[90.321806,23.802301],[90.321899,23.80226],[90.322002,23.802221],[90.322138,23.802172],[90.322181,23.802165],[90.322206,23.802158],[90.322279,23.802129],[90.322401,23.802236],[90.322404,23.802271],[90.322425,23.802335],[90.322439,23.802383],[90.322474,23.802505],[90.322408,23.802517],[90.322357,23.802525]]]}},{"type":"Feature","properties":{"survey":"bds","sheet":"058","dag":"28512","label_bn":"28512","area_sqm":1634.4},"geometry":{"type":"Polygon","coordinates":[[[90.324565,23.802515],[90.324549,23.802618],[90.324283,23.802552],[90.324063,23.802461],[90.324018,23.802461],[90.324021,23.802432],[90.324034,23.802311],[90.324048,23.802209],[90.324073,23.802208],[90.32421,23.802261],[90.324472,23.802318],[90.324587,23.80237],[90.324566,23.802507],[90.324565,23.802515]]]}},{"type":"Feature","properties":{"survey":"bds","sheet":"058","dag":"28504","label_bn":"28504","area_sqm":5356.0},"geometry":{"type":"Polygon","coordinates":[[[90.322834,23.80252],[90.322509,23.802635],[90.322474,23.802505],[90.322439,23.802383],[90.322425,23.802335],[90.322404,23.802271],[90.322401,23.802236],[90.322279,23.802129],[90.322356,23.802101],[90.322404,23.802075],[90.322467,23.802036],[90.322595,23.80194],[90.322682,23.80187],[90.322747,23.801822],[90.32283,23.801761],[90.322887,23.80171],[90.322948,23.801771],[90.322995,23.801842],[90.32305,23.801936],[90.323101,23.802003],[90.323164,23.80209],[90.323178,23.802107],[90.323188,23.802126],[90.323227,23.802191],[90.323277,23.802249],[90.323092,23.802358],[90.322834,23.80252]]]}},{"type":"Feature","properties":{"survey":"bds","sheet":"058","dag":"28520","label_bn":"28520","area_sqm":7239.0},"geometry":{"type":"Polygon","coordinates":[[[90.325075,23.802708],[90.325075,23.802708],[90.324566,23.802507],[90.324587,23.80237],[90.324472,23.802318],[90.32421,23.802261],[90.324073,23.802208],[90.324048,23.802209],[90.324055,23.802154],[90.324077,23.802019],[90.324089,23.80193],[90.324095,23.801883],[90.324162,23.801892],[90.324256,23.801891],[90.324352,23.801894],[90.324502,23.801911],[90.324625,23.801918],[90.324696,23.801914],[90.324783,23.801917],[90.325024,23.801936],[90.32517,23.801961],[90.325259,23.801976],[90.325321,23.801995],[90.325317,23.80202],[90.325312,23.802057],[90.325301,23.802092],[90.325234,23.802286],[90.325195,23.802398],[90.325144,23.802527],[90.325105,23.802621],[90.325078,23.8027],[90.325075,23.802708]]]}},{"type":"Feature","properties":{"survey":"bds","sheet":"058","dag":"28514","label_bn":"28514","area_sqm":711.2},"geometry":{"type":"Polygon","coordinates":[[[90.325052,23.802774],[90.325041,23.802813],[90.324731,23.802705],[90.324549,23.802618],[90.324565,23.802515],[90.324566,23.802507],[90.325075,23.802708],[90.325072,23.802717],[90.325052,23.802774]]]}},{"type":"Feature","properties":{"survey":"bds","sheet":"058","dag":"28502","label_bn":"28502","area_sqm":2648.2},"geometry":{"type":"Polygon","coordinates":[[[90.322233,23.802736],[90.322202,23.802835],[90.32209,23.802807],[90.321923,23.802771],[90.321789,23.802741],[90.32178,23.802739],[90.321675,23.802719],[90.321615,23.802705],[90.321496,23.80268],[90.321484,23.802589],[90.321475,23.802518],[90.321474,23.802458],[90.321537,23.802432],[90.321589,23.802407],[90.321642,23.802382],[90.321689,23.802399],[90.32175,23.802421],[90.321847,23.802444],[90.322165,23.802507],[90.322278,23.802526],[90.322252,23.802658],[90.322233,23.802736]]]}},{"type":"Feature","properties":{"survey":"bds","sheet":"058","dag":"28511","label_bn":"28511","area_sqm":2186.8},"geometry":{"type":"Polygon","coordinates":[[[90.324283,23.802552],[90.324254,23.802839],[90.323997,23.802837],[90.323743,23.802798],[90.323698,23.802583],[90.323689,23.8025],[90.323738,23.802478],[90.323794,23.802467],[90.323937,23.80246],[90.324018,23.802461],[90.324063,23.802461],[90.324283,23.802552]]]}},{"type":"Feature","properties":{"survey":"bds","sheet":"058","dag":"28505","label_bn":"28505","area_sqm":1047.2},"geometry":{"type":"Polygon","coordinates":[[[90.322507,23.802852],[90.322374,23.802852],[90.322279,23.80285],[90.322234,23.802844],[90.322202,23.802835],[90.322233,23.802736],[90.322252,23.802658],[90.322278,23.802526],[90.322357,23.802525],[90.322408,23.802517],[90.322474,23.802505],[90.322509,23.802635],[90.322566,23.802847],[90.322507,23.802852]]]}},{"type":"Feature","properties":{"survey":"bds","sheet":"058","dag":"28501","label_bn":"28501","area_sqm":433.9},"geometry":{"type":"Polygon","coordinates":[[[90.322202,23.802835],[90.322174,23.802919],[90.321785,23.802833],[90.321769,23.802797],[90.321773,23.802779],[90.321789,23.802741],[90.321923,23.802771],[90.32209,23.802807],[90.322202,23.802835]]]}},{"type":"Feature","properties":{"survey":"bds","sheet":"058","dag":"28508","label_bn":"28508","area_sqm":4741.5},"geometry":{"type":"Polygon","coordinates":[[[90.323321,23.802978],[90.32284,23.802993],[90.322838,23.802971],[90.322677,23.802937],[90.322651,23.802841],[90.322566,23.802847],[90.322509,23.802635],[90.322834,23.80252],[90.323092,23.802358],[90.323277,23.802249],[90.323313,23.802291],[90.323356,23.802344],[90.323374,23.802377],[90.323375,23.802415],[90.323374,23.802428],[90.323368,23.802492],[90.323355,23.80267],[90.323339,23.802811],[90.323326,23.802936],[90.323321,23.802978]]]}},{"type":"Feature","properties":{"survey":"bds","sheet":"058","dag":"28509","label_bn":"28509","area_sqm":2100.1},"geometry":{"type":"Polygon","coordinates":[[[90.323743,23.802798],[90.323659,23.803031],[90.323333,23.802977],[90.323321,23.802978],[90.323326,23.802936],[90.323339,23.802811],[90.323355,23.80267],[90.323368,23.802492],[90.323689,23.8025],[90.323698,23.802583],[90.323743,23.802798]]]}},{"type":"Feature","properties":{"survey":"bds","sheet":"058","dag":"28513","label_bn":"28513","area_sqm":2695.2},"geometry":{"type":"Polygon","coordinates":[[[90.325006,23.803001],[90.325,23.803044],[90.324955,23.803038],[90.324796,23.803027],[90.32448,23.802951],[90.324294,23.802925],[90.32429,23.802849],[90.324254,23.802839],[90.324283,23.802552],[90.324549,23.802618],[90.324731,23.802705],[90.325041,23.802813],[90.325032,23.802842],[90.325026,23.802877],[90.325012,23.802955],[90.325006,23.803001]]]}},{"type":"Feature","properties":{"survey":"bds","sheet":"058","dag":"28515","label_bn":"28515","area_sqm":687.4},"geometry":{"type":"Polygon","coordinates":[[[90.325064,23.802981],[90.325046,23.803051],[90.325,23.803044],[90.325006,23.803001],[90.325012,23.802955],[90.325026,23.802877],[90.325032,23.802842],[90.325041,23.802813],[90.325052,23.802774],[90.325072,23.802717],[90.325075,23.802708],[90.325075,23.802708],[90.325078,23.8027],[90.325105,23.802621],[90.325144,23.802527],[90.325195,23.802398],[90.325234,23.802286],[90.325301,23.802092],[90.325312,23.802057],[90.325317,23.80202],[90.325366,23.802031],[90.325335,23.802118],[90.325312,23.802191],[90.32526,23.802363],[90.325195,23.802568],[90.325152,23.802691],[90.325124,23.80279],[90.325088,23.8029],[90.325064,23.802981]]]}},{"type":"Feature","properties":{"survey":"bds","sheet":"058","dag":"28516","label_bn":"28516","area_sqm":2003.4},"geometry":{"type":"Polygon","coordinates":[[[90.325295,23.803031],[90.325295,23.803089],[90.325046,23.803051],[90.325064,23.802981],[90.325088,23.8029],[90.325124,23.80279],[90.325152,23.802691],[90.325195,23.802568],[90.32526,23.802363],[90.325312,23.802191],[90.325335,23.802118],[90.325366,23.802031],[90.325427,23.802045],[90.325427,23.802045],[90.325421,23.802113],[90.325415,23.802201],[90.325407,23.802272],[90.325385,23.802454],[90.325365,23.802615],[90.325354,23.802759],[90.325345,23.802795],[90.325311,23.802952],[90.325295,23.803031]]]}},{"type":"Feature","properties":{"survey":"bds","sheet":"058","dag":"28506","label_bn":"28506","area_sqm":1387.2},"geometry":{"type":"Polygon","coordinates":[[[90.322677,23.802937],[90.32259,23.80315],[90.322516,23.803123],[90.322503,23.803104],[90.322169,23.80309],[90.322174,23.802919],[90.322202,23.802835],[90.322234,23.802844],[90.322279,23.80285],[90.322374,23.802852],[90.322507,23.802852],[90.322566,23.802847],[90.322651,23.802841],[90.322677,23.802937]]]}},{"type":"Feature","properties":{"survey":"bds","sheet":"058","dag":"28507","label_bn":"28507","area_sqm":526.7},"geometry":{"type":"Polygon","coordinates":[[[90.32284,23.802993],[90.322857,23.803183],[90.32259,23.80315],[90.322677,23.802937],[90.322838,23.802971],[90.32284,23.802993]]]}}]}