{"type":"FeatureCollection","features":[{"type":"Feature","properties":{"survey":"bds","sheet":"059","dag":"29019","label_bn":"29019","area_sqm":162.7},"geometry":{"type":"Polygon","coordinates":[[[90.328567,23.805366],[90.328664,23.805366],[90.328665,23.805377],[90.328681,23.805522],[90.328578,23.805501],[90.328567,23.805366]]]}},{"type":"Feature","properties":{"survey":"bds","sheet":"059","dag":"29029","label_bn":"29029","area_sqm":162.7},"geometry":{"type":"Polygon","coordinates":[[[90.328222,23.804943],[90.328325,23.804926],[90.328332,23.805074],[90.328228,23.805072],[90.328222,23.804943]]]}},{"type":"Feature","properties":{"survey":"bds","sheet":"059","dag":"29028","label_bn":"29028","area_sqm":203.2},"geometry":{"type":"Polygon","coordinates":[[[90.328325,23.804926],[90.328426,23.80491],[90.328437,23.805092],[90.328333,23.805092],[90.328332,23.805074],[90.328325,23.804926]]]}},{"type":"Feature","properties":{"survey":"bds","sheet":"059","dag":"29027","label_bn":"29027","area_sqm":203.4},"geometry":{"type":"Polygon","coordinates":[[[90.328333,23.805092],[90.328437,23.805092],[90.328438,23.805105],[90.328447,23.805263],[90.328341,23.805264],[90.328333,23.805092]]]}},{"type":"Feature","properties":{"survey":"bds","sheet":"059","dag":"29018","label_bn":"29018","area_sqm":243.8},"geometry":{"type":"Polygon","coordinates":[[[90.32845,23.8053],[90.328562,23.8053],[90.328567,23.805366],[90.328578,23.805501],[90.32846,23.805476],[90.32845,23.8053]]]}},{"type":"Feature","properties":{"survey":"bds","sheet":"059","dag":"29025","label_bn":"29025","area_sqm":243.8},"geometry":{"type":"Polygon","coordinates":[[[90.328438,23.805105],[90.328546,23.805105],[90.328548,23.805135],[90.328562,23.8053],[90.32845,23.8053],[90.328447,23.805263],[90.328438,23.805105]]]}},{"type":"Feature","properties":{"survey":"bds","sheet":"059","dag":"29017","label_bn":"29017","area_sqm":243.8},"geometry":{"type":"Polygon","coordinates":[[[90.328341,23.805264],[90.328447,23.805263],[90.32845,23.8053],[90.32846,23.805476],[90.32835,23.805452],[90.328341,23.805264]]]}},{"type":"Feature","properties":{"survey":"bds","sheet":"059","dag":"29024","label_bn":"29024","area_sqm":243.8},"geometry":{"type":"Polygon","coordinates":[[[90.328548,23.805135],[90.328639,23.805135],[90.328645,23.805189],[90.328664,23.805366],[90.328567,23.805366],[90.328562,23.8053],[90.328548,23.805135]]]}},{"type":"Feature","properties":{"survey":"bds","sheet":"059","dag":"29020","label_bn":"29020","area_sqm":244.0},"geometry":{"type":"Polygon","coordinates":[[[90.328665,23.805377],[90.328813,23.805376],[90.328812,23.805381],[90.328806,23.805532],[90.328801,23.805547],[90.328681,23.805522],[90.328665,23.805377]]]}},{"type":"Feature","properties":{"survey":"bds","sheet":"059","dag":"29026","label_bn":"29026","area_sqm":244.3},"geometry":{"type":"Polygon","coordinates":[[[90.328426,23.80491],[90.328529,23.804894],[90.328546,23.805105],[90.328438,23.805105],[90.328437,23.805092],[90.328426,23.80491]]]}},{"type":"Feature","properties":{"survey":"bds","sheet":"059","dag":"29023","label_bn":"29023","area_sqm":244.5},"geometry":{"type":"Polygon","coordinates":[[[90.328529,23.804894],[90.328611,23.80488],[90.328639,23.805135],[90.328548,23.805135],[90.328546,23.805105],[90.328529,23.804894]]]}},{"type":"Feature","properties":{"survey":"bds","sheet":"059","dag":"29002","label_bn":"29002","area_sqm":264.2},"geometry":{"type":"Polygon","coordinates":[[[90.325601,23.804792],[90.325762,23.80474],[90.326128,23.804909],[90.325601,23.804792]]]}},{"type":"Feature","properties":{"survey":"bds","sheet":"059","dag":"29030","label_bn":"29030","area_sqm":284.0},"geometry":{"type":"Polygon","coordinates":[[[90.327953,23.805042],[90.327971,23.804984],[90.328222,23.804943],[90.328228,23.805072],[90.328053,23.80507],[90.328053,23.805033],[90.327953,23.805042]]]}},{"type":"Feature","properties":{"survey":"bds","sheet":"059","dag":"29021","label_bn":"29021","area_sqm":325.3},"geometry":{"type":"Polygon","coordinates":[[[90.328645,23.805189],[90.328789,23.80519],[90.328808,23.805255],[90.328817,23.805332],[90.328813,23.805376],[90.328665,23.805377],[90.328664,23.805366],[90.328645,23.805189]]]}},{"type":"Feature","properties":{"survey":"bds","sheet":"059","dag":"29022","label_bn":"29022","area_sqm":325.6},"geometry":{"type":"Polygon","coordinates":[[[90.328611,23.80488],[90.328628,23.804878],[90.328762,23.805094],[90.328789,23.80519],[90.328645,23.805189],[90.328639,23.805135],[90.328611,23.80488]]]}},{"type":"Feature","properties":{"survey":"bds","sheet":"059","dag":"29014","label_bn":"29014","area_sqm":650.6},"geometry":{"type":"Polygon","coordinates":[[[90.327661,23.805361],[90.327685,23.805054],[90.32785,23.805104],[90.327812,23.805344],[90.32779,23.805494],[90.327704,23.805443],[90.327661,23.805361]]]}},{"type":"Feature","properties":{"survey":"bds","sheet":"059","dag":"29015","label_bn":"29015","area_sqm":804.2},"geometry":{"type":"Polygon","coordinates":[[[90.327812,23.805344],[90.32785,23.805104],[90.327857,23.805056],[90.327953,23.805042],[90.328053,23.805033],[90.328053,23.80507],[90.328053,23.80539],[90.328041,23.805388],[90.327812,23.805344]]]}},{"type":"Feature","properties":{"survey":"bds","sheet":"059","dag":"29008","label_bn":"29008","area_sqm":853.7},"geometry":{"type":"Polygon","coordinates":[[[90.327215,23.804381],[90.32724,23.804335],[90.327229,23.80432],[90.327255,23.804267],[90.327652,23.804407],[90.327772,23.804455],[90.327803,23.804537],[90.327513,23.804523],[90.327437,23.804492],[90.327336,23.804441],[90.327259,23.804402],[90.327215,23.804381]]]}},{"type":"Feature","properties":{"survey":"bds","sheet":"059","dag":"29012","label_bn":"29012","area_sqm":1057.1},"geometry":{"type":"Polygon","coordinates":[[[90.327121,23.80486],[90.327336,23.804441],[90.327437,23.804492],[90.327513,23.804523],[90.327314,23.804939],[90.327308,23.804936],[90.327293,23.804929],[90.327121,23.80486]]]}},{"type":"Feature","properties":{"survey":"bds","sheet":"059","dag":"29006","label_bn":"29006","area_sqm":1069.2},"geometry":{"type":"Polygon","coordinates":[[[90.326976,23.80421],[90.327133,23.803931],[90.327147,23.803909],[90.327387,23.804001],[90.327268,23.804243],[90.327255,23.804267],[90.327229,23.80432],[90.327103,23.804274],[90.326976,23.80421]]]}},{"type":"Feature","properties":{"survey":"bds","sheet":"059","dag":"29016","label_bn":"29016","area_sqm":1138.2},"geometry":{"type":"Polygon","coordinates":[[[90.328053,23.80507],[90.328228,23.805072],[90.328332,23.805074],[90.328333,23.805092],[90.328341,23.805264],[90.32835,23.805452],[90.328295,23.805441],[90.328053,23.80539],[90.328053,23.80507]]]}},{"type":"Feature","properties":{"survey":"bds","sheet":"059","dag":"29009","label_bn":"29009","area_sqm":1423.5},"geometry":{"type":"Polygon","coordinates":[[[90.326751,23.804712],[90.326802,23.804674],[90.326819,23.804658],[90.326919,23.80459],[90.326964,23.804553],[90.327076,23.804498],[90.327193,23.804407],[90.327215,23.804381],[90.327259,23.804402],[90.327336,23.804441],[90.327121,23.80486],[90.326751,23.804712]]]}},{"type":"Feature","properties":{"survey":"bds","sheet":"059","dag":"29007","label_bn":"29007","area_sqm":1625.2},"geometry":{"type":"Polygon","coordinates":[[[90.327255,23.804267],[90.327268,23.804243],[90.327387,23.804001],[90.327578,23.804008],[90.327602,23.803996],[90.327795,23.804052],[90.327652,23.804407],[90.327255,23.804267]]]}},{"type":"Feature","properties":{"survey":"bds","sheet":"059","dag":"29033","label_bn":"29033","area_sqm":1779.0},"geometry":{"type":"Polygon","coordinates":[[[90.327902,23.803613],[90.328045,23.803395],[90.32805,23.803384],[90.328296,23.803483],[90.328327,23.803481],[90.328397,23.803475],[90.328549,23.803547],[90.328447,23.803808],[90.328365,23.803804],[90.327911,23.803618],[90.327902,23.803613]]]}},{"type":"Feature","properties":{"survey":"bds","sheet":"059","dag":"29011","label_bn":"29011","area_sqm":2296.2},"geometry":{"type":"Polygon","coordinates":[[[90.327035,23.80521],[90.327082,23.804971],[90.327121,23.80486],[90.327293,23.804929],[90.327308,23.804936],[90.327314,23.804939],[90.327685,23.805054],[90.327661,23.805361],[90.327344,23.805282],[90.327315,23.805274],[90.327035,23.80521]]]}},{"type":"Feature","properties":{"survey":"bds","sheet":"059","dag":"29010","label_bn":"29010","area_sqm":2297.7},"geometry":{"type":"Polygon","coordinates":[[[90.326389,23.804979],[90.326751,23.804712],[90.327121,23.80486],[90.327082,23.804971],[90.327035,23.80521],[90.326869,23.805164],[90.326744,23.805121],[90.326614,23.805061],[90.326477,23.80502],[90.326389,23.804979]]]}},{"type":"Feature","properties":{"survey":"bds","sheet":"059","dag":"29004","label_bn":"29004","area_sqm":2459.5},"geometry":{"type":"Polygon","coordinates":[[[90.326325,23.803904],[90.326373,23.803736],[90.326508,23.803642],[90.327014,23.803893],[90.327133,23.803931],[90.326976,23.80421],[90.326917,23.804167],[90.326772,23.804089],[90.326575,23.803999],[90.326463,23.803965],[90.326325,23.803904]]]}},{"type":"Feature","properties":{"survey":"bds","sheet":"059","dag":"29013","label_bn":"29013","area_sqm":2805.3},"geometry":{"type":"Polygon","coordinates":[[[90.327314,23.804939],[90.327513,23.804523],[90.327803,23.804537],[90.327971,23.804984],[90.327953,23.805042],[90.327857,23.805056],[90.32785,23.805104],[90.327685,23.805054],[90.327314,23.804939]]]}},{"type":"Feature","properties":{"survey":"bds","sheet":"059","dag":"29032","label_bn":"29032","area_sqm":3413.1},"geometry":{"type":"Polygon","coordinates":[[[90.327602,23.803996],[90.327838,23.803734],[90.327902,23.803613],[90.327911,23.803618],[90.328365,23.803804],[90.328447,23.803808],[90.328474,23.803831],[90.328474,23.803831],[90.328504,23.803857],[90.328505,23.803857],[90.328532,23.803881],[90.32854,23.803887],[90.328302,23.804213],[90.327795,23.804052],[90.327602,23.803996]]]}},{"type":"Feature","properties":{"survey":"bds","sheet":"059","dag":"29005","label_bn":"29005","area_sqm":5427.6},"geometry":{"type":"Polygon","coordinates":[[[90.327014,23.803893],[90.327391,23.803362],[90.32755,23.803135],[90.328045,23.803395],[90.327902,23.803613],[90.327838,23.803734],[90.327602,23.803996],[90.327578,23.804008],[90.327387,23.804001],[90.327147,23.803909],[90.327133,23.803931],[90.327014,23.803893]]]}},{"type":"Feature","properties":{"survey":"bds","sheet":"059","dag":"29031","label_bn":"29031","area_sqm":6089.6},"geometry":{"type":"Polygon","coordinates":[[[90.327652,23.804407],[90.327795,23.804052],[90.328302,23.804213],[90.328381,23.804273],[90.328398,23.804344],[90.328423,23.804423],[90.328575,23.804776],[90.328588,23.804813],[90.328628,23.804878],[90.328611,23.80488],[90.328529,23.804894],[90.328426,23.80491],[90.328325,23.804926],[90.328222,23.804943],[90.327971,23.804984],[90.327803,23.804537],[90.327772,23.804455],[90.327652,23.804407]]]}},{"type":"Feature","properties":{"survey":"bds","sheet":"059","dag":"29003","label_bn":"29003","area_sqm":9848.3},"geometry":{"type":"Polygon","coordinates":[[[90.325762,23.80474],[90.325827,23.804537],[90.326095,23.804189],[90.326325,23.803904],[90.326463,23.803965],[90.326575,23.803999],[90.326772,23.804089],[90.326917,23.804167],[90.326976,23.80421],[90.327103,23.804274],[90.327229,23.80432],[90.32724,23.804335],[90.327215,23.804381],[90.327193,23.804407],[90.327076,23.804498],[90.326964,23.804553],[90.326919,23.80459],[90.326819,23.804658],[90.326802,23.804674],[90.326751,23.804712],[90.326389,23.804979],[90.326342,23.804957],[90.326128,23.804909],[90.325762,23.80474]]]}},{"type":"Feature","properties":{"survey":"bds","sheet":"059","dag":"29001","label_bn":"29001","area_sqm":28302.7},"geometry":{"type":"Polygon","coordinates":[[[90.325091,23.803649],[90.32527,23.803271],[90.325295,23.803089],[90.327247,23.802984],[90.327549,23.803134],[90.32755,23.803135],[90.327391,23.803362],[90.327014,23.803893],[90.326508,23.803642],[90.326373,23.803736],[90.326325,23.803904],[90.326095,23.804189],[90.325827,23.804537],[90.325762,23.80474],[90.325601,23.804792],[90.325102,23.804682],[90.325091,23.803649]]]}}]}