{"type":"FeatureCollection","features":[{"type":"Feature","properties":{"survey":"bds","sheet":"060","dag":"29562","label_bn":"29562","area_sqm":34.3},"geometry":{"type":"Polygon","coordinates":[[[90.330443,23.803036],[90.330564,23.803056],[90.330447,23.803086],[90.330443,23.803036]]]}},{"type":"Feature","properties":{"survey":"bds","sheet":"060","dag":"29519","label_bn":"29519","area_sqm":38.3},"geometry":{"type":"Polygon","coordinates":[[[90.330993,23.805863],[90.330996,23.805853],[90.330998,23.805808],[90.331002,23.80567],[90.331017,23.80567],[90.331015,23.805872],[90.330993,23.805863]]]}},{"type":"Feature","properties":{"survey":"bds","sheet":"060","dag":"29518","label_bn":"29518","area_sqm":105.3},"geometry":{"type":"Polygon","coordinates":[[[90.33099,23.805483],[90.331056,23.805599],[90.331075,23.805609],[90.331104,23.805653],[90.331107,23.80567],[90.331017,23.80567],[90.331002,23.80567],[90.331004,23.805628],[90.330994,23.805499],[90.33099,23.805483]]]}},{"type":"Feature","properties":{"survey":"bds","sheet":"060","dag":"29534","label_bn":"29534","area_sqm":121.9},"geometry":{"type":"Polygon","coordinates":[[[90.328678,23.804424],[90.328763,23.804389],[90.328805,23.804489],[90.32881,23.804499],[90.328724,23.80453],[90.328678,23.804424]]]}},{"type":"Feature","properties":{"survey":"bds","sheet":"060","dag":"29538","label_bn":"29538","area_sqm":123.2},"geometry":{"type":"Polygon","coordinates":[[[90.328565,23.8039],[90.328596,23.803827],[90.328636,23.803722],[90.328649,23.803701],[90.328683,23.803661],[90.328692,23.803652],[90.328689,23.803659],[90.328689,23.803661],[90.328676,23.803744],[90.328653,23.80381],[90.328603,23.80392],[90.328566,23.803901],[90.328565,23.8039]]]}},{"type":"Feature","properties":{"survey":"bds","sheet":"060","dag":"29546","label_bn":"29546","area_sqm":129.3},"geometry":{"type":"Polygon","coordinates":[[[90.329151,23.803067],[90.329262,23.802878],[90.329325,23.802767],[90.32935,23.802782],[90.329302,23.802865],[90.329289,23.802891],[90.329231,23.803013],[90.329214,23.803045],[90.329198,23.803063],[90.329174,23.803064],[90.329151,23.803067]]]}},{"type":"Feature","properties":{"survey":"bds","sheet":"060","dag":"29541","label_bn":"29541","area_sqm":135.4},"geometry":{"type":"Polygon","coordinates":[[[90.328717,23.80359],[90.328722,23.803579],[90.328738,23.803529],[90.32876,23.803462],[90.328761,23.803461],[90.328766,23.803446],[90.328771,23.803404],[90.328785,23.803367],[90.328786,23.803365],[90.328792,23.80335],[90.32881,23.803332],[90.328812,23.803346],[90.328818,23.803397],[90.328827,23.803471],[90.32883,23.803488],[90.328828,23.803498],[90.328828,23.803498],[90.328828,23.803498],[90.328809,23.803518],[90.328771,23.803551],[90.328762,23.803558],[90.328717,23.80359]]]}},{"type":"Feature","properties":{"survey":"bds","sheet":"060","dag":"29558","label_bn":"29558","area_sqm":178.9},"geometry":{"type":"Polygon","coordinates":[[[90.330448,23.80348],[90.330449,23.803479],[90.330495,23.803345],[90.330583,23.803355],[90.33057,23.803405],[90.330541,23.803464],[90.330488,23.803555],[90.330468,23.803542],[90.330455,23.803525],[90.330448,23.80348]]]}},{"type":"Feature","properties":{"survey":"bds","sheet":"060","dag":"29515","label_bn":"29515","area_sqm":181.0},"geometry":{"type":"Polygon","coordinates":[[[90.330492,23.806083],[90.330608,23.806058],[90.330758,23.805997],[90.330842,23.805959],[90.330906,23.80591],[90.330944,23.805843],[90.330992,23.805863],[90.330993,23.805863],[90.330991,23.805867],[90.330979,23.80588],[90.330957,23.805898],[90.330929,23.805914],[90.330909,23.805929],[90.330755,23.806043],[90.330707,23.806067],[90.33064,23.806092],[90.330635,23.806093],[90.330492,23.806083]]]}},{"type":"Feature","properties":{"survey":"bds","sheet":"060","dag":"29547","label_bn":"29547","area_sqm":199.3},"geometry":{"type":"Polygon","coordinates":[[[90.329289,23.802891],[90.329302,23.802865],[90.32935,23.802782],[90.32944,23.802835],[90.329439,23.802837],[90.3294,23.802927],[90.329344,23.803],[90.329323,23.802987],[90.329316,23.802968],[90.329319,23.802949],[90.329303,23.802898],[90.329289,23.802891]]]}},{"type":"Feature","properties":{"survey":"bds","sheet":"060","dag":"29533","label_bn":"29533","area_sqm":203.6},"geometry":{"type":"Polygon","coordinates":[[[90.328724,23.80453],[90.32881,23.804499],[90.328889,23.804683],[90.328873,23.804688],[90.3288,23.804707],[90.328724,23.80453]]]}},{"type":"Feature","properties":{"survey":"bds","sheet":"060","dag":"29545","label_bn":"29545","area_sqm":209.8},"geometry":{"type":"Polygon","coordinates":[[[90.329146,23.803068],[90.329151,23.803067],[90.329174,23.803064],[90.329198,23.803063],[90.329214,23.803045],[90.329231,23.803013],[90.329289,23.802891],[90.329303,23.802898],[90.329319,23.802949],[90.329316,23.802968],[90.329323,23.802987],[90.329344,23.803],[90.329287,23.803085],[90.32924,23.803125],[90.329213,23.803118],[90.329187,23.80313],[90.329171,23.803093],[90.329146,23.803068]]]}},{"type":"Feature","properties":{"survey":"bds","sheet":"060","dag":"29517","label_bn":"29517","area_sqm":222.9},"geometry":{"type":"Polygon","coordinates":[[[90.331015,23.805872],[90.331017,23.80567],[90.331107,23.80567],[90.331117,23.805761],[90.331111,23.805781],[90.331084,23.805906],[90.331049,23.805886],[90.331015,23.805872]]]}},{"type":"Feature","properties":{"survey":"bds","sheet":"060","dag":"29523","label_bn":"29523","area_sqm":246.9},"geometry":{"type":"Polygon","coordinates":[[[90.330675,23.805107],[90.330685,23.805041],[90.3307,23.804888],[90.3307,23.804886],[90.330757,23.804894],[90.330758,23.804908],[90.330818,23.805101],[90.330825,23.805116],[90.330787,23.805114],[90.330675,23.805107]]]}},{"type":"Feature","properties":{"survey":"bds","sheet":"060","dag":"29539","label_bn":"29539","area_sqm":266.5},"geometry":{"type":"Polygon","coordinates":[[[90.328396,23.804097],[90.328416,23.804057],[90.328511,23.803926],[90.328518,23.803917],[90.32854,23.803887],[90.328541,23.803867],[90.328563,23.803797],[90.328571,23.803769],[90.328579,23.803742],[90.328586,23.803702],[90.328588,23.803695],[90.328593,23.803684],[90.328598,23.803672],[90.328608,23.803663],[90.328717,23.80359],[90.328782,23.803583],[90.328776,23.803587],[90.328752,23.803603],[90.328729,23.803618],[90.328708,23.803638],[90.328692,23.803652],[90.328683,23.803661],[90.328649,23.803701],[90.328636,23.803722],[90.328596,23.803827],[90.328565,23.8039],[90.328545,23.803946],[90.328482,23.804029],[90.328434,23.804067],[90.328396,23.804097]]]}},{"type":"Feature","properties":{"survey":"bds","sheet":"060","dag":"29561","label_bn":"29561","area_sqm":267.6},"geometry":{"type":"Polygon","coordinates":[[[90.330002,23.803099],[90.330044,23.803093],[90.330112,23.803083],[90.330403,23.803041],[90.330443,23.803036],[90.330447,23.803086],[90.330374,23.803105],[90.330175,23.803148],[90.330107,23.803128],[90.330057,23.803116],[90.330002,23.803099]]]}},{"type":"Feature","properties":{"survey":"bds","sheet":"060","dag":"29532","label_bn":"29532","area_sqm":284.7},"geometry":{"type":"Polygon","coordinates":[[[90.328602,23.804454],[90.328634,23.804441],[90.328678,23.804424],[90.328724,23.80453],[90.3288,23.804707],[90.328788,23.804711],[90.328752,23.804718],[90.328715,23.804725],[90.328602,23.804454]]]}},{"type":"Feature","properties":{"survey":"bds","sheet":"060","dag":"29542","label_bn":"29542","area_sqm":319.6},"geometry":{"type":"Polygon","coordinates":[[[90.328717,23.80359],[90.328762,23.803558],[90.328771,23.803551],[90.328809,23.803518],[90.328828,23.803498],[90.328828,23.803498],[90.328828,23.803498],[90.32883,23.803488],[90.328827,23.803471],[90.328818,23.803397],[90.328812,23.803346],[90.32881,23.803332],[90.328807,23.803307],[90.328803,23.803253],[90.3288,23.803244],[90.328798,23.803239],[90.328789,23.803224],[90.32876,23.803197],[90.328778,23.803192],[90.328821,23.803178],[90.328861,23.803151],[90.328946,23.803109],[90.329083,23.803068],[90.329139,23.80307],[90.329127,23.803075],[90.328892,23.803173],[90.328843,23.803234],[90.328839,23.803292],[90.32884,23.803309],[90.32884,23.803314],[90.328842,23.803343],[90.328853,23.803398],[90.328854,23.803402],[90.328868,23.803476],[90.328871,23.803498],[90.328869,23.803505],[90.328868,23.803512],[90.328864,23.803519],[90.328861,23.803526],[90.32881,23.803563],[90.328806,23.803566],[90.328782,23.803583],[90.328717,23.80359]]]}},{"type":"Feature","properties":{"survey":"bds","sheet":"060","dag":"29520","label_bn":"29520","area_sqm":337.6},"geometry":{"type":"Polygon","coordinates":[[[90.330928,23.805837],[90.330931,23.805329],[90.330962,23.805433],[90.33099,23.805483],[90.330994,23.805499],[90.331004,23.805628],[90.331002,23.80567],[90.330998,23.805808],[90.330996,23.805853],[90.330993,23.805863],[90.330992,23.805863],[90.330944,23.805843],[90.330939,23.805841],[90.330928,23.805837]]]}},{"type":"Feature","properties":{"survey":"bds","sheet":"060","dag":"29544","label_bn":"29544","area_sqm":397.1},"geometry":{"type":"Polygon","coordinates":[[[90.328839,23.803292],[90.328843,23.803234],[90.328892,23.803173],[90.329127,23.803075],[90.329139,23.80307],[90.329144,23.803068],[90.329146,23.803068],[90.329171,23.803093],[90.329187,23.80313],[90.32914,23.803164],[90.328952,23.803268],[90.32884,23.803314],[90.32884,23.803309],[90.328839,23.803292]]]}},{"type":"Feature","properties":{"survey":"bds","sheet":"060","dag":"29524","label_bn":"29524","area_sqm":401.5},"geometry":{"type":"Polygon","coordinates":[[[90.330508,23.805097],[90.330549,23.80491],[90.330559,23.804881],[90.33057,23.80487],[90.3307,23.804886],[90.3307,23.804888],[90.330685,23.805041],[90.330675,23.805107],[90.330508,23.805097]]]}},{"type":"Feature","properties":{"survey":"bds","sheet":"060","dag":"29553","label_bn":"29553","area_sqm":405.7},"geometry":{"type":"Polygon","coordinates":[[[90.329094,23.803627],[90.329121,23.803589],[90.329148,23.803538],[90.329367,23.803571],[90.32944,23.803585],[90.32944,23.803586],[90.329436,23.803654],[90.329443,23.803709],[90.329094,23.803627]]]}},{"type":"Feature","properties":{"survey":"bds","sheet":"060","dag":"29510","label_bn":"29510","area_sqm":406.9},"geometry":{"type":"Polygon","coordinates":[[[90.329931,23.805504],[90.329941,23.805481],[90.329944,23.805472],[90.330025,23.805277],[90.330039,23.805228],[90.330158,23.805253],[90.330048,23.80554],[90.329931,23.805504]]]}},{"type":"Feature","properties":{"survey":"bds","sheet":"060","dag":"29511","label_bn":"29511","area_sqm":407.3},"geometry":{"type":"Polygon","coordinates":[[[90.330048,23.80554],[90.330158,23.805253],[90.330211,23.805265],[90.330268,23.805277],[90.330162,23.805576],[90.330094,23.805555],[90.330048,23.80554]]]}},{"type":"Feature","properties":{"survey":"bds","sheet":"060","dag":"29537","label_bn":"29537","area_sqm":424.9},"geometry":{"type":"Polygon","coordinates":[[[90.328603,23.80392],[90.328653,23.80381],[90.328676,23.803744],[90.328689,23.803661],[90.328689,23.803659],[90.328692,23.803652],[90.328708,23.803638],[90.328729,23.803618],[90.328752,23.803603],[90.328776,23.803587],[90.328782,23.803583],[90.328789,23.803584],[90.328816,23.803586],[90.328741,23.803929],[90.328715,23.803929],[90.328642,23.803931],[90.328603,23.80392]]]}},{"type":"Feature","properties":{"survey":"bds","sheet":"060","dag":"29516","label_bn":"29516","area_sqm":430.9},"geometry":{"type":"Polygon","coordinates":[[[90.330635,23.806093],[90.33064,23.806092],[90.330707,23.806067],[90.330755,23.806043],[90.330909,23.805929],[90.330929,23.805914],[90.330957,23.805898],[90.330979,23.80588],[90.330991,23.805867],[90.330993,23.805863],[90.331015,23.805872],[90.331049,23.805886],[90.331084,23.805906],[90.331082,23.805959],[90.331009,23.806022],[90.330929,23.80605],[90.330697,23.806098],[90.330635,23.806093]]]}},{"type":"Feature","properties":{"survey":"bds","sheet":"060","dag":"29526","label_bn":"29526","area_sqm":431.6},"geometry":{"type":"Polygon","coordinates":[[[90.33057,23.80487],[90.330571,23.804649],[90.330646,23.804665],[90.33074,23.804684],[90.330757,23.804894],[90.3307,23.804886],[90.33057,23.80487]]]}},{"type":"Feature","properties":{"survey":"bds","sheet":"060","dag":"29531","label_bn":"29531","area_sqm":476.1},"geometry":{"type":"Polygon","coordinates":[[[90.328461,23.804511],[90.328542,23.804478],[90.328602,23.804454],[90.328715,23.804725],[90.328673,23.804733],[90.328566,23.804754],[90.328461,23.804511]]]}},{"type":"Feature","properties":{"survey":"bds","sheet":"060","dag":"29514","label_bn":"29514","area_sqm":482.8},"geometry":{"type":"Polygon","coordinates":[[[90.330616,23.805729],[90.33089,23.805824],[90.33092,23.805835],[90.330928,23.805837],[90.330939,23.805841],[90.330944,23.805843],[90.330906,23.80591],[90.330842,23.805959],[90.330758,23.805997],[90.33074,23.80597],[90.330728,23.805953],[90.330725,23.805948],[90.330643,23.805811],[90.330616,23.805729]]]}},{"type":"Feature","properties":{"survey":"bds","sheet":"060","dag":"29549","label_bn":"29549","area_sqm":525.5},"geometry":{"type":"Polygon","coordinates":[[[90.32924,23.803125],[90.329287,23.803085],[90.329344,23.803],[90.3294,23.802927],[90.329439,23.802837],[90.32942,23.802919],[90.32944,23.802971],[90.329493,23.803009],[90.329491,23.803032],[90.329459,23.80321],[90.329301,23.8032],[90.329263,23.803204],[90.329257,23.803175],[90.32924,23.803125]]]}},{"type":"Feature","properties":{"survey":"bds","sheet":"060","dag":"29527","label_bn":"29527","area_sqm":569.4},"geometry":{"type":"Polygon","coordinates":[[[90.330134,23.804453],[90.330733,23.804599],[90.33074,23.804684],[90.330646,23.804665],[90.330571,23.804649],[90.33054,23.804635],[90.330169,23.804542],[90.330134,23.804539],[90.330134,23.804453]]]}},{"type":"Feature","properties":{"survey":"bds","sheet":"060","dag":"29548","label_bn":"29548","area_sqm":695.6},"geometry":{"type":"Polygon","coordinates":[[[90.32942,23.802919],[90.329439,23.802837],[90.329617,23.802947],[90.329932,23.8031],[90.32994,23.803108],[90.329907,23.803178],[90.329724,23.803126],[90.329601,23.803066],[90.329491,23.803032],[90.329493,23.803009],[90.32944,23.802971],[90.32942,23.802919]]]}},{"type":"Feature","properties":{"survey":"bds","sheet":"060","dag":"29552","label_bn":"29552","area_sqm":720.3},"geometry":{"type":"Polygon","coordinates":[[[90.329436,23.803654],[90.32944,23.803586],[90.32944,23.803585],[90.329449,23.80351],[90.329463,23.803354],[90.32965,23.803415],[90.329618,23.803633],[90.329601,23.803753],[90.329443,23.803709],[90.329436,23.803654]]]}},{"type":"Feature","properties":{"survey":"bds","sheet":"060","dag":"29535","label_bn":"29535","area_sqm":879.1},"geometry":{"type":"Polygon","coordinates":[[[90.328381,23.804273],[90.328596,23.804202],[90.328691,23.804194],[90.328763,23.804389],[90.328678,23.804424],[90.328634,23.804441],[90.328602,23.804454],[90.328542,23.804478],[90.328461,23.804511],[90.328423,23.804423],[90.328398,23.804344],[90.328381,23.804273]]]}},{"type":"Feature","properties":{"survey":"bds","sheet":"060","dag":"29501","label_bn":"29501","area_sqm":893.5},"geometry":{"type":"Polygon","coordinates":[[[90.328898,23.805508],[90.328935,23.805498],[90.328975,23.805573],[90.328979,23.805581],[90.32899,23.805597],[90.329032,23.805654],[90.329056,23.805686],[90.329076,23.805714],[90.329152,23.8058],[90.329224,23.805933],[90.329237,23.805957],[90.329253,23.80602],[90.329268,23.806145],[90.329227,23.80615],[90.329178,23.806146],[90.329122,23.806134],[90.329109,23.80608],[90.329099,23.806041],[90.329095,23.806025],[90.329085,23.805994],[90.329074,23.805962],[90.329074,23.805961],[90.329065,23.80594],[90.329056,23.805917],[90.329046,23.805895],[90.329037,23.805872],[90.329029,23.805857],[90.329023,23.805846],[90.329005,23.805809],[90.32899,23.80577],[90.328987,23.805762],[90.328976,23.805731],[90.328951,23.805656],[90.328945,23.805639],[90.328938,23.805619],[90.328926,23.805582],[90.328898,23.805508]]]}},{"type":"Feature","properties":{"survey":"bds","sheet":"060","dag":"29507","label_bn":"29507","area_sqm":903.4},"geometry":{"type":"Polygon","coordinates":[[[90.329675,23.805871],[90.329687,23.80545],[90.329944,23.805472],[90.329941,23.805481],[90.329931,23.805504],[90.32986,23.805662],[90.329852,23.805758],[90.329887,23.80583],[90.329675,23.805871]]]}},{"type":"Feature","properties":{"survey":"bds","sheet":"060","dag":"29536","label_bn":"29536","area_sqm":963.8},"geometry":{"type":"Polygon","coordinates":[[[90.328302,23.804213],[90.328416,23.804057],[90.328396,23.804097],[90.328434,23.804067],[90.328482,23.804029],[90.328545,23.803946],[90.328565,23.8039],[90.328566,23.803901],[90.328603,23.80392],[90.328642,23.803931],[90.328715,23.803929],[90.328691,23.804194],[90.328596,23.804202],[90.328381,23.804273],[90.328302,23.804213]]]}},{"type":"Feature","properties":{"survey":"bds","sheet":"060","dag":"29540","label_bn":"29540","area_sqm":991.8},"geometry":{"type":"Polygon","coordinates":[[[90.328447,23.803808],[90.328549,23.803547],[90.328697,23.803244],[90.328726,23.803214],[90.328732,23.803207],[90.328734,23.803205],[90.32876,23.803197],[90.328789,23.803224],[90.328798,23.803239],[90.3288,23.803244],[90.328803,23.803253],[90.328807,23.803307],[90.32881,23.803332],[90.328792,23.80335],[90.328786,23.803365],[90.328785,23.803367],[90.328771,23.803404],[90.328766,23.803446],[90.328761,23.803461],[90.32876,23.803462],[90.328738,23.803529],[90.328722,23.803579],[90.328717,23.80359],[90.328608,23.803663],[90.328598,23.803672],[90.328593,23.803684],[90.328588,23.803695],[90.328586,23.803702],[90.328579,23.803742],[90.328571,23.803769],[90.328563,23.803797],[90.328541,23.803867],[90.32854,23.803887],[90.328532,23.803881],[90.328504,23.803857],[90.328474,23.803831],[90.328447,23.803808]]]}},{"type":"Feature","properties":{"survey":"bds","sheet":"060","dag":"29551","label_bn":"29551","area_sqm":1021.4},"geometry":{"type":"Polygon","coordinates":[[[90.329148,23.803538],[90.329188,23.803414],[90.32925,23.803267],[90.329263,23.803204],[90.329301,23.8032],[90.329459,23.80321],[90.329463,23.803354],[90.329449,23.80351],[90.32944,23.803585],[90.329367,23.803571],[90.329148,23.803538]]]}},{"type":"Feature","properties":{"survey":"bds","sheet":"060","dag":"29560","label_bn":"29560","area_sqm":1053.0},"geometry":{"type":"Polygon","coordinates":[[[90.329907,23.803178],[90.32994,23.803108],[90.330002,23.803099],[90.330057,23.803116],[90.330107,23.803128],[90.330175,23.803148],[90.330374,23.803105],[90.330447,23.803086],[90.330456,23.803185],[90.330463,23.80334],[90.330323,23.803315],[90.330079,23.803284],[90.330039,23.803274],[90.33001,23.80326],[90.329968,23.803231],[90.329907,23.803178]]]}},{"type":"Feature","properties":{"survey":"bds","sheet":"060","dag":"29563","label_bn":"29563","area_sqm":1164.7},"geometry":{"type":"Polygon","coordinates":[[[90.330447,23.803086],[90.330564,23.803056],[90.330875,23.80311],[90.33086,23.803159],[90.330833,23.803331],[90.330708,23.803328],[90.330642,23.803334],[90.330583,23.803355],[90.330495,23.803345],[90.330463,23.80334],[90.330456,23.803185],[90.330447,23.803086]]]}},{"type":"Feature","properties":{"survey":"bds","sheet":"060","dag":"29512","label_bn":"29512","area_sqm":1220.3},"geometry":{"type":"Polygon","coordinates":[[[90.330162,23.805576],[90.330268,23.805277],[90.330323,23.805289],[90.330382,23.805301],[90.330449,23.805321],[90.330587,23.805328],[90.330467,23.805679],[90.33043,23.805666],[90.330256,23.805606],[90.330204,23.805589],[90.330162,23.805576]]]}},{"type":"Feature","properties":{"survey":"bds","sheet":"060","dag":"29508","label_bn":"29508","area_sqm":1317.5},"geometry":{"type":"Polygon","coordinates":[[[90.329532,23.805904],[90.329561,23.805892],[90.329675,23.805871],[90.329887,23.80583],[90.329923,23.805823],[90.329989,23.805909],[90.330033,23.806058],[90.33004,23.806082],[90.330015,23.806071],[90.329879,23.8061],[90.3296,23.806199],[90.329587,23.805972],[90.329532,23.805904]]]}},{"type":"Feature","properties":{"survey":"bds","sheet":"060","dag":"29502","label_bn":"29502","area_sqm":1326.3},"geometry":{"type":"Polygon","coordinates":[[[90.329237,23.805957],[90.329457,23.805847],[90.329532,23.805904],[90.329587,23.805972],[90.3296,23.806199],[90.329587,23.806244],[90.329553,23.806258],[90.329391,23.806295],[90.329361,23.80625],[90.32934,23.806225],[90.329268,23.806145],[90.329253,23.80602],[90.329237,23.805957]]]}},{"type":"Feature","properties":{"survey":"bds","sheet":"060","dag":"29530","label_bn":"29530","area_sqm":1476.4},"geometry":{"type":"Polygon","coordinates":[[[90.328566,23.804754],[90.328673,23.804733],[90.328715,23.804725],[90.328752,23.804718],[90.328788,23.804711],[90.3288,23.804707],[90.328873,23.804688],[90.328889,23.804683],[90.328953,23.804666],[90.329078,23.804974],[90.328929,23.805024],[90.328762,23.805094],[90.328588,23.804813],[90.328575,23.804776],[90.328566,23.804754]]]}},{"type":"Feature","properties":{"survey":"bds","sheet":"060","dag":"29543","label_bn":"29543","area_sqm":1546.2},"geometry":{"type":"Polygon","coordinates":[[[90.328782,23.803583],[90.328806,23.803566],[90.32881,23.803563],[90.328861,23.803526],[90.328864,23.803519],[90.328868,23.803512],[90.328869,23.803505],[90.328871,23.803498],[90.328868,23.803476],[90.328854,23.803402],[90.328853,23.803398],[90.328842,23.803343],[90.32884,23.803314],[90.328952,23.803268],[90.32914,23.803164],[90.329187,23.80313],[90.329213,23.803118],[90.32924,23.803125],[90.329257,23.803175],[90.329263,23.803204],[90.32925,23.803267],[90.329188,23.803414],[90.329148,23.803538],[90.329121,23.803589],[90.329094,23.803627],[90.329009,23.803606],[90.328929,23.8036],[90.328879,23.803603],[90.328816,23.803586],[90.328789,23.803584],[90.328782,23.803583]]]}},{"type":"Feature","properties":{"survey":"bds","sheet":"060","dag":"29559","label_bn":"29559","area_sqm":1637.2},"geometry":{"type":"Polygon","coordinates":[[[90.329957,23.803513],[90.330003,23.803402],[90.330039,23.803274],[90.330079,23.803284],[90.330323,23.803315],[90.330463,23.80334],[90.330495,23.803345],[90.330449,23.803479],[90.330448,23.80348],[90.330455,23.803525],[90.330468,23.803542],[90.330488,23.803555],[90.330445,23.803618],[90.330391,23.80369],[90.330265,23.803639],[90.330138,23.803581],[90.329957,23.803513]]]}},{"type":"Feature","properties":{"survey":"bds","sheet":"060","dag":"29506","label_bn":"29506","area_sqm":1652.3},"geometry":{"type":"Polygon","coordinates":[[[90.329687,23.80545],[90.32971,23.80512],[90.32971,23.804988],[90.330079,23.805043],[90.330074,23.805055],[90.330046,23.805206],[90.330039,23.805228],[90.330025,23.805277],[90.329944,23.805472],[90.329687,23.80545]]]}},{"type":"Feature","properties":{"survey":"bds","sheet":"060","dag":"29503","label_bn":"29503","area_sqm":1677.3},"geometry":{"type":"Polygon","coordinates":[[[90.328935,23.805498],[90.328954,23.805488],[90.329,23.805453],[90.329204,23.805383],[90.32938,23.805686],[90.329457,23.805847],[90.329237,23.805957],[90.329224,23.805933],[90.329152,23.8058],[90.329076,23.805714],[90.329056,23.805686],[90.329032,23.805654],[90.32899,23.805597],[90.328979,23.805581],[90.328975,23.805573],[90.328935,23.805498]]]}},{"type":"Feature","properties":{"survey":"bds","sheet":"060","dag":"29513","label_bn":"29513","area_sqm":1704.7},"geometry":{"type":"Polygon","coordinates":[[[90.330202,23.805939],[90.33043,23.805666],[90.330467,23.805679],[90.330505,23.805691],[90.330616,23.805729],[90.330643,23.805811],[90.330725,23.805948],[90.330728,23.805953],[90.33074,23.80597],[90.330758,23.805997],[90.330608,23.806058],[90.330492,23.806083],[90.330479,23.806083],[90.33034,23.806086],[90.330259,23.806088],[90.330254,23.806042],[90.330202,23.805939]]]}},{"type":"Feature","properties":{"survey":"bds","sheet":"060","dag":"29557","label_bn":"29557","area_sqm":1831.9},"geometry":{"type":"Polygon","coordinates":[[[90.330335,23.803825],[90.330391,23.80369],[90.330445,23.803618],[90.330488,23.803555],[90.330746,23.803643],[90.330862,23.80373],[90.330977,23.803817],[90.330867,23.804007],[90.33076,23.803971],[90.330335,23.803825]]]}},{"type":"Feature","properties":{"survey":"bds","sheet":"060","dag":"29550","label_bn":"29550","area_sqm":1918.7},"geometry":{"type":"Polygon","coordinates":[[[90.329459,23.80321],[90.329491,23.803032],[90.329601,23.803066],[90.329724,23.803126],[90.329907,23.803178],[90.329968,23.803231],[90.33001,23.80326],[90.330039,23.803274],[90.330003,23.803402],[90.329957,23.803513],[90.32965,23.803415],[90.329463,23.803354],[90.329459,23.80321]]]}},{"type":"Feature","properties":{"survey":"bds","sheet":"060","dag":"29522","label_bn":"29522","area_sqm":1968.3},"geometry":{"type":"Polygon","coordinates":[[[90.330039,23.805228],[90.330046,23.805206],[90.330074,23.805055],[90.330079,23.805043],[90.330136,23.805051],[90.330429,23.805092],[90.330508,23.805097],[90.330675,23.805107],[90.330787,23.805114],[90.330825,23.805116],[90.330931,23.805329],[90.330898,23.805327],[90.330735,23.805317],[90.330587,23.805328],[90.330449,23.805321],[90.330382,23.805301],[90.330323,23.805289],[90.330268,23.805277],[90.330211,23.805265],[90.330158,23.805253],[90.330039,23.805228]]]}},{"type":"Feature","properties":{"survey":"bds","sheet":"060","dag":"29521","label_bn":"29521","area_sqm":2033.9},"geometry":{"type":"Polygon","coordinates":[[[90.330467,23.805679],[90.330587,23.805328],[90.330735,23.805317],[90.330898,23.805327],[90.330931,23.805329],[90.330928,23.805837],[90.33092,23.805835],[90.33089,23.805824],[90.330616,23.805729],[90.330505,23.805691],[90.330467,23.805679]]]}},{"type":"Feature","properties":{"survey":"bds","sheet":"060","dag":"29504","label_bn":"29504","area_sqm":2108.5},"geometry":{"type":"Polygon","coordinates":[[[90.328762,23.805094],[90.328929,23.805024],[90.329078,23.804974],[90.329172,23.805098],[90.329258,23.805211],[90.329299,23.805299],[90.329294,23.805336],[90.329204,23.805383],[90.329,23.805453],[90.328954,23.805488],[90.328935,23.805498],[90.328898,23.805508],[90.328806,23.805532],[90.328812,23.805381],[90.328817,23.805332],[90.328808,23.805255],[90.328762,23.805094]]]}},{"type":"Feature","properties":{"survey":"bds","sheet":"060","dag":"29509","label_bn":"29509","area_sqm":2207.1},"geometry":{"type":"Polygon","coordinates":[[[90.329852,23.805758],[90.32986,23.805662],[90.329931,23.805504],[90.330048,23.80554],[90.330094,23.805555],[90.330162,23.805576],[90.330204,23.805589],[90.330256,23.805606],[90.33043,23.805666],[90.330202,23.805939],[90.330254,23.806042],[90.330259,23.806088],[90.330156,23.806109],[90.330083,23.806104],[90.33004,23.806082],[90.330033,23.806058],[90.329989,23.805909],[90.329923,23.805823],[90.329887,23.80583],[90.329852,23.805758]]]}},{"type":"Feature","properties":{"survey":"bds","sheet":"060","dag":"29525","label_bn":"29525","area_sqm":2264.9},"geometry":{"type":"Polygon","coordinates":[[[90.330079,23.805043],[90.330168,23.804807],[90.33018,23.804755],[90.330179,23.804689],[90.330165,23.804627],[90.330148,23.80458],[90.330134,23.804539],[90.330169,23.804542],[90.33054,23.804635],[90.330571,23.804649],[90.33057,23.80487],[90.330559,23.804881],[90.330549,23.80491],[90.330508,23.805097],[90.330429,23.805092],[90.330136,23.805051],[90.330079,23.805043]]]}},{"type":"Feature","properties":{"survey":"bds","sheet":"060","dag":"29556","label_bn":"29556","area_sqm":2293.3},"geometry":{"type":"Polygon","coordinates":[[[90.329601,23.803753],[90.329618,23.803633],[90.32965,23.803415],[90.329957,23.803513],[90.330138,23.803581],[90.330265,23.803639],[90.330391,23.80369],[90.330335,23.803825],[90.330283,23.803888],[90.330171,23.803839],[90.33005,23.803809],[90.329862,23.80378],[90.329613,23.80376],[90.329601,23.803753]]]}},{"type":"Feature","properties":{"survey":"bds","sheet":"060","dag":"29505","label_bn":"29505","area_sqm":3755.3},"geometry":{"type":"Polygon","coordinates":[[[90.329172,23.805098],[90.329653,23.804981],[90.32971,23.804988],[90.32971,23.80512],[90.329687,23.80545],[90.329675,23.805871],[90.329561,23.805892],[90.329532,23.805904],[90.329457,23.805847],[90.32938,23.805686],[90.329204,23.805383],[90.329294,23.805336],[90.329299,23.805299],[90.329258,23.805211],[90.329172,23.805098]]]}},{"type":"Feature","properties":{"survey":"bds","sheet":"060","dag":"29528","label_bn":"29528","area_sqm":4048.2},"geometry":{"type":"Polygon","coordinates":[[[90.329653,23.804981],[90.329732,23.80425],[90.330171,23.804207],[90.330154,23.804299],[90.330134,23.804388],[90.330134,23.804429],[90.330134,23.804453],[90.330134,23.804539],[90.330148,23.80458],[90.330165,23.804627],[90.330179,23.804689],[90.33018,23.804755],[90.330168,23.804807],[90.330079,23.805043],[90.32971,23.804988],[90.329653,23.804981]]]}},{"type":"Feature","properties":{"survey":"bds","sheet":"060","dag":"29555","label_bn":"29555","area_sqm":4218.2},"geometry":{"type":"Polygon","coordinates":[[[90.330134,23.804388],[90.330154,23.804299],[90.330171,23.804207],[90.330283,23.803888],[90.330335,23.803825],[90.33076,23.803971],[90.330867,23.804007],[90.330838,23.804057],[90.330749,23.804282],[90.330726,23.804513],[90.330733,23.804591],[90.330733,23.804599],[90.330134,23.804453],[90.330134,23.804429],[90.330134,23.804388]]]}},{"type":"Feature","properties":{"survey":"bds","sheet":"060","dag":"29554","label_bn":"29554","area_sqm":5571.7},"geometry":{"type":"Polygon","coordinates":[[[90.328741,23.803929],[90.328816,23.803586],[90.328879,23.803603],[90.328929,23.8036],[90.329009,23.803606],[90.329094,23.803627],[90.329443,23.803709],[90.329601,23.803753],[90.329613,23.80376],[90.329862,23.80378],[90.33005,23.803809],[90.330171,23.803839],[90.330283,23.803888],[90.330171,23.804207],[90.329732,23.80425],[90.329727,23.804007],[90.328846,23.803927],[90.328741,23.803929]]]}},{"type":"Feature","properties":{"survey":"bds","sheet":"060","dag":"29529","label_bn":"29529","area_sqm":10390.1},"geometry":{"type":"Polygon","coordinates":[[[90.328691,23.804194],[90.328715,23.803929],[90.328741,23.803929],[90.328846,23.803927],[90.329727,23.804007],[90.329732,23.80425],[90.329653,23.804981],[90.329172,23.805098],[90.329078,23.804974],[90.328953,23.804666],[90.328889,23.804683],[90.32881,23.804499],[90.328805,23.804489],[90.328763,23.804389],[90.328691,23.804194]]]}}]}