{"type":"FeatureCollection","features":[{"type":"Feature","properties":{"survey":"bds","sheet":"061","dag":"30004","label_bn":"30004","area_sqm":1360.5},"geometry":{"type":"Polygon","coordinates":[[[90.331941,23.803382],[90.331919,23.803473],[90.331919,23.803461],[90.331916,23.803328],[90.331908,23.803283],[90.331902,23.803259],[90.331895,23.803235],[90.331885,23.803223],[90.331864,23.803211],[90.33182,23.80319],[90.331766,23.803168],[90.331641,23.803123],[90.331528,23.803084],[90.331415,23.803046],[90.331398,23.80304],[90.331354,23.803025],[90.331338,23.803019],[90.331266,23.802993],[90.331185,23.802972],[90.33115,23.802961],[90.331116,23.802949],[90.331067,23.802949],[90.331015,23.802954],[90.330924,23.802968],[90.330882,23.802979],[90.330862,23.802984],[90.33086,23.802981],[90.330858,23.802976],[90.33085,23.802963],[90.330836,23.802929],[90.330835,23.802926],[90.330833,23.802923],[90.330833,23.802921],[90.330822,23.802895],[90.331084,23.802865],[90.33122,23.802867],[90.331352,23.802894],[90.331504,23.80295],[90.331686,23.80303],[90.331781,23.803072],[90.331875,23.803125],[90.331918,23.803178],[90.331952,23.803261],[90.331941,23.803382]]]}},{"type":"Feature","properties":{"survey":"bds","sheet":"061","dag":"30005","label_bn":"30005","area_sqm":6430.1},"geometry":{"type":"Polygon","coordinates":[[[90.332214,23.803412],[90.332136,23.803556],[90.331919,23.803473],[90.331941,23.803382],[90.331952,23.803261],[90.331918,23.803178],[90.331875,23.803125],[90.331781,23.803072],[90.331686,23.80303],[90.331504,23.80295],[90.331352,23.802894],[90.33122,23.802867],[90.331084,23.802865],[90.330822,23.802895],[90.330819,23.80288],[90.330764,23.802642],[90.330752,23.802591],[90.331089,23.802561],[90.331116,23.802559],[90.331361,23.802591],[90.331693,23.802666],[90.332014,23.802807],[90.332177,23.802971],[90.332236,23.803075],[90.332277,23.803144],[90.332271,23.803247],[90.332244,23.803345],[90.332214,23.803412]]]}},{"type":"Feature","properties":{"survey":"bds","sheet":"061","dag":"30006","label_bn":"30006","area_sqm":1353.4},"geometry":{"type":"Polygon","coordinates":[[[90.332578,23.803479],[90.332574,23.803558],[90.332504,23.803522],[90.332496,23.803517],[90.332469,23.803503],[90.332405,23.803469],[90.332373,23.803453],[90.332244,23.803345],[90.332271,23.803247],[90.332277,23.803144],[90.332297,23.803179],[90.332375,23.803063],[90.332598,23.803151],[90.332615,23.803158],[90.332646,23.803171],[90.332587,23.803311],[90.33258,23.803436],[90.332578,23.803479]]]}},{"type":"Feature","properties":{"survey":"bds","sheet":"061","dag":"30048","label_bn":"30048","area_sqm":3003.1},"geometry":{"type":"Polygon","coordinates":[[[90.332689,23.803487],[90.332574,23.803558],[90.332578,23.803479],[90.33258,23.803436],[90.332587,23.803311],[90.332646,23.803171],[90.332738,23.802968],[90.332772,23.802985],[90.332888,23.803007],[90.332971,23.803028],[90.333194,23.803089],[90.333239,23.803094],[90.333207,23.803412],[90.333203,23.803449],[90.333201,23.803472],[90.333199,23.803492],[90.333132,23.803484],[90.333082,23.80346],[90.332887,23.803443],[90.332689,23.803487]]]}},{"type":"Feature","properties":{"survey":"bds","sheet":"061","dag":"30047","label_bn":"30047","area_sqm":323.8},"geometry":{"type":"Polygon","coordinates":[[[90.333257,23.803758],[90.333253,23.803817],[90.333146,23.803805],[90.333085,23.803797],[90.333086,23.803776],[90.333095,23.80363],[90.33314,23.803635],[90.333266,23.80365],[90.333262,23.803697],[90.333257,23.803758]]]}},{"type":"Feature","properties":{"survey":"bds","sheet":"061","dag":"30046","label_bn":"30046","area_sqm":299.8},"geometry":{"type":"Polygon","coordinates":[[[90.333402,23.803812],[90.333398,23.803828],[90.333253,23.803817],[90.333257,23.803758],[90.333262,23.803697],[90.333266,23.80365],[90.333277,23.803651],[90.333343,23.803659],[90.333356,23.80366],[90.333441,23.80367],[90.333402,23.803812]]]}},{"type":"Feature","properties":{"survey":"bds","sheet":"061","dag":"30045","label_bn":"30045","area_sqm":206.8},"geometry":{"type":"Polygon","coordinates":[[[90.333381,23.80389],[90.33338,23.803892],[90.333366,23.803891],[90.333308,23.803886],[90.333302,23.803885],[90.333295,23.803885],[90.333132,23.803869],[90.333085,23.803797],[90.333146,23.803805],[90.333253,23.803817],[90.333398,23.803828],[90.333381,23.80389]]]}},{"type":"Feature","properties":{"survey":"bds","sheet":"061","dag":"30041","label_bn":"30041","area_sqm":165.7},"geometry":{"type":"Polygon","coordinates":[[[90.332557,23.803973],[90.332556,23.803978],[90.332421,23.803974],[90.332425,23.803954],[90.332413,23.803887],[90.332483,23.803879],[90.332583,23.803869],[90.332557,23.803973]]]}},{"type":"Feature","properties":{"survey":"bds","sheet":"061","dag":"30043","label_bn":"30043","area_sqm":240.4},"geometry":{"type":"Polygon","coordinates":[[[90.333308,23.803886],[90.333292,23.804007],[90.333284,23.804006],[90.33328,23.804006],[90.333119,23.803988],[90.333132,23.803869],[90.333295,23.803885],[90.333302,23.803885],[90.333308,23.803886]]]}},{"type":"Feature","properties":{"survey":"bds","sheet":"061","dag":"30044","label_bn":"30044","area_sqm":101.5},"geometry":{"type":"Polygon","coordinates":[[[90.33338,23.803892],[90.333365,23.804013],[90.333351,23.804012],[90.333295,23.804008],[90.333292,23.804007],[90.333308,23.803886],[90.333366,23.803891],[90.33338,23.803892]]]}},{"type":"Feature","properties":{"survey":"bds","sheet":"061","dag":"30040","label_bn":"30040","area_sqm":243.8},"geometry":{"type":"Polygon","coordinates":[[[90.33255,23.804041],[90.332539,23.804138],[90.332393,23.804116],[90.332421,23.803974],[90.332556,23.803978],[90.332555,23.803987],[90.33255,23.804041]]]}},{"type":"Feature","properties":{"survey":"bds","sheet":"061","dag":"30003","label_bn":"30003","area_sqm":10156.5},"geometry":{"type":"Polygon","coordinates":[[[90.330912,23.804044],[90.330794,23.80417],[90.330838,23.804057],[90.330867,23.804007],[90.330892,23.803964],[90.330954,23.803856],[90.330977,23.803817],[90.330862,23.80373],[90.330746,23.803643],[90.330488,23.803555],[90.330541,23.803464],[90.33055,23.803447],[90.33057,23.803405],[90.330573,23.803393],[90.330583,23.803355],[90.330642,23.803334],[90.330708,23.803328],[90.330748,23.803329],[90.330763,23.803329],[90.330833,23.803331],[90.33086,23.803159],[90.330875,23.80311],[90.330876,23.80311],[90.330886,23.803056],[90.330887,23.803026],[90.330862,23.802984],[90.330882,23.802979],[90.330924,23.802968],[90.331015,23.802954],[90.331067,23.802949],[90.331116,23.802949],[90.33115,23.802961],[90.331185,23.802972],[90.331266,23.802993],[90.331338,23.803019],[90.331354,23.803025],[90.331398,23.80304],[90.331415,23.803046],[90.331528,23.803084],[90.331641,23.803123],[90.331766,23.803168],[90.33182,23.80319],[90.331864,23.803211],[90.331885,23.803223],[90.331895,23.803235],[90.331902,23.803259],[90.331908,23.803283],[90.331916,23.803328],[90.331919,23.803461],[90.331919,23.803473],[90.331804,23.803604],[90.331682,23.803709],[90.331428,23.803841],[90.331081,23.803947],[90.330912,23.804044]]]}},{"type":"Feature","properties":{"survey":"bds","sheet":"061","dag":"30002","label_bn":"30002","area_sqm":3192.0},"geometry":{"type":"Polygon","coordinates":[[[90.331067,23.804219],[90.331065,23.804247],[90.331052,23.804244],[90.330794,23.80417],[90.330912,23.804044],[90.331081,23.803947],[90.331428,23.803841],[90.331682,23.803709],[90.331804,23.803604],[90.331919,23.803473],[90.332136,23.803556],[90.33213,23.803567],[90.332124,23.803574],[90.332086,23.803628],[90.33204,23.803691],[90.331973,23.803748],[90.331959,23.803758],[90.331946,23.803767],[90.331899,23.803802],[90.331781,23.803878],[90.33167,23.803938],[90.331521,23.804012],[90.331407,23.804052],[90.331164,23.804151],[90.331132,23.804173],[90.331092,23.804202],[90.331071,23.804216],[90.331067,23.804219]]]}},{"type":"Feature","properties":{"survey":"bds","sheet":"061","dag":"30038","label_bn":"30038","area_sqm":211.9},"geometry":{"type":"Polygon","coordinates":[[[90.332555,23.80433],[90.332523,23.804331],[90.332532,23.804196],[90.332566,23.804194],[90.332575,23.804193],[90.332668,23.804187],[90.332658,23.804329],[90.332562,23.80433],[90.332555,23.80433]]]}},{"type":"Feature","properties":{"survey":"bds","sheet":"061","dag":"30039","label_bn":"30039","area_sqm":329.1},"geometry":{"type":"Polygon","coordinates":[[[90.332394,23.804341],[90.33239,23.804341],[90.332393,23.804116],[90.332539,23.804138],[90.332532,23.804196],[90.332523,23.804331],[90.332394,23.804341]]]}},{"type":"Feature","properties":{"survey":"bds","sheet":"061","dag":"30008","label_bn":"30008","area_sqm":1077.6},"geometry":{"type":"Polygon","coordinates":[[[90.332139,23.804093],[90.332176,23.804372],[90.331923,23.804347],[90.331806,23.804347],[90.331794,23.804347],[90.331811,23.804081],[90.332139,23.804093]]]}},{"type":"Feature","properties":{"survey":"bds","sheet":"061","dag":"30034","label_bn":"30034","area_sqm":671.2},"geometry":{"type":"Polygon","coordinates":[[[90.332283,23.804358],[90.332176,23.804372],[90.332139,23.804093],[90.332393,23.804116],[90.33239,23.804341],[90.332286,23.804358],[90.332283,23.804358]]]}},{"type":"Feature","properties":{"survey":"bds","sheet":"061","dag":"30036","label_bn":"30036","area_sqm":150.7},"geometry":{"type":"Polygon","coordinates":[[[90.332516,23.804439],[90.332387,23.80444],[90.332394,23.804341],[90.332523,23.804331],[90.332516,23.804439]]]}},{"type":"Feature","properties":{"survey":"bds","sheet":"061","dag":"30035","label_bn":"30035","area_sqm":122.0},"geometry":{"type":"Polygon","coordinates":[[[90.332279,23.804457],[90.332278,23.804457],[90.332278,23.804456],[90.332286,23.804358],[90.33239,23.804341],[90.332394,23.804341],[90.332387,23.80444],[90.332387,23.804441],[90.332279,23.804457]]]}},{"type":"Feature","properties":{"survey":"bds","sheet":"061","dag":"30033","label_bn":"30033","area_sqm":122.1},"geometry":{"type":"Polygon","coordinates":[[[90.332278,23.804457],[90.332168,23.804471],[90.332176,23.804372],[90.332283,23.804358],[90.332286,23.804358],[90.332278,23.804456],[90.332278,23.804457]]]}},{"type":"Feature","properties":{"survey":"bds","sheet":"061","dag":"30032","label_bn":"30032","area_sqm":379.8},"geometry":{"type":"Polygon","coordinates":[[[90.332168,23.804471],[90.331915,23.804514],[90.331923,23.804347],[90.332176,23.804372],[90.332168,23.804471]]]}},{"type":"Feature","properties":{"survey":"bds","sheet":"061","dag":"30007","label_bn":"30007","area_sqm":6986.7},"geometry":{"type":"Polygon","coordinates":[[[90.331796,23.804445],[90.331787,23.804536],[90.331549,23.804419],[90.331502,23.804409],[90.331274,23.804323],[90.331084,23.80425],[90.331073,23.804248],[90.331065,23.804247],[90.331067,23.804219],[90.331071,23.804216],[90.331092,23.804202],[90.331132,23.804173],[90.331164,23.804151],[90.331407,23.804052],[90.331521,23.804012],[90.33167,23.803938],[90.331781,23.803878],[90.331899,23.803802],[90.331946,23.803767],[90.331959,23.803758],[90.331973,23.803748],[90.33204,23.803691],[90.332086,23.803628],[90.332124,23.803574],[90.33213,23.803567],[90.332136,23.803556],[90.332214,23.803412],[90.332244,23.803345],[90.332373,23.803453],[90.332405,23.803469],[90.332469,23.803503],[90.332496,23.803517],[90.332504,23.803522],[90.332574,23.803558],[90.332577,23.803679],[90.332578,23.803709],[90.332579,23.803737],[90.332583,23.803869],[90.332483,23.803879],[90.332413,23.803887],[90.332425,23.803954],[90.332421,23.803974],[90.332393,23.804116],[90.332139,23.804093],[90.331811,23.804081],[90.331794,23.804347],[90.331806,23.804347],[90.331801,23.804394],[90.331796,23.804445]]]}},{"type":"Feature","properties":{"survey":"bds","sheet":"061","dag":"30009","label_bn":"30009","area_sqm":244.3},"geometry":{"type":"Polygon","coordinates":[[[90.33183,23.804529],[90.331787,23.804536],[90.331796,23.804445],[90.331801,23.804394],[90.331806,23.804347],[90.331923,23.804347],[90.331915,23.804514],[90.33183,23.804529]]]}},{"type":"Feature","properties":{"survey":"bds","sheet":"061","dag":"30042","label_bn":"30042","area_sqm":7388.2},"geometry":{"type":"Polygon","coordinates":[[[90.332821,23.804533],[90.332644,23.804539],[90.332652,23.80443],[90.332652,23.804423],[90.332656,23.804358],[90.332658,23.804329],[90.332668,23.804187],[90.332575,23.804193],[90.332566,23.804194],[90.332532,23.804196],[90.332539,23.804138],[90.33255,23.804041],[90.332555,23.803987],[90.332556,23.803978],[90.332557,23.803973],[90.332583,23.803869],[90.332579,23.803737],[90.332578,23.803709],[90.332577,23.803679],[90.332574,23.803558],[90.332689,23.803487],[90.332887,23.803443],[90.333082,23.80346],[90.333132,23.803484],[90.33314,23.803635],[90.333095,23.80363],[90.333086,23.803776],[90.333085,23.803797],[90.333132,23.803869],[90.333119,23.803988],[90.33328,23.804006],[90.333284,23.804006],[90.333292,23.804007],[90.333295,23.804008],[90.333351,23.804012],[90.333365,23.804013],[90.333288,23.804497],[90.333203,23.804491],[90.33296,23.804517],[90.332821,23.804533]]]}},{"type":"Feature","properties":{"survey":"bds","sheet":"061","dag":"30028","label_bn":"30028","area_sqm":151.8},"geometry":{"type":"Polygon","coordinates":[[[90.332516,23.804439],[90.332508,23.804547],[90.33238,23.80454],[90.332387,23.804441],[90.332387,23.80444],[90.332516,23.804439]]]}},{"type":"Feature","properties":{"survey":"bds","sheet":"061","dag":"30037","label_bn":"30037","area_sqm":326.9},"geometry":{"type":"Polygon","coordinates":[[[90.332543,23.804545],[90.332508,23.804547],[90.332516,23.804439],[90.332523,23.804331],[90.332555,23.80433],[90.332562,23.80433],[90.332658,23.804329],[90.332656,23.804358],[90.332652,23.804423],[90.332652,23.80443],[90.332644,23.804539],[90.332554,23.804544],[90.332543,23.804545]]]}},{"type":"Feature","properties":{"survey":"bds","sheet":"061","dag":"30029","label_bn":"30029","area_sqm":122.1},"geometry":{"type":"Polygon","coordinates":[[[90.33227,23.804556],[90.332269,23.804557],[90.332278,23.804457],[90.332279,23.804457],[90.332387,23.804441],[90.33238,23.80454],[90.332375,23.80454],[90.33227,23.804556]]]}},{"type":"Feature","properties":{"survey":"bds","sheet":"061","dag":"30030","label_bn":"30030","area_sqm":121.8},"geometry":{"type":"Polygon","coordinates":[[[90.332269,23.804557],[90.332162,23.804571],[90.332168,23.804471],[90.332278,23.804457],[90.332269,23.804557]]]}},{"type":"Feature","properties":{"survey":"bds","sheet":"061","dag":"30026","label_bn":"30026","area_sqm":163.5},"geometry":{"type":"Polygon","coordinates":[[[90.332534,23.804653],[90.332502,23.804655],[90.332504,23.804619],[90.332508,23.804547],[90.332543,23.804545],[90.332554,23.804544],[90.332644,23.804539],[90.332639,23.804602],[90.332636,23.804646],[90.332534,23.804653]]]}},{"type":"Feature","properties":{"survey":"bds","sheet":"061","dag":"30027","label_bn":"30027","area_sqm":177.1},"geometry":{"type":"Polygon","coordinates":[[[90.332502,23.804655],[90.332368,23.804666],[90.332369,23.804652],[90.332375,23.80454],[90.33238,23.80454],[90.332508,23.804547],[90.332504,23.804619],[90.332502,23.804655]]]}},{"type":"Feature","properties":{"survey":"bds","sheet":"061","dag":"30031","label_bn":"30031","area_sqm":473.1},"geometry":{"type":"Polygon","coordinates":[[[90.331911,23.804667],[90.331865,23.804684],[90.331858,23.804652],[90.331847,23.804606],[90.33183,23.804529],[90.331915,23.804514],[90.332168,23.804471],[90.332162,23.804571],[90.331992,23.804636],[90.331911,23.804667]]]}},{"type":"Feature","properties":{"survey":"bds","sheet":"061","dag":"30025","label_bn":"30025","area_sqm":82.3},"geometry":{"type":"Polygon","coordinates":[[[90.332633,23.804701],[90.332499,23.80471],[90.332501,23.804679],[90.332502,23.804655],[90.332534,23.804653],[90.332636,23.804646],[90.332634,23.804671],[90.332633,23.804701]]]}},{"type":"Feature","properties":{"survey":"bds","sheet":"061","dag":"30024","label_bn":"30024","area_sqm":80.6},"geometry":{"type":"Polygon","coordinates":[[[90.332499,23.80471],[90.332365,23.804718],[90.332366,23.80471],[90.332368,23.804666],[90.332502,23.804655],[90.332501,23.804679],[90.332499,23.80471]]]}},{"type":"Feature","properties":{"survey":"bds","sheet":"061","dag":"30022","label_bn":"30022","area_sqm":81.6},"geometry":{"type":"Polygon","coordinates":[[[90.332629,23.804756],[90.332496,23.804763],[90.332499,23.80471],[90.332633,23.804701],[90.332629,23.804756]]]}},{"type":"Feature","properties":{"survey":"bds","sheet":"061","dag":"30023","label_bn":"30023","area_sqm":81.5},"geometry":{"type":"Polygon","coordinates":[[[90.332496,23.804763],[90.33236,23.804772],[90.332365,23.804718],[90.332499,23.80471],[90.332496,23.804763]]]}},{"type":"Feature","properties":{"survey":"bds","sheet":"061","dag":"30020","label_bn":"30020","area_sqm":1568.3},"geometry":{"type":"Polygon","coordinates":[[[90.332695,23.804825],[90.332658,23.804837],[90.332629,23.804756],[90.332633,23.804701],[90.332634,23.804671],[90.332636,23.804646],[90.332639,23.804602],[90.332644,23.804539],[90.332821,23.804533],[90.33296,23.804517],[90.333203,23.804491],[90.333216,23.804604],[90.333225,23.804686],[90.333043,23.804703],[90.333053,23.80473],[90.33305,23.80473],[90.332962,23.804754],[90.332863,23.80478],[90.332859,23.804781],[90.332828,23.804789],[90.332703,23.804823],[90.332695,23.804825]]]}},{"type":"Feature","properties":{"survey":"bds","sheet":"061","dag":"30013","label_bn":"30013","area_sqm":244.4},"geometry":{"type":"Polygon","coordinates":[[[90.332963,23.804921],[90.332963,23.804922],[90.332949,23.805062],[90.332818,23.805083],[90.3328,23.804941],[90.3328,23.804941],[90.332898,23.804924],[90.332964,23.804913],[90.332963,23.804921]]]}},{"type":"Feature","properties":{"survey":"bds","sheet":"061","dag":"30019","label_bn":"30019","area_sqm":329.9},"geometry":{"type":"Polygon","coordinates":[[[90.332964,23.804913],[90.332898,23.804924],[90.332863,23.80478],[90.332962,23.804754],[90.33305,23.80473],[90.333053,23.80473],[90.333054,23.804732],[90.333081,23.804809],[90.333092,23.80484],[90.332963,23.804921],[90.332964,23.804913]]]}},{"type":"Feature","properties":{"survey":"bds","sheet":"061","dag":"30018","label_bn":"30018","area_sqm":264.3},"geometry":{"type":"Polygon","coordinates":[[[90.3328,23.804941],[90.332738,23.804956],[90.332703,23.804823],[90.332828,23.804789],[90.332859,23.804781],[90.332863,23.80478],[90.332898,23.804924],[90.3328,23.804941],[90.3328,23.804941]]]}},{"type":"Feature","properties":{"survey":"bds","sheet":"061","dag":"30021","label_bn":"30021","area_sqm":458.4},"geometry":{"type":"Polygon","coordinates":[[[90.332532,23.804883],[90.332319,23.804958],[90.33236,23.804772],[90.332496,23.804763],[90.332629,23.804756],[90.332658,23.804837],[90.332551,23.804876],[90.332532,23.804883]]]}},{"type":"Feature","properties":{"survey":"bds","sheet":"061","dag":"30017","label_bn":"30017","area_sqm":264.3},"geometry":{"type":"Polygon","coordinates":[[[90.332651,23.804976],[90.33256,23.804997],[90.332532,23.804883],[90.332551,23.804876],[90.332658,23.804837],[90.332695,23.804825],[90.332703,23.804823],[90.332738,23.804956],[90.332651,23.804976]]]}},{"type":"Feature","properties":{"survey":"bds","sheet":"061","dag":"30014","label_bn":"30014","area_sqm":244.2},"geometry":{"type":"Polygon","coordinates":[[[90.332742,23.805098],[90.332665,23.805112],[90.332651,23.804976],[90.332738,23.804956],[90.3328,23.804941],[90.332818,23.805083],[90.332814,23.805084],[90.332808,23.805085],[90.332748,23.805097],[90.332742,23.805098]]]}},{"type":"Feature","properties":{"survey":"bds","sheet":"061","dag":"30015","label_bn":"30015","area_sqm":325.2},"geometry":{"type":"Polygon","coordinates":[[[90.332544,23.805135],[90.332449,23.805152],[90.33244,23.805025],[90.33256,23.804997],[90.332651,23.804976],[90.332665,23.805112],[90.332629,23.805119],[90.332544,23.805135]]]}},{"type":"Feature","properties":{"survey":"bds","sheet":"061","dag":"30016","label_bn":"30016","area_sqm":448.1},"geometry":{"type":"Polygon","coordinates":[[[90.332449,23.805152],[90.332329,23.805175],[90.332324,23.805064],[90.332319,23.804958],[90.332532,23.804883],[90.33256,23.804997],[90.33244,23.805025],[90.332449,23.805152]]]}},{"type":"Feature","properties":{"survey":"bds","sheet":"061","dag":"30012","label_bn":"30012","area_sqm":3014.1},"geometry":{"type":"Polygon","coordinates":[[[90.333312,23.805454],[90.332792,23.805474],[90.332884,23.80535],[90.332926,23.805293],[90.332927,23.805292],[90.332949,23.805062],[90.332963,23.804922],[90.332963,23.804921],[90.333092,23.80484],[90.33313,23.804848],[90.333387,23.804954],[90.333385,23.805304],[90.333385,23.805348],[90.333384,23.805451],[90.333312,23.805454]]]}},{"type":"Feature","properties":{"survey":"bds","sheet":"061","dag":"30001","label_bn":"30001","area_sqm":4494.7},"geometry":{"type":"Polygon","coordinates":[[[90.331288,23.805585],[90.331075,23.805609],[90.331056,23.805599],[90.330963,23.805435],[90.330931,23.805329],[90.330878,23.805223],[90.33085,23.805166],[90.330818,23.805101],[90.330758,23.804908],[90.33074,23.804684],[90.330733,23.804591],[90.330726,23.804513],[90.330749,23.804282],[90.330794,23.80417],[90.331052,23.804244],[90.331065,23.804247],[90.331056,23.804305],[90.331001,23.804464],[90.330989,23.804546],[90.330982,23.804631],[90.331021,23.804848],[90.331044,23.804921],[90.331135,23.805173],[90.331235,23.805372],[90.331304,23.80546],[90.331403,23.805571],[90.331289,23.805584],[90.331288,23.805585]]]}},{"type":"Feature","properties":{"survey":"bds","sheet":"061","dag":"30010","label_bn":"30010","area_sqm":18370.1},"geometry":{"type":"Polygon","coordinates":[[[90.332693,23.805478],[90.332693,23.805633],[90.332647,23.805628],[90.332638,23.805627],[90.332223,23.805582],[90.331958,23.805606],[90.331908,23.805607],[90.331905,23.805607],[90.331848,23.805608],[90.33161,23.805572],[90.331587,23.805572],[90.331403,23.805571],[90.331304,23.80546],[90.331235,23.805372],[90.331135,23.805173],[90.331044,23.804921],[90.331021,23.804848],[90.330982,23.804631],[90.330989,23.804546],[90.331001,23.804464],[90.331056,23.804305],[90.331065,23.804247],[90.331073,23.804248],[90.331084,23.80425],[90.331274,23.804323],[90.331502,23.804409],[90.331549,23.804419],[90.331787,23.804536],[90.33183,23.804529],[90.331847,23.804606],[90.331858,23.804652],[90.331865,23.804684],[90.331911,23.804667],[90.331992,23.804636],[90.332162,23.804571],[90.332269,23.804557],[90.33227,23.804556],[90.332375,23.80454],[90.332369,23.804652],[90.332368,23.804666],[90.332366,23.80471],[90.332365,23.804718],[90.33236,23.804772],[90.332319,23.804958],[90.332324,23.805064],[90.332329,23.805175],[90.332449,23.805152],[90.332544,23.805135],[90.332629,23.805119],[90.332665,23.805112],[90.332742,23.805098],[90.332748,23.805097],[90.332808,23.805085],[90.332814,23.805084],[90.332818,23.805083],[90.332949,23.805062],[90.332927,23.805292],[90.332926,23.805293],[90.332884,23.80535],[90.332792,23.805474],[90.332693,23.805478]]]}},{"type":"Feature","properties":{"survey":"bds","sheet":"061","dag":"30011","label_bn":"30011","area_sqm":2224.0},"geometry":{"type":"Polygon","coordinates":[[[90.333384,23.805451],[90.333335,23.805774],[90.333267,23.805774],[90.333231,23.805774],[90.332991,23.805764],[90.332842,23.805745],[90.332689,23.805726],[90.332693,23.805633],[90.332693,23.805478],[90.332792,23.805474],[90.333312,23.805454],[90.333384,23.805451]]]}}]}