{"type":"FeatureCollection","features":[{"type":"Feature","properties":{"survey":"bds","sheet":"062","dag":"30655","label_bn":"30655","area_sqm":150.0},"geometry":{"type":"Polygon","coordinates":[[[90.33333,23.803231],[90.333329,23.803246],[90.333225,23.803233],[90.333239,23.803094],[90.333249,23.803098],[90.333278,23.803107],[90.333335,23.803126],[90.33333,23.803231]]]}},{"type":"Feature","properties":{"survey":"bds","sheet":"062","dag":"30654","label_bn":"30654","area_sqm":95.4},"geometry":{"type":"Polygon","coordinates":[[[90.333329,23.803246],[90.333326,23.803329],[90.333218,23.803307],[90.333225,23.803233],[90.333329,23.803246]]]}},{"type":"Feature","properties":{"survey":"bds","sheet":"062","dag":"30656","label_bn":"30656","area_sqm":402.4},"geometry":{"type":"Polygon","coordinates":[[[90.333488,23.803316],[90.333482,23.803353],[90.333326,23.803329],[90.333329,23.803246],[90.33333,23.803231],[90.333335,23.803126],[90.333516,23.80314],[90.333513,23.803161],[90.333488,23.803316]]]}},{"type":"Feature","properties":{"survey":"bds","sheet":"062","dag":"30658","label_bn":"30658","area_sqm":265.3},"geometry":{"type":"Polygon","coordinates":[[[90.333809,23.803291],[90.3338,23.803401],[90.333608,23.803373],[90.333584,23.803369],[90.333585,23.803362],[90.333596,23.803264],[90.333809,23.803291]]]}},{"type":"Feature","properties":{"survey":"bds","sheet":"062","dag":"30659","label_bn":"30659","area_sqm":347.5},"geometry":{"type":"Polygon","coordinates":[[[90.334087,23.803328],[90.334074,23.803437],[90.333917,23.803417],[90.3338,23.803401],[90.333809,23.803291],[90.334087,23.803328]]]}},{"type":"Feature","properties":{"survey":"bds","sheet":"062","dag":"30663","label_bn":"30663","area_sqm":177.9},"geometry":{"type":"Polygon","coordinates":[[[90.33422,23.80334],[90.334214,23.803457],[90.334074,23.803437],[90.334087,23.803328],[90.33422,23.80334]]]}},{"type":"Feature","properties":{"survey":"bds","sheet":"062","dag":"30664","label_bn":"30664","area_sqm":171.0},"geometry":{"type":"Polygon","coordinates":[[[90.334362,23.803365],[90.334352,23.803461],[90.334214,23.803457],[90.33422,23.80334],[90.334362,23.803365]]]}},{"type":"Feature","properties":{"survey":"bds","sheet":"062","dag":"30653","label_bn":"30653","area_sqm":386.5},"geometry":{"type":"Polygon","coordinates":[[[90.333481,23.803361],[90.333469,23.803467],[90.333368,23.80346],[90.333203,23.803449],[90.333218,23.803307],[90.333326,23.803329],[90.333482,23.803353],[90.333481,23.803361],[90.333481,23.803361]]]}},{"type":"Feature","properties":{"survey":"bds","sheet":"062","dag":"30657","label_bn":"30657","area_sqm":404.9},"geometry":{"type":"Polygon","coordinates":[[[90.333794,23.803472],[90.333789,23.803509],[90.333469,23.803468],[90.333469,23.803467],[90.333481,23.803361],[90.333481,23.803361],[90.333481,23.803361],[90.333584,23.803369],[90.333608,23.803373],[90.3338,23.803401],[90.333796,23.803454],[90.333794,23.803472]]]}},{"type":"Feature","properties":{"survey":"bds","sheet":"062","dag":"30660","label_bn":"30660","area_sqm":146.2},"geometry":{"type":"Polygon","coordinates":[[[90.33391,23.803495],[90.333907,23.803526],[90.333789,23.803509],[90.333794,23.803472],[90.333796,23.803454],[90.3338,23.803401],[90.333917,23.803417],[90.33391,23.803495]]]}},{"type":"Feature","properties":{"survey":"bds","sheet":"062","dag":"30661","label_bn":"30661","area_sqm":194.4},"geometry":{"type":"Polygon","coordinates":[[[90.334061,23.80354],[90.334061,23.803547],[90.333907,23.803526],[90.33391,23.803495],[90.333917,23.803417],[90.334074,23.803437],[90.334061,23.80354]]]}},{"type":"Feature","properties":{"survey":"bds","sheet":"062","dag":"30662","label_bn":"30662","area_sqm":357.4},"geometry":{"type":"Polygon","coordinates":[[[90.334352,23.803461],[90.334335,23.803584],[90.334094,23.803551],[90.334061,23.803547],[90.334061,23.80354],[90.334074,23.803437],[90.334214,23.803457],[90.334352,23.803461]]]}},{"type":"Feature","properties":{"survey":"bds","sheet":"062","dag":"30670","label_bn":"30670","area_sqm":152.3},"geometry":{"type":"Polygon","coordinates":[[[90.335329,23.803572],[90.335325,23.803592],[90.335192,23.803575],[90.335204,23.803476],[90.335337,23.803493],[90.335329,23.803571],[90.335329,23.803572]]]}},{"type":"Feature","properties":{"survey":"bds","sheet":"062","dag":"30671","label_bn":"30671","area_sqm":142.9},"geometry":{"type":"Polygon","coordinates":[[[90.3355,23.803588],[90.3355,23.803592],[90.335489,23.803591],[90.335329,23.803571],[90.335337,23.803493],[90.335491,23.803521],[90.335502,23.803523],[90.335509,23.803524],[90.3355,23.803588]]]}},{"type":"Feature","properties":{"survey":"bds","sheet":"062","dag":"30675","label_bn":"30675","area_sqm":133.3},"geometry":{"type":"Polygon","coordinates":[[[90.335691,23.803549],[90.335681,23.803613],[90.33559,23.8036],[90.3355,23.803588],[90.335509,23.803524],[90.335691,23.803549]]]}},{"type":"Feature","properties":{"survey":"bds","sheet":"062","dag":"30667","label_bn":"30667","area_sqm":122.2},"geometry":{"type":"Polygon","coordinates":[[[90.335139,23.803467],[90.335118,23.803625],[90.335052,23.803616],[90.335071,23.803459],[90.335139,23.803467]]]}},{"type":"Feature","properties":{"survey":"bds","sheet":"062","dag":"30668","label_bn":"30668","area_sqm":120.2},"geometry":{"type":"Polygon","coordinates":[[[90.335192,23.803575],[90.335186,23.803633],[90.335118,23.803625],[90.335139,23.803467],[90.335204,23.803476],[90.335192,23.803575]]]}},{"type":"Feature","properties":{"survey":"bds","sheet":"062","dag":"30627","label_bn":"30627","area_sqm":554.3},"geometry":{"type":"Polygon","coordinates":[[[90.333444,23.803664],[90.333441,23.80367],[90.333356,23.80366],[90.333277,23.803651],[90.33314,23.803635],[90.333132,23.803484],[90.333199,23.803492],[90.333339,23.803509],[90.333473,23.803525],[90.33346,23.803633],[90.333444,23.803664]]]}},{"type":"Feature","properties":{"survey":"bds","sheet":"062","dag":"30665","label_bn":"30665","area_sqm":1775.4},"geometry":{"type":"Polygon","coordinates":[[[90.335052,23.803616],[90.335045,23.803676],[90.334344,23.803585],[90.334335,23.803584],[90.334352,23.803461],[90.334362,23.803365],[90.334435,23.803375],[90.334592,23.803397],[90.335071,23.803459],[90.335052,23.803616]]]}},{"type":"Feature","properties":{"survey":"bds","sheet":"062","dag":"30628","label_bn":"30628","area_sqm":424.2},"geometry":{"type":"Polygon","coordinates":[[[90.333815,23.803568],[90.333803,23.803677],[90.333801,23.803677],[90.333698,23.803662],[90.333585,23.803648],[90.33346,23.803633],[90.333473,23.803525],[90.333815,23.803568]]]}},{"type":"Feature","properties":{"survey":"bds","sheet":"062","dag":"30666","label_bn":"30666","area_sqm":93.0},"geometry":{"type":"Polygon","coordinates":[[[90.335186,23.803633],[90.335179,23.803694],[90.335045,23.803676],[90.335052,23.803616],[90.335118,23.803625],[90.335186,23.803633]]]}},{"type":"Feature","properties":{"survey":"bds","sheet":"062","dag":"30633","label_bn":"30633","area_sqm":244.6},"geometry":{"type":"Polygon","coordinates":[[[90.33401,23.803596],[90.333998,23.803705],[90.333897,23.803691],[90.333803,23.803677],[90.333815,23.803568],[90.33401,23.803596]]]}},{"type":"Feature","properties":{"survey":"bds","sheet":"062","dag":"30669","label_bn":"30669","area_sqm":181.4},"geometry":{"type":"Polygon","coordinates":[[[90.335325,23.803592],[90.335311,23.803711],[90.335179,23.803694],[90.335186,23.803633],[90.335192,23.803575],[90.335325,23.803592]]]}},{"type":"Feature","properties":{"survey":"bds","sheet":"062","dag":"30634","label_bn":"30634","area_sqm":151.7},"geometry":{"type":"Polygon","coordinates":[[[90.334119,23.803716],[90.334118,23.80372],[90.334021,23.803708],[90.333998,23.803705],[90.33401,23.803596],[90.334131,23.803611],[90.334119,23.803716]]]}},{"type":"Feature","properties":{"survey":"bds","sheet":"062","dag":"30672","label_bn":"30672","area_sqm":276.4},"geometry":{"type":"Polygon","coordinates":[[[90.3355,23.803592],[90.33548,23.803733],[90.33548,23.803733],[90.335464,23.803731],[90.335457,23.80373],[90.335311,23.803711],[90.335325,23.803592],[90.335329,23.803572],[90.335329,23.803571],[90.335489,23.803591],[90.3355,23.803592]]]}},{"type":"Feature","properties":{"survey":"bds","sheet":"062","dag":"30673","label_bn":"30673","area_sqm":151.4},"geometry":{"type":"Polygon","coordinates":[[[90.33559,23.8036],[90.33557,23.803745],[90.33548,23.803733],[90.3355,23.803592],[90.3355,23.803588],[90.33559,23.8036]]]}},{"type":"Feature","properties":{"survey":"bds","sheet":"062","dag":"30636","label_bn":"30636","area_sqm":150.6},"geometry":{"type":"Polygon","coordinates":[[[90.334313,23.803635],[90.334298,23.803745],[90.33418,23.80373],[90.334195,23.803619],[90.334313,23.803635]]]}},{"type":"Feature","properties":{"survey":"bds","sheet":"062","dag":"30674","label_bn":"30674","area_sqm":151.0},"geometry":{"type":"Polygon","coordinates":[[[90.335681,23.803613],[90.335661,23.803756],[90.335572,23.803745],[90.33557,23.803745],[90.33559,23.8036],[90.335681,23.803613]]]}},{"type":"Feature","properties":{"survey":"bds","sheet":"062","dag":"30626","label_bn":"30626","area_sqm":175.2},"geometry":{"type":"Polygon","coordinates":[[[90.333577,23.803708],[90.33357,23.803757],[90.333422,23.803738],[90.333441,23.80367],[90.333444,23.803664],[90.33346,23.803633],[90.333585,23.803648],[90.333577,23.803708]]]}},{"type":"Feature","properties":{"survey":"bds","sheet":"062","dag":"30638","label_bn":"30638","area_sqm":155.2},"geometry":{"type":"Polygon","coordinates":[[[90.334427,23.803722],[90.334424,23.80376],[90.334344,23.803752],[90.334298,23.803745],[90.334313,23.803635],[90.334335,23.803638],[90.334433,23.803651],[90.334427,23.803722]]]}},{"type":"Feature","properties":{"survey":"bds","sheet":"062","dag":"30629","label_bn":"30629","area_sqm":143.4},"geometry":{"type":"Polygon","coordinates":[[[90.333687,23.803744],[90.333683,23.803772],[90.33357,23.803757],[90.333577,23.803708],[90.333585,23.803648],[90.333698,23.803662],[90.333687,23.803744]]]}},{"type":"Feature","properties":{"survey":"bds","sheet":"062","dag":"30641","label_bn":"30641","area_sqm":146.5},"geometry":{"type":"Polygon","coordinates":[[[90.334539,23.80377],[90.334538,23.803774],[90.334476,23.803767],[90.334442,23.803763],[90.334424,23.80376],[90.334427,23.803722],[90.334433,23.803651],[90.334553,23.803666],[90.334539,23.80377]]]}},{"type":"Feature","properties":{"survey":"bds","sheet":"062","dag":"30630","label_bn":"30630","area_sqm":131.2},"geometry":{"type":"Polygon","coordinates":[[[90.333787,23.803782],[90.333787,23.803786],[90.333683,23.803772],[90.333687,23.803744],[90.333698,23.803662],[90.333801,23.803677],[90.333787,23.803782]]]}},{"type":"Feature","properties":{"survey":"bds","sheet":"062","dag":"30642","label_bn":"30642","area_sqm":174.3},"geometry":{"type":"Polygon","coordinates":[[[90.33468,23.803777],[90.334678,23.803793],[90.334538,23.803774],[90.334539,23.80377],[90.334553,23.803666],[90.334691,23.803684],[90.33468,23.803777]]]}},{"type":"Feature","properties":{"survey":"bds","sheet":"062","dag":"30631","label_bn":"30631","area_sqm":120.9},"geometry":{"type":"Polygon","coordinates":[[[90.333897,23.803691],[90.333883,23.803799],[90.333862,23.803796],[90.333804,23.803788],[90.333787,23.803786],[90.333787,23.803782],[90.333801,23.803677],[90.333803,23.803677],[90.333897,23.803691]]]}},{"type":"Feature","properties":{"survey":"bds","sheet":"062","dag":"30652","label_bn":"30652","area_sqm":1548.5},"geometry":{"type":"Polygon","coordinates":[[[90.335659,23.803767],[90.335654,23.803807],[90.335445,23.80378],[90.335412,23.803775],[90.335256,23.803755],[90.335097,23.803734],[90.334962,23.803716],[90.334828,23.803699],[90.334691,23.803684],[90.334553,23.803666],[90.334433,23.803651],[90.334335,23.803638],[90.334313,23.803635],[90.334195,23.803619],[90.33418,23.80373],[90.334178,23.80373],[90.334119,23.803716],[90.334131,23.803611],[90.33401,23.803596],[90.333815,23.803568],[90.333473,23.803525],[90.333339,23.803509],[90.333199,23.803492],[90.333201,23.803472],[90.333203,23.803449],[90.333368,23.80346],[90.333469,23.803467],[90.333469,23.803468],[90.333789,23.803509],[90.333907,23.803526],[90.334061,23.803547],[90.334094,23.803551],[90.334335,23.803584],[90.334344,23.803585],[90.335045,23.803676],[90.335179,23.803694],[90.335311,23.803711],[90.335457,23.80373],[90.335464,23.803731],[90.33548,23.803733],[90.33548,23.803733],[90.33557,23.803745],[90.335572,23.803745],[90.335661,23.803756],[90.335659,23.803767]]]}},{"type":"Feature","properties":{"survey":"bds","sheet":"062","dag":"30643","label_bn":"30643","area_sqm":173.3},"geometry":{"type":"Polygon","coordinates":[[[90.334817,23.803783],[90.334814,23.803811],[90.334753,23.803803],[90.334678,23.803793],[90.33468,23.803777],[90.334691,23.803684],[90.334828,23.803699],[90.334817,23.803783]]]}},{"type":"Feature","properties":{"survey":"bds","sheet":"062","dag":"30632","label_bn":"30632","area_sqm":154.0},"geometry":{"type":"Polygon","coordinates":[[[90.334021,23.803708],[90.334008,23.803815],[90.333945,23.803807],[90.333883,23.803799],[90.333897,23.803691],[90.333998,23.803705],[90.334021,23.803708]]]}},{"type":"Feature","properties":{"survey":"bds","sheet":"062","dag":"30645","label_bn":"30645","area_sqm":175.8},"geometry":{"type":"Polygon","coordinates":[[[90.334953,23.803796],[90.33495,23.803829],[90.334889,23.803822],[90.334814,23.803811],[90.334817,23.803783],[90.334828,23.803699],[90.334962,23.803716],[90.334953,23.803796]]]}},{"type":"Feature","properties":{"survey":"bds","sheet":"062","dag":"30635","label_bn":"30635","area_sqm":195.9},"geometry":{"type":"Polygon","coordinates":[[[90.334178,23.80373],[90.334165,23.803837],[90.334105,23.803829],[90.334008,23.803815],[90.334021,23.803708],[90.334118,23.80372],[90.334119,23.803716],[90.334178,23.80373]]]}},{"type":"Feature","properties":{"survey":"bds","sheet":"062","dag":"30646","label_bn":"30646","area_sqm":174.8},"geometry":{"type":"Polygon","coordinates":[[[90.335089,23.803811],[90.335085,23.803846],[90.33495,23.803829],[90.334953,23.803796],[90.334962,23.803716],[90.335097,23.803734],[90.335089,23.803811]]]}},{"type":"Feature","properties":{"survey":"bds","sheet":"062","dag":"30637","label_bn":"30637","area_sqm":205.0},"geometry":{"type":"Polygon","coordinates":[[[90.334344,23.803752],[90.33433,23.803859],[90.334165,23.803837],[90.334178,23.80373],[90.33418,23.80373],[90.334298,23.803745],[90.334344,23.803752]]]}},{"type":"Feature","properties":{"survey":"bds","sheet":"062","dag":"30647","label_bn":"30647","area_sqm":204.9},"geometry":{"type":"Polygon","coordinates":[[[90.335246,23.803833],[90.335242,23.803867],[90.335086,23.803847],[90.335085,23.803846],[90.335089,23.803811],[90.335097,23.803734],[90.335256,23.803755],[90.335246,23.803833]]]}},{"type":"Feature","properties":{"survey":"bds","sheet":"062","dag":"30639","label_bn":"30639","area_sqm":122.2},"geometry":{"type":"Polygon","coordinates":[[[90.334442,23.803763],[90.334428,23.803872],[90.33433,23.803859],[90.334344,23.803752],[90.334424,23.80376],[90.334442,23.803763]]]}},{"type":"Feature","properties":{"survey":"bds","sheet":"062","dag":"30648","label_bn":"30648","area_sqm":202.2},"geometry":{"type":"Polygon","coordinates":[[[90.335399,23.803876],[90.335398,23.803888],[90.335242,23.803867],[90.335246,23.803833],[90.335256,23.803755],[90.335412,23.803775],[90.335399,23.803876]]]}},{"type":"Feature","properties":{"survey":"bds","sheet":"062","dag":"30640","label_bn":"30640","area_sqm":388.1},"geometry":{"type":"Polygon","coordinates":[[[90.334753,23.803803],[90.334736,23.80391],[90.334532,23.803885],[90.334428,23.803872],[90.334442,23.803763],[90.334476,23.803767],[90.334538,23.803774],[90.334678,23.803793],[90.334753,23.803803]]]}},{"type":"Feature","properties":{"survey":"bds","sheet":"062","dag":"30651","label_bn":"30651","area_sqm":317.1},"geometry":{"type":"Polygon","coordinates":[[[90.335654,23.803812],[90.33564,23.803922],[90.335491,23.803901],[90.335398,23.803888],[90.335399,23.803876],[90.335412,23.803775],[90.335445,23.80378],[90.335654,23.803807],[90.335654,23.803812]]]}},{"type":"Feature","properties":{"survey":"bds","sheet":"062","dag":"30644","label_bn":"30644","area_sqm":171.6},"geometry":{"type":"Polygon","coordinates":[[[90.334889,23.803822],[90.334874,23.80393],[90.334736,23.80391],[90.334753,23.803803],[90.334814,23.803811],[90.334889,23.803822]]]}},{"type":"Feature","properties":{"survey":"bds","sheet":"062","dag":"30649","label_bn":"30649","area_sqm":641.8},"geometry":{"type":"Polygon","coordinates":[[[90.335398,23.803888],[90.335389,23.803997],[90.334874,23.80393],[90.334889,23.803822],[90.33495,23.803829],[90.335085,23.803846],[90.335086,23.803847],[90.335242,23.803867],[90.335398,23.803888]]]}},{"type":"Feature","properties":{"survey":"bds","sheet":"062","dag":"30616","label_bn":"30616","area_sqm":408.2},"geometry":{"type":"Polygon","coordinates":[[[90.334145,23.803891],[90.334131,23.804],[90.33401,23.803984],[90.333938,23.803975],[90.333889,23.803969],[90.333858,23.803965],[90.333862,23.803796],[90.333883,23.803799],[90.333945,23.803807],[90.333947,23.803865],[90.334145,23.803891]]]}},{"type":"Feature","properties":{"survey":"bds","sheet":"062","dag":"30617","label_bn":"30617","area_sqm":77.2},"geometry":{"type":"Polygon","coordinates":[[[90.334208,23.803899],[90.334191,23.804008],[90.334131,23.804],[90.334145,23.803891],[90.334208,23.803899]]]}},{"type":"Feature","properties":{"survey":"bds","sheet":"062","dag":"30650","label_bn":"30650","area_sqm":300.6},"geometry":{"type":"Polygon","coordinates":[[[90.335638,23.80394],[90.335626,23.80403],[90.335389,23.803997],[90.335398,23.803888],[90.335491,23.803901],[90.33564,23.803922],[90.335638,23.80394]]]}},{"type":"Feature","properties":{"survey":"bds","sheet":"062","dag":"30618","label_bn":"30618","area_sqm":302.3},"geometry":{"type":"Polygon","coordinates":[[[90.334449,23.803932],[90.334435,23.804038],[90.334314,23.804023],[90.334191,23.804008],[90.334208,23.803899],[90.334449,23.803932]]]}},{"type":"Feature","properties":{"survey":"bds","sheet":"062","dag":"30619","label_bn":"30619","area_sqm":298.9},"geometry":{"type":"Polygon","coordinates":[[[90.334692,23.803962],[90.334676,23.804071],[90.334598,23.80406],[90.334554,23.804054],[90.334435,23.804038],[90.334449,23.803932],[90.334554,23.803945],[90.334692,23.803962]]]}},{"type":"Feature","properties":{"survey":"bds","sheet":"062","dag":"30624","label_bn":"30624","area_sqm":1084.0},"geometry":{"type":"Polygon","coordinates":[[[90.335626,23.80403],[90.335619,23.804085],[90.335372,23.804052],[90.335128,23.80402],[90.335075,23.804013],[90.334829,23.803981],[90.334692,23.803962],[90.334554,23.803945],[90.334449,23.803932],[90.334208,23.803899],[90.334145,23.803891],[90.333947,23.803865],[90.333945,23.803807],[90.334008,23.803815],[90.334105,23.803829],[90.334165,23.803837],[90.33433,23.803859],[90.334428,23.803872],[90.334532,23.803885],[90.334736,23.80391],[90.334874,23.80393],[90.335389,23.803997],[90.335626,23.80403]]]}},{"type":"Feature","properties":{"survey":"bds","sheet":"062","dag":"30620","label_bn":"30620","area_sqm":173.5},"geometry":{"type":"Polygon","coordinates":[[[90.334822,23.804043],[90.334814,23.80409],[90.334676,23.804071],[90.334692,23.803962],[90.334829,23.803981],[90.334822,23.804043]]]}},{"type":"Feature","properties":{"survey":"bds","sheet":"062","dag":"30615","label_bn":"30615","area_sqm":151.4},"geometry":{"type":"Polygon","coordinates":[[[90.33401,23.803984],[90.333994,23.804092],[90.333909,23.804082],[90.333873,23.804078],[90.333889,23.803969],[90.333938,23.803975],[90.33401,23.803984]]]}},{"type":"Feature","properties":{"survey":"bds","sheet":"062","dag":"30614","label_bn":"30614","area_sqm":151.0},"geometry":{"type":"Polygon","coordinates":[[[90.334131,23.804],[90.334115,23.804108],[90.334071,23.804102],[90.333994,23.804092],[90.33401,23.803984],[90.334131,23.804]]]}},{"type":"Feature","properties":{"survey":"bds","sheet":"062","dag":"30613","label_bn":"30613","area_sqm":76.0},"geometry":{"type":"Polygon","coordinates":[[[90.334191,23.804008],[90.334176,23.804117],[90.334115,23.804108],[90.334131,23.804],[90.334191,23.804008]]]}},{"type":"Feature","properties":{"survey":"bds","sheet":"062","dag":"30621","label_bn":"30621","area_sqm":334.7},"geometry":{"type":"Polygon","coordinates":[[[90.335075,23.804013],[90.335059,23.804131],[90.334813,23.804099],[90.334814,23.80409],[90.334822,23.804043],[90.334829,23.803981],[90.335075,23.804013]]]}},{"type":"Feature","properties":{"survey":"bds","sheet":"062","dag":"30612","label_bn":"30612","area_sqm":154.6},"geometry":{"type":"Polygon","coordinates":[[[90.334314,23.804023],[90.334299,23.804133],[90.334176,23.804117],[90.334191,23.804008],[90.334314,23.804023]]]}},{"type":"Feature","properties":{"survey":"bds","sheet":"062","dag":"30625","label_bn":"30625","area_sqm":1870.0},"geometry":{"type":"Polygon","coordinates":[[[90.334071,23.804102],[90.334063,23.804159],[90.333986,23.804146],[90.333361,23.80404],[90.333365,23.804013],[90.33338,23.803892],[90.333381,23.80389],[90.333422,23.803738],[90.33357,23.803757],[90.333683,23.803772],[90.333787,23.803786],[90.333804,23.803788],[90.333862,23.803796],[90.333858,23.803965],[90.333889,23.803969],[90.333873,23.804078],[90.333909,23.804082],[90.333994,23.804092],[90.334071,23.804102]]]}},{"type":"Feature","properties":{"survey":"bds","sheet":"062","dag":"30611","label_bn":"30611","area_sqm":307.5},"geometry":{"type":"Polygon","coordinates":[[[90.334554,23.804054],[90.334542,23.804164],[90.334299,23.804133],[90.334314,23.804023],[90.334435,23.804038],[90.334554,23.804054]]]}},{"type":"Feature","properties":{"survey":"bds","sheet":"062","dag":"30622","label_bn":"30622","area_sqm":406.1},"geometry":{"type":"Polygon","coordinates":[[[90.335372,23.804052],[90.335358,23.80417],[90.335144,23.804142],[90.335139,23.804142],[90.335059,23.804131],[90.335075,23.804013],[90.335128,23.80402],[90.335372,23.804052]]]}},{"type":"Feature","properties":{"survey":"bds","sheet":"062","dag":"30610","label_bn":"30610","area_sqm":154.3},"geometry":{"type":"Polygon","coordinates":[[[90.334676,23.804071],[90.334664,23.80418],[90.334648,23.804178],[90.334542,23.804164],[90.334554,23.804054],[90.334598,23.80406],[90.334676,23.804071]]]}},{"type":"Feature","properties":{"survey":"bds","sheet":"062","dag":"30609","label_bn":"30609","area_sqm":171.0},"geometry":{"type":"Polygon","coordinates":[[[90.334813,23.804099],[90.3348,23.804197],[90.334664,23.80418],[90.334676,23.804071],[90.334814,23.80409],[90.334813,23.804099]]]}},{"type":"Feature","properties":{"survey":"bds","sheet":"062","dag":"30623","label_bn":"30623","area_sqm":335.0},"geometry":{"type":"Polygon","coordinates":[[[90.335606,23.80419],[90.335604,23.804203],[90.335603,23.804203],[90.335358,23.80417],[90.335372,23.804052],[90.335619,23.804085],[90.335606,23.80419]]]}},{"type":"Feature","properties":{"survey":"bds","sheet":"062","dag":"30608","label_bn":"30608","area_sqm":381.1},"geometry":{"type":"Polygon","coordinates":[[[90.335144,23.804142],[90.335131,23.804243],[90.335127,23.804243],[90.335087,23.804237],[90.3348,23.804197],[90.334813,23.804099],[90.335059,23.804131],[90.335139,23.804142],[90.335144,23.804142]]]}},{"type":"Feature","properties":{"survey":"bds","sheet":"062","dag":"30603","label_bn":"30603","area_sqm":162.6},"geometry":{"type":"Polygon","coordinates":[[[90.334192,23.804224],[90.334186,23.804287],[90.334056,23.804271],[90.33407,23.80416],[90.334198,23.804178],[90.334192,23.804224]]]}},{"type":"Feature","properties":{"survey":"bds","sheet":"062","dag":"30600","label_bn":"30600","area_sqm":152.5},"geometry":{"type":"Polygon","coordinates":[[[90.33431,23.804277],[90.334307,23.804302],[90.334296,23.804301],[90.334195,23.804288],[90.334186,23.804287],[90.334192,23.804224],[90.334198,23.804178],[90.334209,23.804179],[90.334319,23.804193],[90.33431,23.804277]]]}},{"type":"Feature","properties":{"survey":"bds","sheet":"062","dag":"30607","label_bn":"30607","area_sqm":537.3},"geometry":{"type":"Polygon","coordinates":[[[90.335604,23.804203],[90.335592,23.804304],[90.335581,23.804303],[90.335131,23.804243],[90.335144,23.804142],[90.335358,23.80417],[90.335603,23.804203],[90.335604,23.804203]]]}},{"type":"Feature","properties":{"survey":"bds","sheet":"062","dag":"30597","label_bn":"30597","area_sqm":214.3},"geometry":{"type":"Polygon","coordinates":[[[90.33449,23.804214],[90.334476,23.804324],[90.334467,23.804323],[90.334393,23.804313],[90.334392,23.804313],[90.334307,23.804302],[90.33431,23.804277],[90.334319,23.804193],[90.33449,23.804214]]]}},{"type":"Feature","properties":{"survey":"bds","sheet":"062","dag":"30596","label_bn":"30596","area_sqm":123.5},"geometry":{"type":"Polygon","coordinates":[[[90.334587,23.804226],[90.334574,23.804335],[90.334476,23.804324],[90.33449,23.804214],[90.334587,23.804226]]]}},{"type":"Feature","properties":{"survey":"bds","sheet":"062","dag":"30606","label_bn":"30606","area_sqm":1044.0},"geometry":{"type":"Polygon","coordinates":[[[90.335592,23.804304],[90.335584,23.80436],[90.335566,23.804359],[90.335486,23.804357],[90.335367,23.80434],[90.335259,23.804324],[90.335164,23.804313],[90.33507,23.804298],[90.334922,23.804276],[90.334881,23.80427],[90.334801,23.804258],[90.33467,23.804238],[90.334587,23.804226],[90.33449,23.804214],[90.334319,23.804193],[90.334209,23.804179],[90.334198,23.804178],[90.33407,23.80416],[90.334063,23.804159],[90.334071,23.804102],[90.334115,23.804108],[90.334176,23.804117],[90.334299,23.804133],[90.334542,23.804164],[90.334648,23.804178],[90.334664,23.80418],[90.3348,23.804197],[90.335087,23.804237],[90.335127,23.804243],[90.335131,23.804243],[90.335581,23.804303],[90.335592,23.804304]]]}},{"type":"Feature","properties":{"survey":"bds","sheet":"062","dag":"30592","label_bn":"30592","area_sqm":128.3},"geometry":{"type":"Polygon","coordinates":[[[90.33507,23.804298],[90.335066,23.804359],[90.334877,23.804326],[90.334878,23.80431],[90.334881,23.80427],[90.334922,23.804276],[90.33507,23.804298]]]}},{"type":"Feature","properties":{"survey":"bds","sheet":"062","dag":"30593","label_bn":"30593","area_sqm":368.8},"geometry":{"type":"Polygon","coordinates":[[[90.334875,23.804349],[90.334873,23.804376],[90.334792,23.804366],[90.334785,23.804365],[90.33463,23.804343],[90.334574,23.804335],[90.334587,23.804226],[90.33467,23.804238],[90.334801,23.804258],[90.334881,23.80427],[90.334878,23.80431],[90.334877,23.804326],[90.334875,23.804349]]]}},{"type":"Feature","properties":{"survey":"bds","sheet":"062","dag":"30605","label_bn":"30605","area_sqm":1842.9},"geometry":{"type":"Polygon","coordinates":[[[90.333986,23.804146],[90.333956,23.80438],[90.333318,23.804311],[90.333319,23.804306],[90.333323,23.804282],[90.333356,23.804074],[90.333361,23.80404],[90.333986,23.804146]]]}},{"type":"Feature","properties":{"survey":"bds","sheet":"062","dag":"30601","label_bn":"30601","area_sqm":123.7},"geometry":{"type":"Polygon","coordinates":[[[90.334296,23.804301],[90.334281,23.804409],[90.334182,23.804395],[90.334195,23.804288],[90.334296,23.804301]]]}},{"type":"Feature","properties":{"survey":"bds","sheet":"062","dag":"30588","label_bn":"30588","area_sqm":112.3},"geometry":{"type":"Polygon","coordinates":[[[90.335164,23.804313],[90.335158,23.804415],[90.335057,23.8044],[90.335065,23.804362],[90.335066,23.804359],[90.33507,23.804298],[90.335164,23.804313]]]}},{"type":"Feature","properties":{"survey":"bds","sheet":"062","dag":"30591","label_bn":"30591","area_sqm":128.4},"geometry":{"type":"Polygon","coordinates":[[[90.335056,23.804405],[90.335052,23.804422],[90.334895,23.804391],[90.334897,23.80438],[90.334873,23.804376],[90.334875,23.804349],[90.334877,23.804326],[90.335066,23.804359],[90.335065,23.804362],[90.335057,23.8044],[90.335056,23.804405]]]}},{"type":"Feature","properties":{"survey":"bds","sheet":"062","dag":"30599","label_bn":"30599","area_sqm":121.1},"geometry":{"type":"Polygon","coordinates":[[[90.334393,23.804314],[90.334376,23.804422],[90.334281,23.804409],[90.334296,23.804301],[90.334307,23.804302],[90.334392,23.804313],[90.334393,23.804313],[90.334393,23.804314]]]}},{"type":"Feature","properties":{"survey":"bds","sheet":"062","dag":"30598","label_bn":"30598","area_sqm":93.2},"geometry":{"type":"Polygon","coordinates":[[[90.334463,23.804347],[90.33445,23.804432],[90.334376,23.804422],[90.334393,23.804314],[90.334393,23.804313],[90.334467,23.804323],[90.334463,23.804347]]]}},{"type":"Feature","properties":{"survey":"bds","sheet":"062","dag":"30587","label_bn":"30587","area_sqm":113.6},"geometry":{"type":"Polygon","coordinates":[[[90.335259,23.804324],[90.335244,23.804435],[90.335221,23.804432],[90.335196,23.804429],[90.335158,23.804415],[90.335164,23.804313],[90.335259,23.804324]]]}},{"type":"Feature","properties":{"survey":"bds","sheet":"062","dag":"30586","label_bn":"30586","area_sqm":137.4},"geometry":{"type":"Polygon","coordinates":[[[90.335367,23.80434],[90.335352,23.804449],[90.335244,23.804435],[90.335259,23.804324],[90.335367,23.80434]]]}},{"type":"Feature","properties":{"survey":"bds","sheet":"062","dag":"30602","label_bn":"30602","area_sqm":494.0},"geometry":{"type":"Polygon","coordinates":[[[90.334182,23.804395],[90.334175,23.804453],[90.334118,23.804446],[90.334021,23.804427],[90.334026,23.804388],[90.333956,23.80438],[90.333986,23.804146],[90.334063,23.804159],[90.33407,23.80416],[90.334056,23.804271],[90.334186,23.804287],[90.334195,23.804288],[90.334182,23.804395]]]}},{"type":"Feature","properties":{"survey":"bds","sheet":"062","dag":"30585","label_bn":"30585","area_sqm":151.3},"geometry":{"type":"Polygon","coordinates":[[[90.335486,23.804357],[90.335473,23.804466],[90.335352,23.804449],[90.335367,23.80434],[90.335486,23.804357]]]}},{"type":"Feature","properties":{"survey":"bds","sheet":"062","dag":"30584","label_bn":"30584","area_sqm":119.3},"geometry":{"type":"Polygon","coordinates":[[[90.335559,23.80447],[90.335558,23.804478],[90.335534,23.804475],[90.335473,23.804466],[90.335486,23.804357],[90.335566,23.804359],[90.335584,23.80436],[90.335559,23.80447]]]}},{"type":"Feature","properties":{"survey":"bds","sheet":"062","dag":"30595","label_bn":"30595","area_sqm":418.8},"geometry":{"type":"Polygon","coordinates":[[[90.334785,23.804365],[90.334766,23.804482],[90.334626,23.80446],[90.334558,23.804449],[90.33445,23.804432],[90.334463,23.804347],[90.334467,23.804323],[90.334476,23.804324],[90.334574,23.804335],[90.33463,23.804343],[90.334785,23.804365]]]}},{"type":"Feature","properties":{"survey":"bds","sheet":"062","dag":"30604","label_bn":"30604","area_sqm":806.0},"geometry":{"type":"Polygon","coordinates":[[[90.334024,23.804471],[90.334024,23.804481],[90.333302,23.804414],[90.333303,23.804405],[90.333305,23.804396],[90.333318,23.804311],[90.333956,23.80438],[90.334026,23.804388],[90.334021,23.804427],[90.334024,23.804471]]]}},{"type":"Feature","properties":{"survey":"bds","sheet":"062","dag":"30594","label_bn":"30594","area_sqm":148.6},"geometry":{"type":"Polygon","coordinates":[[[90.334892,23.804407],[90.334871,23.804496],[90.334866,23.804496],[90.334766,23.804482],[90.334785,23.804365],[90.334792,23.804366],[90.334873,23.804376],[90.334897,23.80438],[90.334895,23.804391],[90.334893,23.804405],[90.334892,23.804407]]]}},{"type":"Feature","properties":{"survey":"bds","sheet":"062","dag":"30590","label_bn":"30590","area_sqm":182.8},"geometry":{"type":"Polygon","coordinates":[[[90.335046,23.80445],[90.335024,23.804515],[90.334871,23.804496],[90.334892,23.804407],[90.334893,23.804405],[90.334895,23.804391],[90.335052,23.804422],[90.335052,23.804424],[90.335046,23.80445]]]}},{"type":"Feature","properties":{"survey":"bds","sheet":"062","dag":"30589","label_bn":"30589","area_sqm":218.2},"geometry":{"type":"Polygon","coordinates":[[[90.335215,23.804453],[90.335189,23.804539],[90.33518,23.804537],[90.335024,23.804515],[90.335046,23.80445],[90.335052,23.804424],[90.335052,23.804422],[90.335056,23.804405],[90.335057,23.8044],[90.335158,23.804415],[90.335196,23.804429],[90.335221,23.804432],[90.335215,23.804453]]]}},{"type":"Feature","properties":{"survey":"bds","sheet":"062","dag":"30533","label_bn":"30533","area_sqm":724.7},"geometry":{"type":"Polygon","coordinates":[[[90.333978,23.804558],[90.333851,23.804568],[90.333752,23.804538],[90.333572,23.804528],[90.333547,23.804525],[90.333546,23.804525],[90.333323,23.804502],[90.333288,23.804497],[90.333295,23.804456],[90.333302,23.804414],[90.334024,23.804481],[90.334027,23.804539],[90.334028,23.804565],[90.333978,23.804558]]]}},{"type":"Feature","properties":{"survey":"bds","sheet":"062","dag":"30534","label_bn":"30534","area_sqm":125.5},"geometry":{"type":"Polygon","coordinates":[[[90.334103,23.804555],[90.334101,23.804568],[90.334028,23.804565],[90.334027,23.804539],[90.334024,23.804481],[90.334024,23.804471],[90.334021,23.804427],[90.334118,23.804446],[90.334103,23.804555]]]}},{"type":"Feature","properties":{"survey":"bds","sheet":"062","dag":"30535","label_bn":"30535","area_sqm":101.0},"geometry":{"type":"Polygon","coordinates":[[[90.334174,23.804571],[90.334174,23.804572],[90.334101,23.804568],[90.334103,23.804555],[90.334118,23.804446],[90.334175,23.804453],[90.334191,23.804455],[90.334174,23.804571]]]}},{"type":"Feature","properties":{"survey":"bds","sheet":"062","dag":"30536","label_bn":"30536","area_sqm":190.1},"geometry":{"type":"Polygon","coordinates":[[[90.334332,23.804523],[90.334327,23.80458],[90.33432,23.80458],[90.334306,23.804579],[90.334197,23.804572],[90.334177,23.804572],[90.334174,23.804572],[90.334174,23.804571],[90.334191,23.804455],[90.334218,23.804458],[90.334336,23.804474],[90.334332,23.804523]]]}},{"type":"Feature","properties":{"survey":"bds","sheet":"062","dag":"30583","label_bn":"30583","area_sqm":435.8},"geometry":{"type":"Polygon","coordinates":[[[90.335558,23.804478],[90.335543,23.804587],[90.335525,23.804584],[90.335189,23.804539],[90.335215,23.804453],[90.335221,23.804432],[90.335244,23.804435],[90.335352,23.804449],[90.335473,23.804466],[90.335534,23.804475],[90.335558,23.804478]]]}},{"type":"Feature","properties":{"survey":"bds","sheet":"062","dag":"30537","label_bn":"30537","area_sqm":145.8},"geometry":{"type":"Polygon","coordinates":[[[90.33446,23.8045],[90.334452,23.804591],[90.334392,23.804583],[90.334345,23.804581],[90.334327,23.80458],[90.334332,23.804523],[90.334336,23.804474],[90.334359,23.804477],[90.334461,23.804489],[90.33446,23.8045]]]}},{"type":"Feature","properties":{"survey":"bds","sheet":"062","dag":"30538","label_bn":"30538","area_sqm":194.3},"geometry":{"type":"Polygon","coordinates":[[[90.334623,23.804517],[90.33461,23.804628],[90.334543,23.804611],[90.334482,23.804596],[90.334467,23.804593],[90.334452,23.804591],[90.33446,23.8045],[90.334461,23.804489],[90.334489,23.804494],[90.334528,23.804501],[90.334623,23.804517]]]}},{"type":"Feature","properties":{"survey":"bds","sheet":"062","dag":"30582","label_bn":"30582","area_sqm":874.3},"geometry":{"type":"Polygon","coordinates":[[[90.335537,23.804634],[90.335536,23.804641],[90.335521,23.804639],[90.335395,23.804623],[90.335387,23.804622],[90.33517,23.804593],[90.335161,23.804592],[90.335153,23.804591],[90.334762,23.804536],[90.334727,23.804532],[90.334673,23.804524],[90.334623,23.804517],[90.334528,23.804501],[90.334489,23.804494],[90.334461,23.804489],[90.334359,23.804477],[90.334336,23.804474],[90.334218,23.804458],[90.334191,23.804455],[90.334175,23.804453],[90.334182,23.804395],[90.334281,23.804409],[90.334376,23.804422],[90.33445,23.804432],[90.334558,23.804449],[90.334626,23.80446],[90.334766,23.804482],[90.334866,23.804496],[90.334871,23.804496],[90.335024,23.804515],[90.33518,23.804537],[90.335189,23.804539],[90.335525,23.804584],[90.335543,23.804587],[90.335537,23.804634]]]}},{"type":"Feature","properties":{"survey":"bds","sheet":"062","dag":"30539","label_bn":"30539","area_sqm":133.0},"geometry":{"type":"Polygon","coordinates":[[[90.334727,23.804532],[90.334713,23.804642],[90.334698,23.80464],[90.33461,23.804628],[90.334623,23.804517],[90.334673,23.804524],[90.334727,23.804532]]]}},{"type":"Feature","properties":{"survey":"bds","sheet":"062","dag":"30532","label_bn":"30532","area_sqm":406.6},"geometry":{"type":"Polygon","coordinates":[[[90.333466,23.804672],[90.333352,23.804678],[90.333349,23.804657],[90.333323,23.804502],[90.333546,23.804525],[90.333583,23.804666],[90.333472,23.804672],[90.333466,23.804672]]]}},{"type":"Feature","properties":{"survey":"bds","sheet":"062","dag":"30549","label_bn":"30549","area_sqm":67.0},"geometry":{"type":"Polygon","coordinates":[[[90.334447,23.80468],[90.334399,23.804689],[90.334392,23.804583],[90.334452,23.804591],[90.334467,23.804593],[90.334447,23.80468]]]}},{"type":"Feature","properties":{"survey":"bds","sheet":"062","dag":"30540","label_bn":"30540","area_sqm":532.0},"geometry":{"type":"Polygon","coordinates":[[[90.33517,23.804593],[90.335157,23.804692],[90.335148,23.804691],[90.335147,23.804691],[90.335067,23.804681],[90.33492,23.804663],[90.334771,23.80465],[90.334748,23.804647],[90.334713,23.804642],[90.334727,23.804532],[90.334762,23.804536],[90.335153,23.804591],[90.335161,23.804592],[90.33517,23.804593]]]}},{"type":"Feature","properties":{"survey":"bds","sheet":"062","dag":"30548","label_bn":"30548","area_sqm":145.3},"geometry":{"type":"Polygon","coordinates":[[[90.33461,23.804628],[90.334614,23.804702],[90.334553,23.804694],[90.334447,23.80468],[90.334467,23.804593],[90.334482,23.804596],[90.334543,23.804611],[90.33461,23.804628]]]}},{"type":"Feature","properties":{"survey":"bds","sheet":"062","dag":"30552","label_bn":"30552","area_sqm":116.6},"geometry":{"type":"Polygon","coordinates":[[[90.334376,23.804697],[90.334318,23.804717],[90.334307,23.804595],[90.334306,23.804579],[90.33432,23.80458],[90.334327,23.80458],[90.334345,23.804581],[90.334392,23.804583],[90.334399,23.804689],[90.334376,23.804697]]]}},{"type":"Feature","properties":{"survey":"bds","sheet":"062","dag":"30531","label_bn":"30531","area_sqm":291.8},"geometry":{"type":"Polygon","coordinates":[[[90.333353,23.804682],[90.333359,23.804721],[90.333352,23.804719],[90.333225,23.804686],[90.333216,23.804604],[90.333203,23.804491],[90.333288,23.804497],[90.333323,23.804502],[90.333349,23.804657],[90.333352,23.804678],[90.333353,23.804682]]]}},{"type":"Feature","properties":{"survey":"bds","sheet":"062","dag":"30541","label_bn":"30541","area_sqm":262.6},"geometry":{"type":"Polygon","coordinates":[[[90.335395,23.804623],[90.335381,23.804726],[90.335313,23.804716],[90.335219,23.804702],[90.335177,23.804696],[90.335157,23.804692],[90.33517,23.804593],[90.335387,23.804622],[90.335395,23.804623]]]}},{"type":"Feature","properties":{"survey":"bds","sheet":"062","dag":"30581","label_bn":"30581","area_sqm":166.9},"geometry":{"type":"Polygon","coordinates":[[[90.335526,23.804712],[90.335522,23.804744],[90.335503,23.804741],[90.335381,23.804726],[90.335395,23.804623],[90.335521,23.804639],[90.335536,23.804641],[90.335526,23.804712]]]}},{"type":"Feature","properties":{"survey":"bds","sheet":"062","dag":"30553","label_bn":"30553","area_sqm":175.8},"geometry":{"type":"Polygon","coordinates":[[[90.334318,23.804717],[90.334233,23.804748],[90.334198,23.804576],[90.334197,23.804572],[90.334306,23.804579],[90.334307,23.804595],[90.334318,23.804717]]]}},{"type":"Feature","properties":{"survey":"bds","sheet":"062","dag":"30547","label_bn":"30547","area_sqm":189.2},"geometry":{"type":"Polygon","coordinates":[[[90.334767,23.804678],[90.334756,23.804759],[90.334684,23.804749],[90.334644,23.804744],[90.334636,23.804742],[90.334616,23.80474],[90.334614,23.804702],[90.33461,23.804628],[90.334698,23.80464],[90.334713,23.804642],[90.334748,23.804647],[90.334771,23.80465],[90.334767,23.804678]]]}},{"type":"Feature","properties":{"survey":"bds","sheet":"062","dag":"30546","label_bn":"30546","area_sqm":187.0},"geometry":{"type":"Polygon","coordinates":[[[90.334916,23.804701],[90.334905,23.804772],[90.334778,23.804762],[90.334756,23.804759],[90.334767,23.804678],[90.334771,23.80465],[90.33492,23.804663],[90.334916,23.804701]]]}},{"type":"Feature","properties":{"survey":"bds","sheet":"062","dag":"30554","label_bn":"30554","area_sqm":417.5},"geometry":{"type":"Polygon","coordinates":[[[90.334236,23.804787],[90.33407,23.804788],[90.334028,23.804565],[90.334101,23.804568],[90.334174,23.804572],[90.334177,23.804572],[90.334197,23.804572],[90.334198,23.804576],[90.334233,23.804748],[90.334236,23.804786],[90.334236,23.804787]]]}},{"type":"Feature","properties":{"survey":"bds","sheet":"062","dag":"30545","label_bn":"30545","area_sqm":183.0},"geometry":{"type":"Polygon","coordinates":[[[90.335067,23.804681],[90.33505,23.80479],[90.334905,23.804772],[90.334916,23.804701],[90.33492,23.804663],[90.335067,23.804681]]]}},{"type":"Feature","properties":{"survey":"bds","sheet":"062","dag":"30544","label_bn":"30544","area_sqm":136.2},"geometry":{"type":"Polygon","coordinates":[[[90.335165,23.804759],[90.335157,23.804804],[90.33505,23.80479],[90.335067,23.804681],[90.335147,23.804691],[90.335148,23.804691],[90.335157,23.804692],[90.335177,23.804696],[90.335165,23.804759]]]}},{"type":"Feature","properties":{"survey":"bds","sheet":"062","dag":"30543","label_bn":"30543","area_sqm":56.3},"geometry":{"type":"Polygon","coordinates":[[[90.335219,23.804702],[90.335204,23.804811],[90.335157,23.804804],[90.335165,23.804759],[90.335177,23.804696],[90.335219,23.804702]]]}},{"type":"Feature","properties":{"survey":"bds","sheet":"062","dag":"30528","label_bn":"30528","area_sqm":203.3},"geometry":{"type":"Polygon","coordinates":[[[90.33362,23.80481],[90.333493,23.804818],[90.333466,23.804672],[90.333472,23.804672],[90.333583,23.804666],[90.33362,23.80481]]]}},{"type":"Feature","properties":{"survey":"bds","sheet":"062","dag":"30542","label_bn":"30542","area_sqm":118.5},"geometry":{"type":"Polygon","coordinates":[[[90.335313,23.804716],[90.335298,23.804824],[90.335204,23.804811],[90.335219,23.804702],[90.335313,23.804716]]]}},{"type":"Feature","properties":{"survey":"bds","sheet":"062","dag":"30529","label_bn":"30529","area_sqm":203.3},"geometry":{"type":"Polygon","coordinates":[[[90.333493,23.804818],[90.333371,23.804828],[90.333352,23.804719],[90.333359,23.804721],[90.333353,23.804682],[90.333352,23.804678],[90.333466,23.804672],[90.333493,23.804818]]]}},{"type":"Feature","properties":{"survey":"bds","sheet":"062","dag":"30580","label_bn":"30580","area_sqm":261.3},"geometry":{"type":"Polygon","coordinates":[[[90.335522,23.804744],[90.335508,23.804853],[90.335476,23.804848],[90.335298,23.804824],[90.335313,23.804716],[90.335381,23.804726],[90.335503,23.804741],[90.335522,23.804744]]]}},{"type":"Feature","properties":{"survey":"bds","sheet":"062","dag":"30550","label_bn":"30550","area_sqm":434.6},"geometry":{"type":"Polygon","coordinates":[[[90.334616,23.80474],[90.334603,23.804899],[90.334551,23.804892],[90.334473,23.804863],[90.334471,23.804863],[90.334407,23.804839],[90.334399,23.804689],[90.334447,23.80468],[90.334553,23.804694],[90.334614,23.804702],[90.334616,23.80474]]]}},{"type":"Feature","properties":{"survey":"bds","sheet":"062","dag":"30560","label_bn":"30560","area_sqm":37.5},"geometry":{"type":"Polygon","coordinates":[[[90.334633,23.804788],[90.334625,23.804901],[90.334603,23.804899],[90.334616,23.80474],[90.334636,23.804742],[90.334633,23.804788]]]}},{"type":"Feature","properties":{"survey":"bds","sheet":"062","dag":"30579","label_bn":"30579","area_sqm":561.7},"geometry":{"type":"Polygon","coordinates":[[[90.335508,23.804853],[90.335501,23.804907],[90.335463,23.804903],[90.335388,23.804893],[90.335318,23.804884],[90.335248,23.804875],[90.335191,23.804868],[90.335052,23.804849],[90.334982,23.804839],[90.334895,23.80483],[90.334831,23.804821],[90.334707,23.804809],[90.334677,23.8048],[90.334633,23.804788],[90.334636,23.804742],[90.334644,23.804744],[90.334684,23.804749],[90.334756,23.804759],[90.334778,23.804762],[90.334905,23.804772],[90.33505,23.80479],[90.335157,23.804804],[90.335204,23.804811],[90.335298,23.804824],[90.335476,23.804848],[90.335508,23.804853]]]}},{"type":"Feature","properties":{"survey":"bds","sheet":"062","dag":"30551","label_bn":"30551","area_sqm":298.3},"geometry":{"type":"Polygon","coordinates":[[[90.334318,23.804876],[90.334239,23.804909],[90.334236,23.804787],[90.334236,23.804786],[90.334233,23.804748],[90.334318,23.804717],[90.334376,23.804697],[90.334399,23.804689],[90.334407,23.804839],[90.334354,23.804861],[90.334329,23.804872],[90.334318,23.804876]]]}},{"type":"Feature","properties":{"survey":"bds","sheet":"062","dag":"30561","label_bn":"30561","area_sqm":91.4},"geometry":{"type":"Polygon","coordinates":[[[90.334707,23.804809],[90.334697,23.804911],[90.334664,23.804907],[90.334633,23.804903],[90.33463,23.804902],[90.334625,23.804901],[90.334625,23.804901],[90.334633,23.804788],[90.334677,23.8048],[90.334707,23.804809]]]}},{"type":"Feature","properties":{"survey":"bds","sheet":"062","dag":"30523","label_bn":"30523","area_sqm":689.5},"geometry":{"type":"Polygon","coordinates":[[[90.334087,23.804904],[90.333914,23.804912],[90.333909,23.804871],[90.333907,23.804855],[90.333851,23.804568],[90.333978,23.804558],[90.334028,23.804565],[90.33407,23.804788],[90.334077,23.804842],[90.334081,23.804863],[90.334087,23.804904]]]}},{"type":"Feature","properties":{"survey":"bds","sheet":"062","dag":"30564","label_bn":"30564","area_sqm":148.5},"geometry":{"type":"Polygon","coordinates":[[[90.334831,23.804821],[90.334821,23.804928],[90.334786,23.804924],[90.334708,23.804912],[90.334705,23.804912],[90.334697,23.804911],[90.334707,23.804809],[90.334831,23.804821]]]}},{"type":"Feature","properties":{"survey":"bds","sheet":"062","dag":"30565","label_bn":"30565","area_sqm":75.8},"geometry":{"type":"Polygon","coordinates":[[[90.334895,23.80483],[90.334881,23.804936],[90.334878,23.804936],[90.334821,23.804928],[90.334831,23.804821],[90.334895,23.80483]]]}},{"type":"Feature","properties":{"survey":"bds","sheet":"062","dag":"30524","label_bn":"30524","area_sqm":1260.4},"geometry":{"type":"Polygon","coordinates":[[[90.333914,23.804912],[90.333918,23.804937],[90.333666,23.804935],[90.333664,23.804925],[90.33362,23.80481],[90.333583,23.804666],[90.333546,23.804525],[90.333547,23.804525],[90.333572,23.804528],[90.333752,23.804538],[90.333851,23.804568],[90.333907,23.804855],[90.333909,23.804871],[90.333914,23.804912]]]}},{"type":"Feature","properties":{"survey":"bds","sheet":"062","dag":"30566","label_bn":"30566","area_sqm":106.6},"geometry":{"type":"Polygon","coordinates":[[[90.334982,23.804839],[90.334965,23.804948],[90.334964,23.804948],[90.334904,23.80494],[90.334881,23.804936],[90.334895,23.80483],[90.334982,23.804839]]]}},{"type":"Feature","properties":{"survey":"bds","sheet":"062","dag":"30530","label_bn":"30530","area_sqm":645.3},"geometry":{"type":"Polygon","coordinates":[[[90.333382,23.804915],[90.333387,23.804954],[90.33313,23.804848],[90.333092,23.80484],[90.333081,23.804809],[90.333043,23.804703],[90.333225,23.804686],[90.333352,23.804719],[90.333371,23.804828],[90.333382,23.804915]]]}},{"type":"Feature","properties":{"survey":"bds","sheet":"062","dag":"30570","label_bn":"30570","area_sqm":88.3},"geometry":{"type":"Polygon","coordinates":[[[90.335052,23.804849],[90.335036,23.804958],[90.334976,23.804949],[90.334965,23.804948],[90.334982,23.804839],[90.335052,23.804849]]]}},{"type":"Feature","properties":{"survey":"bds","sheet":"062","dag":"30571","label_bn":"30571","area_sqm":176.6},"geometry":{"type":"Polygon","coordinates":[[[90.335191,23.804868],[90.335177,23.804977],[90.335036,23.804958],[90.335052,23.804849],[90.335191,23.804868]]]}},{"type":"Feature","properties":{"survey":"bds","sheet":"062","dag":"30572","label_bn":"30572","area_sqm":72.0},"geometry":{"type":"Polygon","coordinates":[[[90.335248,23.804875],[90.335235,23.804985],[90.335177,23.804977],[90.335191,23.804868],[90.335248,23.804875]]]}},{"type":"Feature","properties":{"survey":"bds","sheet":"062","dag":"30574","label_bn":"30574","area_sqm":88.4},"geometry":{"type":"Polygon","coordinates":[[[90.335318,23.804884],[90.335305,23.804994],[90.335277,23.80499],[90.335235,23.804985],[90.335248,23.804875],[90.335318,23.804884]]]}},{"type":"Feature","properties":{"survey":"bds","sheet":"062","dag":"30558","label_bn":"30558","area_sqm":113.3},"geometry":{"type":"Polygon","coordinates":[[[90.334538,23.804995],[90.334537,23.805001],[90.334454,23.804995],[90.334473,23.804863],[90.334551,23.804892],[90.334538,23.804995]]]}},{"type":"Feature","properties":{"survey":"bds","sheet":"062","dag":"30575","label_bn":"30575","area_sqm":89.5},"geometry":{"type":"Polygon","coordinates":[[[90.335388,23.804893],[90.335376,23.805003],[90.335348,23.804999],[90.335305,23.804994],[90.335318,23.804884],[90.335388,23.804893]]]}},{"type":"Feature","properties":{"survey":"bds","sheet":"062","dag":"30559","label_bn":"30559","area_sqm":99.1},"geometry":{"type":"Polygon","coordinates":[[[90.33463,23.804902],[90.334615,23.805011],[90.334537,23.805001],[90.334538,23.804995],[90.334551,23.804892],[90.334603,23.804899],[90.334625,23.804901],[90.334625,23.804901],[90.33463,23.804902]]]}},{"type":"Feature","properties":{"survey":"bds","sheet":"062","dag":"30578","label_bn":"30578","area_sqm":141.4},"geometry":{"type":"Polygon","coordinates":[[[90.335501,23.804907],[90.335487,23.805018],[90.335437,23.805011],[90.335376,23.805003],[90.335388,23.804893],[90.335463,23.804903],[90.335501,23.804907]]]}},{"type":"Feature","properties":{"survey":"bds","sheet":"062","dag":"30562","label_bn":"30562","area_sqm":99.0},"geometry":{"type":"Polygon","coordinates":[[[90.334708,23.804912],[90.334694,23.805022],[90.334686,23.805021],[90.334656,23.805017],[90.334617,23.805012],[90.334615,23.805011],[90.33463,23.804902],[90.334633,23.804903],[90.334664,23.804907],[90.334697,23.804911],[90.334705,23.804912],[90.334708,23.804912]]]}},{"type":"Feature","properties":{"survey":"bds","sheet":"062","dag":"30557","label_bn":"30557","area_sqm":219.7},"geometry":{"type":"Polygon","coordinates":[[[90.334412,23.805007],[90.334354,23.805024],[90.334349,23.804991],[90.334345,23.804968],[90.334329,23.804872],[90.334354,23.804861],[90.334407,23.804839],[90.334471,23.804863],[90.334473,23.804863],[90.334454,23.804995],[90.334412,23.805007]]]}},{"type":"Feature","properties":{"survey":"bds","sheet":"062","dag":"30527","label_bn":"30527","area_sqm":393.0},"geometry":{"type":"Polygon","coordinates":[[[90.333588,23.805018],[90.33359,23.805029],[90.333387,23.804954],[90.333382,23.804915],[90.333371,23.804828],[90.333493,23.804818],[90.33362,23.80481],[90.333567,23.804887],[90.333585,23.804998],[90.333588,23.805018]]]}},{"type":"Feature","properties":{"survey":"bds","sheet":"062","dag":"30563","label_bn":"30563","area_sqm":99.3},"geometry":{"type":"Polygon","coordinates":[[[90.334786,23.804924],[90.334772,23.805034],[90.334722,23.805026],[90.334694,23.805022],[90.334708,23.804912],[90.334786,23.804924]]]}},{"type":"Feature","properties":{"survey":"bds","sheet":"062","dag":"30567","label_bn":"30567","area_sqm":148.7},"geometry":{"type":"Polygon","coordinates":[[[90.334904,23.80494],[90.33489,23.805049],[90.334772,23.805034],[90.334786,23.804924],[90.334821,23.804928],[90.334878,23.804936],[90.334881,23.804936],[90.334904,23.80494]]]}},{"type":"Feature","properties":{"survey":"bds","sheet":"062","dag":"30568","label_bn":"30568","area_sqm":90.5},"geometry":{"type":"Polygon","coordinates":[[[90.334976,23.804949],[90.33496,23.805059],[90.33489,23.805049],[90.334904,23.80494],[90.334964,23.804948],[90.334965,23.804948],[90.334976,23.804949]]]}},{"type":"Feature","properties":{"survey":"bds","sheet":"062","dag":"30556","label_bn":"30556","area_sqm":165.0},"geometry":{"type":"Polygon","coordinates":[[[90.334343,23.805027],[90.334264,23.805061],[90.334254,23.805004],[90.334239,23.804909],[90.334318,23.804876],[90.334329,23.804872],[90.334345,23.804968],[90.334349,23.804991],[90.334354,23.805024],[90.334343,23.805027]]]}},{"type":"Feature","properties":{"survey":"bds","sheet":"062","dag":"30526","label_bn":"30526","area_sqm":202.8},"geometry":{"type":"Polygon","coordinates":[[[90.333689,23.805054],[90.333692,23.805069],[90.333678,23.805063],[90.33366,23.805055],[90.33359,23.805029],[90.333588,23.805018],[90.333585,23.804998],[90.333567,23.804887],[90.33362,23.80481],[90.333664,23.804925],[90.333666,23.804935],[90.333687,23.805042],[90.333688,23.80505],[90.333689,23.805054]]]}},{"type":"Feature","properties":{"survey":"bds","sheet":"062","dag":"30569","label_bn":"30569","area_sqm":255.7},"geometry":{"type":"Polygon","coordinates":[[[90.335177,23.804977],[90.335162,23.805087],[90.33496,23.805059],[90.334976,23.804949],[90.335036,23.804958],[90.335177,23.804977]]]}},{"type":"Feature","properties":{"survey":"bds","sheet":"062","dag":"30555","label_bn":"30555","area_sqm":526.1},"geometry":{"type":"Polygon","coordinates":[[[90.334264,23.805061],[90.3341,23.805096],[90.334097,23.805055],[90.334087,23.804904],[90.334081,23.804863],[90.334077,23.804842],[90.33407,23.804788],[90.334236,23.804787],[90.334239,23.804909],[90.334254,23.805004],[90.334264,23.805061]]]}},{"type":"Feature","properties":{"survey":"bds","sheet":"062","dag":"30573","label_bn":"30573","area_sqm":126.6},"geometry":{"type":"Polygon","coordinates":[[[90.335277,23.80499],[90.335262,23.805101],[90.335162,23.805087],[90.335177,23.804977],[90.335235,23.804985],[90.335277,23.80499]]]}},{"type":"Feature","properties":{"survey":"bds","sheet":"062","dag":"30576","label_bn":"30576","area_sqm":89.5},"geometry":{"type":"Polygon","coordinates":[[[90.335348,23.804999],[90.335332,23.805109],[90.335262,23.805101],[90.335277,23.80499],[90.335305,23.804994],[90.335348,23.804999]]]}},{"type":"Feature","properties":{"survey":"bds","sheet":"062","dag":"30577","label_bn":"30577","area_sqm":176.5},"geometry":{"type":"Polygon","coordinates":[[[90.335487,23.805018],[90.335474,23.805126],[90.33541,23.805119],[90.335332,23.805109],[90.335348,23.804999],[90.335376,23.805003],[90.335437,23.805011],[90.335487,23.805018]]]}},{"type":"Feature","properties":{"survey":"bds","sheet":"062","dag":"30525","label_bn":"30525","area_sqm":528.6},"geometry":{"type":"Polygon","coordinates":[[[90.333945,23.805099],[90.333957,23.805168],[90.333943,23.805164],[90.333857,23.80514],[90.333829,23.805128],[90.333737,23.805088],[90.333692,23.805069],[90.333689,23.805054],[90.333688,23.80505],[90.333687,23.805042],[90.333666,23.804935],[90.333918,23.804937],[90.33392,23.804957],[90.333945,23.805099]]]}},{"type":"Feature","properties":{"survey":"bds","sheet":"062","dag":"30522","label_bn":"30522","area_sqm":517.1},"geometry":{"type":"Polygon","coordinates":[[[90.3341,23.805096],[90.334118,23.805213],[90.333957,23.805168],[90.333945,23.805099],[90.33392,23.804957],[90.333918,23.804937],[90.333914,23.804912],[90.334087,23.804904],[90.334097,23.805055],[90.3341,23.805096]]]}},{"type":"Feature","properties":{"survey":"bds","sheet":"062","dag":"30506","label_bn":"30506","area_sqm":1499.5},"geometry":{"type":"Polygon","coordinates":[[[90.333661,23.805429],[90.333384,23.805441],[90.333385,23.805348],[90.333387,23.804954],[90.33359,23.805029],[90.33366,23.805055],[90.333678,23.805063],[90.333692,23.805069],[90.333737,23.805088],[90.333696,23.805256],[90.33368,23.805335],[90.333661,23.805429]]]}},{"type":"Feature","properties":{"survey":"bds","sheet":"062","dag":"30507","label_bn":"30507","area_sqm":1377.1},"geometry":{"type":"Polygon","coordinates":[[[90.333935,23.805461],[90.333903,23.805521],[90.333754,23.805514],[90.333645,23.80551],[90.333661,23.805429],[90.33368,23.805335],[90.333696,23.805256],[90.333737,23.805088],[90.333829,23.805128],[90.333857,23.80514],[90.333943,23.805164],[90.333957,23.805168],[90.334118,23.805213],[90.333961,23.805399],[90.333935,23.805461]]]}},{"type":"Feature","properties":{"survey":"bds","sheet":"062","dag":"30521","label_bn":"30521","area_sqm":3691.7},"geometry":{"type":"Polygon","coordinates":[[[90.33472,23.805084],[90.334704,23.80557],[90.334568,23.805551],[90.334559,23.80555],[90.334545,23.805548],[90.334337,23.805518],[90.334311,23.805515],[90.334248,23.805506],[90.333935,23.805461],[90.333961,23.805399],[90.334118,23.805213],[90.3341,23.805096],[90.334264,23.805061],[90.334343,23.805027],[90.334354,23.805024],[90.334412,23.805007],[90.334454,23.804995],[90.334537,23.805001],[90.334615,23.805011],[90.334617,23.805012],[90.334656,23.805017],[90.334686,23.805021],[90.334694,23.805022],[90.334722,23.805026],[90.33472,23.805084]]]}},{"type":"Feature","properties":{"survey":"bds","sheet":"062","dag":"30508","label_bn":"30508","area_sqm":406.5},"geometry":{"type":"Polygon","coordinates":[[[90.333726,23.805667],[90.333613,23.80568],[90.333645,23.80551],[90.333754,23.805514],[90.333903,23.805521],[90.333832,23.805654],[90.333726,23.805667]]]}},{"type":"Feature","properties":{"survey":"bds","sheet":"062","dag":"30520","label_bn":"30520","area_sqm":203.5},"geometry":{"type":"Polygon","coordinates":[[[90.334701,23.805682],[90.3347,23.805691],[90.334557,23.805671],[90.33455,23.80567],[90.334559,23.80555],[90.334568,23.805551],[90.334704,23.80557],[90.334701,23.80568],[90.334701,23.805682]]]}},{"type":"Feature","properties":{"survey":"bds","sheet":"062","dag":"30509","label_bn":"30509","area_sqm":894.7},"geometry":{"type":"Polygon","coordinates":[[[90.334248,23.805506],[90.334231,23.805729],[90.333831,23.80566],[90.333832,23.805654],[90.333903,23.805521],[90.333935,23.805461],[90.334248,23.805506]]]}},{"type":"Feature","properties":{"survey":"bds","sheet":"062","dag":"30505","label_bn":"30505","area_sqm":853.7},"geometry":{"type":"Polygon","coordinates":[[[90.333502,23.805733],[90.333341,23.805738],[90.333344,23.805719],[90.333344,23.805714],[90.333384,23.805451],[90.333384,23.805441],[90.333661,23.805429],[90.333645,23.80551],[90.333613,23.80568],[90.333516,23.805691],[90.333512,23.805691],[90.333502,23.805733]]]}},{"type":"Feature","properties":{"survey":"bds","sheet":"062","dag":"30510","label_bn":"30510","area_sqm":813.1},"geometry":{"type":"Polygon","coordinates":[[[90.33455,23.80567],[90.334541,23.805783],[90.334299,23.805741],[90.334231,23.805729],[90.334248,23.805506],[90.334311,23.805515],[90.334337,23.805518],[90.334545,23.805548],[90.334559,23.80555],[90.33455,23.80567]]]}},{"type":"Feature","properties":{"survey":"bds","sheet":"062","dag":"30511","label_bn":"30511","area_sqm":203.1},"geometry":{"type":"Polygon","coordinates":[[[90.334696,23.805809],[90.334696,23.80581],[90.334551,23.805785],[90.334541,23.805783],[90.33455,23.80567],[90.334557,23.805671],[90.3347,23.805691],[90.334697,23.805794],[90.334697,23.805799],[90.334696,23.805809]]]}},{"type":"Feature","properties":{"survey":"bds","sheet":"062","dag":"30504","label_bn":"30504","area_sqm":243.8},"geometry":{"type":"Polygon","coordinates":[[[90.333473,23.805869],[90.333322,23.805881],[90.333341,23.805738],[90.333502,23.805733],[90.333473,23.805869]]]}},{"type":"Feature","properties":{"survey":"bds","sheet":"062","dag":"30519","label_bn":"30519","area_sqm":6248.8},"geometry":{"type":"Polygon","coordinates":[[[90.335409,23.805587],[90.335365,23.805895],[90.335301,23.805884],[90.335262,23.805878],[90.335055,23.805848],[90.334889,23.805823],[90.334697,23.805794],[90.3347,23.805691],[90.334701,23.805682],[90.334701,23.80568],[90.334704,23.80557],[90.33472,23.805084],[90.334722,23.805026],[90.334772,23.805034],[90.33489,23.805049],[90.33496,23.805059],[90.335162,23.805087],[90.335262,23.805101],[90.335332,23.805109],[90.33541,23.805119],[90.335474,23.805126],[90.335415,23.80554],[90.335409,23.805587]]]}},{"type":"Feature","properties":{"survey":"bds","sheet":"062","dag":"30518","label_bn":"30518","area_sqm":333.8},"geometry":{"type":"Polygon","coordinates":[[[90.335496,23.805598],[90.335447,23.80591],[90.335365,23.805895],[90.335409,23.805587],[90.335492,23.805541],[90.335496,23.805598]]]}},{"type":"Feature","properties":{"survey":"bds","sheet":"062","dag":"30503","label_bn":"30503","area_sqm":1006.9},"geometry":{"type":"Polygon","coordinates":[[[90.333654,23.80595],[90.333452,23.805962],[90.333473,23.805869],[90.333502,23.805733],[90.333512,23.805691],[90.333516,23.805691],[90.333613,23.80568],[90.333726,23.805667],[90.333832,23.805654],[90.333831,23.80566],[90.333799,23.805834],[90.333788,23.805895],[90.333786,23.805903],[90.333778,23.805943],[90.333654,23.80595]]]}},{"type":"Feature","properties":{"survey":"bds","sheet":"062","dag":"30512","label_bn":"30512","area_sqm":2243.7},"geometry":{"type":"Polygon","coordinates":[[[90.334695,23.80582],[90.334676,23.806018],[90.334512,23.805994],[90.334503,23.805993],[90.334445,23.805985],[90.334386,23.805976],[90.334359,23.805972],[90.334111,23.805938],[90.333788,23.805895],[90.333799,23.805834],[90.333831,23.80566],[90.334231,23.805729],[90.334299,23.805741],[90.334541,23.805783],[90.334551,23.805785],[90.334696,23.80581],[90.334695,23.80582]]]}},{"type":"Feature","properties":{"survey":"bds","sheet":"062","dag":"30516","label_bn":"30516","area_sqm":545.2},"geometry":{"type":"Polygon","coordinates":[[[90.334885,23.80584],[90.334819,23.806094],[90.334814,23.806093],[90.334687,23.806077],[90.33467,23.806075],[90.334671,23.806069],[90.334672,23.806058],[90.334676,23.806018],[90.334695,23.80582],[90.334696,23.80581],[90.334696,23.805809],[90.334697,23.805799],[90.334697,23.805794],[90.334889,23.805823],[90.334885,23.80584]]]}},{"type":"Feature","properties":{"survey":"bds","sheet":"062","dag":"30501","label_bn":"30501","area_sqm":297.8},"geometry":{"type":"Polygon","coordinates":[[[90.333452,23.805962],[90.333419,23.806096],[90.333325,23.806066],[90.333316,23.805927],[90.333322,23.805881],[90.333473,23.805869],[90.333452,23.805962]]]}},{"type":"Feature","properties":{"survey":"bds","sheet":"062","dag":"30517","label_bn":"30517","area_sqm":1251.0},"geometry":{"type":"Polygon","coordinates":[[[90.335259,23.805897],[90.335226,23.806149],[90.335118,23.806137],[90.334905,23.806115],[90.334896,23.806114],[90.334819,23.806094],[90.334885,23.80584],[90.334889,23.805823],[90.335055,23.805848],[90.335262,23.805878],[90.335259,23.805897]]]}},{"type":"Feature","properties":{"survey":"bds","sheet":"062","dag":"30502","label_bn":"30502","area_sqm":686.0},"geometry":{"type":"Polygon","coordinates":[[[90.333744,23.806104],[90.333728,23.80615],[90.333592,23.80614],[90.333566,23.806139],[90.333403,23.806127],[90.333419,23.806096],[90.333452,23.805962],[90.333654,23.80595],[90.333778,23.805943],[90.333744,23.806104]]]}},{"type":"Feature","properties":{"survey":"bds","sheet":"062","dag":"30513","label_bn":"30513","area_sqm":1422.9},"geometry":{"type":"Polygon","coordinates":[[[90.334386,23.805976],[90.334333,23.806179],[90.334304,23.806176],[90.33384,23.806114],[90.333744,23.806104],[90.333778,23.805943],[90.333786,23.805903],[90.333788,23.805895],[90.334111,23.805938],[90.334359,23.805972],[90.334386,23.805976]]]}},{"type":"Feature","properties":{"survey":"bds","sheet":"062","dag":"30514","label_bn":"30514","area_sqm":284.7},"geometry":{"type":"Polygon","coordinates":[[[90.334491,23.806042],[90.334455,23.806195],[90.334333,23.806179],[90.334333,23.806179],[90.334386,23.805976],[90.334445,23.805985],[90.334503,23.805993],[90.334491,23.806042]]]}},{"type":"Feature","properties":{"survey":"bds","sheet":"062","dag":"30515","label_bn":"30515","area_sqm":378.1},"geometry":{"type":"Polygon","coordinates":[[[90.33462,23.80619],[90.334459,23.806196],[90.334455,23.806195],[90.334491,23.806042],[90.334503,23.805993],[90.334512,23.805994],[90.334676,23.806018],[90.334672,23.806058],[90.334671,23.806069],[90.33467,23.806075],[90.33462,23.80619]]]}}]}