{"type":"FeatureCollection","features":[{"type":"Feature","properties":{"survey":"bds","sheet":"068","dag":"33575","label_bn":"33575","area_sqm":45.1},"geometry":{"type":"Polygon","coordinates":[[[90.334264,23.802696],[90.334269,23.80267],[90.334389,23.802681],[90.334412,23.802683],[90.334405,23.802712],[90.334264,23.802696]]]}},{"type":"Feature","properties":{"survey":"bds","sheet":"068","dag":"33649","label_bn":"33649","area_sqm":61.4},"geometry":{"type":"Polygon","coordinates":[[[90.335373,23.802254],[90.335389,23.802198],[90.335498,23.802232],[90.335491,23.802268],[90.335373,23.802254]]]}},{"type":"Feature","properties":{"survey":"bds","sheet":"068","dag":"33732","label_bn":"33732","area_sqm":64.6},"geometry":{"type":"Polygon","coordinates":[[[90.335506,23.801468],[90.335516,23.80144],[90.335571,23.801455],[90.335575,23.801457],[90.335702,23.801505],[90.335698,23.801516],[90.335693,23.801527],[90.335506,23.801468]]]}},{"type":"Feature","properties":{"survey":"bds","sheet":"068","dag":"33687","label_bn":"33687","area_sqm":65.4},"geometry":{"type":"Polygon","coordinates":[[[90.334699,23.801164],[90.334717,23.801047],[90.334771,23.801063],[90.334741,23.801174],[90.334699,23.801164]]]}},{"type":"Feature","properties":{"survey":"bds","sheet":"068","dag":"33710","label_bn":"33710","area_sqm":65.7},"geometry":{"type":"Polygon","coordinates":[[[90.334923,23.801443],[90.334995,23.801243],[90.33502,23.80125],[90.334979,23.801368],[90.334938,23.801463],[90.334923,23.801443]]]}},{"type":"Feature","properties":{"survey":"bds","sheet":"068","dag":"33688","label_bn":"33688","area_sqm":66.0},"geometry":{"type":"Polygon","coordinates":[[[90.334741,23.801174],[90.334771,23.801063],[90.334826,23.80108],[90.334784,23.801185],[90.334741,23.801174]]]}},{"type":"Feature","properties":{"survey":"bds","sheet":"068","dag":"33542","label_bn":"33542","area_sqm":66.2},"geometry":{"type":"Polygon","coordinates":[[[90.333239,23.802449],[90.333242,23.802405],[90.333399,23.802438],[90.333392,23.802468],[90.333239,23.802449]]]}},{"type":"Feature","properties":{"survey":"bds","sheet":"068","dag":"33708","label_bn":"33708","area_sqm":73.7},"geometry":{"type":"Polygon","coordinates":[[[90.334884,23.801299],[90.334859,23.80136],[90.334859,23.80136],[90.334853,23.801374],[90.334837,23.801363],[90.334796,23.801343],[90.334771,23.801336],[90.334788,23.801275],[90.334884,23.801299]]]}},{"type":"Feature","properties":{"survey":"bds","sheet":"068","dag":"33694","label_bn":"33694","area_sqm":70.0},"geometry":{"type":"Polygon","coordinates":[[[90.33488,23.800992],[90.3349,23.800929],[90.334989,23.800954],[90.33497,23.801018],[90.33488,23.800992]]]}},{"type":"Feature","properties":{"survey":"bds","sheet":"068","dag":"33738","label_bn":"33738","area_sqm":70.7},"geometry":{"type":"Polygon","coordinates":[[[90.335516,23.80144],[90.335536,23.801381],[90.33555,23.80134],[90.335603,23.801358],[90.335606,23.801358],[90.335575,23.801457],[90.335571,23.801455],[90.335516,23.80144]]]}},{"type":"Feature","properties":{"survey":"bds","sheet":"068","dag":"33693","label_bn":"33693","area_sqm":71.0},"geometry":{"type":"Polygon","coordinates":[[[90.334858,23.801054],[90.33488,23.800992],[90.33497,23.801018],[90.334952,23.80108],[90.334858,23.801054]]]}},{"type":"Feature","properties":{"survey":"bds","sheet":"068","dag":"33735","label_bn":"33735","area_sqm":71.2},"geometry":{"type":"Polygon","coordinates":[[[90.335334,23.801673],[90.335357,23.801611],[90.335448,23.801635],[90.335426,23.801698],[90.335334,23.801673]]]}},{"type":"Feature","properties":{"survey":"bds","sheet":"068","dag":"33747","label_bn":"33747","area_sqm":74.8},"geometry":{"type":"Polygon","coordinates":[[[90.335296,23.801105],[90.335317,23.801042],[90.335397,23.801064],[90.335412,23.801068],[90.33539,23.801133],[90.335296,23.801105]]]}},{"type":"Feature","properties":{"survey":"bds","sheet":"068","dag":"33746","label_bn":"33746","area_sqm":75.5},"geometry":{"type":"Polygon","coordinates":[[[90.335275,23.80117],[90.335296,23.801105],[90.33539,23.801133],[90.335369,23.801197],[90.335275,23.80117]]]}},{"type":"Feature","properties":{"survey":"bds","sheet":"068","dag":"33504","label_bn":"33504","area_sqm":75.8},"geometry":{"type":"Polygon","coordinates":[[[90.333579,23.80308],[90.333594,23.802957],[90.333647,23.802964],[90.333632,23.803087],[90.333579,23.80308]]]}},{"type":"Feature","properties":{"survey":"bds","sheet":"068","dag":"33700","label_bn":"33700","area_sqm":78.7},"geometry":{"type":"Polygon","coordinates":[[[90.335203,23.801011],[90.335214,23.800941],[90.335317,23.800963],[90.335294,23.801029],[90.335203,23.801011]]]}},{"type":"Feature","properties":{"survey":"bds","sheet":"068","dag":"33505","label_bn":"33505","area_sqm":79.9},"geometry":{"type":"Polygon","coordinates":[[[90.333632,23.803087],[90.333647,23.802964],[90.333703,23.802971],[90.333688,23.803094],[90.333652,23.80309],[90.333632,23.803087]]]}},{"type":"Feature","properties":{"survey":"bds","sheet":"068","dag":"33645","label_bn":"33645","area_sqm":80.8},"geometry":{"type":"Polygon","coordinates":[[[90.335172,23.802687],[90.335183,23.802627],[90.3353,23.802643],[90.33529,23.802697],[90.335289,23.802702],[90.335172,23.802687]]]}},{"type":"Feature","properties":{"survey":"bds","sheet":"068","dag":"33731","label_bn":"33731","area_sqm":85.9},"geometry":{"type":"Polygon","coordinates":[[[90.335696,23.801597],[90.335725,23.801525],[90.335818,23.801555],[90.335789,23.801627],[90.335696,23.801597]]]}},{"type":"Feature","properties":{"survey":"bds","sheet":"068","dag":"33751","label_bn":"33751","area_sqm":87.0},"geometry":{"type":"Polygon","coordinates":[[[90.33535,23.800928],[90.335375,23.800827],[90.335436,23.80084],[90.335413,23.80093],[90.335505,23.800948],[90.335498,23.800961],[90.335434,23.800948],[90.33541,23.800943],[90.33535,23.800928]]]}},{"type":"Feature","properties":{"survey":"bds","sheet":"068","dag":"33593","label_bn":"33593","area_sqm":88.1},"geometry":{"type":"Polygon","coordinates":[[[90.334766,23.801634],[90.334779,23.801569],[90.334868,23.801583],[90.334895,23.801587],[90.334887,23.801632],[90.334883,23.801652],[90.334766,23.801634]]]}},{"type":"Feature","properties":{"survey":"bds","sheet":"068","dag":"33734","label_bn":"33734","area_sqm":89.0},"geometry":{"type":"Polygon","coordinates":[[[90.335306,23.801751],[90.335334,23.801673],[90.335426,23.801698],[90.335402,23.801773],[90.335306,23.801751]]]}},{"type":"Feature","properties":{"survey":"bds","sheet":"068","dag":"33597","label_bn":"33597","area_sqm":89.7},"geometry":{"type":"Polygon","coordinates":[[[90.334828,23.801949],[90.334839,23.801884],[90.334959,23.8019],[90.334946,23.801964],[90.334828,23.801949]]]}},{"type":"Feature","properties":{"survey":"bds","sheet":"068","dag":"33635","label_bn":"33635","area_sqm":89.9},"geometry":{"type":"Polygon","coordinates":[[[90.335116,23.802984],[90.335128,23.802919],[90.335245,23.802935],[90.335233,23.803002],[90.335116,23.802984]]]}},{"type":"Feature","properties":{"survey":"bds","sheet":"068","dag":"33602","label_bn":"33602","area_sqm":90.0},"geometry":{"type":"Polygon","coordinates":[[[90.33468,23.802089],[90.334692,23.802022],[90.334811,23.802039],[90.334798,23.802103],[90.33468,23.802089]]]}},{"type":"Feature","properties":{"survey":"bds","sheet":"068","dag":"33601","label_bn":"33601","area_sqm":90.0},"geometry":{"type":"Polygon","coordinates":[[[90.334798,23.802103],[90.334811,23.802039],[90.334929,23.802053],[90.334915,23.80212],[90.334798,23.802103]]]}},{"type":"Feature","properties":{"survey":"bds","sheet":"068","dag":"33625","label_bn":"33625","area_sqm":90.6},"geometry":{"type":"Polygon","coordinates":[[[90.334985,23.802082],[90.334997,23.802015],[90.335115,23.802031],[90.335113,23.802044],[90.335104,23.802096],[90.334985,23.802082]]]}},{"type":"Feature","properties":{"survey":"bds","sheet":"068","dag":"33634","label_bn":"33634","area_sqm":90.6},"geometry":{"type":"Polygon","coordinates":[[[90.335128,23.802919],[90.335141,23.802852],[90.335258,23.802869],[90.335248,23.80292],[90.335245,23.802935],[90.335128,23.802919]]]}},{"type":"Feature","properties":{"survey":"bds","sheet":"068","dag":"33610","label_bn":"33610","area_sqm":90.9},"geometry":{"type":"Polygon","coordinates":[[[90.334508,23.80302],[90.334521,23.802954],[90.334639,23.802968],[90.334627,23.803034],[90.334508,23.80302]]]}},{"type":"Feature","properties":{"survey":"bds","sheet":"068","dag":"33616","label_bn":"33616","area_sqm":91.1},"geometry":{"type":"Polygon","coordinates":[[[90.334826,23.802948],[90.334838,23.802879],[90.334957,23.802894],[90.334944,23.802959],[90.334826,23.802948]]]}},{"type":"Feature","properties":{"survey":"bds","sheet":"068","dag":"33585","label_bn":"33585","area_sqm":91.4},"geometry":{"type":"Polygon","coordinates":[[[90.334418,23.801865],[90.33443,23.801798],[90.334549,23.801808],[90.334537,23.801875],[90.334418,23.801865]]]}},{"type":"Feature","properties":{"survey":"bds","sheet":"068","dag":"33587","label_bn":"33587","area_sqm":92.0},"geometry":{"type":"Polygon","coordinates":[[[90.334549,23.801808],[90.334559,23.801742],[90.334683,23.801753],[90.33467,23.801818],[90.334549,23.801808]]]}},{"type":"Feature","properties":{"survey":"bds","sheet":"068","dag":"33588","label_bn":"33588","area_sqm":92.3},"geometry":{"type":"Polygon","coordinates":[[[90.334559,23.801742],[90.334571,23.801679],[90.334695,23.801687],[90.334683,23.801753],[90.334559,23.801742]]]}},{"type":"Feature","properties":{"survey":"bds","sheet":"068","dag":"33633","label_bn":"33633","area_sqm":92.3},"geometry":{"type":"Polygon","coordinates":[[[90.335141,23.802852],[90.335154,23.802784],[90.335271,23.802801],[90.335258,23.802869],[90.335141,23.802852]]]}},{"type":"Feature","properties":{"survey":"bds","sheet":"068","dag":"33599","label_bn":"33599","area_sqm":92.4},"geometry":{"type":"Polygon","coordinates":[[[90.334692,23.802022],[90.334705,23.801956],[90.334823,23.801971],[90.334811,23.802039],[90.334692,23.802022]]]}},{"type":"Feature","properties":{"survey":"bds","sheet":"068","dag":"33651","label_bn":"33651","area_sqm":94.0},"geometry":{"type":"Polygon","coordinates":[[[90.335263,23.80217],[90.335274,23.802105],[90.335393,23.802131],[90.335396,23.80216],[90.335393,23.802167],[90.335381,23.802196],[90.335263,23.80217]]]}},{"type":"Feature","properties":{"survey":"bds","sheet":"068","dag":"33742","label_bn":"33742","area_sqm":94.7},"geometry":{"type":"Polygon","coordinates":[[[90.335499,23.801186],[90.335526,23.801105],[90.335618,23.80113],[90.335593,23.801212],[90.335499,23.801186]]]}},{"type":"Feature","properties":{"survey":"bds","sheet":"068","dag":"33707","label_bn":"33707","area_sqm":94.9},"geometry":{"type":"Polygon","coordinates":[[[90.334788,23.801275],[90.334813,23.801192],[90.334887,23.801212],[90.334906,23.801217],[90.334884,23.801299],[90.334788,23.801275]]]}},{"type":"Feature","properties":{"survey":"bds","sheet":"068","dag":"33740","label_bn":"33740","area_sqm":96.5},"geometry":{"type":"Polygon","coordinates":[[[90.335443,23.801356],[90.33547,23.801272],[90.335564,23.801299],[90.33555,23.80134],[90.335536,23.801381],[90.335443,23.801356]]]}},{"type":"Feature","properties":{"survey":"bds","sheet":"068","dag":"33521","label_bn":"33521","area_sqm":98.7},"geometry":{"type":"Polygon","coordinates":[[[90.334893,23.803376],[90.334909,23.80324],[90.334972,23.803249],[90.334956,23.803385],[90.334893,23.803376]]]}},{"type":"Feature","properties":{"survey":"bds","sheet":"068","dag":"33524","label_bn":"33524","area_sqm":99.1},"geometry":{"type":"Polygon","coordinates":[[[90.334956,23.803385],[90.334972,23.803249],[90.335001,23.803252],[90.335003,23.803253],[90.335035,23.803257],[90.335019,23.803393],[90.334956,23.803385]]]}},{"type":"Feature","properties":{"survey":"bds","sheet":"068","dag":"33525","label_bn":"33525","area_sqm":99.4},"geometry":{"type":"Polygon","coordinates":[[[90.335019,23.803393],[90.335035,23.803257],[90.335099,23.803265],[90.335082,23.803402],[90.335019,23.803393]]]}},{"type":"Feature","properties":{"survey":"bds","sheet":"068","dag":"33739","label_bn":"33739","area_sqm":101.7},"geometry":{"type":"Polygon","coordinates":[[[90.33555,23.80134],[90.335564,23.801299],[90.335581,23.801257],[90.335675,23.801286],[90.335655,23.801345],[90.335646,23.801372],[90.335606,23.801358],[90.335603,23.801358],[90.33555,23.80134]]]}},{"type":"Feature","properties":{"survey":"bds","sheet":"068","dag":"33741","label_bn":"33741","area_sqm":102.4},"geometry":{"type":"Polygon","coordinates":[[[90.33547,23.801272],[90.335499,23.801186],[90.335593,23.801212],[90.335581,23.801257],[90.335564,23.801299],[90.33547,23.801272]]]}},{"type":"Feature","properties":{"survey":"bds","sheet":"068","dag":"33657","label_bn":"33657","area_sqm":103.0},"geometry":{"type":"Polygon","coordinates":[[[90.333246,23.801505],[90.333246,23.801503],[90.333252,23.801457],[90.333366,23.801502],[90.333396,23.801523],[90.333374,23.801585],[90.333374,23.801586],[90.333246,23.801505]]]}},{"type":"Feature","properties":{"survey":"bds","sheet":"068","dag":"33752","label_bn":"33752","area_sqm":103.6},"geometry":{"type":"Polygon","coordinates":[[[90.335413,23.80093],[90.335436,23.80084],[90.33554,23.800863],[90.335505,23.800948],[90.335413,23.80093]]]}},{"type":"Feature","properties":{"survey":"bds","sheet":"068","dag":"33535","label_bn":"33535","area_sqm":105.7},"geometry":{"type":"Polygon","coordinates":[[[90.333607,23.802899],[90.333625,23.802822],[90.333749,23.802853],[90.333737,23.802917],[90.333607,23.802899]]]}},{"type":"Feature","properties":{"survey":"bds","sheet":"068","dag":"33750","label_bn":"33750","area_sqm":107.2},"geometry":{"type":"Polygon","coordinates":[[[90.335397,23.801064],[90.335434,23.800948],[90.335498,23.800961],[90.335506,23.800978],[90.335469,23.801085],[90.335412,23.801068],[90.335397,23.801064]]]}},{"type":"Feature","properties":{"survey":"bds","sheet":"068","dag":"33689","label_bn":"33689","area_sqm":107.4},"geometry":{"type":"Polygon","coordinates":[[[90.334754,23.801331],[90.334769,23.801266],[90.334783,23.801207],[90.334784,23.801185],[90.334826,23.80108],[90.334855,23.800997],[90.334877,23.800929],[90.3349,23.800929],[90.33488,23.800992],[90.334858,23.801054],[90.334816,23.801171],[90.334813,23.801192],[90.334788,23.801275],[90.334771,23.801336],[90.334754,23.801331]]]}},{"type":"Feature","properties":{"survey":"bds","sheet":"068","dag":"33716","label_bn":"33716","area_sqm":124.0},"geometry":{"type":"Polygon","coordinates":[[[90.335229,23.801307],[90.335189,23.801423],[90.335146,23.80155],[90.335102,23.801676],[90.335087,23.801712],[90.335074,23.801745],[90.335056,23.801713],[90.335068,23.801682],[90.335123,23.801544],[90.335167,23.801419],[90.335207,23.801301],[90.335229,23.801307]]]}},{"type":"Feature","properties":{"survey":"bds","sheet":"068","dag":"33749","label_bn":"33749","area_sqm":113.4},"geometry":{"type":"Polygon","coordinates":[[[90.335317,23.801042],[90.335341,23.800968],[90.33535,23.800928],[90.33541,23.800943],[90.335434,23.800948],[90.335397,23.801064],[90.335317,23.801042]]]}},{"type":"Feature","properties":{"survey":"bds","sheet":"068","dag":"33715","label_bn":"33715","area_sqm":149.3},"geometry":{"type":"Polygon","coordinates":[[[90.335123,23.801544],[90.335068,23.801682],[90.335056,23.801713],[90.335033,23.801672],[90.334997,23.801582],[90.335006,23.801564],[90.335029,23.801519],[90.335123,23.801544]]]}},{"type":"Feature","properties":{"survey":"bds","sheet":"068","dag":"33626","label_bn":"33626","area_sqm":115.9},"geometry":{"type":"Polygon","coordinates":[[[90.334997,23.802015],[90.335015,23.80192],[90.335127,23.801955],[90.335124,23.801976],[90.33512,23.801999],[90.335115,23.802031],[90.334997,23.802015]]]}},{"type":"Feature","properties":{"survey":"bds","sheet":"068","dag":"33685","label_bn":"33685","area_sqm":115.9},"geometry":{"type":"Polygon","coordinates":[[[90.334729,23.80096],[90.334743,23.800882],[90.334877,23.800929],[90.334855,23.800997],[90.334729,23.80096]]]}},{"type":"Feature","properties":{"survey":"bds","sheet":"068","dag":"33621","label_bn":"33621","area_sqm":118.2},"geometry":{"type":"Polygon","coordinates":[[[90.334917,23.802458],[90.334933,23.802369],[90.335049,23.802386],[90.335047,23.802394],[90.335034,23.802472],[90.334917,23.802458]]]}},{"type":"Feature","properties":{"survey":"bds","sheet":"068","dag":"33509","label_bn":"33509","area_sqm":118.6},"geometry":{"type":"Polygon","coordinates":[[[90.333831,23.803113],[90.333846,23.80299],[90.333929,23.803002],[90.333916,23.803124],[90.333831,23.803113]]]}},{"type":"Feature","properties":{"survey":"bds","sheet":"068","dag":"33686","label_bn":"33686","area_sqm":120.4},"geometry":{"type":"Polygon","coordinates":[[[90.334717,23.801047],[90.334729,23.80096],[90.334855,23.800997],[90.334826,23.80108],[90.334771,23.801063],[90.334717,23.801047]]]}},{"type":"Feature","properties":{"survey":"bds","sheet":"068","dag":"33531","label_bn":"33531","area_sqm":120.4},"geometry":{"type":"Polygon","coordinates":[[[90.335607,23.803482],[90.335623,23.803364],[90.335638,23.803366],[90.335711,23.803373],[90.335697,23.803483],[90.335696,23.803493],[90.335607,23.803482]]]}},{"type":"Feature","properties":{"survey":"bds","sheet":"068","dag":"33584","label_bn":"33584","area_sqm":120.5},"geometry":{"type":"Polygon","coordinates":[[[90.334402,23.801953],[90.334411,23.801901],[90.334418,23.801865],[90.334537,23.801875],[90.33452,23.801963],[90.334402,23.801953]]]}},{"type":"Feature","properties":{"survey":"bds","sheet":"068","dag":"33623","label_bn":"33623","area_sqm":121.4},"geometry":{"type":"Polygon","coordinates":[[[90.335064,23.802307],[90.335081,23.802217],[90.335197,23.802233],[90.335181,23.802323],[90.335064,23.802307]]]}},{"type":"Feature","properties":{"survey":"bds","sheet":"068","dag":"33748","label_bn":"33748","area_sqm":121.6},"geometry":{"type":"Polygon","coordinates":[[[90.335214,23.801281],[90.335252,23.801166],[90.335294,23.801029],[90.335317,23.800963],[90.33536,23.800834],[90.335362,23.800824],[90.335375,23.800827],[90.33535,23.800928],[90.335341,23.800968],[90.335317,23.801042],[90.335296,23.801105],[90.335275,23.80117],[90.335236,23.801288],[90.335214,23.801281]]]}},{"type":"Feature","properties":{"survey":"bds","sheet":"068","dag":"33522","label_bn":"33522","area_sqm":121.9},"geometry":{"type":"Polygon","coordinates":[[[90.334905,23.80324],[90.334918,23.80313],[90.335015,23.803144],[90.335001,23.803252],[90.334972,23.803249],[90.334909,23.80324],[90.334905,23.80324]]]}},{"type":"Feature","properties":{"survey":"bds","sheet":"068","dag":"33564","label_bn":"33564","area_sqm":122.1},"geometry":{"type":"Polygon","coordinates":[[[90.334105,23.801878],[90.33412,23.801798],[90.334166,23.801775],[90.334224,23.801746],[90.334204,23.801886],[90.334105,23.801878]]]}},{"type":"Feature","properties":{"survey":"bds","sheet":"068","dag":"33523","label_bn":"33523","area_sqm":122.4},"geometry":{"type":"Polygon","coordinates":[[[90.335001,23.803252],[90.335015,23.803144],[90.335017,23.803144],[90.335113,23.803157],[90.335099,23.803265],[90.335035,23.803257],[90.335003,23.803253],[90.335001,23.803252]]]}},{"type":"Feature","properties":{"survey":"bds","sheet":"068","dag":"33647","label_bn":"33647","area_sqm":122.5},"geometry":{"type":"Polygon","coordinates":[[[90.335206,23.802504],[90.335221,23.802415],[90.33534,23.80243],[90.335336,23.802453],[90.335323,23.802519],[90.335206,23.802504]]]}},{"type":"Feature","properties":{"survey":"bds","sheet":"068","dag":"33600","label_bn":"33600","area_sqm":122.7},"geometry":{"type":"Polygon","coordinates":[[[90.334811,23.802039],[90.334823,23.801971],[90.334828,23.801949],[90.334946,23.801964],[90.334929,23.802053],[90.334811,23.802039]]]}},{"type":"Feature","properties":{"survey":"bds","sheet":"068","dag":"33596","label_bn":"33596","area_sqm":123.2},"geometry":{"type":"Polygon","coordinates":[[[90.334839,23.801884],[90.334856,23.801795],[90.334976,23.801811],[90.334959,23.8019],[90.334839,23.801884]]]}},{"type":"Feature","properties":{"survey":"bds","sheet":"068","dag":"33574","label_bn":"33574","area_sqm":124.3},"geometry":{"type":"Polygon","coordinates":[[[90.33425,23.80277],[90.334264,23.802696],[90.334405,23.802712],[90.334394,23.802789],[90.33425,23.80277]]]}},{"type":"Feature","properties":{"survey":"bds","sheet":"068","dag":"33501","label_bn":"33501","area_sqm":124.4},"geometry":{"type":"Polygon","coordinates":[[[90.333481,23.803361],[90.333499,23.80325],[90.333596,23.803264],[90.333584,23.803369],[90.333481,23.803361]]]}},{"type":"Feature","properties":{"survey":"bds","sheet":"068","dag":"33659","label_bn":"33659","area_sqm":125.9},"geometry":{"type":"Polygon","coordinates":[[[90.333373,23.801263],[90.333431,23.801178],[90.333531,23.801224],[90.333526,23.801231],[90.333476,23.801308],[90.333373,23.801263]]]}},{"type":"Feature","properties":{"survey":"bds","sheet":"068","dag":"33682","label_bn":"33682","area_sqm":127.7},"geometry":{"type":"Polygon","coordinates":[[[90.334656,23.800812],[90.334678,23.800706],[90.334685,23.800693],[90.334771,23.800704],[90.334777,23.800705],[90.334757,23.800796],[90.334755,23.800796],[90.334747,23.800817],[90.334656,23.800812]]]}},{"type":"Feature","properties":{"survey":"bds","sheet":"068","dag":"33678","label_bn":"33678","area_sqm":128.6},"geometry":{"type":"Polygon","coordinates":[[[90.334576,23.801044],[90.334585,23.800951],[90.334707,23.800954],[90.334693,23.80105],[90.334576,23.801044]]]}},{"type":"Feature","properties":{"survey":"bds","sheet":"068","dag":"33627","label_bn":"33627","area_sqm":128.6},"geometry":{"type":"Polygon","coordinates":[[[90.335015,23.80192],[90.335029,23.801825],[90.335031,23.801815],[90.335039,23.801819],[90.335056,23.801826],[90.335063,23.801829],[90.335112,23.80185],[90.335137,23.801861],[90.335127,23.801955],[90.335015,23.80192]]]}},{"type":"Feature","properties":{"survey":"bds","sheet":"068","dag":"33595","label_bn":"33595","area_sqm":157.6},"geometry":{"type":"Polygon","coordinates":[[[90.334925,23.801688],[90.334951,23.80169],[90.334995,23.801693],[90.334978,23.801794],[90.334977,23.801803],[90.334976,23.801811],[90.334856,23.801795],[90.334861,23.801763],[90.334865,23.80174],[90.334877,23.801684],[90.334925,23.801688]]]}},{"type":"Feature","properties":{"survey":"bds","sheet":"068","dag":"33664","label_bn":"33664","area_sqm":130.2},"geometry":{"type":"Polygon","coordinates":[[[90.333431,23.801178],[90.333483,23.801082],[90.333579,23.801135],[90.333531,23.801224],[90.333431,23.801178]]]}},{"type":"Feature","properties":{"survey":"bds","sheet":"068","dag":"33579","label_bn":"33579","area_sqm":132.3},"geometry":{"type":"Polygon","coordinates":[[[90.334288,23.802562],[90.334306,23.802468],[90.334426,23.80248],[90.334408,23.802576],[90.334288,23.802562]]]}},{"type":"Feature","properties":{"survey":"bds","sheet":"068","dag":"33580","label_bn":"33580","area_sqm":132.4},"geometry":{"type":"Polygon","coordinates":[[[90.334408,23.802576],[90.334426,23.80248],[90.334545,23.802489],[90.334527,23.802586],[90.334408,23.802576]]]}},{"type":"Feature","properties":{"survey":"bds","sheet":"068","dag":"33697","label_bn":"33697","area_sqm":132.7},"geometry":{"type":"Polygon","coordinates":[[[90.335005,23.801223],[90.335043,23.801108],[90.335085,23.800979],[90.33505,23.80097],[90.335069,23.800872],[90.335087,23.80078],[90.335111,23.800775],[90.335098,23.800873],[90.335078,23.800962],[90.335113,23.800972],[90.335108,23.800985],[90.335066,23.801112],[90.335027,23.80123],[90.335005,23.801223]]]}},{"type":"Feature","properties":{"survey":"bds","sheet":"068","dag":"33704","label_bn":"33704","area_sqm":133.3},"geometry":{"type":"Polygon","coordinates":[[[90.335121,23.801255],[90.335158,23.801139],[90.335252,23.801166],[90.335214,23.801281],[90.335121,23.801255]]]}},{"type":"Feature","properties":{"survey":"bds","sheet":"068","dag":"33691","label_bn":"33691","area_sqm":133.5},"geometry":{"type":"Polygon","coordinates":[[[90.334911,23.801195],[90.334952,23.80108],[90.335043,23.801108],[90.335005,23.801223],[90.334911,23.801195]]]}},{"type":"Feature","properties":{"survey":"bds","sheet":"068","dag":"33631","label_bn":"33631","area_sqm":134.0},"geometry":{"type":"Polygon","coordinates":[[[90.335154,23.802784],[90.335172,23.802687],[90.335289,23.802702],[90.335271,23.802801],[90.335154,23.802784]]]}},{"type":"Feature","properties":{"survey":"bds","sheet":"068","dag":"33705","label_bn":"33705","area_sqm":134.6},"geometry":{"type":"Polygon","coordinates":[[[90.335027,23.80123],[90.335066,23.801112],[90.335158,23.801139],[90.335121,23.801255],[90.335027,23.80123]]]}},{"type":"Feature","properties":{"survey":"bds","sheet":"068","dag":"33712","label_bn":"33712","area_sqm":134.6},"geometry":{"type":"Polygon","coordinates":[[[90.335076,23.801391],[90.335113,23.801275],[90.335207,23.801301],[90.335167,23.801419],[90.335076,23.801391]]]}},{"type":"Feature","properties":{"survey":"bds","sheet":"068","dag":"33744","label_bn":"33744","area_sqm":134.7},"geometry":{"type":"Polygon","coordinates":[[[90.335329,23.801314],[90.335369,23.801197],[90.335462,23.801223],[90.335422,23.80134],[90.335329,23.801314]]]}},{"type":"Feature","properties":{"survey":"bds","sheet":"068","dag":"33720","label_bn":"33720","area_sqm":135.1},"geometry":{"type":"Polygon","coordinates":[[[90.335189,23.801423],[90.335229,23.801307],[90.335322,23.801333],[90.335282,23.80145],[90.335189,23.801423]]]}},{"type":"Feature","properties":{"survey":"bds","sheet":"068","dag":"33721","label_bn":"33721","area_sqm":135.1},"geometry":{"type":"Polygon","coordinates":[[[90.335282,23.80145],[90.335322,23.801333],[90.335415,23.80136],[90.335376,23.801476],[90.335282,23.80145]]]}},{"type":"Feature","properties":{"survey":"bds","sheet":"068","dag":"33690","label_bn":"33690","area_sqm":135.7},"geometry":{"type":"Polygon","coordinates":[[[90.334816,23.801171],[90.334858,23.801054],[90.334952,23.80108],[90.334911,23.801195],[90.334816,23.801171]]]}},{"type":"Feature","properties":{"survey":"bds","sheet":"068","dag":"33745","label_bn":"33745","area_sqm":135.7},"geometry":{"type":"Polygon","coordinates":[[[90.335236,23.801288],[90.335275,23.80117],[90.335369,23.801197],[90.335329,23.801314],[90.335236,23.801288]]]}},{"type":"Feature","properties":{"survey":"bds","sheet":"068","dag":"33711","label_bn":"33711","area_sqm":136.3},"geometry":{"type":"Polygon","coordinates":[[[90.334979,23.801368],[90.33502,23.80125],[90.335113,23.801275],[90.335076,23.801391],[90.334979,23.801368]]]}},{"type":"Feature","properties":{"survey":"bds","sheet":"068","dag":"33670","label_bn":"33670","area_sqm":137.8},"geometry":{"type":"Polygon","coordinates":[[[90.333882,23.800708],[90.334025,23.800707],[90.334057,23.800792],[90.333937,23.800803],[90.333882,23.800708]]]}},{"type":"Feature","properties":{"survey":"bds","sheet":"068","dag":"33628","label_bn":"33628","area_sqm":137.8},"geometry":{"type":"Polygon","coordinates":[[[90.335124,23.801976],[90.335127,23.801955],[90.335137,23.801861],[90.335203,23.80189],[90.335255,23.801913],[90.335239,23.801998],[90.335124,23.801976]]]}},{"type":"Feature","properties":{"survey":"bds","sheet":"068","dag":"33536","label_bn":"33536","area_sqm":141.5},"geometry":{"type":"Polygon","coordinates":[[[90.333737,23.802917],[90.333749,23.802853],[90.333759,23.802802],[90.333865,23.802817],[90.333843,23.802931],[90.333737,23.802917]]]}},{"type":"Feature","properties":{"survey":"bds","sheet":"068","dag":"33537","label_bn":"33537","area_sqm":141.7},"geometry":{"type":"Polygon","coordinates":[[[90.333759,23.802802],[90.333782,23.802689],[90.333789,23.80269],[90.333888,23.8027],[90.333888,23.8027],[90.333865,23.802817],[90.333759,23.802802]]]}},{"type":"Feature","properties":{"survey":"bds","sheet":"068","dag":"33665","label_bn":"33665","area_sqm":142.6},"geometry":{"type":"Polygon","coordinates":[[[90.333483,23.801082],[90.333548,23.800963],[90.333614,23.800999],[90.333579,23.801135],[90.333483,23.801082]]]}},{"type":"Feature","properties":{"survey":"bds","sheet":"068","dag":"33577","label_bn":"33577","area_sqm":143.5},"geometry":{"type":"Polygon","coordinates":[[[90.334389,23.802681],[90.334408,23.802576],[90.334527,23.802586],[90.334508,23.802691],[90.334412,23.802683],[90.334389,23.802681]]]}},{"type":"Feature","properties":{"survey":"bds","sheet":"068","dag":"33724","label_bn":"33724","area_sqm":146.8},"geometry":{"type":"Polygon","coordinates":[[[90.33529,23.801729],[90.335238,23.801859],[90.335192,23.801838],[90.335147,23.801818],[90.335151,23.80181],[90.335196,23.801703],[90.33529,23.801729]]]}},{"type":"Feature","properties":{"survey":"bds","sheet":"068","dag":"33728","label_bn":"33728","area_sqm":145.4},"geometry":{"type":"Polygon","coordinates":[[[90.335536,23.801938],[90.335546,23.801907],[90.335564,23.801851],[90.335693,23.801527],[90.335698,23.801516],[90.335725,23.801525],[90.335696,23.801597],[90.335635,23.801752],[90.335561,23.801941],[90.335536,23.801938]]]}},{"type":"Feature","properties":{"survey":"bds","sheet":"068","dag":"33698","label_bn":"33698","area_sqm":145.5},"geometry":{"type":"Polygon","coordinates":[[[90.335098,23.800873],[90.335111,23.800775],[90.335243,23.800808],[90.335221,23.800902],[90.335098,23.800873]]]}},{"type":"Feature","properties":{"survey":"bds","sheet":"068","dag":"33736","label_bn":"33736","area_sqm":146.0},"geometry":{"type":"Polygon","coordinates":[[[90.335357,23.801611],[90.335399,23.801482],[90.335492,23.801509],[90.335448,23.801635],[90.335357,23.801611]]]}},{"type":"Feature","properties":{"survey":"bds","sheet":"068","dag":"33713","label_bn":"33713","area_sqm":146.1},"geometry":{"type":"Polygon","coordinates":[[[90.335029,23.801519],[90.335076,23.801391],[90.335167,23.801419],[90.335123,23.801544],[90.335029,23.801519]]]}},{"type":"Feature","properties":{"survey":"bds","sheet":"068","dag":"33737","label_bn":"33737","area_sqm":146.7},"geometry":{"type":"Polygon","coordinates":[[[90.335399,23.801482],[90.335443,23.801356],[90.335536,23.801381],[90.335516,23.80144],[90.335506,23.801468],[90.335492,23.801509],[90.335399,23.801482]]]}},{"type":"Feature","properties":{"survey":"bds","sheet":"068","dag":"33726","label_bn":"33726","area_sqm":146.8},"geometry":{"type":"Polygon","coordinates":[[[90.335258,23.801867],[90.335306,23.801751],[90.335402,23.801773],[90.335392,23.801806],[90.33536,23.801894],[90.335298,23.80188],[90.335258,23.801867]]]}},{"type":"Feature","properties":{"survey":"bds","sheet":"068","dag":"33723","label_bn":"33723","area_sqm":146.9},"geometry":{"type":"Polygon","coordinates":[[[90.335196,23.801703],[90.33524,23.801576],[90.335333,23.801603],[90.33529,23.801729],[90.335196,23.801703]]]}},{"type":"Feature","properties":{"survey":"bds","sheet":"068","dag":"33692","label_bn":"33692","area_sqm":146.9},"geometry":{"type":"Polygon","coordinates":[[[90.334952,23.80108],[90.33497,23.801018],[90.334989,23.800954],[90.33505,23.80097],[90.335085,23.800979],[90.335043,23.801108],[90.334952,23.80108]]]}},{"type":"Feature","properties":{"survey":"bds","sheet":"068","dag":"33722","label_bn":"33722","area_sqm":147.1},"geometry":{"type":"Polygon","coordinates":[[[90.33524,23.801576],[90.335282,23.80145],[90.335376,23.801476],[90.335333,23.801603],[90.33524,23.801576]]]}},{"type":"Feature","properties":{"survey":"bds","sheet":"068","dag":"33578","label_bn":"33578","area_sqm":147.3},"geometry":{"type":"Polygon","coordinates":[[[90.334269,23.80267],[90.334288,23.802562],[90.334408,23.802576],[90.334389,23.802681],[90.334269,23.80267],[90.334269,23.80267]]]}},{"type":"Feature","properties":{"survey":"bds","sheet":"068","dag":"33743","label_bn":"33743","area_sqm":147.6},"geometry":{"type":"Polygon","coordinates":[[[90.335369,23.801197],[90.33539,23.801133],[90.335412,23.801068],[90.335469,23.801085],[90.335503,23.801096],[90.335462,23.801223],[90.335369,23.801197]]]}},{"type":"Feature","properties":{"survey":"bds","sheet":"068","dag":"33653","label_bn":"33653","area_sqm":147.8},"geometry":{"type":"Polygon","coordinates":[[[90.335428,23.802059],[90.335429,23.802051],[90.335439,23.801975],[90.335476,23.801987],[90.335597,23.802015],[90.335652,23.80202],[90.335674,23.802023],[90.335673,23.802055],[90.335459,23.802059],[90.335428,23.802059]]]}},{"type":"Feature","properties":{"survey":"bds","sheet":"068","dag":"33606","label_bn":"33606","area_sqm":147.9},"geometry":{"type":"Polygon","coordinates":[[[90.334672,23.802792],[90.334691,23.802683],[90.33481,23.8027],[90.334789,23.802807],[90.334672,23.802792]]]}},{"type":"Feature","properties":{"survey":"bds","sheet":"068","dag":"33718","label_bn":"33718","area_sqm":147.9},"geometry":{"type":"Polygon","coordinates":[[[90.335102,23.801676],[90.335146,23.80155],[90.33524,23.801576],[90.335196,23.801703],[90.335102,23.801676]]]}},{"type":"Feature","properties":{"survey":"bds","sheet":"068","dag":"33719","label_bn":"33719","area_sqm":148.0},"geometry":{"type":"Polygon","coordinates":[[[90.335146,23.80155],[90.335189,23.801423],[90.335282,23.80145],[90.33524,23.801576],[90.335146,23.80155]]]}},{"type":"Feature","properties":{"survey":"bds","sheet":"068","dag":"33702","label_bn":"33702","area_sqm":148.1},"geometry":{"type":"Polygon","coordinates":[[[90.335066,23.801112],[90.335108,23.800985],[90.335203,23.801011],[90.335158,23.801139],[90.335066,23.801112]]]}},{"type":"Feature","properties":{"survey":"bds","sheet":"068","dag":"33618","label_bn":"33618","area_sqm":149.1},"geometry":{"type":"Polygon","coordinates":[[[90.334982,23.80275],[90.334998,23.802672],[90.335003,23.802639],[90.335121,23.802656],[90.335102,23.802762],[90.334982,23.80275]]]}},{"type":"Feature","properties":{"survey":"bds","sheet":"068","dag":"33594","label_bn":"33594","area_sqm":150.3},"geometry":{"type":"Polygon","coordinates":[[[90.334745,23.801744],[90.334766,23.801634],[90.334883,23.801652],[90.334877,23.801684],[90.334865,23.80174],[90.334861,23.801763],[90.334745,23.801744]]]}},{"type":"Feature","properties":{"survey":"bds","sheet":"068","dag":"33611","label_bn":"33611","area_sqm":150.7},"geometry":{"type":"Polygon","coordinates":[[[90.334627,23.803034],[90.334639,23.802968],[90.334646,23.802924],[90.334765,23.802939],[90.334744,23.80305],[90.334627,23.803034]]]}},{"type":"Feature","properties":{"survey":"bds","sheet":"068","dag":"33703","label_bn":"33703","area_sqm":150.7},"geometry":{"type":"Polygon","coordinates":[[[90.335158,23.801139],[90.335203,23.801011],[90.335294,23.801029],[90.335252,23.801166],[90.335158,23.801139]]]}},{"type":"Feature","properties":{"survey":"bds","sheet":"068","dag":"33515","label_bn":"33515","area_sqm":151.8},"geometry":{"type":"Polygon","coordinates":[[[90.334543,23.803205],[90.334559,23.803082],[90.334664,23.803096],[90.334666,23.803105],[90.334655,23.803194],[90.334651,23.803218],[90.334543,23.803205]]]}},{"type":"Feature","properties":{"survey":"bds","sheet":"068","dag":"33706","label_bn":"33706","area_sqm":151.9},"geometry":{"type":"Polygon","coordinates":[[[90.334813,23.801192],[90.334816,23.801171],[90.334911,23.801195],[90.335005,23.801223],[90.335027,23.80123],[90.335121,23.801255],[90.335214,23.801281],[90.335236,23.801288],[90.335329,23.801314],[90.335422,23.80134],[90.335415,23.80136],[90.335322,23.801333],[90.335229,23.801307],[90.335207,23.801301],[90.335113,23.801275],[90.33502,23.80125],[90.334995,23.801243],[90.334906,23.801217],[90.334887,23.801212],[90.334813,23.801192]]]}},{"type":"Feature","properties":{"survey":"bds","sheet":"068","dag":"33529","label_bn":"33529","area_sqm":152.4},"geometry":{"type":"Polygon","coordinates":[[[90.335383,23.803447],[90.335398,23.803331],[90.335512,23.803348],[90.335494,23.803465],[90.335383,23.803447]]]}},{"type":"Feature","properties":{"survey":"bds","sheet":"068","dag":"33680","label_bn":"33680","area_sqm":152.4},"geometry":{"type":"Polygon","coordinates":[[[90.334656,23.801321],[90.334681,23.801183],[90.334695,23.801186],[90.334783,23.801207],[90.334769,23.801266],[90.334754,23.801331],[90.334695,23.801321],[90.334656,23.801321]]]}},{"type":"Feature","properties":{"survey":"bds","sheet":"068","dag":"33519","label_bn":"33519","area_sqm":152.4},"geometry":{"type":"Polygon","coordinates":[[[90.334794,23.803238],[90.334797,23.803214],[90.334808,23.803115],[90.334918,23.80313],[90.334905,23.80324],[90.334903,23.803249],[90.334794,23.803238]]]}},{"type":"Feature","properties":{"survey":"bds","sheet":"068","dag":"33701","label_bn":"33701","area_sqm":152.6},"geometry":{"type":"Polygon","coordinates":[[[90.335078,23.800962],[90.335098,23.800873],[90.335221,23.800902],[90.335214,23.800941],[90.335203,23.801011],[90.335108,23.800985],[90.335113,23.800972],[90.335078,23.800962]]]}},{"type":"Feature","properties":{"survey":"bds","sheet":"068","dag":"33530","label_bn":"33530","area_sqm":152.6},"geometry":{"type":"Polygon","coordinates":[[[90.335494,23.803465],[90.335512,23.803348],[90.335623,23.803364],[90.335607,23.803482],[90.335494,23.803465]]]}},{"type":"Feature","properties":{"survey":"bds","sheet":"068","dag":"33619","label_bn":"33619","area_sqm":152.8},"geometry":{"type":"Polygon","coordinates":[[[90.335003,23.802639],[90.33501,23.802594],[90.335023,23.802528],[90.335141,23.802544],[90.335128,23.802611],[90.335121,23.802656],[90.335003,23.802639]]]}},{"type":"Feature","properties":{"survey":"bds","sheet":"068","dag":"33636","label_bn":"33636","area_sqm":153.0},"geometry":{"type":"Polygon","coordinates":[[[90.335095,23.803096],[90.335095,23.803095],[90.335116,23.802984],[90.335233,23.803002],[90.335214,23.803112],[90.335095,23.803096]]]}},{"type":"Feature","properties":{"survey":"bds","sheet":"068","dag":"33613","label_bn":"33613","area_sqm":154.0},"geometry":{"type":"Polygon","coordinates":[[[90.334804,23.803057],[90.334826,23.802948],[90.334944,23.802959],[90.334923,23.803073],[90.334804,23.803057]]]}},{"type":"Feature","properties":{"survey":"bds","sheet":"068","dag":"33528","label_bn":"33528","area_sqm":154.4},"geometry":{"type":"Polygon","coordinates":[[[90.335266,23.803428],[90.335281,23.803316],[90.335398,23.803331],[90.335383,23.803447],[90.335266,23.803428]]]}},{"type":"Feature","properties":{"survey":"bds","sheet":"068","dag":"33684","label_bn":"33684","area_sqm":154.5},"geometry":{"type":"Polygon","coordinates":[[[90.334743,23.800882],[90.334744,23.800847],[90.334747,23.800817],[90.334755,23.800796],[90.334757,23.800796],[90.334892,23.80083],[90.334897,23.800831],[90.334877,23.800929],[90.334743,23.800882]]]}},{"type":"Feature","properties":{"survey":"bds","sheet":"068","dag":"33614","label_bn":"33614","area_sqm":158.5},"geometry":{"type":"Polygon","coordinates":[[[90.334923,23.803073],[90.334944,23.802959],[90.335063,23.802973],[90.335041,23.803089],[90.334923,23.803073]]]}},{"type":"Feature","properties":{"survey":"bds","sheet":"068","dag":"33683","label_bn":"33683","area_sqm":160.6},"geometry":{"type":"Polygon","coordinates":[[[90.334757,23.800796],[90.334777,23.800705],[90.334916,23.800723],[90.334892,23.80083],[90.334757,23.800796]]]}},{"type":"Feature","properties":{"survey":"bds","sheet":"068","dag":"33518","label_bn":"33518","area_sqm":162.0},"geometry":{"type":"Polygon","coordinates":[[[90.334655,23.803194],[90.334666,23.803105],[90.334664,23.803096],[90.334808,23.803115],[90.334797,23.803214],[90.334761,23.803211],[90.334655,23.803194]]]}},{"type":"Feature","properties":{"survey":"bds","sheet":"068","dag":"33513","label_bn":"33513","area_sqm":162.6},"geometry":{"type":"Polygon","coordinates":[[[90.334319,23.803303],[90.334335,23.803179],[90.334352,23.803056],[90.334407,23.803063],[90.334392,23.803186],[90.334378,23.80331],[90.334319,23.803303]]]}},{"type":"Feature","properties":{"survey":"bds","sheet":"068","dag":"33714","label_bn":"33714","area_sqm":174.7},"geometry":{"type":"Polygon","coordinates":[[[90.335076,23.801391],[90.335029,23.801519],[90.335006,23.801564],[90.334997,23.801582],[90.33498,23.801533],[90.33496,23.801495],[90.334938,23.801463],[90.334979,23.801368],[90.335076,23.801391]]]}},{"type":"Feature","properties":{"survey":"bds","sheet":"068","dag":"33646","label_bn":"33646","area_sqm":169.0},"geometry":{"type":"Polygon","coordinates":[[[90.335183,23.802627],[90.335206,23.802504],[90.335323,23.802519],[90.3353,23.802643],[90.335183,23.802627]]]}},{"type":"Feature","properties":{"survey":"bds","sheet":"068","dag":"33681","label_bn":"33681","area_sqm":170.1},"geometry":{"type":"Polygon","coordinates":[[[90.334634,23.800827],[90.334637,23.800804],[90.334637,23.800804],[90.33467,23.80067],[90.334685,23.800693],[90.334678,23.800706],[90.334656,23.800812],[90.334747,23.800817],[90.334744,23.800847],[90.334743,23.800882],[90.334729,23.80096],[90.334717,23.801047],[90.334699,23.801164],[90.334741,23.801174],[90.334784,23.801185],[90.334783,23.801207],[90.334695,23.801186],[90.334681,23.801183],[90.334672,23.801181],[90.334693,23.80105],[90.334707,23.800954],[90.33471,23.800954],[90.33472,23.800877],[90.334714,23.800842],[90.334634,23.800827]]]}},{"type":"Feature","properties":{"survey":"bds","sheet":"068","dag":"33503","label_bn":"33503","area_sqm":171.2},"geometry":{"type":"Polygon","coordinates":[[[90.333508,23.803192],[90.333516,23.80314],[90.333536,23.803075],[90.333579,23.80308],[90.333632,23.803087],[90.333652,23.80309],[90.333635,23.80321],[90.333508,23.803192]]]}},{"type":"Feature","properties":{"survey":"bds","sheet":"068","dag":"33677","label_bn":"33677","area_sqm":173.6},"geometry":{"type":"Polygon","coordinates":[[[90.334585,23.800951],[90.334598,23.800811],[90.334634,23.800827],[90.334714,23.800842],[90.33472,23.800877],[90.33471,23.800954],[90.334707,23.800954],[90.334585,23.800951]]]}},{"type":"Feature","properties":{"survey":"bds","sheet":"068","dag":"33699","label_bn":"33699","area_sqm":174.0},"geometry":{"type":"Polygon","coordinates":[[[90.335214,23.800941],[90.335221,23.800902],[90.335243,23.800808],[90.33536,23.800834],[90.335317,23.800963],[90.335214,23.800941]]]}},{"type":"Feature","properties":{"survey":"bds","sheet":"068","dag":"33586","label_bn":"33586","area_sqm":179.0},"geometry":{"type":"Polygon","coordinates":[[[90.33443,23.801798],[90.334451,23.801666],[90.334571,23.801679],[90.334559,23.801742],[90.334549,23.801808],[90.33443,23.801798]]]}},{"type":"Feature","properties":{"survey":"bds","sheet":"068","dag":"33607","label_bn":"33607","area_sqm":180.5},"geometry":{"type":"Polygon","coordinates":[[[90.334646,23.802924],[90.334666,23.802826],[90.334672,23.802792],[90.334789,23.802807],[90.334765,23.802939],[90.334646,23.802924]]]}},{"type":"Feature","properties":{"survey":"bds","sheet":"068","dag":"33730","label_bn":"33730","area_sqm":180.8},"geometry":{"type":"Polygon","coordinates":[[[90.335635,23.801752],[90.335696,23.801597],[90.335789,23.801627],[90.335725,23.801781],[90.335635,23.801752]]]}},{"type":"Feature","properties":{"survey":"bds","sheet":"068","dag":"33709","label_bn":"33709","area_sqm":185.3},"geometry":{"type":"Polygon","coordinates":[[[90.334995,23.801243],[90.334923,23.801443],[90.334892,23.801403],[90.334853,23.801374],[90.334859,23.80136],[90.334859,23.80136],[90.334884,23.801299],[90.334906,23.801217],[90.334995,23.801243]]]}},{"type":"Feature","properties":{"survey":"bds","sheet":"068","dag":"33556","label_bn":"33556","area_sqm":182.0},"geometry":{"type":"Polygon","coordinates":[[[90.333725,23.802281],[90.333747,23.802166],[90.333866,23.802181],[90.333868,23.802181],[90.333884,23.802183],[90.33386,23.802298],[90.333725,23.802281]]]}},{"type":"Feature","properties":{"survey":"bds","sheet":"068","dag":"33663","label_bn":"33663","area_sqm":182.1},"geometry":{"type":"Polygon","coordinates":[[[90.333526,23.801231],[90.333531,23.801224],[90.333579,23.801135],[90.333698,23.801193],[90.333639,23.80131],[90.333526,23.801231]]]}},{"type":"Feature","properties":{"survey":"bds","sheet":"068","dag":"33527","label_bn":"33527","area_sqm":182.4},"geometry":{"type":"Polygon","coordinates":[[[90.335281,23.803316],[90.335297,23.803182],[90.335416,23.803196],[90.335398,23.803331],[90.335281,23.803316]]]}},{"type":"Feature","properties":{"survey":"bds","sheet":"068","dag":"33533","label_bn":"33533","area_sqm":183.0},"geometry":{"type":"Polygon","coordinates":[[[90.335398,23.803331],[90.335416,23.803196],[90.335536,23.803211],[90.335512,23.803348],[90.335398,23.803331]]]}},{"type":"Feature","properties":{"survey":"bds","sheet":"068","dag":"33517","label_bn":"33517","area_sqm":183.4},"geometry":{"type":"Polygon","coordinates":[[[90.334636,23.803342],[90.334651,23.803218],[90.334655,23.803194],[90.334761,23.803211],[90.334744,23.803357],[90.334636,23.803342]]]}},{"type":"Feature","properties":{"survey":"bds","sheet":"068","dag":"33668","label_bn":"33668","area_sqm":185.6},"geometry":{"type":"Polygon","coordinates":[[[90.333548,23.800963],[90.333663,23.800782],[90.333713,23.800811],[90.333731,23.800822],[90.333614,23.800999],[90.333548,23.800963]]]}},{"type":"Feature","properties":{"survey":"bds","sheet":"068","dag":"33727","label_bn":"33727","area_sqm":188.3},"geometry":{"type":"Polygon","coordinates":[[[90.33536,23.801894],[90.335392,23.801806],[90.335564,23.801851],[90.335546,23.801907],[90.335536,23.801938],[90.33536,23.801894]]]}},{"type":"Feature","properties":{"survey":"bds","sheet":"068","dag":"33696","label_bn":"33696","area_sqm":188.4},"geometry":{"type":"Polygon","coordinates":[[[90.334892,23.80083],[90.334916,23.800723],[90.334935,23.800749],[90.335087,23.80078],[90.335069,23.800872],[90.334912,23.800835],[90.334897,23.800831],[90.334892,23.80083]]]}},{"type":"Feature","properties":{"survey":"bds","sheet":"068","dag":"33609","label_bn":"33609","area_sqm":192.7},"geometry":{"type":"Polygon","coordinates":[[[90.334521,23.802954],[90.334549,23.802812],[90.334666,23.802826],[90.334646,23.802924],[90.334639,23.802968],[90.334521,23.802954]]]}},{"type":"Feature","properties":{"survey":"bds","sheet":"068","dag":"33551","label_bn":"33551","area_sqm":192.8},"geometry":{"type":"Polygon","coordinates":[[[90.333601,23.801976],[90.333634,23.801821],[90.333634,23.80182],[90.333661,23.801835],[90.333689,23.80185],[90.333745,23.801882],[90.333747,23.801882],[90.333726,23.801994],[90.333601,23.801976]]]}},{"type":"Feature","properties":{"survey":"bds","sheet":"068","dag":"33608","label_bn":"33608","area_sqm":196.0},"geometry":{"type":"Polygon","coordinates":[[[90.334549,23.802812],[90.334572,23.802668],[90.334691,23.802683],[90.334672,23.802792],[90.334666,23.802826],[90.334549,23.802812]]]}},{"type":"Feature","properties":{"survey":"bds","sheet":"068","dag":"33695","label_bn":"33695","area_sqm":196.6},"geometry":{"type":"Polygon","coordinates":[[[90.334877,23.800929],[90.334897,23.800831],[90.334912,23.800835],[90.335069,23.800872],[90.33505,23.80097],[90.334989,23.800954],[90.3349,23.800929],[90.334877,23.800929]]]}},{"type":"Feature","properties":{"survey":"bds","sheet":"068","dag":"33559","label_bn":"33559","area_sqm":201.1},"geometry":{"type":"Polygon","coordinates":[[[90.3337,23.802406],[90.333725,23.802281],[90.33386,23.802298],[90.33385,23.80235],[90.333834,23.802428],[90.3337,23.802406]]]}},{"type":"Feature","properties":{"survey":"bds","sheet":"068","dag":"33554","label_bn":"33554","area_sqm":201.1},"geometry":{"type":"Polygon","coordinates":[[[90.333866,23.802181],[90.333895,23.802036],[90.334015,23.802051],[90.333987,23.802194],[90.333884,23.802183],[90.333868,23.802181],[90.333866,23.802181]]]}},{"type":"Feature","properties":{"survey":"bds","sheet":"068","dag":"33555","label_bn":"33555","area_sqm":201.1},"geometry":{"type":"Polygon","coordinates":[[[90.333747,23.802166],[90.333774,23.802021],[90.333895,23.802036],[90.333866,23.802181],[90.333747,23.802166]]]}},{"type":"Feature","properties":{"survey":"bds","sheet":"068","dag":"33560","label_bn":"33560","area_sqm":201.3},"geometry":{"type":"Polygon","coordinates":[[[90.333677,23.802535],[90.3337,23.802406],[90.333834,23.802428],[90.333817,23.802514],[90.333818,23.802514],[90.333811,23.802558],[90.333677,23.802535]]]}},{"type":"Feature","properties":{"survey":"bds","sheet":"068","dag":"33561","label_bn":"33561","area_sqm":201.5},"geometry":{"type":"Polygon","coordinates":[[[90.333654,23.802656],[90.333677,23.802535],[90.333811,23.802558],[90.333789,23.80269],[90.333782,23.802689],[90.333664,23.802659],[90.333654,23.802656]]]}},{"type":"Feature","properties":{"survey":"bds","sheet":"068","dag":"33557","label_bn":"33557","area_sqm":201.6},"geometry":{"type":"Polygon","coordinates":[[[90.33385,23.80235],[90.33386,23.802298],[90.333884,23.802183],[90.333987,23.802194],[90.333953,23.802364],[90.33385,23.80235]]]}},{"type":"Feature","properties":{"survey":"bds","sheet":"068","dag":"33506","label_bn":"33506","area_sqm":202.5},"geometry":{"type":"Polygon","coordinates":[[[90.333688,23.803094],[90.333703,23.802971],[90.333846,23.80299],[90.333831,23.803113],[90.33383,23.803112],[90.333688,23.803094]]]}},{"type":"Feature","properties":{"survey":"bds","sheet":"068","dag":"33641","label_bn":"33641","area_sqm":208.7},"geometry":{"type":"Polygon","coordinates":[[[90.335587,23.802739],[90.335616,23.802582],[90.335729,23.802602],[90.335705,23.802755],[90.335587,23.802739]]]}},{"type":"Feature","properties":{"survey":"bds","sheet":"068","dag":"33656","label_bn":"33656","area_sqm":212.5},"geometry":{"type":"Polygon","coordinates":[[[90.333374,23.801586],[90.333374,23.801585],[90.333396,23.801523],[90.333396,23.801523],[90.333492,23.80157],[90.333502,23.801574],[90.333614,23.801629],[90.333566,23.80171],[90.333515,23.801676],[90.333399,23.801602],[90.333374,23.801586]]]}},{"type":"Feature","properties":{"survey":"bds","sheet":"068","dag":"33514","label_bn":"33514","area_sqm":215.0},"geometry":{"type":"Polygon","coordinates":[[[90.334392,23.803186],[90.334407,23.803063],[90.334494,23.803074],[90.334559,23.803082],[90.334543,23.803205],[90.334392,23.803186]]]}},{"type":"Feature","properties":{"survey":"bds","sheet":"068","dag":"33592","label_bn":"33592","area_sqm":285.1},"geometry":{"type":"Polygon","coordinates":[[[90.334844,23.801429],[90.334875,23.801479],[90.334898,23.801495],[90.334939,23.801596],[90.334995,23.801693],[90.334951,23.80169],[90.334925,23.801688],[90.334877,23.801684],[90.334883,23.801652],[90.334887,23.801632],[90.334895,23.801587],[90.334868,23.801583],[90.334779,23.801569],[90.334794,23.801421],[90.334796,23.801397],[90.334844,23.801429]]]}},{"type":"Feature","properties":{"survey":"bds","sheet":"068","dag":"33583","label_bn":"33583","area_sqm":217.1},"geometry":{"type":"Polygon","coordinates":[[[90.33452,23.801963],[90.334537,23.801875],[90.334549,23.801808],[90.33467,23.801818],[90.33464,23.801974],[90.33452,23.801963]]]}},{"type":"Feature","properties":{"survey":"bds","sheet":"068","dag":"33725","label_bn":"33725","area_sqm":218.4},"geometry":{"type":"Polygon","coordinates":[[[90.335238,23.801859],[90.33529,23.801729],[90.335333,23.801603],[90.335376,23.801476],[90.335415,23.80136],[90.335422,23.80134],[90.335462,23.801223],[90.335503,23.801096],[90.335526,23.801105],[90.335499,23.801186],[90.33547,23.801272],[90.335443,23.801356],[90.335399,23.801482],[90.335357,23.801611],[90.335334,23.801673],[90.335306,23.801751],[90.335258,23.801867],[90.335238,23.801859]]]}},{"type":"Feature","properties":{"survey":"bds","sheet":"068","dag":"33729","label_bn":"33729","area_sqm":218.6},"geometry":{"type":"Polygon","coordinates":[[[90.335561,23.801941],[90.335635,23.801752],[90.335725,23.801781],[90.335677,23.801931],[90.335676,23.801953],[90.335561,23.801941]]]}},{"type":"Feature","properties":{"survey":"bds","sheet":"068","dag":"33642","label_bn":"33642","area_sqm":219.2},"geometry":{"type":"Polygon","coordinates":[[[90.335466,23.802722],[90.335496,23.802565],[90.335616,23.802582],[90.335587,23.802739],[90.335466,23.802722]]]}},{"type":"Feature","properties":{"survey":"bds","sheet":"068","dag":"33520","label_bn":"33520","area_sqm":222.9},"geometry":{"type":"Polygon","coordinates":[[[90.334744,23.803357],[90.334761,23.803211],[90.334797,23.803214],[90.334794,23.803238],[90.334903,23.803249],[90.334905,23.80324],[90.334909,23.80324],[90.334893,23.803376],[90.334888,23.803375],[90.334744,23.803357]]]}},{"type":"Feature","properties":{"survey":"bds","sheet":"068","dag":"33672","label_bn":"33672","area_sqm":224.0},"geometry":{"type":"Polygon","coordinates":[[[90.333894,23.801005],[90.333915,23.800927],[90.334088,23.800952],[90.3341,23.800954],[90.334101,23.801065],[90.334099,23.801071],[90.333894,23.801005]]]}},{"type":"Feature","properties":{"survey":"bds","sheet":"068","dag":"33549","label_bn":"33549","area_sqm":213.3},"geometry":{"type":"Polygon","coordinates":[[[90.333491,23.801897],[90.33349,23.801909],[90.333485,23.801954],[90.333482,23.801981],[90.333268,23.801939],[90.333282,23.801871],[90.333284,23.801863],[90.333286,23.801849],[90.333491,23.801897]]]}},{"type":"Feature","properties":{"survey":"bds","sheet":"068","dag":"33666","label_bn":"33666","area_sqm":230.6},"geometry":{"type":"Polygon","coordinates":[[[90.333579,23.801135],[90.333614,23.800999],[90.333754,23.801054],[90.333698,23.801193],[90.333579,23.801135]]]}},{"type":"Feature","properties":{"survey":"bds","sheet":"068","dag":"33538","label_bn":"33538","area_sqm":236.6},"geometry":{"type":"Polygon","coordinates":[[[90.333625,23.802822],[90.333664,23.802659],[90.333782,23.802689],[90.333759,23.802802],[90.333749,23.802853],[90.333625,23.802822]]]}},{"type":"Feature","properties":{"survey":"bds","sheet":"068","dag":"33675","label_bn":"33675","area_sqm":244.8},"geometry":{"type":"Polygon","coordinates":[[[90.333756,23.801454],[90.333759,23.801419],[90.333798,23.801285],[90.333982,23.801341],[90.334005,23.801348],[90.334004,23.801349],[90.333982,23.801372],[90.333868,23.801418],[90.333756,23.801454]]]}},{"type":"Feature","properties":{"survey":"bds","sheet":"068","dag":"33510","label_bn":"33510","area_sqm":245.3},"geometry":{"type":"Polygon","coordinates":[[[90.333916,23.803124],[90.333929,23.803002],[90.334104,23.803024],[90.334089,23.803147],[90.333916,23.803124]]]}},{"type":"Feature","properties":{"survey":"bds","sheet":"068","dag":"33541","label_bn":"33541","area_sqm":245.4},"geometry":{"type":"Polygon","coordinates":[[[90.333208,23.802586],[90.333236,23.802497],[90.333239,23.802449],[90.333392,23.802468],[90.333382,23.802515],[90.333361,23.802608],[90.333334,23.802608],[90.333208,23.802586]]]}},{"type":"Feature","properties":{"survey":"bds","sheet":"068","dag":"33671","label_bn":"33671","area_sqm":247.1},"geometry":{"type":"Polygon","coordinates":[[[90.333915,23.800927],[90.333937,23.800803],[90.334057,23.800792],[90.334089,23.80091],[90.3341,23.800954],[90.334088,23.800952],[90.333915,23.800927]]]}},{"type":"Feature","properties":{"survey":"bds","sheet":"068","dag":"33652","label_bn":"33652","area_sqm":247.9},"geometry":{"type":"Polygon","coordinates":[[[90.335274,23.802105],[90.33529,23.802014],[90.335304,23.801931],[90.335345,23.801944],[90.33541,23.801966],[90.335439,23.801975],[90.335429,23.802051],[90.335428,23.802059],[90.335386,23.80206],[90.335393,23.802131],[90.335274,23.802105]]]}},{"type":"Feature","properties":{"survey":"bds","sheet":"068","dag":"33507","label_bn":"33507","area_sqm":249.7},"geometry":{"type":"Polygon","coordinates":[[[90.333635,23.80321],[90.333652,23.80309],[90.333688,23.803094],[90.33383,23.803112],[90.333813,23.803235],[90.333671,23.803215],[90.333651,23.803212],[90.333635,23.80321]]]}},{"type":"Feature","properties":{"survey":"bds","sheet":"068","dag":"33582","label_bn":"33582","area_sqm":261.9},"geometry":{"type":"Polygon","coordinates":[[[90.334384,23.802049],[90.334402,23.801953],[90.33452,23.801963],[90.33464,23.801974],[90.334622,23.802069],[90.334384,23.802049]]]}},{"type":"Feature","properties":{"survey":"bds","sheet":"068","dag":"33637","label_bn":"33637","area_sqm":262.2},"geometry":{"type":"Polygon","coordinates":[[[90.335214,23.803112],[90.335233,23.803002],[90.335245,23.802935],[90.335248,23.80292],[90.335366,23.802936],[90.335332,23.803128],[90.335214,23.803112]]]}},{"type":"Feature","properties":{"survey":"bds","sheet":"068","dag":"33620","label_bn":"33620","area_sqm":269.9},"geometry":{"type":"Polygon","coordinates":[[[90.334879,23.802657],[90.334917,23.802458],[90.335034,23.802472],[90.335023,23.802528],[90.33501,23.802594],[90.335003,23.802639],[90.334998,23.802672],[90.334879,23.802657]]]}},{"type":"Feature","properties":{"survey":"bds","sheet":"068","dag":"33648","label_bn":"33648","area_sqm":275.2},"geometry":{"type":"Polygon","coordinates":[[[90.335336,23.802453],[90.33534,23.80243],[90.335373,23.802254],[90.335491,23.802268],[90.335454,23.802469],[90.335336,23.802453]]]}},{"type":"Feature","properties":{"survey":"bds","sheet":"068","dag":"33638","label_bn":"33638","area_sqm":282.8},"geometry":{"type":"Polygon","coordinates":[[[90.335332,23.803128],[90.335366,23.802936],[90.335408,23.802713],[90.335466,23.802722],[90.33539,23.803135],[90.335332,23.803128]]]}},{"type":"Feature","properties":{"survey":"bds","sheet":"068","dag":"33669","label_bn":"33669","area_sqm":284.7},"geometry":{"type":"Polygon","coordinates":[[[90.333713,23.800811],[90.333882,23.800708],[90.333937,23.800803],[90.333915,23.800927],[90.333832,23.800883],[90.333769,23.800846],[90.333731,23.800822],[90.333713,23.800811]]]}},{"type":"Feature","properties":{"survey":"bds","sheet":"068","dag":"33598","label_bn":"33598","area_sqm":286.8},"geometry":{"type":"Polygon","coordinates":[[[90.334705,23.801956],[90.334745,23.801744],[90.334861,23.801763],[90.334856,23.801795],[90.334839,23.801884],[90.334828,23.801949],[90.334823,23.801971],[90.334705,23.801956]]]}},{"type":"Feature","properties":{"survey":"bds","sheet":"068","dag":"33532","label_bn":"33532","area_sqm":287.5},"geometry":{"type":"Polygon","coordinates":[[[90.335512,23.803348],[90.335536,23.803211],[90.335625,23.803222],[90.335623,23.80324],[90.335726,23.803262],[90.335711,23.803373],[90.335638,23.803366],[90.335623,23.803364],[90.335512,23.803348]]]}},{"type":"Feature","properties":{"survey":"bds","sheet":"068","dag":"33615","label_bn":"33615","area_sqm":289.1},"geometry":{"type":"Polygon","coordinates":[[[90.334944,23.802959],[90.334957,23.802894],[90.334982,23.80275],[90.335102,23.802762],[90.335063,23.802973],[90.334944,23.802959]]]}},{"type":"Feature","properties":{"survey":"bds","sheet":"068","dag":"33667","label_bn":"33667","area_sqm":300.4},"geometry":{"type":"Polygon","coordinates":[[[90.333614,23.800999],[90.333731,23.800822],[90.333769,23.800846],[90.333832,23.800883],[90.333754,23.801054],[90.333614,23.800999]]]}},{"type":"Feature","properties":{"survey":"bds","sheet":"068","dag":"33617","label_bn":"33617","area_sqm":302.4},"geometry":{"type":"Polygon","coordinates":[[[90.334838,23.802879],[90.334879,23.802657],[90.334998,23.802672],[90.334982,23.80275],[90.334957,23.802894],[90.334838,23.802879]]]}},{"type":"Feature","properties":{"survey":"bds","sheet":"068","dag":"33622","label_bn":"33622","area_sqm":302.5},"geometry":{"type":"Polygon","coordinates":[[[90.335023,23.802528],[90.335034,23.802472],[90.335047,23.802394],[90.335049,23.802386],[90.335052,23.802369],[90.335064,23.802307],[90.335181,23.802323],[90.335141,23.802544],[90.335023,23.802528]]]}},{"type":"Feature","properties":{"survey":"bds","sheet":"068","dag":"33632","label_bn":"33632","area_sqm":305.6},"geometry":{"type":"Polygon","coordinates":[[[90.335248,23.80292],[90.335258,23.802869],[90.335271,23.802801],[90.335289,23.802702],[90.33529,23.802697],[90.335408,23.802713],[90.335366,23.802936],[90.335248,23.80292]]]}},{"type":"Feature","properties":{"survey":"bds","sheet":"068","dag":"33658","label_bn":"33658","area_sqm":308.3},"geometry":{"type":"Polygon","coordinates":[[[90.333252,23.801457],[90.333373,23.801263],[90.333476,23.801308],[90.333396,23.801466],[90.333366,23.801502],[90.333252,23.801457]]]}},{"type":"Feature","properties":{"survey":"bds","sheet":"068","dag":"33543","label_bn":"33543","area_sqm":314.9},"geometry":{"type":"Polygon","coordinates":[[[90.333242,23.802405],[90.333282,23.802237],[90.333437,23.802264],[90.333399,23.802438],[90.333242,23.802405]]]}},{"type":"Feature","properties":{"survey":"bds","sheet":"068","dag":"33679","label_bn":"33679","area_sqm":317.7},"geometry":{"type":"Polygon","coordinates":[[[90.334572,23.801307],[90.33458,23.801114],[90.334576,23.801044],[90.334693,23.80105],[90.334672,23.801181],[90.334681,23.801183],[90.334656,23.801321],[90.33462,23.801329],[90.334579,23.801341],[90.334575,23.80133],[90.334572,23.801307]]]}},{"type":"Feature","properties":{"survey":"bds","sheet":"068","dag":"33629","label_bn":"33629","area_sqm":319.1},"geometry":{"type":"Polygon","coordinates":[[[90.335081,23.802217],[90.335101,23.80211],[90.335104,23.802096],[90.335113,23.802044],[90.335115,23.802031],[90.33512,23.801999],[90.335124,23.801976],[90.335239,23.801998],[90.335197,23.802233],[90.335081,23.802217]]]}},{"type":"Feature","properties":{"survey":"bds","sheet":"068","dag":"33568","label_bn":"33568","area_sqm":320.0},"geometry":{"type":"Polygon","coordinates":[[[90.334011,23.802368],[90.334017,23.80234],[90.334033,23.802254],[90.334147,23.802268],[90.334275,23.802283],[90.334255,23.802397],[90.334011,23.802368]]]}},{"type":"Feature","properties":{"survey":"bds","sheet":"068","dag":"33643","label_bn":"33643","area_sqm":324.1},"geometry":{"type":"Polygon","coordinates":[[[90.335408,23.802713],[90.335454,23.802469],[90.335491,23.802268],[90.335498,23.802232],[90.335498,23.802232],[90.335557,23.802245],[90.335537,23.802342],[90.335496,23.802565],[90.335466,23.802722],[90.335408,23.802713]]]}},{"type":"Feature","properties":{"survey":"bds","sheet":"068","dag":"33673","label_bn":"33673","area_sqm":325.9},"geometry":{"type":"Polygon","coordinates":[[[90.333849,23.801129],[90.333894,23.801005],[90.334099,23.801071],[90.334062,23.801196],[90.334054,23.801194],[90.333849,23.801129]]]}},{"type":"Feature","properties":{"survey":"bds","sheet":"068","dag":"33565","label_bn":"33565","area_sqm":330.8},"geometry":{"type":"Polygon","coordinates":[[[90.334204,23.801886],[90.334224,23.801746],[90.334238,23.801738],[90.334245,23.801734],[90.334312,23.801699],[90.334318,23.801695],[90.334335,23.801682],[90.334342,23.801674],[90.334368,23.801648],[90.334391,23.801619],[90.334397,23.801611],[90.334345,23.801899],[90.334342,23.801899],[90.334224,23.801888],[90.334204,23.801886]]]}},{"type":"Feature","properties":{"survey":"bds","sheet":"068","dag":"33589","label_bn":"33589","area_sqm":332.1},"geometry":{"type":"Polygon","coordinates":[[[90.334451,23.801666],[90.334479,23.801548],[90.334717,23.80157],[90.334695,23.801687],[90.334571,23.801679],[90.334451,23.801666]]]}},{"type":"Feature","properties":{"survey":"bds","sheet":"068","dag":"33644","label_bn":"33644","area_sqm":335.0},"geometry":{"type":"Polygon","coordinates":[[[90.33529,23.802697],[90.3353,23.802643],[90.335323,23.802519],[90.335336,23.802453],[90.335454,23.802469],[90.335408,23.802713],[90.33529,23.802697]]]}},{"type":"Feature","properties":{"survey":"bds","sheet":"068","dag":"33650","label_bn":"33650","area_sqm":336.9},"geometry":{"type":"Polygon","coordinates":[[[90.335221,23.802415],[90.335255,23.802218],[90.335263,23.80217],[90.335381,23.802196],[90.335389,23.802198],[90.335373,23.802254],[90.33534,23.80243],[90.335221,23.802415]]]}},{"type":"Feature","properties":{"survey":"bds","sheet":"068","dag":"33512","label_bn":"33512","area_sqm":347.7},"geometry":{"type":"Polygon","coordinates":[[[90.334072,23.803271],[90.334089,23.803147],[90.334199,23.803163],[90.334335,23.803179],[90.334319,23.803303],[90.33426,23.803294],[90.334192,23.803284],[90.334072,23.803271]]]}},{"type":"Feature","properties":{"survey":"bds","sheet":"068","dag":"33576","label_bn":"33576","area_sqm":352.4},"geometry":{"type":"Polygon","coordinates":[[[90.334354,23.803],[90.334394,23.802789],[90.334405,23.802712],[90.334412,23.802683],[90.334508,23.802691],[90.334481,23.802837],[90.334449,23.803012],[90.334354,23.803]]]}},{"type":"Feature","properties":{"survey":"bds","sheet":"068","dag":"33573","label_bn":"33573","area_sqm":352.5},"geometry":{"type":"Polygon","coordinates":[[[90.33421,23.802982],[90.33425,23.80277],[90.334394,23.802789],[90.334354,23.803],[90.33421,23.802982]]]}},{"type":"Feature","properties":{"survey":"bds","sheet":"068","dag":"33511","label_bn":"33511","area_sqm":357.1},"geometry":{"type":"Polygon","coordinates":[[[90.334089,23.803147],[90.334104,23.803024],[90.334293,23.803045],[90.334352,23.803056],[90.334335,23.803179],[90.334199,23.803163],[90.334089,23.803147]]]}},{"type":"Feature","properties":{"survey":"bds","sheet":"068","dag":"33569","label_bn":"33569","area_sqm":361.0},"geometry":{"type":"Polygon","coordinates":[[[90.333986,23.802496],[90.334011,23.802368],[90.334255,23.802397],[90.334231,23.802525],[90.333986,23.802496]]]}},{"type":"Feature","properties":{"survey":"bds","sheet":"068","dag":"33508","label_bn":"33508","area_sqm":368.9},"geometry":{"type":"Polygon","coordinates":[[[90.333813,23.803235],[90.33383,23.803112],[90.333831,23.803113],[90.333916,23.803124],[90.334089,23.803147],[90.334072,23.803271],[90.333813,23.803235]]]}},{"type":"Feature","properties":{"survey":"bds","sheet":"068","dag":"33516","label_bn":"33516","area_sqm":369.1},"geometry":{"type":"Polygon","coordinates":[[[90.334378,23.80331],[90.334392,23.803186],[90.334543,23.803205],[90.334651,23.803218],[90.334636,23.803342],[90.334378,23.80331]]]}},{"type":"Feature","properties":{"survey":"bds","sheet":"068","dag":"33590","label_bn":"33590","area_sqm":408.0},"geometry":{"type":"Polygon","coordinates":[[[90.334739,23.801376],[90.334735,23.801412],[90.334717,23.80157],[90.334479,23.801548],[90.334492,23.80149],[90.334516,23.801462],[90.33453,23.801449],[90.334555,23.801427],[90.334594,23.801407],[90.3346,23.801403],[90.334631,23.801386],[90.334678,23.80138],[90.334706,23.801376],[90.334739,23.801376]]]}},{"type":"Feature","properties":{"survey":"bds","sheet":"068","dag":"33547","label_bn":"33547","area_sqm":305.0},"geometry":{"type":"Polygon","coordinates":[[[90.333247,23.801572],[90.333325,23.801616],[90.333341,23.801627],[90.333275,23.801846],[90.333165,23.801818],[90.333247,23.801572]]]}},{"type":"Feature","properties":{"survey":"bds","sheet":"068","dag":"33624","label_bn":"33624","area_sqm":394.1},"geometry":{"type":"Polygon","coordinates":[[[90.334933,23.802369],[90.334985,23.802082],[90.335104,23.802096],[90.335101,23.80211],[90.335081,23.802217],[90.335064,23.802307],[90.335052,23.802369],[90.335049,23.802386],[90.334933,23.802369]]]}},{"type":"Feature","properties":{"survey":"bds","sheet":"068","dag":"33674","label_bn":"33674","area_sqm":406.4},"geometry":{"type":"Polygon","coordinates":[[[90.333798,23.801285],[90.333849,23.801129],[90.334054,23.801194],[90.334062,23.801196],[90.334005,23.801348],[90.333982,23.801341],[90.333798,23.801285]]]}},{"type":"Feature","properties":{"survey":"bds","sheet":"068","dag":"33544","label_bn":"33544","area_sqm":413.9},"geometry":{"type":"Polygon","coordinates":[[[90.333439,23.802253],[90.333459,23.802134],[90.333465,23.802098],[90.333692,23.802132],[90.3337,23.802133],[90.333673,23.802281],[90.333665,23.80228],[90.333439,23.802253]]]}},{"type":"Feature","properties":{"survey":"bds","sheet":"068","dag":"33553","label_bn":"33553","area_sqm":422.8},"geometry":{"type":"Polygon","coordinates":[[[90.333774,23.802021],[90.333775,23.80202],[90.333778,23.802],[90.333798,23.801906],[90.333799,23.801906],[90.333827,23.801918],[90.33384,23.801924],[90.333885,23.801909],[90.333898,23.801903],[90.33402,23.801846],[90.334059,23.801827],[90.334016,23.802047],[90.334015,23.802051],[90.333895,23.802036],[90.333774,23.802021]]]}},{"type":"Feature","properties":{"survey":"bds","sheet":"068","dag":"33605","label_bn":"33605","area_sqm":430.9},"geometry":{"type":"Polygon","coordinates":[[[90.334572,23.802668],[90.334604,23.802511],[90.334716,23.802528],[90.33484,23.80254],[90.33481,23.8027],[90.334691,23.802683],[90.334572,23.802668]]]}},{"type":"Feature","properties":{"survey":"bds","sheet":"068","dag":"33661","label_bn":"33661","area_sqm":436.4},"geometry":{"type":"Polygon","coordinates":[[[90.333492,23.80157],[90.333521,23.801516],[90.333543,23.801472],[90.333628,23.801334],[90.333759,23.801419],[90.333756,23.801454],[90.33369,23.801498],[90.333614,23.801629],[90.333502,23.801574],[90.333492,23.80157]]]}},{"type":"Feature","properties":{"survey":"bds","sheet":"068","dag":"33552","label_bn":"33552","area_sqm":446.1},"geometry":{"type":"Polygon","coordinates":[[[90.333605,23.802648],[90.333673,23.802281],[90.3337,23.802133],[90.333726,23.801994],[90.333747,23.801882],[90.333775,23.801895],[90.333793,23.801903],[90.333799,23.801906],[90.333798,23.801906],[90.333778,23.802],[90.333775,23.80202],[90.333774,23.802021],[90.333747,23.802166],[90.333725,23.802281],[90.3337,23.802406],[90.333677,23.802535],[90.333654,23.802656],[90.333652,23.802656],[90.333605,23.802648]]]}},{"type":"Feature","properties":{"survey":"bds","sheet":"068","dag":"33567","label_bn":"33567","area_sqm":453.3},"geometry":{"type":"Polygon","coordinates":[[[90.334033,23.802254],[90.334039,23.80222],[90.334062,23.802099],[90.334063,23.802089],[90.334304,23.802125],[90.334275,23.802283],[90.334147,23.802268],[90.334033,23.802254]]]}},{"type":"Feature","properties":{"survey":"bds","sheet":"068","dag":"33548","label_bn":"33548","area_sqm":508.2},"geometry":{"type":"Polygon","coordinates":[[[90.333351,23.801633],[90.333363,23.80164],[90.333388,23.801656],[90.333393,23.801659],[90.33343,23.801689],[90.333498,23.801725],[90.33353,23.801749],[90.33356,23.801771],[90.333569,23.801778],[90.333491,23.801887],[90.333491,23.801897],[90.333286,23.801849],[90.333275,23.801846],[90.333341,23.801627],[90.333351,23.801633]]]}},{"type":"Feature","properties":{"survey":"bds","sheet":"068","dag":"33660","label_bn":"33660","area_sqm":483.2},"geometry":{"type":"Polygon","coordinates":[[[90.333366,23.801502],[90.333396,23.801466],[90.333476,23.801308],[90.333526,23.801231],[90.333639,23.80131],[90.333628,23.801334],[90.333543,23.801472],[90.333521,23.801516],[90.333492,23.80157],[90.333396,23.801523],[90.333396,23.801523],[90.333366,23.801502]]]}},{"type":"Feature","properties":{"survey":"bds","sheet":"068","dag":"33526","label_bn":"33526","area_sqm":522.5},"geometry":{"type":"Polygon","coordinates":[[[90.335082,23.803402],[90.335099,23.803265],[90.335113,23.803157],[90.335297,23.803182],[90.335281,23.803316],[90.335266,23.803428],[90.335082,23.803402]]]}},{"type":"Feature","properties":{"survey":"bds","sheet":"068","dag":"33603","label_bn":"33603","area_sqm":565.3},"geometry":{"type":"Polygon","coordinates":[[[90.334604,23.802511],[90.33468,23.802089],[90.334798,23.802103],[90.334716,23.802528],[90.334604,23.802511]]]}},{"type":"Feature","properties":{"survey":"bds","sheet":"068","dag":"33640","label_bn":"33640","area_sqm":572.2},"geometry":{"type":"Polygon","coordinates":[[[90.33551,23.803151],[90.335587,23.802739],[90.335705,23.802755],[90.33563,23.803167],[90.33551,23.803151]]]}},{"type":"Feature","properties":{"survey":"bds","sheet":"068","dag":"33639","label_bn":"33639","area_sqm":578.0},"geometry":{"type":"Polygon","coordinates":[[[90.33539,23.803135],[90.335466,23.802722],[90.335587,23.802739],[90.33551,23.803151],[90.33539,23.803135]]]}},{"type":"Feature","properties":{"survey":"bds","sheet":"068","dag":"33604","label_bn":"33604","area_sqm":591.2},"geometry":{"type":"Polygon","coordinates":[[[90.334716,23.802528],[90.334798,23.802103],[90.334915,23.80212],[90.33484,23.80254],[90.334716,23.802528]]]}},{"type":"Feature","properties":{"survey":"bds","sheet":"068","dag":"33550","label_bn":"33550","area_sqm":604.4},"geometry":{"type":"Polygon","coordinates":[[[90.333465,23.802098],[90.333482,23.801981],[90.333485,23.801954],[90.33349,23.801909],[90.333491,23.801887],[90.333569,23.801778],[90.333585,23.801788],[90.333632,23.801819],[90.333634,23.80182],[90.333634,23.801821],[90.333601,23.801976],[90.333726,23.801994],[90.3337,23.802133],[90.333692,23.802132],[90.333465,23.802098]]]}},{"type":"Feature","properties":{"survey":"bds","sheet":"068","dag":"33566","label_bn":"33566","area_sqm":609.0},"geometry":{"type":"Polygon","coordinates":[[[90.334063,23.802089],[90.334105,23.801878],[90.334204,23.801886],[90.334224,23.801888],[90.334342,23.801899],[90.334345,23.801899],[90.334304,23.802125],[90.334063,23.802089]]]}},{"type":"Feature","properties":{"survey":"bds","sheet":"068","dag":"33570","label_bn":"33570","area_sqm":616.6},"geometry":{"type":"Polygon","coordinates":[[[90.333946,23.802708],[90.333986,23.802496],[90.334231,23.802525],[90.334192,23.802744],[90.333946,23.802708]]]}},{"type":"Feature","properties":{"survey":"bds","sheet":"068","dag":"33571","label_bn":"33571","area_sqm":657.3},"geometry":{"type":"Polygon","coordinates":[[[90.333903,23.802939],[90.333946,23.802708],[90.334192,23.802744],[90.33415,23.802972],[90.333903,23.802939]]]}},{"type":"Feature","properties":{"survey":"bds","sheet":"068","dag":"33662","label_bn":"33662","area_sqm":690.9},"geometry":{"type":"Polygon","coordinates":[[[90.333628,23.801334],[90.333639,23.80131],[90.333698,23.801193],[90.333754,23.801054],[90.333832,23.800883],[90.333915,23.800927],[90.333894,23.801005],[90.333849,23.801129],[90.333798,23.801285],[90.333759,23.801419],[90.333628,23.801334]]]}},{"type":"Feature","properties":{"survey":"bds","sheet":"068","dag":"33545","label_bn":"33545","area_sqm":731.6},"geometry":{"type":"Polygon","coordinates":[[[90.333211,23.802216],[90.333268,23.801939],[90.333482,23.801981],[90.333465,23.802098],[90.333459,23.802134],[90.333439,23.802253],[90.333437,23.802264],[90.333282,23.802237],[90.333284,23.802229],[90.333211,23.802216]]]}},{"type":"Feature","properties":{"survey":"bds","sheet":"068","dag":"33563","label_bn":"33563","area_sqm":736.9},"geometry":{"type":"Polygon","coordinates":[[[90.333843,23.802931],[90.333865,23.802817],[90.333888,23.8027],[90.333921,23.802533],[90.333953,23.802364],[90.333987,23.802194],[90.334015,23.802051],[90.334016,23.802047],[90.334059,23.801827],[90.33406,23.801827],[90.334094,23.801811],[90.334111,23.801803],[90.33412,23.801798],[90.334105,23.801878],[90.334063,23.802089],[90.334062,23.802099],[90.334039,23.80222],[90.334033,23.802254],[90.334017,23.80234],[90.334011,23.802368],[90.333986,23.802496],[90.333946,23.802708],[90.333903,23.802939],[90.333843,23.802931]]]}},{"type":"Feature","properties":{"survey":"bds","sheet":"068","dag":"33630","label_bn":"33630","area_sqm":737.5},"geometry":{"type":"Polygon","coordinates":[[[90.335041,23.803089],[90.335063,23.802973],[90.335102,23.802762],[90.335121,23.802656],[90.335128,23.802611],[90.335141,23.802544],[90.335181,23.802323],[90.335197,23.802233],[90.335239,23.801998],[90.335255,23.801913],[90.335304,23.801931],[90.33529,23.802014],[90.335274,23.802105],[90.335263,23.80217],[90.335255,23.802218],[90.335221,23.802415],[90.335206,23.802504],[90.335183,23.802627],[90.335172,23.802687],[90.335154,23.802784],[90.335141,23.802852],[90.335128,23.802919],[90.335116,23.802984],[90.335095,23.803095],[90.335095,23.803096],[90.335041,23.803089]]]}},{"type":"Feature","properties":{"survey":"bds","sheet":"068","dag":"33733","label_bn":"33733","area_sqm":749.2},"geometry":{"type":"Polygon","coordinates":[[[90.335392,23.801806],[90.335402,23.801773],[90.335426,23.801698],[90.335448,23.801635],[90.335492,23.801509],[90.335506,23.801468],[90.335693,23.801527],[90.335564,23.801851],[90.335392,23.801806]]]}},{"type":"Feature","properties":{"survey":"bds","sheet":"068","dag":"33546","label_bn":"33546","area_sqm":769.8},"geometry":{"type":"Polygon","coordinates":[[[90.333009,23.802179],[90.333043,23.802074],[90.333143,23.801813],[90.333286,23.801849],[90.333284,23.801863],[90.333282,23.801871],[90.333268,23.801939],[90.333211,23.802216],[90.333009,23.802179]]]}},{"type":"Feature","properties":{"survey":"bds","sheet":"068","dag":"33612","label_bn":"33612","area_sqm":911.4},"geometry":{"type":"Polygon","coordinates":[[[90.334744,23.80305],[90.334765,23.802939],[90.334789,23.802807],[90.33481,23.8027],[90.33484,23.80254],[90.334915,23.80212],[90.334929,23.802053],[90.334946,23.801964],[90.334959,23.8019],[90.334976,23.801811],[90.334977,23.801803],[90.334978,23.801794],[90.334995,23.801693],[90.335017,23.801746],[90.335015,23.801746],[90.335033,23.8018],[90.335031,23.801815],[90.335029,23.801825],[90.335015,23.80192],[90.334997,23.802015],[90.334985,23.802082],[90.334933,23.802369],[90.334917,23.802458],[90.334879,23.802657],[90.334838,23.802879],[90.334826,23.802948],[90.334804,23.803057],[90.334744,23.80305]]]}},{"type":"Feature","properties":{"survey":"bds","sheet":"068","dag":"33540","label_bn":"33540","area_sqm":1006.1},"geometry":{"type":"Polygon","coordinates":[[[90.333361,23.802608],[90.333382,23.802515],[90.333392,23.802468],[90.333399,23.802438],[90.333437,23.802264],[90.333439,23.802253],[90.333665,23.80228],[90.333673,23.802281],[90.333605,23.802648],[90.333361,23.802608]]]}},{"type":"Feature","properties":{"survey":"bds","sheet":"068","dag":"33654","label_bn":"33654","area_sqm":851.7},"geometry":{"type":"Polygon","coordinates":[[[90.335192,23.801838],[90.335238,23.801859],[90.335258,23.801867],[90.335298,23.80188],[90.33536,23.801894],[90.335536,23.801938],[90.335561,23.801941],[90.335676,23.801953],[90.335674,23.802023],[90.335652,23.80202],[90.335597,23.802015],[90.335476,23.801987],[90.335439,23.801975],[90.33541,23.801966],[90.335345,23.801944],[90.335304,23.801931],[90.335255,23.801913],[90.335203,23.80189],[90.335137,23.801861],[90.335112,23.80185],[90.335063,23.801829],[90.335056,23.801826],[90.335039,23.801819],[90.335031,23.801815],[90.335033,23.8018],[90.335015,23.801746],[90.335017,23.801746],[90.334995,23.801693],[90.334939,23.801596],[90.334898,23.801495],[90.334875,23.801479],[90.334844,23.801429],[90.334796,23.801397],[90.334775,23.801382],[90.334739,23.801376],[90.334706,23.801376],[90.334678,23.80138],[90.334631,23.801386],[90.3346,23.801403],[90.33458,23.801344],[90.334579,23.801341],[90.33462,23.801329],[90.334656,23.801321],[90.334695,23.801321],[90.334754,23.801331],[90.334771,23.801336],[90.334796,23.801343],[90.334837,23.801363],[90.334853,23.801374],[90.334892,23.801403],[90.334923,23.801443],[90.334938,23.801463],[90.33496,23.801495],[90.33498,23.801533],[90.334997,23.801582],[90.335033,23.801672],[90.335056,23.801713],[90.335074,23.801745],[90.335134,23.801812],[90.335147,23.801818],[90.335192,23.801838]]]}},{"type":"Feature","properties":{"survey":"bds","sheet":"068","dag":"33572","label_bn":"33572","area_sqm":1049.6},"geometry":{"type":"Polygon","coordinates":[[[90.33415,23.802972],[90.334192,23.802744],[90.334231,23.802525],[90.334255,23.802397],[90.334275,23.802283],[90.334304,23.802125],[90.334345,23.801899],[90.334397,23.801611],[90.334476,23.801509],[90.334492,23.80149],[90.334479,23.801548],[90.334451,23.801666],[90.33443,23.801798],[90.334418,23.801865],[90.334411,23.801901],[90.334402,23.801953],[90.334384,23.802049],[90.334306,23.802468],[90.334288,23.802562],[90.334269,23.80267],[90.334269,23.80267],[90.334264,23.802696],[90.33425,23.80277],[90.33421,23.802982],[90.33415,23.802972]]]}},{"type":"Feature","properties":{"survey":"bds","sheet":"068","dag":"33655","label_bn":"33655","area_sqm":1113.2},"geometry":{"type":"Polygon","coordinates":[[[90.333237,23.801566],[90.333238,23.801563],[90.333246,23.801505],[90.333374,23.801586],[90.333399,23.801602],[90.333515,23.801676],[90.333566,23.80171],[90.333591,23.801726],[90.333651,23.801766],[90.333712,23.801802],[90.333771,23.801828],[90.333823,23.801847],[90.333919,23.801816],[90.333976,23.801796],[90.334074,23.801755],[90.334156,23.801711],[90.334228,23.801661],[90.33426,23.801635],[90.334338,23.801572],[90.334418,23.801499],[90.334457,23.801447],[90.334512,23.801396],[90.334566,23.801355],[90.33458,23.801344],[90.3346,23.801403],[90.334594,23.801407],[90.334555,23.801427],[90.33453,23.801449],[90.334516,23.801462],[90.334492,23.80149],[90.334476,23.801509],[90.334397,23.801611],[90.334391,23.801619],[90.334368,23.801648],[90.334342,23.801674],[90.334335,23.801682],[90.334318,23.801695],[90.334312,23.801699],[90.334245,23.801734],[90.334238,23.801738],[90.334224,23.801746],[90.334166,23.801775],[90.33412,23.801798],[90.334111,23.801803],[90.334094,23.801811],[90.33406,23.801827],[90.334059,23.801827],[90.33402,23.801846],[90.333898,23.801903],[90.333885,23.801909],[90.33384,23.801924],[90.333827,23.801918],[90.333799,23.801906],[90.333793,23.801903],[90.333775,23.801895],[90.333747,23.801882],[90.333745,23.801882],[90.333689,23.80185],[90.333661,23.801835],[90.333634,23.80182],[90.333632,23.801819],[90.333585,23.801788],[90.333569,23.801778],[90.33356,23.801771],[90.33353,23.801749],[90.333498,23.801725],[90.33343,23.801689],[90.333393,23.801659],[90.333388,23.801656],[90.333363,23.80164],[90.333351,23.801633],[90.333325,23.801616],[90.333237,23.801566]]]}},{"type":"Feature","properties":{"survey":"bds","sheet":"068","dag":"33591","label_bn":"33591","area_sqm":1136.1},"geometry":{"type":"Polygon","coordinates":[[[90.334775,23.801382],[90.334796,23.801397],[90.334794,23.801421],[90.334779,23.801569],[90.334766,23.801634],[90.334745,23.801744],[90.334705,23.801956],[90.334692,23.802022],[90.33468,23.802089],[90.334604,23.802511],[90.334572,23.802668],[90.334549,23.802812],[90.334521,23.802954],[90.334508,23.80302],[90.334449,23.803012],[90.334481,23.802837],[90.334508,23.802691],[90.334527,23.802586],[90.334545,23.802489],[90.334622,23.802069],[90.33464,23.801974],[90.33467,23.801818],[90.334683,23.801753],[90.334695,23.801687],[90.334717,23.80157],[90.334735,23.801412],[90.334739,23.801376],[90.334775,23.801382]]]}},{"type":"Feature","properties":{"survey":"bds","sheet":"068","dag":"33581","label_bn":"33581","area_sqm":1155.7},"geometry":{"type":"Polygon","coordinates":[[[90.334306,23.802468],[90.334384,23.802049],[90.334622,23.802069],[90.334545,23.802489],[90.334426,23.80248],[90.334306,23.802468]]]}},{"type":"Feature","properties":{"survey":"bds","sheet":"068","dag":"33534","label_bn":"33534","area_sqm":1319.3},"geometry":{"type":"Polygon","coordinates":[[[90.333594,23.802957],[90.333607,23.802899],[90.333737,23.802917],[90.333843,23.802931],[90.333903,23.802939],[90.33415,23.802972],[90.33421,23.802982],[90.334354,23.803],[90.334449,23.803012],[90.334508,23.80302],[90.334627,23.803034],[90.334744,23.80305],[90.334804,23.803057],[90.334923,23.803073],[90.335041,23.803089],[90.335095,23.803096],[90.335214,23.803112],[90.335332,23.803128],[90.33539,23.803135],[90.33551,23.803151],[90.33563,23.803167],[90.335625,23.803222],[90.335536,23.803211],[90.335416,23.803196],[90.335297,23.803182],[90.335113,23.803157],[90.335017,23.803144],[90.335015,23.803144],[90.334918,23.80313],[90.334808,23.803115],[90.334664,23.803096],[90.334559,23.803082],[90.334494,23.803074],[90.334407,23.803063],[90.334352,23.803056],[90.334293,23.803045],[90.334104,23.803024],[90.333929,23.803002],[90.333846,23.80299],[90.333703,23.802971],[90.333647,23.802964],[90.333594,23.802957]]]}},{"type":"Feature","properties":{"survey":"bds","sheet":"068","dag":"33502","label_bn":"33502","area_sqm":1415.9},"geometry":{"type":"Polygon","coordinates":[[[90.333499,23.80325],[90.333508,23.803192],[90.333635,23.80321],[90.333651,23.803212],[90.333671,23.803215],[90.333813,23.803235],[90.334072,23.803271],[90.334192,23.803284],[90.33426,23.803294],[90.334319,23.803303],[90.334378,23.80331],[90.334636,23.803342],[90.334744,23.803357],[90.334888,23.803375],[90.334893,23.803376],[90.334956,23.803385],[90.335019,23.803393],[90.335082,23.803402],[90.335266,23.803428],[90.335383,23.803447],[90.335494,23.803465],[90.335607,23.803482],[90.335696,23.803493],[90.335692,23.803538],[90.335673,23.803547],[90.335491,23.803521],[90.335337,23.803493],[90.335204,23.803476],[90.334592,23.803397],[90.334362,23.803365],[90.33422,23.80334],[90.334087,23.803328],[90.333809,23.803291],[90.333633,23.803269],[90.333596,23.803264],[90.333499,23.80325]]]}},{"type":"Feature","properties":{"survey":"bds","sheet":"068","dag":"33539","label_bn":"33539","area_sqm":1739.0},"geometry":{"type":"Polygon","coordinates":[[[90.333249,23.803098],[90.333361,23.802608],[90.333605,23.802648],[90.333652,23.802656],[90.333654,23.802656],[90.333664,23.802659],[90.333625,23.802822],[90.333607,23.802899],[90.333594,23.802957],[90.333579,23.80308],[90.333536,23.803075],[90.333516,23.80314],[90.333335,23.803126],[90.333249,23.803098]]]}},{"type":"Feature","properties":{"survey":"bds","sheet":"068","dag":"33676","label_bn":"33676","area_sqm":7201.4},"geometry":{"type":"Polygon","coordinates":[[[90.333566,23.80171],[90.333614,23.801629],[90.33369,23.801498],[90.333756,23.801454],[90.333868,23.801418],[90.333982,23.801372],[90.334004,23.801349],[90.334005,23.801348],[90.334062,23.801196],[90.334099,23.801071],[90.334101,23.801065],[90.3341,23.800954],[90.334089,23.80091],[90.334057,23.800792],[90.334025,23.800707],[90.334535,23.800663],[90.33467,23.80067],[90.334637,23.800804],[90.334637,23.800804],[90.334634,23.800827],[90.334598,23.800811],[90.334585,23.800951],[90.334576,23.801044],[90.33458,23.801114],[90.334572,23.801307],[90.334575,23.80133],[90.334579,23.801341],[90.33458,23.801344],[90.334566,23.801355],[90.334512,23.801396],[90.334457,23.801447],[90.334418,23.801499],[90.334338,23.801572],[90.33426,23.801635],[90.334228,23.801661],[90.334156,23.801711],[90.334074,23.801755],[90.333976,23.801796],[90.333919,23.801816],[90.333823,23.801847],[90.333771,23.801828],[90.333712,23.801802],[90.333651,23.801766],[90.333591,23.801726],[90.333566,23.80171]]]}},{"type":"Feature","properties":{"survey":"bds","sheet":"068","dag":"33717","label_bn":"33717","area_sqm":111.7},"geometry":{"type":"Polygon","coordinates":[[[90.335196,23.801703],[90.335151,23.80181],[90.335147,23.801818],[90.335134,23.801812],[90.335074,23.801745],[90.335087,23.801712],[90.335102,23.801676],[90.335196,23.801703]]]}},{"type":"Feature","properties":{"survey":"bds","sheet":"068","dag":"33558","label_bn":"33558","area_sqm":201.2},"geometry":{"type":"Polygon","coordinates":[[[90.333953,23.802364],[90.333921,23.802533],[90.333818,23.802514],[90.333817,23.802514],[90.333834,23.802428],[90.33385,23.80235],[90.333953,23.802364]]]}},{"type":"Feature","properties":{"survey":"bds","sheet":"068","dag":"33562","label_bn":"33562","area_sqm":201.1},"geometry":{"type":"Polygon","coordinates":[[[90.333921,23.802533],[90.333888,23.8027],[90.333888,23.8027],[90.333789,23.80269],[90.333811,23.802558],[90.333818,23.802514],[90.333921,23.802533]]]}}]}