{"type":"FeatureCollection","features":[{"type":"Feature","properties":{"survey":"bds","sheet":"069","dag":"34036","label_bn":"34036","area_sqm":81.2},"geometry":{"type":"Polygon","coordinates":[[[90.330806,23.801559],[90.330903,23.80156],[90.330909,23.801592],[90.330913,23.801618],[90.330915,23.801629],[90.330806,23.801629],[90.330806,23.801559]]]}},{"type":"Feature","properties":{"survey":"bds","sheet":"069","dag":"34037","label_bn":"34037","area_sqm":81.6},"geometry":{"type":"Polygon","coordinates":[[[90.330806,23.801481],[90.330891,23.801481],[90.330891,23.801484],[90.330896,23.801514],[90.330901,23.801544],[90.330903,23.80156],[90.330806,23.801559],[90.330806,23.801481]]]}},{"type":"Feature","properties":{"survey":"bds","sheet":"069","dag":"34071","label_bn":"34071","area_sqm":82.1},"geometry":{"type":"Polygon","coordinates":[[[90.332782,23.800319],[90.332783,23.800317],[90.332788,23.800294],[90.332796,23.800267],[90.332798,23.800259],[90.33291,23.800287],[90.332891,23.800349],[90.332782,23.800319]]]}},{"type":"Feature","properties":{"survey":"bds","sheet":"069","dag":"34066","label_bn":"34066","area_sqm":89.7},"geometry":{"type":"Polygon","coordinates":[[[90.331918,23.800463],[90.331936,23.800372],[90.331943,23.800337],[90.332005,23.800345],[90.331997,23.800383],[90.331978,23.800471],[90.331918,23.800463]]]}},{"type":"Feature","properties":{"survey":"bds","sheet":"069","dag":"34065","label_bn":"34065","area_sqm":106.2},"geometry":{"type":"Polygon","coordinates":[[[90.331845,23.800455],[90.331865,23.800357],[90.331872,23.800327],[90.331903,23.800332],[90.331943,23.800337],[90.331936,23.800372],[90.331918,23.800463],[90.331845,23.800455]]]}},{"type":"Feature","properties":{"survey":"bds","sheet":"069","dag":"34064","label_bn":"34064","area_sqm":109.7},"geometry":{"type":"Polygon","coordinates":[[[90.331774,23.800446],[90.331791,23.800342],[90.331794,23.800318],[90.331872,23.800327],[90.331865,23.800357],[90.331845,23.800455],[90.331774,23.800446]]]}},{"type":"Feature","properties":{"survey":"bds","sheet":"069","dag":"34015","label_bn":"34015","area_sqm":121.8},"geometry":{"type":"Polygon","coordinates":[[[90.332557,23.802172],[90.332563,23.802165],[90.332574,23.802151],[90.332616,23.802098],[90.332624,23.8021],[90.332731,23.802125],[90.332683,23.802203],[90.332557,23.802172]]]}},{"type":"Feature","properties":{"survey":"bds","sheet":"069","dag":"34013","label_bn":"34013","area_sqm":121.9},"geometry":{"type":"Polygon","coordinates":[[[90.332796,23.80209],[90.332851,23.801994],[90.332952,23.802009],[90.33289,23.802112],[90.332867,23.802106],[90.332796,23.80209]]]}},{"type":"Feature","properties":{"survey":"bds","sheet":"069","dag":"34070","label_bn":"34070","area_sqm":122.4},"geometry":{"type":"Polygon","coordinates":[[[90.332798,23.800259],[90.332798,23.800258],[90.3328,23.800251],[90.332808,23.800223],[90.332813,23.800208],[90.332813,23.800208],[90.332815,23.800206],[90.332824,23.800195],[90.332827,23.800191],[90.33284,23.80017],[90.332847,23.800172],[90.332927,23.800189],[90.332934,23.800172],[90.332937,23.800172],[90.332928,23.800212],[90.33292,23.800244],[90.33291,23.800287],[90.332798,23.800259]]]}},{"type":"Feature","properties":{"survey":"bds","sheet":"069","dag":"34063","label_bn":"34063","area_sqm":123.7},"geometry":{"type":"Polygon","coordinates":[[[90.331738,23.800598],[90.331754,23.800535],[90.331756,23.800527],[90.331773,23.800457],[90.331774,23.800452],[90.331774,23.800446],[90.331845,23.800455],[90.331843,23.800468],[90.331811,23.800602],[90.331738,23.800598]]]}},{"type":"Feature","properties":{"survey":"bds","sheet":"069","dag":"34049","label_bn":"34049","area_sqm":138.4},"geometry":{"type":"Polygon","coordinates":[[[90.331093,23.80055],[90.331176,23.800322],[90.331214,23.800228],[90.331228,23.80019],[90.331234,23.800175],[90.331264,23.800179],[90.331243,23.800232],[90.331225,23.80028],[90.331207,23.800328],[90.331199,23.800351],[90.331162,23.800453],[90.331122,23.800556],[90.331093,23.80055]]]}},{"type":"Feature","properties":{"survey":"bds","sheet":"069","dag":"34051","label_bn":"34051","area_sqm":160.6},"geometry":{"type":"Polygon","coordinates":[[[90.331199,23.800351],[90.331207,23.800328],[90.331225,23.80028],[90.331398,23.800324],[90.33139,23.800346],[90.331369,23.800402],[90.331199,23.800351]]]}},{"type":"Feature","properties":{"survey":"bds","sheet":"069","dag":"34043","label_bn":"34043","area_sqm":162.5},"geometry":{"type":"Polygon","coordinates":[[[90.331519,23.801541],[90.331577,23.801433],[90.331702,23.801456],[90.331625,23.801567],[90.331519,23.801541]]]}},{"type":"Feature","properties":{"survey":"bds","sheet":"069","dag":"34014","label_bn":"34014","area_sqm":162.5},"geometry":{"type":"Polygon","coordinates":[[[90.332683,23.802203],[90.332731,23.802125],[90.33277,23.802134],[90.332796,23.80209],[90.332867,23.802106],[90.332795,23.80224],[90.332724,23.802214],[90.332717,23.802211],[90.332683,23.802203]]]}},{"type":"Feature","properties":{"survey":"bds","sheet":"069","dag":"34012","label_bn":"34012","area_sqm":162.5},"geometry":{"type":"Polygon","coordinates":[[[90.33289,23.802112],[90.332952,23.802009],[90.333055,23.802024],[90.333062,23.802025],[90.333056,23.80204],[90.333043,23.802074],[90.333021,23.802142],[90.33289,23.802112]]]}},{"type":"Feature","properties":{"survey":"bds","sheet":"069","dag":"34035","label_bn":"34035","area_sqm":162.5},"geometry":{"type":"Polygon","coordinates":[[[90.330703,23.801534],[90.330705,23.801522],[90.330712,23.801481],[90.330806,23.801481],[90.330806,23.801559],[90.330806,23.801629],[90.330716,23.801629],[90.330705,23.801548],[90.330703,23.801534]]]}},{"type":"Feature","properties":{"survey":"bds","sheet":"069","dag":"34042","label_bn":"34042","area_sqm":162.7},"geometry":{"type":"Polygon","coordinates":[[[90.331625,23.801567],[90.331702,23.801456],[90.33183,23.80148],[90.331829,23.801481],[90.331826,23.801484],[90.331786,23.801522],[90.331781,23.801527],[90.331781,23.801527],[90.33173,23.801577],[90.331717,23.801589],[90.331625,23.801567]]]}},{"type":"Feature","properties":{"survey":"bds","sheet":"069","dag":"34007","label_bn":"34007","area_sqm":162.8},"geometry":{"type":"Polygon","coordinates":[[[90.332982,23.802612],[90.333005,23.802493],[90.333007,23.802487],[90.33312,23.802507],[90.333119,23.802511],[90.333092,23.80263],[90.332982,23.802612]]]}},{"type":"Feature","properties":{"survey":"bds","sheet":"069","dag":"34055","label_bn":"34055","area_sqm":162.7},"geometry":{"type":"Polygon","coordinates":[[[90.331495,23.800547],[90.331464,23.800622],[90.331461,23.800629],[90.331303,23.800581],[90.331305,23.800574],[90.331332,23.800507],[90.331334,23.800502],[90.331495,23.800547]]]}},{"type":"Feature","properties":{"survey":"bds","sheet":"069","dag":"34008","label_bn":"34008","area_sqm":163.1},"geometry":{"type":"Polygon","coordinates":[[[90.332872,23.802593],[90.332894,23.802467],[90.332908,23.80247],[90.333007,23.802487],[90.333005,23.802493],[90.332982,23.802612],[90.332881,23.802594],[90.332872,23.802593]]]}},{"type":"Feature","properties":{"survey":"bds","sheet":"069","dag":"34061","label_bn":"34061","area_sqm":167.3},"geometry":{"type":"Polygon","coordinates":[[[90.331773,23.800457],[90.331756,23.800527],[90.331754,23.800535],[90.33157,23.800461],[90.331567,23.80046],[90.331595,23.800394],[90.331773,23.800457]]]}},{"type":"Feature","properties":{"survey":"bds","sheet":"069","dag":"34060","label_bn":"34060","area_sqm":169.0},"geometry":{"type":"Polygon","coordinates":[[[90.33157,23.800461],[90.331754,23.800535],[90.331738,23.800598],[90.331735,23.800607],[90.331545,23.800527],[90.331539,23.800524],[90.331567,23.80046],[90.33157,23.800461]]]}},{"type":"Feature","properties":{"survey":"bds","sheet":"069","dag":"34048","label_bn":"34048","area_sqm":211.6},"geometry":{"type":"Polygon","coordinates":[[[90.331038,23.800294],[90.331076,23.800207],[90.33109,23.800172],[90.331228,23.80019],[90.331214,23.800228],[90.331176,23.800322],[90.331038,23.800294]]]}},{"type":"Feature","properties":{"survey":"bds","sheet":"069","dag":"34054","label_bn":"34054","area_sqm":182.9},"geometry":{"type":"Polygon","coordinates":[[[90.331461,23.800629],[90.331421,23.800725],[90.331272,23.800673],[90.331303,23.800581],[90.331461,23.800629]]]}},{"type":"Feature","properties":{"survey":"bds","sheet":"069","dag":"34058","label_bn":"34058","area_sqm":198.2},"geometry":{"type":"Polygon","coordinates":[[[90.331633,23.800292],[90.3316,23.800381],[90.331595,23.800394],[90.331449,23.800734],[90.331434,23.800729],[90.331421,23.800725],[90.331461,23.800629],[90.331464,23.800622],[90.331496,23.800544],[90.331562,23.800387],[90.331593,23.800307],[90.3316,23.800286],[90.331619,23.800229],[90.331657,23.800228],[90.331633,23.800292]]]}},{"type":"Feature","properties":{"survey":"bds","sheet":"069","dag":"34047","label_bn":"34047","area_sqm":214.0},"geometry":{"type":"Polygon","coordinates":[[[90.330926,23.800272],[90.330938,23.800244],[90.330964,23.800184],[90.330973,23.800163],[90.330986,23.800135],[90.331097,23.800157],[90.331234,23.800175],[90.331228,23.80019],[90.33109,23.800172],[90.331076,23.800207],[90.331038,23.800294],[90.330928,23.800272],[90.330926,23.800272]]]}},{"type":"Feature","properties":{"survey":"bds","sheet":"069","dag":"34050","label_bn":"34050","area_sqm":221.6},"geometry":{"type":"Polygon","coordinates":[[[90.331225,23.80028],[90.331243,23.800232],[90.331264,23.800179],[90.331437,23.800218],[90.331421,23.800261],[90.331398,23.800324],[90.331225,23.80028]]]}},{"type":"Feature","properties":{"survey":"bds","sheet":"069","dag":"34052","label_bn":"34052","area_sqm":221.8},"geometry":{"type":"Polygon","coordinates":[[[90.331162,23.800453],[90.331199,23.800351],[90.331369,23.800402],[90.331335,23.800499],[90.331332,23.800507],[90.331162,23.800453]]]}},{"type":"Feature","properties":{"survey":"bds","sheet":"069","dag":"34006","label_bn":"34006","area_sqm":243.9},"geometry":{"type":"Polygon","coordinates":[[[90.333075,23.802708],[90.333092,23.80263],[90.333119,23.802511],[90.33312,23.802507],[90.333227,23.802526],[90.333226,23.802529],[90.333208,23.802586],[90.333174,23.802729],[90.333075,23.802708]]]}},{"type":"Feature","properties":{"survey":"bds","sheet":"069","dag":"34011","label_bn":"34011","area_sqm":244.0},"geometry":{"type":"Polygon","coordinates":[[[90.332795,23.80224],[90.332867,23.802106],[90.33289,23.802112],[90.333021,23.802142],[90.333009,23.802179],[90.332972,23.80217],[90.332919,23.802286],[90.332857,23.802263],[90.332818,23.802249],[90.332795,23.80224]]]}},{"type":"Feature","properties":{"survey":"bds","sheet":"069","dag":"34016","label_bn":"34016","area_sqm":244.6},"geometry":{"type":"Polygon","coordinates":[[[90.332616,23.802098],[90.332715,23.801974],[90.332723,23.801975],[90.332851,23.801994],[90.332796,23.80209],[90.33277,23.802134],[90.332731,23.802125],[90.332624,23.8021],[90.332616,23.802098]]]}},{"type":"Feature","properties":{"survey":"bds","sheet":"069","dag":"34038","label_bn":"34038","area_sqm":310.8},"geometry":{"type":"Polygon","coordinates":[[[90.330712,23.801481],[90.330714,23.80147],[90.330784,23.801302],[90.330916,23.801297],[90.330886,23.801454],[90.330891,23.801481],[90.330806,23.801481],[90.330712,23.801481]]]}},{"type":"Feature","properties":{"survey":"bds","sheet":"069","dag":"34057","label_bn":"34057","area_sqm":329.0},"geometry":{"type":"Polygon","coordinates":[[[90.33139,23.800346],[90.331398,23.800324],[90.331421,23.800261],[90.331437,23.800218],[90.331445,23.800194],[90.331619,23.800229],[90.331619,23.800229],[90.3316,23.800286],[90.331593,23.800307],[90.331562,23.800387],[90.33139,23.800346]]]}},{"type":"Feature","properties":{"survey":"bds","sheet":"069","dag":"34056","label_bn":"34056","area_sqm":330.1},"geometry":{"type":"Polygon","coordinates":[[[90.331562,23.800387],[90.331496,23.800544],[90.331495,23.800547],[90.331334,23.800502],[90.331335,23.800499],[90.331369,23.800402],[90.33139,23.800346],[90.331562,23.800387]]]}},{"type":"Feature","properties":{"survey":"bds","sheet":"069","dag":"34062","label_bn":"34062","area_sqm":332.8},"geometry":{"type":"Polygon","coordinates":[[[90.331595,23.800394],[90.3316,23.800381],[90.331633,23.800292],[90.331657,23.800228],[90.331789,23.800286],[90.331801,23.800291],[90.331794,23.800318],[90.331791,23.800342],[90.331774,23.800446],[90.331774,23.800452],[90.331773,23.800457],[90.331595,23.800394]]]}},{"type":"Feature","properties":{"survey":"bds","sheet":"069","dag":"34040","label_bn":"34040","area_sqm":333.4},"geometry":{"type":"Polygon","coordinates":[[[90.331224,23.801973],[90.331258,23.801745],[90.331397,23.801767],[90.33149,23.801781],[90.331443,23.80183],[90.331341,23.8019],[90.331334,23.801905],[90.331327,23.801909],[90.331284,23.801936],[90.331224,23.801973]]]}},{"type":"Feature","properties":{"survey":"bds","sheet":"069","dag":"34053","label_bn":"34053","area_sqm":345.8},"geometry":{"type":"Polygon","coordinates":[[[90.331103,23.800607],[90.331122,23.800556],[90.331162,23.800453],[90.331332,23.800507],[90.331305,23.800574],[90.331272,23.800673],[90.331103,23.800607]]]}},{"type":"Feature","properties":{"survey":"bds","sheet":"069","dag":"34034","label_bn":"34034","area_sqm":406.6},"geometry":{"type":"Polygon","coordinates":[[[90.330712,23.8018],[90.330715,23.801694],[90.330716,23.801667],[90.330717,23.801635],[90.330716,23.801629],[90.330806,23.801629],[90.330915,23.801629],[90.33092,23.801661],[90.330924,23.801686],[90.330924,23.801687],[90.330929,23.801716],[90.330941,23.801794],[90.330712,23.8018]]]}},{"type":"Feature","properties":{"survey":"bds","sheet":"069","dag":"34041","label_bn":"34041","area_sqm":406.6},"geometry":{"type":"Polygon","coordinates":[[[90.331397,23.801767],[90.331519,23.801541],[90.331625,23.801567],[90.331717,23.801589],[90.331717,23.80159],[90.331714,23.801592],[90.33171,23.801596],[90.331675,23.80163],[90.331664,23.801638],[90.331521,23.801751],[90.331513,23.801757],[90.331501,23.801769],[90.33149,23.801781],[90.331397,23.801767]]]}},{"type":"Feature","properties":{"survey":"bds","sheet":"069","dag":"34010","label_bn":"34010","area_sqm":447.3},"geometry":{"type":"Polygon","coordinates":[[[90.332919,23.802286],[90.332972,23.80217],[90.333009,23.802179],[90.333072,23.802191],[90.333211,23.802216],[90.333284,23.802229],[90.333257,23.802344],[90.332919,23.802286]]]}},{"type":"Feature","properties":{"survey":"bds","sheet":"069","dag":"34059","label_bn":"34059","area_sqm":550.7},"geometry":{"type":"Polygon","coordinates":[[[90.331545,23.800527],[90.331735,23.800607],[90.331665,23.800809],[90.331569,23.800776],[90.331549,23.800769],[90.331473,23.800743],[90.331449,23.800734],[90.331539,23.800524],[90.331545,23.800527]]]}},{"type":"Feature","properties":{"survey":"bds","sheet":"069","dag":"34069","label_bn":"34069","area_sqm":533.3},"geometry":{"type":"Polygon","coordinates":[[[90.332372,23.801312],[90.332405,23.801265],[90.332416,23.801242],[90.332488,23.801129],[90.332504,23.801102],[90.332548,23.801032],[90.332558,23.801034],[90.332581,23.800982],[90.332599,23.800931],[90.332632,23.800847],[90.332648,23.800795],[90.332665,23.800713],[90.332688,23.800635],[90.332718,23.800497],[90.332747,23.800343],[90.332773,23.80023],[90.33278,23.800208],[90.332781,23.800205],[90.332788,23.800185],[90.332799,23.800156],[90.332821,23.800166],[90.33283,23.800168],[90.332836,23.800169],[90.33284,23.80017],[90.33284,23.80017],[90.332827,23.800191],[90.332824,23.800195],[90.332815,23.800206],[90.332813,23.800208],[90.332813,23.800208],[90.332808,23.800223],[90.3328,23.800251],[90.332798,23.800258],[90.332798,23.800259],[90.332796,23.800267],[90.332788,23.800294],[90.332783,23.800317],[90.332782,23.800319],[90.332779,23.800338],[90.332776,23.800351],[90.332776,23.800352],[90.332756,23.800438],[90.332737,23.800523],[90.332737,23.800524],[90.332719,23.800611],[90.332706,23.800663],[90.332693,23.800713],[90.332693,23.800715],[90.332673,23.800791],[90.332654,23.800868],[90.332643,23.800922],[90.332632,23.800976],[90.332621,23.801007],[90.332616,23.801018],[90.332611,23.801028],[90.332608,23.801042],[90.332606,23.801055],[90.332604,23.801059],[90.33259,23.801088],[90.33256,23.801132],[90.332542,23.80116],[90.332528,23.801179],[90.332496,23.801232],[90.332453,23.801295],[90.332442,23.801299],[90.332416,23.801306],[90.332404,23.801308],[90.332392,23.801309],[90.332388,23.80131],[90.332372,23.801312]]]}},{"type":"Feature","properties":{"survey":"bds","sheet":"069","dag":"34024","label_bn":"34024","area_sqm":650.5},"geometry":{"type":"Polygon","coordinates":[[[90.332467,23.802169],[90.332574,23.801804],[90.332764,23.801841],[90.33273,23.801924],[90.332715,23.801974],[90.332616,23.802098],[90.332574,23.802151],[90.332563,23.802165],[90.332557,23.802172],[90.332467,23.802169]]]}},{"type":"Feature","properties":{"survey":"bds","sheet":"069","dag":"34046","label_bn":"34046","area_sqm":692.2},"geometry":{"type":"Polygon","coordinates":[[[90.330837,23.800488],[90.330926,23.800272],[90.330928,23.800272],[90.331038,23.800294],[90.331176,23.800322],[90.331093,23.80055],[90.330838,23.800489],[90.330837,23.800488]]]}},{"type":"Feature","properties":{"survey":"bds","sheet":"069","dag":"34009","label_bn":"34009","area_sqm":700.2},"geometry":{"type":"Polygon","coordinates":[[[90.332894,23.802467],[90.332918,23.802331],[90.332918,23.80233],[90.332922,23.802321],[90.332919,23.802286],[90.333257,23.802344],[90.333247,23.802387],[90.333242,23.802405],[90.333236,23.802497],[90.333227,23.802526],[90.33312,23.802507],[90.333007,23.802487],[90.332908,23.80247],[90.332894,23.802467]]]}},{"type":"Feature","properties":{"survey":"bds","sheet":"069","dag":"34033","label_bn":"34033","area_sqm":752.0},"geometry":{"type":"Polygon","coordinates":[[[90.330709,23.801889],[90.33071,23.801843],[90.330711,23.801807],[90.330712,23.8018],[90.330941,23.801794],[90.330947,23.801827],[90.330951,23.801856],[90.330956,23.801888],[90.330954,23.801943],[90.330953,23.801997],[90.330951,23.80203],[90.33095,23.802077],[90.330709,23.802063],[90.330709,23.802033],[90.330709,23.802002],[90.330709,23.801889]]]}},{"type":"Feature","properties":{"survey":"bds","sheet":"069","dag":"34044","label_bn":"34044","area_sqm":764.6},"geometry":{"type":"Polygon","coordinates":[[[90.331258,23.801745],[90.331261,23.801722],[90.33127,23.801691],[90.331336,23.801455],[90.331353,23.801391],[90.331577,23.801433],[90.331519,23.801541],[90.331397,23.801767],[90.331258,23.801745]]]}},{"type":"Feature","properties":{"survey":"bds","sheet":"069","dag":"34004","label_bn":"34004","area_sqm":1016.9},"geometry":{"type":"Polygon","coordinates":[[[90.332788,23.802988],[90.332835,23.802778],[90.332855,23.802691],[90.332872,23.802593],[90.332881,23.802594],[90.332982,23.802612],[90.333092,23.80263],[90.333075,23.802708],[90.333003,23.803037],[90.333001,23.803036],[90.332971,23.803028],[90.332888,23.803007],[90.332788,23.802988]]]}},{"type":"Feature","properties":{"survey":"bds","sheet":"069","dag":"34039","label_bn":"34039","area_sqm":1057.0},"geometry":{"type":"Polygon","coordinates":[[[90.330886,23.801454],[90.331336,23.801455],[90.33127,23.801691],[90.330924,23.801686],[90.33092,23.801661],[90.330915,23.801629],[90.330913,23.801618],[90.330909,23.801592],[90.330903,23.80156],[90.330901,23.801544],[90.330896,23.801514],[90.330891,23.801484],[90.330891,23.801481],[90.330886,23.801454]]]}},{"type":"Feature","properties":{"survey":"bds","sheet":"069","dag":"34025","label_bn":"34025","area_sqm":1057.1},"geometry":{"type":"Polygon","coordinates":[[[90.33224,23.802158],[90.33233,23.801757],[90.332574,23.801804],[90.332467,23.802169],[90.332316,23.802164],[90.33224,23.802158]]]}},{"type":"Feature","properties":{"survey":"bds","sheet":"069","dag":"34032","label_bn":"34032","area_sqm":1178.8},"geometry":{"type":"Polygon","coordinates":[[[90.330924,23.801686],[90.33127,23.801691],[90.331261,23.801722],[90.331258,23.801745],[90.331224,23.801973],[90.331164,23.802011],[90.331026,23.802074],[90.33095,23.802077],[90.330951,23.80203],[90.330953,23.801997],[90.330954,23.801943],[90.330956,23.801888],[90.330951,23.801856],[90.330947,23.801827],[90.330941,23.801794],[90.330929,23.801716],[90.330924,23.801687],[90.330924,23.801686]]]}},{"type":"Feature","properties":{"survey":"bds","sheet":"069","dag":"34005","label_bn":"34005","area_sqm":1225.7},"geometry":{"type":"Polygon","coordinates":[[[90.333003,23.803037],[90.333075,23.802708],[90.333174,23.802729],[90.333208,23.802586],[90.333334,23.802608],[90.333361,23.802608],[90.333249,23.803054],[90.333239,23.803094],[90.333194,23.803089],[90.333003,23.803037]]]}},{"type":"Feature","properties":{"survey":"bds","sheet":"069","dag":"34001","label_bn":"34001","area_sqm":1463.8},"geometry":{"type":"Polygon","coordinates":[[[90.331127,23.80256],[90.331157,23.802509],[90.331172,23.802483],[90.331332,23.802209],[90.331335,23.802204],[90.331736,23.802604],[90.331693,23.802666],[90.331361,23.802591],[90.331171,23.802566],[90.331127,23.80256]]]}},{"type":"Feature","properties":{"survey":"bds","sheet":"069","dag":"34031","label_bn":"34031","area_sqm":1573.3},"geometry":{"type":"Polygon","coordinates":[[[90.331164,23.802011],[90.331224,23.801973],[90.331284,23.801936],[90.331327,23.801909],[90.331334,23.801905],[90.331341,23.8019],[90.331443,23.80183],[90.33149,23.801781],[90.331501,23.801769],[90.331513,23.801757],[90.331521,23.801751],[90.331664,23.801638],[90.331675,23.80163],[90.33171,23.801596],[90.331714,23.801592],[90.331717,23.80159],[90.331717,23.801589],[90.33173,23.801577],[90.331781,23.801527],[90.331781,23.801527],[90.331786,23.801522],[90.331826,23.801484],[90.331829,23.801481],[90.33183,23.80148],[90.331842,23.801469],[90.331919,23.801395],[90.331991,23.801336],[90.331998,23.801334],[90.332011,23.80133],[90.332042,23.801321],[90.332054,23.801318],[90.332077,23.801312],[90.332081,23.801312],[90.332134,23.801307],[90.332171,23.801307],[90.332184,23.801306],[90.332197,23.801306],[90.332205,23.801306],[90.332207,23.801306],[90.332217,23.801307],[90.332251,23.80131],[90.332295,23.801314],[90.33233,23.801317],[90.332335,23.801316],[90.332363,23.801313],[90.332372,23.801312],[90.332388,23.80131],[90.332392,23.801309],[90.332404,23.801308],[90.332416,23.801306],[90.332442,23.801299],[90.332453,23.801295],[90.33247,23.801289],[90.332483,23.801285],[90.332524,23.801271],[90.332561,23.80126],[90.332566,23.801258],[90.332597,23.801248],[90.332655,23.801238],[90.332697,23.801234],[90.33274,23.80123],[90.332766,23.801223],[90.332771,23.801225],[90.332813,23.801243],[90.332888,23.801278],[90.33299,23.801324],[90.333061,23.801367],[90.333157,23.801436],[90.333249,23.801484],[90.333242,23.801532],[90.333242,23.801533],[90.333238,23.801563],[90.332955,23.801373],[90.332948,23.801369],[90.332945,23.801367],[90.332884,23.801332],[90.332871,23.801325],[90.332842,23.80131],[90.332808,23.801296],[90.332791,23.801291],[90.33278,23.801288],[90.332774,23.801286],[90.332752,23.801291],[90.332717,23.801296],[90.332682,23.801301],[90.332658,23.801306],[90.332607,23.801317],[90.332601,23.801318],[90.332474,23.801356],[90.33244,23.801367],[90.332423,23.801376],[90.332416,23.801377],[90.332402,23.801379],[90.332381,23.801383],[90.332373,23.801384],[90.332359,23.801385],[90.33234,23.801385],[90.332307,23.801386],[90.332253,23.801381],[90.332159,23.801368],[90.332025,23.801375],[90.33202,23.801376],[90.331989,23.801384],[90.331843,23.801534],[90.331789,23.801589],[90.331751,23.801626],[90.331673,23.801695],[90.331619,23.801742],[90.331457,23.80188],[90.331306,23.802009],[90.331264,23.802045],[90.331164,23.802011]]]}},{"type":"Feature","properties":{"survey":"bds","sheet":"069","dag":"34017","label_bn":"34017","area_sqm":2276.7},"geometry":{"type":"Polygon","coordinates":[[[90.332715,23.801974],[90.33273,23.801924],[90.332764,23.801841],[90.332771,23.801824],[90.332775,23.801816],[90.332806,23.801739],[90.332811,23.801729],[90.332834,23.801665],[90.332862,23.801588],[90.332876,23.801552],[90.332887,23.80152],[90.332896,23.801497],[90.332912,23.801453],[90.332925,23.801419],[90.332945,23.801367],[90.332948,23.801369],[90.332955,23.801373],[90.333238,23.801563],[90.333238,23.801563],[90.333237,23.801566],[90.333247,23.801572],[90.333165,23.801818],[90.333143,23.801813],[90.333128,23.801854],[90.333062,23.802025],[90.333055,23.802024],[90.332952,23.802009],[90.332851,23.801994],[90.332723,23.801975],[90.332715,23.801974]]]}},{"type":"Feature","properties":{"survey":"bds","sheet":"069","dag":"34018","label_bn":"34018","area_sqm":2683.1},"geometry":{"type":"Polygon","coordinates":[[[90.33233,23.801757],[90.332416,23.801377],[90.332423,23.801376],[90.33244,23.801367],[90.332474,23.801356],[90.332601,23.801318],[90.332607,23.801317],[90.332658,23.801306],[90.332682,23.801301],[90.332717,23.801296],[90.332752,23.801291],[90.332774,23.801286],[90.33278,23.801288],[90.332791,23.801291],[90.332808,23.801296],[90.332842,23.80131],[90.332871,23.801325],[90.332884,23.801332],[90.332945,23.801367],[90.332925,23.801419],[90.332912,23.801453],[90.332896,23.801497],[90.332887,23.80152],[90.332876,23.801552],[90.332862,23.801588],[90.332834,23.801665],[90.332811,23.801729],[90.332806,23.801739],[90.332775,23.801816],[90.332771,23.801824],[90.332764,23.801841],[90.332574,23.801804],[90.33233,23.801757]]]}},{"type":"Feature","properties":{"survey":"bds","sheet":"069","dag":"34068","label_bn":"34068","area_sqm":4472.2},"geometry":{"type":"Polygon","coordinates":[[[90.332184,23.801306],[90.332378,23.800418],[90.332383,23.80039],[90.332404,23.800285],[90.332433,23.800141],[90.33244,23.800105],[90.332503,23.800117],[90.332616,23.800114],[90.332652,23.800117],[90.332653,23.800086],[90.332653,23.800086],[90.332653,23.800087],[90.332768,23.800078],[90.33277,23.800146],[90.332784,23.800149],[90.332784,23.800149],[90.332788,23.80015],[90.332793,23.800153],[90.332799,23.800156],[90.332799,23.800156],[90.332799,23.800156],[90.332788,23.800185],[90.332781,23.800205],[90.33278,23.800208],[90.332773,23.80023],[90.332747,23.800343],[90.332718,23.800497],[90.332688,23.800635],[90.332665,23.800713],[90.332648,23.800795],[90.332632,23.800847],[90.332599,23.800931],[90.332581,23.800982],[90.332558,23.801034],[90.332548,23.801032],[90.332504,23.801102],[90.332488,23.801129],[90.332416,23.801242],[90.332405,23.801265],[90.332372,23.801312],[90.332363,23.801313],[90.332335,23.801316],[90.33233,23.801317],[90.332295,23.801314],[90.332251,23.80131],[90.332217,23.801307],[90.332207,23.801306],[90.332205,23.801306],[90.332197,23.801306],[90.332184,23.801306]]]}},{"type":"Feature","properties":{"survey":"bds","sheet":"069","dag":"34002","label_bn":"34002","area_sqm":5163.5},"geometry":{"type":"Polygon","coordinates":[[[90.331328,23.802088],[90.33224,23.802158],[90.332316,23.802164],[90.332248,23.802739],[90.332198,23.80274],[90.332195,23.80274],[90.332072,23.802742],[90.332064,23.802742],[90.332062,23.802742],[90.332066,23.802859],[90.332014,23.802807],[90.331854,23.802737],[90.331693,23.802666],[90.331736,23.802604],[90.331335,23.802204],[90.33134,23.802195],[90.33135,23.802179],[90.331336,23.80212],[90.331328,23.802088]]]}},{"type":"Feature","properties":{"survey":"bds","sheet":"069","dag":"34030","label_bn":"34030","area_sqm":6104.0},"geometry":{"type":"Polygon","coordinates":[[[90.331264,23.802045],[90.331306,23.802009],[90.331457,23.80188],[90.331619,23.801742],[90.331673,23.801695],[90.331751,23.801626],[90.331789,23.801589],[90.331843,23.801534],[90.331989,23.801384],[90.33202,23.801376],[90.332025,23.801375],[90.332159,23.801368],[90.332253,23.801381],[90.332307,23.801386],[90.33234,23.801385],[90.332359,23.801385],[90.332373,23.801384],[90.332381,23.801383],[90.332402,23.801379],[90.332416,23.801377],[90.33233,23.801757],[90.33224,23.802158],[90.331328,23.802088],[90.331326,23.80208],[90.331264,23.802045]]]}},{"type":"Feature","properties":{"survey":"bds","sheet":"069","dag":"34003","label_bn":"34003","area_sqm":6464.0},"geometry":{"type":"Polygon","coordinates":[[[90.332062,23.802742],[90.332064,23.802742],[90.332072,23.802742],[90.332195,23.80274],[90.332198,23.80274],[90.332248,23.802739],[90.332316,23.802164],[90.332467,23.802169],[90.332557,23.802172],[90.332683,23.802203],[90.332717,23.802211],[90.332724,23.802214],[90.332795,23.80224],[90.332818,23.802249],[90.332857,23.802263],[90.332919,23.802286],[90.332922,23.802321],[90.332918,23.80233],[90.332918,23.802331],[90.332894,23.802467],[90.332872,23.802593],[90.332855,23.802691],[90.332835,23.802778],[90.332788,23.802988],[90.332785,23.802988],[90.332772,23.802985],[90.332738,23.802968],[90.332646,23.803171],[90.332421,23.803081],[90.332375,23.803063],[90.332344,23.80311],[90.332297,23.803179],[90.332271,23.803135],[90.332236,23.803075],[90.332177,23.802971],[90.332067,23.80286],[90.332066,23.802859],[90.332062,23.802742]]]}},{"type":"Feature","properties":{"survey":"bds","sheet":"069","dag":"34045","label_bn":"34045","area_sqm":7043.1},"geometry":{"type":"Polygon","coordinates":[[[90.330568,23.801191],[90.330596,23.801114],[90.330676,23.800908],[90.330703,23.800852],[90.330741,23.800774],[90.330749,23.800757],[90.330836,23.800527],[90.330827,23.800525],[90.330831,23.80051],[90.330836,23.800493],[90.330837,23.800488],[90.330838,23.800489],[90.331093,23.80055],[90.331122,23.800556],[90.331103,23.800607],[90.331272,23.800673],[90.331434,23.800729],[90.331473,23.800743],[90.331549,23.800769],[90.331569,23.800776],[90.331353,23.801391],[90.331336,23.801455],[90.330886,23.801454],[90.330916,23.801297],[90.330784,23.801302],[90.330568,23.801191]]]}},{"type":"Feature","properties":{"survey":"bds","sheet":"069","dag":"34067","label_bn":"34067","area_sqm":7927.2},"geometry":{"type":"Polygon","coordinates":[[[90.331353,23.801391],[90.331569,23.800776],[90.331665,23.800809],[90.331735,23.800607],[90.331738,23.800598],[90.331811,23.800602],[90.331843,23.800468],[90.331845,23.800455],[90.331918,23.800463],[90.331978,23.800471],[90.331997,23.800383],[90.332005,23.800345],[90.332103,23.800356],[90.332112,23.800357],[90.332113,23.800357],[90.332191,23.800366],[90.332278,23.800376],[90.332367,23.80039],[90.332383,23.80039],[90.332378,23.800418],[90.332184,23.801306],[90.332171,23.801307],[90.332134,23.801307],[90.332081,23.801312],[90.332077,23.801312],[90.332054,23.801318],[90.332042,23.801321],[90.332011,23.80133],[90.331998,23.801334],[90.331991,23.801336],[90.331919,23.801395],[90.331842,23.801469],[90.33183,23.80148],[90.331702,23.801456],[90.331577,23.801433],[90.331353,23.801391]]]}},{"type":"Feature","properties":{"survey":"bds","sheet":"069","dag":"34072","label_bn":"34072","area_sqm":9909.7},"geometry":{"type":"Polygon","coordinates":[[[90.332453,23.801295],[90.332496,23.801232],[90.332528,23.801179],[90.332542,23.80116],[90.33256,23.801132],[90.33259,23.801088],[90.332604,23.801059],[90.332606,23.801055],[90.332608,23.801042],[90.332611,23.801028],[90.332616,23.801018],[90.332621,23.801007],[90.332632,23.800976],[90.332643,23.800922],[90.332654,23.800868],[90.332673,23.800791],[90.332693,23.800715],[90.332693,23.800713],[90.332706,23.800663],[90.332719,23.800611],[90.332737,23.800524],[90.332737,23.800523],[90.332756,23.800438],[90.332776,23.800352],[90.332776,23.800351],[90.332779,23.800338],[90.332782,23.800319],[90.332891,23.800349],[90.33291,23.800287],[90.33292,23.800244],[90.332928,23.800212],[90.332937,23.800172],[90.333023,23.800186],[90.333106,23.8002],[90.333173,23.800214],[90.333392,23.800272],[90.333394,23.800273],[90.333394,23.80028],[90.333394,23.800341],[90.333394,23.800343],[90.33339,23.800358],[90.333367,23.800382],[90.333354,23.800396],[90.333334,23.800417],[90.333342,23.800426],[90.333385,23.800473],[90.333438,23.800533],[90.333478,23.800617],[90.333561,23.800714],[90.333567,23.800721],[90.333663,23.800782],[90.333569,23.80093],[90.333548,23.800963],[90.333483,23.801082],[90.333431,23.801178],[90.333373,23.801263],[90.333252,23.801457],[90.33325,23.801473],[90.33325,23.801474],[90.333249,23.801484],[90.333157,23.801436],[90.333061,23.801367],[90.33299,23.801324],[90.332888,23.801278],[90.332813,23.801243],[90.332771,23.801225],[90.332766,23.801223],[90.33274,23.80123],[90.332697,23.801234],[90.332655,23.801238],[90.332597,23.801248],[90.332566,23.801258],[90.332561,23.80126],[90.332524,23.801271],[90.332483,23.801285],[90.33247,23.801289],[90.332453,23.801295]]]}}]}