{"type":"FeatureCollection","features":[{"type":"Feature","properties":{"survey":"bds","sheet":"071","dag":"35072","label_bn":"35072","area_sqm":13.5},"geometry":{"type":"Polygon","coordinates":[[[90.332497,23.796909],[90.332513,23.796909],[90.332514,23.79691],[90.332575,23.79698],[90.332565,23.79699],[90.332549,23.796968],[90.332497,23.796909]]]}},{"type":"Feature","properties":{"survey":"bds","sheet":"071","dag":"35087","label_bn":"35087","area_sqm":21.7},"geometry":{"type":"Polygon","coordinates":[[[90.332186,23.797404],[90.332246,23.797349],[90.332253,23.797406],[90.332186,23.797404]]]}},{"type":"Feature","properties":{"survey":"bds","sheet":"071","dag":"35063","label_bn":"35063","area_sqm":25.6},"geometry":{"type":"Polygon","coordinates":[[[90.332763,23.796755],[90.332836,23.796662],[90.332858,23.796637],[90.332864,23.796643],[90.332799,23.796741],[90.332778,23.796762],[90.332763,23.796755]]]}},{"type":"Feature","properties":{"survey":"bds","sheet":"071","dag":"35049","label_bn":"35049","area_sqm":28.1},"geometry":{"type":"Polygon","coordinates":[[[90.333117,23.796669],[90.333125,23.796642],[90.33315,23.796657],[90.33321,23.796694],[90.333189,23.796712],[90.33314,23.796683],[90.333117,23.796669]]]}},{"type":"Feature","properties":{"survey":"bds","sheet":"071","dag":"35068","label_bn":"35068","area_sqm":31.3},"geometry":{"type":"Polygon","coordinates":[[[90.332637,23.796894],[90.332662,23.796885],[90.332697,23.796841],[90.332727,23.796871],[90.332671,23.796916],[90.332647,23.796905],[90.332637,23.796894]]]}},{"type":"Feature","properties":{"survey":"bds","sheet":"071","dag":"35037","label_bn":"35037","area_sqm":32.5},"geometry":{"type":"Polygon","coordinates":[[[90.33321,23.797297],[90.333228,23.797294],[90.333238,23.797347],[90.333258,23.797454],[90.333238,23.797447],[90.333224,23.797372],[90.33322,23.79735],[90.33321,23.797297]]]}},{"type":"Feature","properties":{"survey":"bds","sheet":"071","dag":"35038","label_bn":"35038","area_sqm":34.0},"geometry":{"type":"Polygon","coordinates":[[[90.333105,23.797371],[90.33322,23.79735],[90.333224,23.797372],[90.333108,23.797399],[90.333108,23.797399],[90.333105,23.797371]]]}},{"type":"Feature","properties":{"survey":"bds","sheet":"071","dag":"35071","label_bn":"35071","area_sqm":36.5},"geometry":{"type":"Polygon","coordinates":[[[90.332553,23.796998],[90.332565,23.79699],[90.332575,23.79698],[90.332613,23.797095],[90.332588,23.79711],[90.332579,23.79708],[90.332553,23.796998]]]}},{"type":"Feature","properties":{"survey":"bds","sheet":"071","dag":"35021","label_bn":"35021","area_sqm":39.9},"geometry":{"type":"Polygon","coordinates":[[[90.33284,23.79755],[90.332842,23.797457],[90.332842,23.79738],[90.332841,23.79735],[90.332859,23.797348],[90.332858,23.797549],[90.332841,23.79755],[90.33284,23.79755]]]}},{"type":"Feature","properties":{"survey":"bds","sheet":"071","dag":"35091","label_bn":"35091","area_sqm":50.8},"geometry":{"type":"Polygon","coordinates":[[[90.332081,23.797296],[90.332186,23.797184],[90.332207,23.797203],[90.332167,23.797247],[90.332102,23.797317],[90.332081,23.797296]]]}},{"type":"Feature","properties":{"survey":"bds","sheet":"071","dag":"35014","label_bn":"35014","area_sqm":52.0},"geometry":{"type":"Polygon","coordinates":[[[90.332614,23.797369],[90.332614,23.797327],[90.332724,23.797329],[90.332724,23.797371],[90.332614,23.797369]]]}},{"type":"Feature","properties":{"survey":"bds","sheet":"071","dag":"35015","label_bn":"35015","area_sqm":52.2},"geometry":{"type":"Polygon","coordinates":[[[90.332614,23.797327],[90.332614,23.797325],[90.332615,23.797285],[90.332725,23.797288],[90.332724,23.797327],[90.332724,23.797329],[90.332614,23.797327]]]}},{"type":"Feature","properties":{"survey":"bds","sheet":"071","dag":"35051","label_bn":"35051","area_sqm":55.7},"geometry":{"type":"Polygon","coordinates":[[[90.333011,23.796476],[90.333012,23.796474],[90.333014,23.796472],[90.333015,23.796468],[90.333025,23.796447],[90.333165,23.796503],[90.333161,23.796533],[90.333068,23.796499],[90.333011,23.796476]]]}},{"type":"Feature","properties":{"survey":"bds","sheet":"071","dag":"35073","label_bn":"35073","area_sqm":56.5},"geometry":{"type":"Polygon","coordinates":[[[90.33244,23.796914],[90.332446,23.796909],[90.332497,23.796909],[90.332549,23.796968],[90.332504,23.797002],[90.33244,23.796914]]]}},{"type":"Feature","properties":{"survey":"bds","sheet":"071","dag":"35069","label_bn":"35069","area_sqm":59.0},"geometry":{"type":"Polygon","coordinates":[[[90.332513,23.796909],[90.332516,23.796909],[90.332549,23.796909],[90.332626,23.796898],[90.332637,23.796894],[90.332647,23.796905],[90.332575,23.79698],[90.332514,23.79691],[90.332513,23.796909]]]}},{"type":"Feature","properties":{"survey":"bds","sheet":"071","dag":"35001","label_bn":"35001","area_sqm":59.0},"geometry":{"type":"Polygon","coordinates":[[[90.331302,23.797506],[90.331318,23.797509],[90.331329,23.797513],[90.331374,23.79753],[90.331428,23.79756],[90.331419,23.797576],[90.331411,23.797576],[90.331405,23.797576],[90.331318,23.797576],[90.331308,23.797529],[90.331307,23.797526],[90.331302,23.797506]]]}},{"type":"Feature","properties":{"survey":"bds","sheet":"071","dag":"35056","label_bn":"35056","area_sqm":61.7},"geometry":{"type":"Polygon","coordinates":[[[90.332932,23.796558],[90.332949,23.796539],[90.33295,23.79654],[90.332957,23.796544],[90.333021,23.796584],[90.333044,23.796594],[90.333125,23.796642],[90.333117,23.796669],[90.333084,23.79665],[90.333028,23.796616],[90.332975,23.796584],[90.332932,23.796558]]]}},{"type":"Feature","properties":{"survey":"bds","sheet":"071","dag":"35065","label_bn":"35065","area_sqm":65.5},"geometry":{"type":"Polygon","coordinates":[[[90.332807,23.796859],[90.332854,23.796827],[90.332933,23.796892],[90.332881,23.796925],[90.332807,23.796859]]]}},{"type":"Feature","properties":{"survey":"bds","sheet":"071","dag":"35066","label_bn":"35066","area_sqm":66.1},"geometry":{"type":"Polygon","coordinates":[[[90.332761,23.796901],[90.332807,23.796859],[90.332881,23.796925],[90.332827,23.796961],[90.332784,23.796921],[90.332761,23.796901]]]}},{"type":"Feature","properties":{"survey":"bds","sheet":"071","dag":"35035","label_bn":"35035","area_sqm":67.2},"geometry":{"type":"Polygon","coordinates":[[[90.333028,23.797425],[90.33311,23.797414],[90.333118,23.797474],[90.333034,23.797505],[90.333028,23.797425]]]}},{"type":"Feature","properties":{"survey":"bds","sheet":"071","dag":"35061","label_bn":"35061","area_sqm":67.9},"geometry":{"type":"Polygon","coordinates":[[[90.332852,23.796788],[90.332929,23.796701],[90.33296,23.796729],[90.332967,23.796735],[90.332894,23.796822],[90.332852,23.796788]]]}},{"type":"Feature","properties":{"survey":"bds","sheet":"071","dag":"35043","label_bn":"35043","area_sqm":68.0},"geometry":{"type":"Polygon","coordinates":[[[90.333016,23.797108],[90.333114,23.797042],[90.333155,23.797076],[90.333057,23.797142],[90.333023,23.797114],[90.333016,23.797108]]]}},{"type":"Feature","properties":{"survey":"bds","sheet":"071","dag":"35106","label_bn":"35106","area_sqm":68.6},"geometry":{"type":"Polygon","coordinates":[[[90.331763,23.797574],[90.33179,23.797557],[90.331861,23.797513],[90.331931,23.797473],[90.331935,23.7975],[90.33178,23.797607],[90.331765,23.797577],[90.331763,23.797574],[90.331763,23.797574]]]}},{"type":"Feature","properties":{"survey":"bds","sheet":"071","dag":"35057","label_bn":"35057","area_sqm":69.8},"geometry":{"type":"Polygon","coordinates":[[[90.332858,23.796637],[90.332932,23.796558],[90.332975,23.796584],[90.332902,23.796677],[90.332864,23.796643],[90.332858,23.796637]]]}},{"type":"Feature","properties":{"survey":"bds","sheet":"071","dag":"35039","label_bn":"35039","area_sqm":71.9},"geometry":{"type":"Polygon","coordinates":[[[90.333096,23.797318],[90.333099,23.797317],[90.33321,23.797297],[90.33322,23.79735],[90.333105,23.797371],[90.333098,23.797331],[90.333096,23.797318]]]}},{"type":"Feature","properties":{"survey":"bds","sheet":"071","dag":"35033","label_bn":"35033","area_sqm":73.8},"geometry":{"type":"Polygon","coordinates":[[[90.333012,23.797261],[90.333084,23.797243],[90.333096,23.797318],[90.333098,23.797331],[90.33302,23.797342],[90.333012,23.797261]]]}},{"type":"Feature","properties":{"survey":"bds","sheet":"071","dag":"35055","label_bn":"35055","area_sqm":74.7},"geometry":{"type":"Polygon","coordinates":[[[90.33295,23.79654],[90.333012,23.796474],[90.333011,23.796476],[90.333068,23.796499],[90.333021,23.796584],[90.332957,23.796544],[90.33295,23.79654]]]}},{"type":"Feature","properties":{"survey":"bds","sheet":"071","dag":"35034","label_bn":"35034","area_sqm":77.4},"geometry":{"type":"Polygon","coordinates":[[[90.33302,23.797342],[90.333098,23.797331],[90.333105,23.797371],[90.333108,23.797399],[90.333108,23.797399],[90.33311,23.797414],[90.333028,23.797425],[90.33302,23.797342]]]}},{"type":"Feature","properties":{"survey":"bds","sheet":"071","dag":"35020","label_bn":"35020","area_sqm":81.4},"geometry":{"type":"Polygon","coordinates":[[[90.332764,23.797549],[90.332764,23.797456],[90.332842,23.797457],[90.33284,23.79755],[90.332764,23.797549]]]}},{"type":"Feature","properties":{"survey":"bds","sheet":"071","dag":"35079","label_bn":"35079","area_sqm":86.5},"geometry":{"type":"Polygon","coordinates":[[[90.332179,23.797177],[90.332254,23.7971],[90.332305,23.797149],[90.332231,23.797226],[90.332207,23.797203],[90.332186,23.797184],[90.332179,23.797177]]]}},{"type":"Feature","properties":{"survey":"bds","sheet":"071","dag":"35080","label_bn":"35080","area_sqm":86.9},"geometry":{"type":"Polygon","coordinates":[[[90.332231,23.797226],[90.332305,23.797149],[90.332357,23.797198],[90.332284,23.797275],[90.332231,23.797226]]]}},{"type":"Feature","properties":{"survey":"bds","sheet":"071","dag":"35046","label_bn":"35046","area_sqm":87.7},"geometry":{"type":"Polygon","coordinates":[[[90.332976,23.796889],[90.333049,23.796808],[90.333051,23.796809],[90.333094,23.796847],[90.333103,23.796854],[90.333032,23.796934],[90.332976,23.796889]]]}},{"type":"Feature","properties":{"survey":"bds","sheet":"071","dag":"35077","label_bn":"35077","area_sqm":90.2},"geometry":{"type":"Polygon","coordinates":[[[90.332142,23.796994],[90.332157,23.79697],[90.332232,23.797041],[90.332255,23.797061],[90.332333,23.797133],[90.33235,23.797162],[90.332357,23.797198],[90.332305,23.797149],[90.332254,23.7971],[90.332142,23.796994]]]}},{"type":"Feature","properties":{"survey":"bds","sheet":"071","dag":"35090","label_bn":"35090","area_sqm":91.8},"geometry":{"type":"Polygon","coordinates":[[[90.332167,23.797247],[90.332207,23.797203],[90.332231,23.797226],[90.332284,23.797275],[90.33231,23.797299],[90.332261,23.797337],[90.332167,23.797247]]]}},{"type":"Feature","properties":{"survey":"bds","sheet":"071","dag":"35042","label_bn":"35042","area_sqm":95.8},"geometry":{"type":"Polygon","coordinates":[[[90.333057,23.797142],[90.333155,23.797076],[90.333211,23.797124],[90.333114,23.79719],[90.333057,23.797142]]]}},{"type":"Feature","properties":{"survey":"bds","sheet":"071","dag":"35074","label_bn":"35074","area_sqm":96.6},"geometry":{"type":"Polygon","coordinates":[[[90.332333,23.797133],[90.332337,23.797133],[90.332461,23.797029],[90.332468,23.797029],[90.332504,23.797002],[90.332549,23.796968],[90.332565,23.79699],[90.332553,23.796998],[90.332527,23.797017],[90.332475,23.797063],[90.332417,23.797109],[90.33235,23.797162],[90.332333,23.797133]]]}},{"type":"Feature","properties":{"survey":"bds","sheet":"071","dag":"35058","label_bn":"35058","area_sqm":98.3},"geometry":{"type":"Polygon","coordinates":[[[90.332902,23.796677],[90.332975,23.796584],[90.333028,23.796616],[90.33296,23.796729],[90.332929,23.796701],[90.332902,23.796677]]]}},{"type":"Feature","properties":{"survey":"bds","sheet":"071","dag":"35059","label_bn":"35059","area_sqm":99.9},"geometry":{"type":"Polygon","coordinates":[[[90.33296,23.796729],[90.333028,23.796616],[90.333084,23.79665],[90.333008,23.796771],[90.332967,23.796735],[90.33296,23.796729]]]}},{"type":"Feature","properties":{"survey":"bds","sheet":"071","dag":"35036","label_bn":"35036","area_sqm":102.4},"geometry":{"type":"Polygon","coordinates":[[[90.333108,23.797399],[90.333224,23.797372],[90.333238,23.797447],[90.333181,23.797458],[90.333118,23.797474],[90.33311,23.797414],[90.333108,23.797399]]]}},{"type":"Feature","properties":{"survey":"bds","sheet":"071","dag":"35105","label_bn":"35105","area_sqm":102.5},"geometry":{"type":"Polygon","coordinates":[[[90.333008,23.796771],[90.333084,23.79665],[90.333117,23.796669],[90.33314,23.796683],[90.333051,23.796809],[90.333049,23.796808],[90.333008,23.796771]]]}},{"type":"Feature","properties":{"survey":"bds","sheet":"071","dag":"35019","label_bn":"35019","area_sqm":102.5},"geometry":{"type":"Polygon","coordinates":[[[90.332723,23.797378],[90.332842,23.79738],[90.332842,23.797457],[90.332764,23.797456],[90.332724,23.797455],[90.332723,23.797378]]]}},{"type":"Feature","properties":{"survey":"bds","sheet":"071","dag":"35008","label_bn":"35008","area_sqm":103.1},"geometry":{"type":"Polygon","coordinates":[[[90.332305,23.797433],[90.332316,23.797434],[90.332392,23.797435],[90.332393,23.79754],[90.332365,23.797538],[90.332315,23.797538],[90.332305,23.797538],[90.332305,23.797433]]]}},{"type":"Feature","properties":{"survey":"bds","sheet":"071","dag":"35013","label_bn":"35013","area_sqm":103.7},"geometry":{"type":"Polygon","coordinates":[[[90.332614,23.797369],[90.332724,23.797371],[90.332723,23.797378],[90.332724,23.797455],[90.332615,23.797453],[90.332614,23.797369]]]}},{"type":"Feature","properties":{"survey":"bds","sheet":"071","dag":"35062","label_bn":"35062","area_sqm":105.2},"geometry":{"type":"Polygon","coordinates":[[[90.332799,23.796741],[90.332864,23.796643],[90.332902,23.796677],[90.332929,23.796701],[90.332852,23.796788],[90.332799,23.796741]]]}},{"type":"Feature","properties":{"survey":"bds","sheet":"071","dag":"35067","label_bn":"35067","area_sqm":106.4},"geometry":{"type":"Polygon","coordinates":[[[90.332671,23.796916],[90.332727,23.796871],[90.332761,23.796901],[90.332784,23.796921],[90.332827,23.796961],[90.332826,23.796961],[90.332765,23.797001],[90.332764,23.797002],[90.332728,23.796968],[90.332671,23.796916]]]}},{"type":"Feature","properties":{"survey":"bds","sheet":"071","dag":"35054","label_bn":"35054","area_sqm":108.9},"geometry":{"type":"Polygon","coordinates":[[[90.333015,23.796468],[90.333032,23.796351],[90.333058,23.796238],[90.333081,23.796149],[90.333119,23.796159],[90.33309,23.796279],[90.333036,23.796421],[90.333025,23.796447],[90.333015,23.796468]]]}},{"type":"Feature","properties":{"survey":"bds","sheet":"071","dag":"35009","label_bn":"35009","area_sqm":110.9},"geometry":{"type":"Polygon","coordinates":[[[90.332392,23.797435],[90.332484,23.797437],[90.332484,23.797544],[90.33245,23.797544],[90.332393,23.79754],[90.332392,23.797435]]]}},{"type":"Feature","properties":{"survey":"bds","sheet":"071","dag":"35047","label_bn":"35047","area_sqm":111.3},"geometry":{"type":"Polygon","coordinates":[[[90.333103,23.796854],[90.333194,23.796715],[90.333237,23.796743],[90.333151,23.796896],[90.333103,23.796854]]]}},{"type":"Feature","properties":{"survey":"bds","sheet":"071","dag":"35027","label_bn":"35027","area_sqm":111.7},"geometry":{"type":"Polygon","coordinates":[[[90.332733,23.797053],[90.332764,23.797036],[90.332854,23.797125],[90.332898,23.79716],[90.332923,23.797183],[90.333012,23.797261],[90.332976,23.797269],[90.332885,23.797188],[90.33281,23.797124],[90.332733,23.797053]]]}},{"type":"Feature","properties":{"survey":"bds","sheet":"071","dag":"35083","label_bn":"35083","area_sqm":112.4},"geometry":{"type":"Polygon","coordinates":[[[90.332445,23.797293],[90.332452,23.79722],[90.332585,23.797221],[90.332585,23.797293],[90.332445,23.797293]]]}},{"type":"Feature","properties":{"survey":"bds","sheet":"071","dag":"35040","label_bn":"35040","area_sqm":114.1},"geometry":{"type":"Polygon","coordinates":[[[90.333084,23.797243],[90.333143,23.797232],[90.333214,23.797219],[90.333228,23.797294],[90.33321,23.797297],[90.333099,23.797317],[90.333096,23.797318],[90.333084,23.797243]]]}},{"type":"Feature","properties":{"survey":"bds","sheet":"071","dag":"35086","label_bn":"35086","area_sqm":116.7},"geometry":{"type":"Polygon","coordinates":[[[90.332246,23.797349],[90.332261,23.797337],[90.33231,23.797299],[90.332313,23.7973],[90.332353,23.797266],[90.332353,23.797407],[90.332253,23.797406],[90.332246,23.797349]]]}},{"type":"Feature","properties":{"survey":"bds","sheet":"071","dag":"35030","label_bn":"35030","area_sqm":118.4},"geometry":{"type":"Polygon","coordinates":[[[90.332854,23.797125],[90.332955,23.797057],[90.332997,23.797094],[90.333016,23.797108],[90.333023,23.797114],[90.332923,23.797183],[90.332898,23.79716],[90.332854,23.797125]]]}},{"type":"Feature","properties":{"survey":"bds","sheet":"071","dag":"35048","label_bn":"35048","area_sqm":118.5},"geometry":{"type":"Polygon","coordinates":[[[90.333051,23.796809],[90.33314,23.796683],[90.333189,23.796712],[90.333194,23.796715],[90.333103,23.796854],[90.333094,23.796847],[90.333051,23.796809]]]}},{"type":"Feature","properties":{"survey":"bds","sheet":"071","dag":"35002","label_bn":"35002","area_sqm":122.0},"geometry":{"type":"Polygon","coordinates":[[[90.331419,23.797576],[90.331428,23.79756],[90.331446,23.79757],[90.331451,23.797573],[90.331517,23.797619],[90.331581,23.797678],[90.331596,23.797693],[90.331576,23.797708],[90.331533,23.797739],[90.331432,23.797594],[90.331424,23.797583],[90.331419,23.797576]]]}},{"type":"Feature","properties":{"survey":"bds","sheet":"071","dag":"35010","label_bn":"35010","area_sqm":122.6},"geometry":{"type":"Polygon","coordinates":[[[90.332484,23.797437],[90.332586,23.797441],[90.332587,23.797546],[90.332484,23.797544],[90.332484,23.797437]]]}},{"type":"Feature","properties":{"survey":"bds","sheet":"071","dag":"35041","label_bn":"35041","area_sqm":123.4},"geometry":{"type":"Polygon","coordinates":[[[90.333114,23.79719],[90.333211,23.797124],[90.333309,23.797207],[90.333214,23.797219],[90.333143,23.797232],[90.333114,23.79719]]]}},{"type":"Feature","properties":{"survey":"bds","sheet":"071","dag":"35050","label_bn":"35050","area_sqm":128.4},"geometry":{"type":"Polygon","coordinates":[[[90.333021,23.796584],[90.333068,23.796499],[90.333161,23.796533],[90.333125,23.796642],[90.333044,23.796594],[90.333021,23.796584]]]}},{"type":"Feature","properties":{"survey":"bds","sheet":"071","dag":"35064","label_bn":"35064","area_sqm":130.2},"geometry":{"type":"Polygon","coordinates":[[[90.332697,23.796841],[90.33274,23.796786],[90.332752,23.79677],[90.332763,23.796755],[90.332778,23.796762],[90.332854,23.796827],[90.332807,23.796859],[90.332761,23.796901],[90.332727,23.796871],[90.332697,23.796841]]]}},{"type":"Feature","properties":{"survey":"bds","sheet":"071","dag":"35025","label_bn":"35025","area_sqm":132.5},"geometry":{"type":"Polygon","coordinates":[[[90.3327,23.797192],[90.33281,23.797124],[90.332885,23.797188],[90.332775,23.797251],[90.332728,23.797216],[90.3327,23.797192]]]}},{"type":"Feature","properties":{"survey":"bds","sheet":"071","dag":"35024","label_bn":"35024","area_sqm":135.1},"geometry":{"type":"Polygon","coordinates":[[[90.332775,23.797251],[90.332885,23.797188],[90.332976,23.797269],[90.332949,23.797276],[90.332841,23.797302],[90.332775,23.797251]]]}},{"type":"Feature","properties":{"survey":"bds","sheet":"071","dag":"35060","label_bn":"35060","area_sqm":135.9},"geometry":{"type":"Polygon","coordinates":[[[90.332894,23.796822],[90.332967,23.796735],[90.333008,23.796771],[90.333049,23.796808],[90.332976,23.796889],[90.332896,23.796823],[90.332894,23.796822]]]}},{"type":"Feature","properties":{"survey":"bds","sheet":"071","dag":"35082","label_bn":"35082","area_sqm":135.9},"geometry":{"type":"Polygon","coordinates":[[[90.332452,23.79722],[90.332455,23.797181],[90.33251,23.797136],[90.332579,23.79708],[90.332588,23.79711],[90.332585,23.797121],[90.332584,23.797149],[90.332585,23.797221],[90.332452,23.79722]]]}},{"type":"Feature","properties":{"survey":"bds","sheet":"071","dag":"35007","label_bn":"35007","area_sqm":138.7},"geometry":{"type":"Polygon","coordinates":[[[90.332189,23.797422],[90.332206,23.79743],[90.332305,23.797433],[90.332305,23.797538],[90.332277,23.797537],[90.332206,23.797535],[90.332201,23.797535],[90.332189,23.797535],[90.332189,23.797422]]]}},{"type":"Feature","properties":{"survey":"bds","sheet":"071","dag":"35089","label_bn":"35089","area_sqm":139.6},"geometry":{"type":"Polygon","coordinates":[[[90.332102,23.797317],[90.332167,23.797247],[90.332261,23.797337],[90.332246,23.797349],[90.332186,23.797404],[90.332102,23.797317]]]}},{"type":"Feature","properties":{"survey":"bds","sheet":"071","dag":"35016","label_bn":"35016","area_sqm":149.0},"geometry":{"type":"Polygon","coordinates":[[[90.332614,23.797191],[90.332614,23.797127],[90.3327,23.797192],[90.332728,23.797216],[90.332725,23.797288],[90.332615,23.797285],[90.332614,23.797191]]]}},{"type":"Feature","properties":{"survey":"bds","sheet":"071","dag":"35026","label_bn":"35026","area_sqm":154.4},"geometry":{"type":"Polygon","coordinates":[[[90.332614,23.797127],[90.332733,23.797053],[90.33281,23.797124],[90.3327,23.797192],[90.332614,23.797127]]]}},{"type":"Feature","properties":{"survey":"bds","sheet":"071","dag":"35028","label_bn":"35028","area_sqm":157.3},"geometry":{"type":"Polygon","coordinates":[[[90.332764,23.797036],[90.332801,23.797012],[90.332854,23.796981],[90.332955,23.797057],[90.332854,23.797125],[90.332764,23.797036]]]}},{"type":"Feature","properties":{"survey":"bds","sheet":"071","dag":"35012","label_bn":"35012","area_sqm":157.8},"geometry":{"type":"Polygon","coordinates":[[[90.332615,23.797453],[90.332724,23.797455],[90.332764,23.797456],[90.332764,23.797549],[90.332615,23.797546],[90.332615,23.797453]]]}},{"type":"Feature","properties":{"survey":"bds","sheet":"071","dag":"35017","label_bn":"35017","area_sqm":159.6},"geometry":{"type":"Polygon","coordinates":[[[90.332723,23.797378],[90.332724,23.797371],[90.332724,23.797329],[90.332724,23.797327],[90.332725,23.797288],[90.332728,23.797216],[90.332775,23.797251],[90.332841,23.797302],[90.332841,23.79735],[90.332842,23.79738],[90.332723,23.797378]]]}},{"type":"Feature","properties":{"survey":"bds","sheet":"071","dag":"35101","label_bn":"35101","area_sqm":161.7},"geometry":{"type":"Polygon","coordinates":[[[90.331728,23.795043],[90.331788,23.794988],[90.331843,23.794939],[90.331843,23.794939],[90.331844,23.794939],[90.331929,23.794985],[90.331872,23.795035],[90.331813,23.795087],[90.331775,23.795072],[90.331728,23.795043]]]}},{"type":"Feature","properties":{"survey":"bds","sheet":"071","dag":"35100","label_bn":"35100","area_sqm":162.5},"geometry":{"type":"Polygon","coordinates":[[[90.331813,23.795087],[90.331872,23.795035],[90.331929,23.794985],[90.331992,23.794929],[90.33201,23.794967],[90.331942,23.795066],[90.331885,23.795135],[90.331813,23.795087]]]}},{"type":"Feature","properties":{"survey":"bds","sheet":"071","dag":"35006","label_bn":"35006","area_sqm":173.0},"geometry":{"type":"Polygon","coordinates":[[[90.33209,23.797531],[90.332091,23.797327],[90.33217,23.797412],[90.332189,23.797422],[90.332189,23.797535],[90.33209,23.797531]]]}},{"type":"Feature","properties":{"survey":"bds","sheet":"071","dag":"35088","label_bn":"35088","area_sqm":174.2},"geometry":{"type":"Polygon","coordinates":[[[90.331981,23.797226],[90.331995,23.797207],[90.332081,23.797296],[90.332102,23.797317],[90.332186,23.797404],[90.332253,23.797406],[90.332353,23.797407],[90.332368,23.797408],[90.332435,23.79741],[90.332586,23.797414],[90.332586,23.797441],[90.332484,23.797437],[90.332392,23.797435],[90.332316,23.797434],[90.332305,23.797433],[90.332206,23.79743],[90.332189,23.797422],[90.33217,23.797412],[90.332091,23.797327],[90.331981,23.797226]]]}},{"type":"Feature","properties":{"survey":"bds","sheet":"071","dag":"35078","label_bn":"35078","area_sqm":176.1},"geometry":{"type":"Polygon","coordinates":[[[90.332081,23.797083],[90.332142,23.796994],[90.332254,23.7971],[90.332179,23.797177],[90.332085,23.797087],[90.332081,23.797083]]]}},{"type":"Feature","properties":{"survey":"bds","sheet":"071","dag":"35085","label_bn":"35085","area_sqm":189.2},"geometry":{"type":"Polygon","coordinates":[[[90.332353,23.797266],[90.332455,23.797181],[90.332452,23.79722],[90.332445,23.797293],[90.332435,23.79741],[90.332368,23.797408],[90.332353,23.797407],[90.332353,23.797266]]]}},{"type":"Feature","properties":{"survey":"bds","sheet":"071","dag":"35032","label_bn":"35032","area_sqm":194.0},"geometry":{"type":"Polygon","coordinates":[[[90.332923,23.797183],[90.333023,23.797114],[90.333057,23.797142],[90.333114,23.79719],[90.333143,23.797232],[90.333084,23.797243],[90.333012,23.797261],[90.332923,23.797183]]]}},{"type":"Feature","properties":{"survey":"bds","sheet":"071","dag":"35084","label_bn":"35084","area_sqm":196.7},"geometry":{"type":"Polygon","coordinates":[[[90.332435,23.79741],[90.332445,23.797293],[90.332585,23.797293],[90.332586,23.797414],[90.332435,23.79741]]]}},{"type":"Feature","properties":{"survey":"bds","sheet":"071","dag":"35053","label_bn":"35053","area_sqm":202.5},"geometry":{"type":"Polygon","coordinates":[[[90.33309,23.796279],[90.333119,23.796159],[90.333262,23.796211],[90.333238,23.796271],[90.333218,23.796328],[90.33309,23.796279]]]}},{"type":"Feature","properties":{"survey":"bds","sheet":"071","dag":"35070","label_bn":"35070","area_sqm":214.5},"geometry":{"type":"Polygon","coordinates":[[[90.332575,23.79698],[90.332647,23.796905],[90.332671,23.796916],[90.332728,23.796968],[90.332764,23.797002],[90.332613,23.797095],[90.332575,23.79698]]]}},{"type":"Feature","properties":{"survey":"bds","sheet":"071","dag":"35023","label_bn":"35023","area_sqm":215.1},"geometry":{"type":"Polygon","coordinates":[[[90.332949,23.797276],[90.332976,23.797269],[90.333012,23.797261],[90.33302,23.797342],[90.333028,23.797425],[90.333034,23.797505],[90.332955,23.797549],[90.332949,23.797276]]]}},{"type":"Feature","properties":{"survey":"bds","sheet":"071","dag":"35044","label_bn":"35044","area_sqm":215.5},"geometry":{"type":"Polygon","coordinates":[[[90.332778,23.796762],[90.332799,23.796741],[90.332852,23.796788],[90.332894,23.796822],[90.332896,23.796823],[90.332976,23.796889],[90.333032,23.796934],[90.333096,23.796989],[90.333238,23.797115],[90.333334,23.797202],[90.333309,23.797207],[90.333211,23.797124],[90.333155,23.797076],[90.333114,23.797042],[90.332957,23.796911],[90.332933,23.796892],[90.332854,23.796827],[90.332778,23.796762]]]}},{"type":"Feature","properties":{"survey":"bds","sheet":"071","dag":"35104","label_bn":"35104","area_sqm":216.0},"geometry":{"type":"Polygon","coordinates":[[[90.331843,23.794939],[90.331864,23.79478],[90.331931,23.794803],[90.331992,23.794929],[90.331929,23.794985],[90.331844,23.794939],[90.331843,23.794939]]]}},{"type":"Feature","properties":{"survey":"bds","sheet":"071","dag":"35092","label_bn":"35092","area_sqm":225.6},"geometry":{"type":"Polygon","coordinates":[[[90.331995,23.797207],[90.332085,23.797087],[90.332179,23.797177],[90.332186,23.797184],[90.332081,23.797296],[90.331995,23.797207]]]}},{"type":"Feature","properties":{"survey":"bds","sheet":"071","dag":"35076","label_bn":"35076","area_sqm":256.4},"geometry":{"type":"Polygon","coordinates":[[[90.332157,23.79697],[90.332191,23.79692],[90.332372,23.796911],[90.332409,23.796909],[90.332446,23.796909],[90.33244,23.796914],[90.332255,23.797061],[90.332232,23.797041],[90.332157,23.79697]]]}},{"type":"Feature","properties":{"survey":"bds","sheet":"071","dag":"35029","label_bn":"35029","area_sqm":268.6},"geometry":{"type":"Polygon","coordinates":[[[90.332854,23.796981],[90.332902,23.796947],[90.332957,23.796911],[90.333114,23.797042],[90.333016,23.797108],[90.332997,23.797094],[90.332955,23.797057],[90.332854,23.796981]]]}},{"type":"Feature","properties":{"survey":"bds","sheet":"071","dag":"35075","label_bn":"35075","area_sqm":271.3},"geometry":{"type":"Polygon","coordinates":[[[90.332255,23.797061],[90.33244,23.796914],[90.332504,23.797002],[90.332468,23.797029],[90.332461,23.797029],[90.332337,23.797133],[90.332333,23.797133],[90.332255,23.797061]]]}},{"type":"Feature","properties":{"survey":"bds","sheet":"071","dag":"35011","label_bn":"35011","area_sqm":272.9},"geometry":{"type":"Polygon","coordinates":[[[90.332584,23.797149],[90.332585,23.797121],[90.332588,23.79711],[90.332613,23.797095],[90.332764,23.797002],[90.332765,23.797001],[90.332826,23.796961],[90.332827,23.796961],[90.332881,23.796925],[90.332933,23.796892],[90.332957,23.796911],[90.332902,23.796947],[90.332854,23.796981],[90.332801,23.797012],[90.332764,23.797036],[90.332733,23.797053],[90.332614,23.797127],[90.332614,23.797191],[90.332615,23.797285],[90.332614,23.797325],[90.332614,23.797327],[90.332614,23.797369],[90.332615,23.797453],[90.332615,23.797546],[90.332587,23.797546],[90.332586,23.797441],[90.332586,23.797414],[90.332585,23.797293],[90.332585,23.797221],[90.332584,23.797149]]]}},{"type":"Feature","properties":{"survey":"bds","sheet":"071","dag":"35081","label_bn":"35081","area_sqm":286.4},"geometry":{"type":"Polygon","coordinates":[[[90.332284,23.797275],[90.332357,23.797198],[90.33235,23.797162],[90.332417,23.797109],[90.332475,23.797063],[90.332527,23.797017],[90.332553,23.796998],[90.332579,23.79708],[90.33251,23.797136],[90.332455,23.797181],[90.332353,23.797266],[90.332313,23.7973],[90.33231,23.797299],[90.332284,23.797275]]]}},{"type":"Feature","properties":{"survey":"bds","sheet":"071","dag":"35022","label_bn":"35022","area_sqm":286.5},"geometry":{"type":"Polygon","coordinates":[[[90.332841,23.79735],[90.332841,23.797302],[90.332949,23.797276],[90.332955,23.797549],[90.332858,23.797549],[90.332859,23.797348],[90.332841,23.79735]]]}},{"type":"Feature","properties":{"survey":"bds","sheet":"071","dag":"35102","label_bn":"35102","area_sqm":293.5},"geometry":{"type":"Polygon","coordinates":[[[90.331593,23.795007],[90.331636,23.794863],[90.331636,23.794863],[90.331657,23.794873],[90.331752,23.794905],[90.331788,23.794919],[90.331843,23.794939],[90.331843,23.794939],[90.331788,23.794988],[90.331728,23.795043],[90.331689,23.795038],[90.331593,23.795007]]]}},{"type":"Feature","properties":{"survey":"bds","sheet":"071","dag":"35052","label_bn":"35052","area_sqm":295.0},"geometry":{"type":"Polygon","coordinates":[[[90.333025,23.796447],[90.333036,23.796421],[90.33309,23.796279],[90.333218,23.796328],[90.333165,23.796503],[90.333025,23.796447]]]}},{"type":"Feature","properties":{"survey":"bds","sheet":"071","dag":"35099","label_bn":"35099","area_sqm":312.3},"geometry":{"type":"Polygon","coordinates":[[[90.331656,23.795268],[90.331775,23.795072],[90.331813,23.795087],[90.331885,23.795135],[90.331848,23.79518],[90.331743,23.795328],[90.33171,23.795314],[90.33171,23.795314],[90.331656,23.795268]]]}},{"type":"Feature","properties":{"survey":"bds","sheet":"071","dag":"35103","label_bn":"35103","area_sqm":341.8},"geometry":{"type":"Polygon","coordinates":[[[90.331636,23.794863],[90.331696,23.794739],[90.331701,23.794727],[90.331834,23.794771],[90.331864,23.79478],[90.331843,23.794939],[90.331788,23.794919],[90.331752,23.794905],[90.331657,23.794873],[90.331636,23.794863],[90.331636,23.794863]]]}},{"type":"Feature","properties":{"survey":"bds","sheet":"071","dag":"35045","label_bn":"35045","area_sqm":383.1},"geometry":{"type":"Polygon","coordinates":[[[90.333032,23.796934],[90.333103,23.796854],[90.333151,23.796896],[90.333221,23.796958],[90.333302,23.797018],[90.333372,23.79707],[90.333238,23.797115],[90.333096,23.796989],[90.333032,23.796934]]]}},{"type":"Feature","properties":{"survey":"bds","sheet":"071","dag":"35004","label_bn":"35004","area_sqm":413.9},"geometry":{"type":"Polygon","coordinates":[[[90.331644,23.797296],[90.331755,23.797313],[90.331909,23.797328],[90.33192,23.797399],[90.331875,23.797423],[90.331838,23.797451],[90.331767,23.797506],[90.33176,23.797512],[90.33174,23.797529],[90.331679,23.797411],[90.331644,23.797296]]]}},{"type":"Feature","properties":{"survey":"bds","sheet":"071","dag":"35005","label_bn":"35005","area_sqm":460.6},"geometry":{"type":"Polygon","coordinates":[[[90.331909,23.797328],[90.331981,23.797226],[90.332091,23.797327],[90.33209,23.797531],[90.331936,23.7975],[90.331935,23.7975],[90.331931,23.797473],[90.33193,23.797469],[90.331923,23.797421],[90.33192,23.797399],[90.331909,23.797328]]]}},{"type":"Feature","properties":{"survey":"bds","sheet":"071","dag":"35003","label_bn":"35003","area_sqm":464.9},"geometry":{"type":"Polygon","coordinates":[[[90.331284,23.797469],[90.331306,23.797467],[90.331313,23.797468],[90.331381,23.797477],[90.331408,23.797482],[90.331418,23.797483],[90.331433,23.79749],[90.331459,23.797502],[90.33153,23.797558],[90.331601,23.797613],[90.331633,23.797634],[90.331666,23.797599],[90.3317,23.797567],[90.331733,23.797534],[90.33174,23.797529],[90.33176,23.797512],[90.331767,23.797506],[90.331838,23.797451],[90.331875,23.797423],[90.33192,23.797399],[90.331923,23.797421],[90.33193,23.797469],[90.331931,23.797473],[90.331861,23.797513],[90.33179,23.797557],[90.331763,23.797574],[90.331763,23.797574],[90.331761,23.797575],[90.331596,23.797693],[90.331581,23.797678],[90.331517,23.797619],[90.331451,23.797573],[90.331446,23.79757],[90.331428,23.79756],[90.331374,23.79753],[90.331329,23.797513],[90.331318,23.797509],[90.331302,23.797506],[90.3313,23.797498],[90.331291,23.797481],[90.331291,23.797481],[90.331284,23.797469]]]}},{"type":"Feature","properties":{"survey":"bds","sheet":"071","dag":"35094","label_bn":"35094","area_sqm":1790.0},"geometry":{"type":"Polygon","coordinates":[[[90.331091,23.797075],[90.331192,23.796993],[90.331296,23.79691],[90.331295,23.796858],[90.331295,23.796739],[90.331288,23.796628],[90.331289,23.796591],[90.33148,23.796791],[90.331426,23.796942],[90.331371,23.79716],[90.331408,23.797482],[90.331381,23.797477],[90.331313,23.797468],[90.331306,23.797467],[90.331284,23.797469],[90.331101,23.797139],[90.331091,23.797075]]]}},{"type":"Feature","properties":{"survey":"bds","sheet":"071","dag":"35097","label_bn":"35097","area_sqm":3927.3},"geometry":{"type":"Polygon","coordinates":[[[90.330164,23.794381],[90.330202,23.794319],[90.33029,23.794197],[90.330346,23.794246],[90.330517,23.794396],[90.330668,23.794528],[90.330976,23.794752],[90.331123,23.794772],[90.330697,23.795053],[90.330571,23.794966],[90.330429,23.794876],[90.330412,23.794865],[90.330328,23.794791],[90.330311,23.794768],[90.330271,23.79467],[90.330236,23.794564],[90.330164,23.794381]]]}},{"type":"Feature","properties":{"survey":"bds","sheet":"071","dag":"35098","label_bn":"35098","area_sqm":4593.3},"geometry":{"type":"Polygon","coordinates":[[[90.33128,23.795436],[90.331308,23.795122],[90.331541,23.794515],[90.331608,23.794696],[90.331701,23.794727],[90.331696,23.794739],[90.331636,23.794863],[90.331593,23.795007],[90.331689,23.795038],[90.331728,23.795043],[90.331775,23.795072],[90.331656,23.795268],[90.33171,23.795314],[90.33171,23.795314],[90.331743,23.795328],[90.331722,23.795357],[90.331705,23.795388],[90.331607,23.795559],[90.331495,23.795716],[90.331378,23.795858],[90.331454,23.795893],[90.331569,23.795918],[90.331567,23.795924],[90.331481,23.796089],[90.331291,23.796055],[90.331308,23.795742],[90.33128,23.795436]]]}},{"type":"Feature","properties":{"survey":"bds","sheet":"071","dag":"35095","label_bn":"35095","area_sqm":5749.2},"geometry":{"type":"Polygon","coordinates":[[[90.330874,23.795981],[90.331291,23.796055],[90.331481,23.796089],[90.331567,23.795924],[90.331569,23.795918],[90.331674,23.795942],[90.331689,23.795949],[90.331902,23.796051],[90.331978,23.796083],[90.332038,23.796109],[90.332108,23.796155],[90.332109,23.796167],[90.332122,23.796291],[90.332126,23.796326],[90.332107,23.796328],[90.332057,23.796332],[90.332066,23.796425],[90.332055,23.796452],[90.33192,23.796467],[90.331738,23.796493],[90.33153,23.796695],[90.33148,23.796791],[90.331289,23.796591],[90.33129,23.796533],[90.331309,23.796358],[90.331218,23.796297],[90.33111,23.796214],[90.331064,23.796173],[90.331011,23.79619],[90.330874,23.795981]]]}},{"type":"Feature","properties":{"survey":"bds","sheet":"071","dag":"35093","label_bn":"35093","area_sqm":6494.8},"geometry":{"type":"Polygon","coordinates":[[[90.331371,23.79716],[90.331426,23.796942],[90.33148,23.796791],[90.33153,23.796695],[90.331738,23.796493],[90.33192,23.796467],[90.332055,23.796452],[90.332066,23.796425],[90.332079,23.796547],[90.33208,23.796641],[90.332097,23.796771],[90.332099,23.796861],[90.332104,23.796868],[90.332124,23.7969],[90.332172,23.796921],[90.332191,23.79692],[90.332157,23.79697],[90.332142,23.796994],[90.332081,23.797083],[90.332085,23.797087],[90.331995,23.797207],[90.331981,23.797226],[90.331909,23.797328],[90.331755,23.797313],[90.331644,23.797296],[90.331679,23.797411],[90.33174,23.797529],[90.331733,23.797534],[90.3317,23.797567],[90.331666,23.797599],[90.331633,23.797634],[90.331601,23.797613],[90.33153,23.797558],[90.331459,23.797502],[90.331433,23.79749],[90.331418,23.797483],[90.331408,23.797482],[90.331371,23.79716]]]}},{"type":"Feature","properties":{"survey":"bds","sheet":"071","dag":"35096","label_bn":"35096","area_sqm":8767.9},"geometry":{"type":"Polygon","coordinates":[[[90.330678,23.795361],[90.330683,23.795216],[90.330697,23.795053],[90.331123,23.794772],[90.331207,23.794508],[90.331541,23.794515],[90.331308,23.795122],[90.33128,23.795436],[90.331308,23.795742],[90.331291,23.796055],[90.330874,23.795981],[90.330847,23.795938],[90.330711,23.79573],[90.330699,23.795605],[90.330692,23.795487],[90.33069,23.795464],[90.330678,23.795361]]]}}]}