{"type":"FeatureCollection","features":[{"type":"Feature","properties":{"survey":"bds","sheet":"072","dag":"35543","label_bn":"35543","area_sqm":36.5},"geometry":{"type":"Polygon","coordinates":[[[90.329352,23.799756],[90.329399,23.79974],[90.329428,23.799798],[90.32938,23.799814],[90.329352,23.799756]]]}},{"type":"Feature","properties":{"survey":"bds","sheet":"072","dag":"35540","label_bn":"35540","area_sqm":36.7},"geometry":{"type":"Polygon","coordinates":[[[90.32921,23.799625],[90.329257,23.799613],[90.329284,23.799674],[90.329237,23.799687],[90.32921,23.799625]]]}},{"type":"Feature","properties":{"survey":"bds","sheet":"072","dag":"35534","label_bn":"35534","area_sqm":37.0},"geometry":{"type":"Polygon","coordinates":[[[90.329115,23.799652],[90.329162,23.799639],[90.32919,23.7997],[90.329143,23.799714],[90.329115,23.799652]]]}},{"type":"Feature","properties":{"survey":"bds","sheet":"072","dag":"35539","label_bn":"35539","area_sqm":37.4},"geometry":{"type":"Polygon","coordinates":[[[90.329162,23.799639],[90.32921,23.799625],[90.329237,23.799687],[90.32919,23.7997],[90.329162,23.799639]]]}},{"type":"Feature","properties":{"survey":"bds","sheet":"072","dag":"35533","label_bn":"35533","area_sqm":37.9},"geometry":{"type":"Polygon","coordinates":[[[90.329064,23.799667],[90.329115,23.799652],[90.329143,23.799714],[90.329094,23.799725],[90.329064,23.799667]]]}},{"type":"Feature","properties":{"survey":"bds","sheet":"072","dag":"35542","label_bn":"35542","area_sqm":38.1},"geometry":{"type":"Polygon","coordinates":[[[90.32938,23.799814],[90.329428,23.799798],[90.329458,23.799857],[90.329409,23.799873],[90.32938,23.799814]]]}},{"type":"Feature","properties":{"survey":"bds","sheet":"072","dag":"35545","label_bn":"35545","area_sqm":39.7},"geometry":{"type":"Polygon","coordinates":[[[90.329448,23.799724],[90.329472,23.799716],[90.329503,23.799773],[90.329534,23.799832],[90.329507,23.799841],[90.329448,23.799724]]]}},{"type":"Feature","properties":{"survey":"bds","sheet":"072","dag":"35546","label_bn":"35546","area_sqm":40.7},"geometry":{"type":"Polygon","coordinates":[[[90.329503,23.799773],[90.329556,23.799755],[90.329584,23.799815],[90.329534,23.799832],[90.329503,23.799773]]]}},{"type":"Feature","properties":{"survey":"bds","sheet":"072","dag":"35547","label_bn":"35547","area_sqm":41.4},"geometry":{"type":"Polygon","coordinates":[[[90.329472,23.799716],[90.329527,23.799696],[90.329532,23.799706],[90.329556,23.799755],[90.329503,23.799773],[90.329472,23.799716]]]}},{"type":"Feature","properties":{"survey":"bds","sheet":"072","dag":"35570","label_bn":"35570","area_sqm":41.5},"geometry":{"type":"Polygon","coordinates":[[[90.329597,23.79937],[90.329602,23.799367],[90.329603,23.799366],[90.329638,23.799348],[90.329672,23.799329],[90.32968,23.799325],[90.329712,23.799308],[90.329659,23.7994],[90.329651,23.799396],[90.329597,23.79937]]]}},{"type":"Feature","properties":{"survey":"bds","sheet":"072","dag":"35555","label_bn":"35555","area_sqm":42.5},"geometry":{"type":"Polygon","coordinates":[[[90.329527,23.799696],[90.329553,23.799635],[90.329606,23.799567],[90.329633,23.799578],[90.329571,23.799657],[90.329532,23.799706],[90.329527,23.799696]]]}},{"type":"Feature","properties":{"survey":"bds","sheet":"072","dag":"35552","label_bn":"35552","area_sqm":48.0},"geometry":{"type":"Polygon","coordinates":[[[90.329236,23.799489],[90.3293,23.799476],[90.329307,23.799474],[90.329314,23.799472],[90.329335,23.799518],[90.329259,23.799542],[90.329236,23.799489]]]}},{"type":"Feature","properties":{"survey":"bds","sheet":"072","dag":"35513","label_bn":"35513","area_sqm":54.2},"geometry":{"type":"Polygon","coordinates":[[[90.328912,23.799549],[90.328939,23.799543],[90.328987,23.799533],[90.32899,23.799532],[90.328995,23.799531],[90.329021,23.799581],[90.328939,23.799602],[90.328912,23.799549]]]}},{"type":"Feature","properties":{"survey":"bds","sheet":"072","dag":"35514","label_bn":"35514","area_sqm":55.1},"geometry":{"type":"Polygon","coordinates":[[[90.328939,23.799602],[90.329021,23.799581],[90.329034,23.799607],[90.329045,23.799629],[90.328967,23.799659],[90.328939,23.799602]]]}},{"type":"Feature","properties":{"survey":"bds","sheet":"072","dag":"35532","label_bn":"35532","area_sqm":58.7},"geometry":{"type":"Polygon","coordinates":[[[90.329094,23.799725],[90.329143,23.799714],[90.32919,23.7997],[90.329237,23.799687],[90.329284,23.799674],[90.329296,23.799699],[90.329203,23.799724],[90.329106,23.79975],[90.329094,23.799725]]]}},{"type":"Feature","properties":{"survey":"bds","sheet":"072","dag":"35512","label_bn":"35512","area_sqm":61.6},"geometry":{"type":"Polygon","coordinates":[[[90.328828,23.799573],[90.32886,23.799564],[90.328903,23.79955],[90.328904,23.79955],[90.328912,23.799549],[90.328939,23.799602],[90.328858,23.799632],[90.328849,23.799614],[90.328828,23.799573]]]}},{"type":"Feature","properties":{"survey":"bds","sheet":"072","dag":"35537","label_bn":"35537","area_sqm":67.2},"geometry":{"type":"Polygon","coordinates":[[[90.329112,23.799513],[90.329136,23.79951],[90.329196,23.799497],[90.329204,23.799496],[90.329228,23.79955],[90.329135,23.799577],[90.329112,23.799513]]]}},{"type":"Feature","properties":{"survey":"bds","sheet":"072","dag":"35529","label_bn":"35529","area_sqm":71.2},"geometry":{"type":"Polygon","coordinates":[[[90.329231,23.799793],[90.329329,23.799769],[90.329353,23.799821],[90.329264,23.799857],[90.329231,23.799793]]]}},{"type":"Feature","properties":{"survey":"bds","sheet":"072","dag":"35550","label_bn":"35550","area_sqm":72.0},"geometry":{"type":"Polygon","coordinates":[[[90.329291,23.799616],[90.32937,23.799592],[90.329389,23.799631],[90.329403,23.79966],[90.32932,23.799686],[90.329291,23.799616]]]}},{"type":"Feature","properties":{"survey":"bds","sheet":"072","dag":"35528","label_bn":"35528","area_sqm":74.4},"geometry":{"type":"Polygon","coordinates":[[[90.329264,23.799857],[90.329353,23.799821],[90.329383,23.79988],[90.329371,23.799886],[90.329296,23.79992],[90.329264,23.799857]]]}},{"type":"Feature","properties":{"survey":"bds","sheet":"072","dag":"35551","label_bn":"35551","area_sqm":74.4},"geometry":{"type":"Polygon","coordinates":[[[90.329259,23.799542],[90.329335,23.799518],[90.32937,23.799592],[90.329291,23.799616],[90.329259,23.799542]]]}},{"type":"Feature","properties":{"survey":"bds","sheet":"072","dag":"35521","label_bn":"35521","area_sqm":74.6},"geometry":{"type":"Polygon","coordinates":[[[90.329221,23.79998],[90.329282,23.799957],[90.329326,23.800045],[90.329267,23.800073],[90.329221,23.79998]]]}},{"type":"Feature","properties":{"survey":"bds","sheet":"072","dag":"35549","label_bn":"35549","area_sqm":74.7},"geometry":{"type":"Polygon","coordinates":[[[90.32932,23.799686],[90.329403,23.79966],[90.329435,23.799728],[90.329399,23.79974],[90.329352,23.799756],[90.32932,23.799686]]]}},{"type":"Feature","properties":{"survey":"bds","sheet":"072","dag":"35538","label_bn":"35538","area_sqm":74.7},"geometry":{"type":"Polygon","coordinates":[[[90.329135,23.799577],[90.329228,23.79955],[90.329257,23.799613],[90.32921,23.799625],[90.329162,23.799639],[90.329135,23.799577],[90.329135,23.799577]]]}},{"type":"Feature","properties":{"survey":"bds","sheet":"072","dag":"35544","label_bn":"35544","area_sqm":75.4},"geometry":{"type":"Polygon","coordinates":[[[90.329399,23.79974],[90.329435,23.799728],[90.329448,23.799724],[90.329507,23.799841],[90.329458,23.799857],[90.329428,23.799798],[90.329399,23.79974]]]}},{"type":"Feature","properties":{"survey":"bds","sheet":"072","dag":"35535","label_bn":"35535","area_sqm":78.1},"geometry":{"type":"Polygon","coordinates":[[[90.329034,23.799607],[90.329135,23.799577],[90.329135,23.799577],[90.329162,23.799639],[90.329115,23.799652],[90.329064,23.799667],[90.329045,23.799629],[90.329034,23.799607]]]}},{"type":"Feature","properties":{"survey":"bds","sheet":"072","dag":"35531","label_bn":"35531","area_sqm":79.3},"geometry":{"type":"Polygon","coordinates":[[[90.329106,23.79975],[90.329203,23.799724],[90.329231,23.799793],[90.329136,23.799814],[90.329134,23.799806],[90.329106,23.79975]]]}},{"type":"Feature","properties":{"survey":"bds","sheet":"072","dag":"35530","label_bn":"35530","area_sqm":84.1},"geometry":{"type":"Polygon","coordinates":[[[90.329203,23.799724],[90.329296,23.799699],[90.329329,23.799769],[90.329231,23.799793],[90.329203,23.799724]]]}},{"type":"Feature","properties":{"survey":"bds","sheet":"072","dag":"35511","label_bn":"35511","area_sqm":86.4},"geometry":{"type":"Polygon","coordinates":[[[90.328676,23.799657],[90.328684,23.799647],[90.328698,23.799634],[90.32872,23.799621],[90.328742,23.799609],[90.328779,23.799593],[90.328816,23.799577],[90.32882,23.799576],[90.328828,23.799573],[90.328849,23.799614],[90.328693,23.799682],[90.328676,23.799657]]]}},{"type":"Feature","properties":{"survey":"bds","sheet":"072","dag":"35524","label_bn":"35524","area_sqm":88.2},"geometry":{"type":"Polygon","coordinates":[[[90.329438,23.799995],[90.329552,23.799945],[90.329557,23.799961],[90.329549,23.799988],[90.329543,23.800004],[90.329538,23.800017],[90.329512,23.80006],[90.32949,23.800075],[90.329438,23.799995]]]}},{"type":"Feature","properties":{"survey":"bds","sheet":"072","dag":"35569","label_bn":"35569","area_sqm":91.6},"geometry":{"type":"Polygon","coordinates":[[[90.329548,23.7994],[90.329562,23.799391],[90.32958,23.79938],[90.329592,23.799373],[90.329597,23.79937],[90.329651,23.799396],[90.329596,23.799525],[90.329565,23.799448],[90.329548,23.7994]]]}},{"type":"Feature","properties":{"survey":"bds","sheet":"072","dag":"35536","label_bn":"35536","area_sqm":96.1},"geometry":{"type":"Polygon","coordinates":[[[90.328995,23.799531],[90.329041,23.799522],[90.329089,23.799516],[90.329103,23.799514],[90.329112,23.799513],[90.329135,23.799577],[90.329034,23.799607],[90.329021,23.799581],[90.328995,23.799531]]]}},{"type":"Feature","properties":{"survey":"bds","sheet":"072","dag":"35522","label_bn":"35522","area_sqm":98.3},"geometry":{"type":"Polygon","coordinates":[[[90.329282,23.799957],[90.329379,23.79992],[90.329397,23.800013],[90.329368,23.800026],[90.32934,23.800039],[90.329326,23.800045],[90.329282,23.799957]]]}},{"type":"Feature","properties":{"survey":"bds","sheet":"072","dag":"35515","label_bn":"35515","area_sqm":102.2},"geometry":{"type":"Polygon","coordinates":[[[90.328967,23.799659],[90.329045,23.799629],[90.329064,23.799667],[90.329094,23.799725],[90.329015,23.799756],[90.328967,23.799659]]]}},{"type":"Feature","properties":{"survey":"bds","sheet":"072","dag":"35575","label_bn":"35575","area_sqm":109.4},"geometry":{"type":"Polygon","coordinates":[[[90.330077,23.799789],[90.330131,23.799659],[90.330191,23.799694],[90.330136,23.799824],[90.330077,23.799789]]]}},{"type":"Feature","properties":{"survey":"bds","sheet":"072","dag":"35541","label_bn":"35541","area_sqm":136.8},"geometry":{"type":"Polygon","coordinates":[[[90.329204,23.799496],[90.329218,23.799493],[90.329229,23.799491],[90.329236,23.799489],[90.329259,23.799542],[90.329291,23.799616],[90.32932,23.799686],[90.329352,23.799756],[90.32938,23.799814],[90.329409,23.799873],[90.329383,23.79988],[90.329353,23.799821],[90.329329,23.799769],[90.329296,23.799699],[90.329284,23.799674],[90.329257,23.799613],[90.329228,23.79955],[90.329204,23.799496]]]}},{"type":"Feature","properties":{"survey":"bds","sheet":"072","dag":"35504","label_bn":"35504","area_sqm":140.9},"geometry":{"type":"Polygon","coordinates":[[[90.328733,23.800175],[90.328866,23.800108],[90.328916,23.800184],[90.32878,23.80024],[90.328737,23.80018],[90.328733,23.800175]]]}},{"type":"Feature","properties":{"survey":"bds","sheet":"072","dag":"35577","label_bn":"35577","area_sqm":141.0},"geometry":{"type":"Polygon","coordinates":[[[90.330217,23.79987],[90.330269,23.799741],[90.330313,23.799767],[90.330348,23.799787],[90.330296,23.799914],[90.330217,23.79987]]]}},{"type":"Feature","properties":{"survey":"bds","sheet":"072","dag":"35560","label_bn":"35560","area_sqm":142.4},"geometry":{"type":"Polygon","coordinates":[[[90.329865,23.799994],[90.329918,23.799888],[90.330004,23.799932],[90.33001,23.799935],[90.329949,23.800049],[90.329865,23.799994]]]}},{"type":"Feature","properties":{"survey":"bds","sheet":"072","dag":"35561","label_bn":"35561","area_sqm":142.5},"geometry":{"type":"Polygon","coordinates":[[[90.329949,23.800049],[90.33001,23.799935],[90.330012,23.799936],[90.330093,23.799979],[90.330027,23.800101],[90.329952,23.800051],[90.329949,23.800049]]]}},{"type":"Feature","properties":{"survey":"bds","sheet":"072","dag":"35574","label_bn":"35574","area_sqm":142.7},"geometry":{"type":"Polygon","coordinates":[[[90.33,23.799742],[90.330053,23.799613],[90.330131,23.799659],[90.330077,23.799789],[90.33,23.799742]]]}},{"type":"Feature","properties":{"survey":"bds","sheet":"072","dag":"35563","label_bn":"35563","area_sqm":143.1},"geometry":{"type":"Polygon","coordinates":[[[90.330115,23.799992],[90.330179,23.799887],[90.330266,23.799937],[90.3302,23.800046],[90.330191,23.800041],[90.330115,23.799992]]]}},{"type":"Feature","properties":{"survey":"bds","sheet":"072","dag":"35572","label_bn":"35572","area_sqm":143.7},"geometry":{"type":"Polygon","coordinates":[[[90.329681,23.799565],[90.329733,23.799435],[90.329758,23.799448],[90.329814,23.799478],[90.329763,23.799606],[90.329681,23.799565]]]}},{"type":"Feature","properties":{"survey":"bds","sheet":"072","dag":"35576","label_bn":"35576","area_sqm":144.9},"geometry":{"type":"Polygon","coordinates":[[[90.330136,23.799824],[90.330191,23.799694],[90.330231,23.799719],[90.330235,23.799721],[90.330269,23.799741],[90.330217,23.79987],[90.330136,23.799824]]]}},{"type":"Feature","properties":{"survey":"bds","sheet":"072","dag":"35571","label_bn":"35571","area_sqm":147.0},"geometry":{"type":"Polygon","coordinates":[[[90.329596,23.799525],[90.329651,23.799396],[90.329659,23.7994],[90.329733,23.799435],[90.329681,23.799565],[90.329596,23.799525]]]}},{"type":"Feature","properties":{"survey":"bds","sheet":"072","dag":"35586","label_bn":"35586","area_sqm":149.2},"geometry":{"type":"Polygon","coordinates":[[[90.33011,23.799439],[90.330193,23.799321],[90.330267,23.799367],[90.330272,23.799369],[90.33019,23.799486],[90.33011,23.799439]]]}},{"type":"Feature","properties":{"survey":"bds","sheet":"072","dag":"35565","label_bn":"35565","area_sqm":149.7},"geometry":{"type":"Polygon","coordinates":[[[90.329918,23.799888],[90.329979,23.799769],[90.33007,23.799823],[90.330004,23.799932],[90.329918,23.799888]]]}},{"type":"Feature","properties":{"survey":"bds","sheet":"072","dag":"35580","label_bn":"35580","area_sqm":149.9},"geometry":{"type":"Polygon","coordinates":[[[90.330231,23.799719],[90.330308,23.799597],[90.330311,23.799599],[90.330385,23.799648],[90.330313,23.799767],[90.330269,23.799741],[90.330235,23.799721],[90.330231,23.799719]]]}},{"type":"Feature","properties":{"survey":"bds","sheet":"072","dag":"35508","label_bn":"35508","area_sqm":154.6},"geometry":{"type":"Polygon","coordinates":[[[90.328798,23.799843],[90.328907,23.799797],[90.328957,23.799876],[90.328967,23.799895],[90.328859,23.799942],[90.328798,23.799843]]]}},{"type":"Feature","properties":{"survey":"bds","sheet":"072","dag":"35507","label_bn":"35507","area_sqm":154.8},"geometry":{"type":"Polygon","coordinates":[[[90.328859,23.799942],[90.328967,23.799895],[90.32901,23.799963],[90.329029,23.799993],[90.328919,23.800041],[90.328859,23.799942]]]}},{"type":"Feature","properties":{"survey":"bds","sheet":"072","dag":"35559","label_bn":"35559","area_sqm":160.0},"geometry":{"type":"Polygon","coordinates":[[[90.329762,23.799934],[90.32983,23.799824],[90.329918,23.799888],[90.329865,23.799994],[90.329762,23.799934]]]}},{"type":"Feature","properties":{"survey":"bds","sheet":"072","dag":"35506","label_bn":"35506","area_sqm":160.5},"geometry":{"type":"Polygon","coordinates":[[[90.328919,23.800041],[90.329029,23.799993],[90.329064,23.800049],[90.329091,23.800094],[90.32901,23.80013],[90.328994,23.800137],[90.328981,23.800142],[90.328919,23.800041]]]}},{"type":"Feature","properties":{"survey":"bds","sheet":"072","dag":"35519","label_bn":"35519","area_sqm":164.2},"geometry":{"type":"Polygon","coordinates":[[[90.32901,23.799963],[90.32915,23.799905],[90.329194,23.799993],[90.329064,23.800049],[90.329029,23.799993],[90.32901,23.799963]]]}},{"type":"Feature","properties":{"survey":"bds","sheet":"072","dag":"35548","label_bn":"35548","area_sqm":164.6},"geometry":{"type":"Polygon","coordinates":[[[90.329389,23.799631],[90.329475,23.799582],[90.329553,23.799635],[90.329527,23.799696],[90.329472,23.799716],[90.329448,23.799724],[90.329435,23.799728],[90.329403,23.79966],[90.329389,23.799631]]]}},{"type":"Feature","properties":{"survey":"bds","sheet":"072","dag":"35527","label_bn":"35527","area_sqm":164.7},"geometry":{"type":"Polygon","coordinates":[[[90.329136,23.799814],[90.329231,23.799793],[90.329264,23.799857],[90.329296,23.79992],[90.329208,23.799959],[90.329136,23.799814]]]}},{"type":"Feature","properties":{"survey":"bds","sheet":"072","dag":"35509","label_bn":"35509","area_sqm":165.1},"geometry":{"type":"Polygon","coordinates":[[[90.328747,23.799761],[90.328891,23.799699],[90.328933,23.799785],[90.328907,23.799797],[90.328798,23.799843],[90.328747,23.799761]]]}},{"type":"Feature","properties":{"survey":"bds","sheet":"072","dag":"35516","label_bn":"35516","area_sqm":165.9},"geometry":{"type":"Polygon","coordinates":[[[90.328858,23.799632],[90.328939,23.799602],[90.328967,23.799659],[90.329015,23.799756],[90.328933,23.799785],[90.328891,23.799699],[90.328858,23.799632]]]}},{"type":"Feature","properties":{"survey":"bds","sheet":"072","dag":"35566","label_bn":"35566","area_sqm":169.0},"geometry":{"type":"Polygon","coordinates":[[[90.329819,23.799815],[90.32988,23.799713],[90.329979,23.799769],[90.329918,23.799888],[90.32983,23.799824],[90.329819,23.799815]]]}},{"type":"Feature","properties":{"survey":"bds","sheet":"072","dag":"35557","label_bn":"35557","area_sqm":170.2},"geometry":{"type":"Polygon","coordinates":[[[90.329532,23.799706],[90.329571,23.799657],[90.329689,23.799774],[90.329638,23.799853],[90.329584,23.799815],[90.329556,23.799755],[90.329532,23.799706]]]}},{"type":"Feature","properties":{"survey":"bds","sheet":"072","dag":"35587","label_bn":"35587","area_sqm":173.4},"geometry":{"type":"Polygon","coordinates":[[[90.33019,23.799486],[90.330272,23.799369],[90.330275,23.799372],[90.33036,23.799424],[90.330288,23.799543],[90.33019,23.799486]]]}},{"type":"Feature","properties":{"survey":"bds","sheet":"072","dag":"35510","label_bn":"35510","area_sqm":175.1},"geometry":{"type":"Polygon","coordinates":[[[90.328693,23.799682],[90.328849,23.799614],[90.328858,23.799632],[90.328891,23.799699],[90.328747,23.799761],[90.328693,23.799682]]]}},{"type":"Feature","properties":{"survey":"bds","sheet":"072","dag":"35518","label_bn":"35518","area_sqm":175.8},"geometry":{"type":"Polygon","coordinates":[[[90.328957,23.799876],[90.329105,23.799817],[90.32915,23.799905],[90.32901,23.799963],[90.328967,23.799895],[90.328957,23.799876]]]}},{"type":"Feature","properties":{"survey":"bds","sheet":"072","dag":"35579","label_bn":"35579","area_sqm":176.9},"geometry":{"type":"Polygon","coordinates":[[[90.330313,23.799767],[90.330385,23.799648],[90.330482,23.799702],[90.33041,23.799822],[90.330348,23.799787],[90.330313,23.799767]]]}},{"type":"Feature","properties":{"survey":"bds","sheet":"072","dag":"35567","label_bn":"35567","area_sqm":177.7},"geometry":{"type":"Polygon","coordinates":[[[90.329706,23.799743],[90.329764,23.799644],[90.32988,23.799713],[90.329819,23.799815],[90.329796,23.7998],[90.329708,23.799744],[90.329706,23.799743]]]}},{"type":"Feature","properties":{"survey":"bds","sheet":"072","dag":"35564","label_bn":"35564","area_sqm":178.2},"geometry":{"type":"Polygon","coordinates":[[[90.330004,23.799932],[90.33007,23.799823],[90.330179,23.799887],[90.330115,23.799992],[90.3301,23.799983],[90.330093,23.799979],[90.330012,23.799936],[90.33001,23.799935],[90.330004,23.799932]]]}},{"type":"Feature","properties":{"survey":"bds","sheet":"072","dag":"35588","label_bn":"35588","area_sqm":183.3},"geometry":{"type":"Polygon","coordinates":[[[90.330288,23.799543],[90.33036,23.799424],[90.330423,23.799463],[90.330459,23.799487],[90.330457,23.799489],[90.330383,23.799605],[90.330288,23.799543]]]}},{"type":"Feature","properties":{"survey":"bds","sheet":"072","dag":"35581","label_bn":"35581","area_sqm":185.0},"geometry":{"type":"Polygon","coordinates":[[[90.330131,23.799659],[90.330217,23.799539],[90.330308,23.799597],[90.330231,23.799719],[90.330191,23.799694],[90.330131,23.799659]]]}},{"type":"Feature","properties":{"survey":"bds","sheet":"072","dag":"35583","label_bn":"35583","area_sqm":187.8},"geometry":{"type":"Polygon","coordinates":[[[90.329659,23.7994],[90.329712,23.799308],[90.32972,23.799303],[90.329768,23.799277],[90.329768,23.799277],[90.329838,23.799318],[90.329758,23.799448],[90.329733,23.799435],[90.329659,23.7994]]]}},{"type":"Feature","properties":{"survey":"bds","sheet":"072","dag":"35523","label_bn":"35523","area_sqm":188.7},"geometry":{"type":"Polygon","coordinates":[[[90.329379,23.79992],[90.329577,23.799846],[90.329552,23.799945],[90.329438,23.799995],[90.329406,23.800009],[90.329397,23.800013],[90.329379,23.79992]]]}},{"type":"Feature","properties":{"survey":"bds","sheet":"072","dag":"35562","label_bn":"35562","area_sqm":192.9},"geometry":{"type":"Polygon","coordinates":[[[90.330022,23.80011],[90.330027,23.800101],[90.330093,23.799979],[90.3301,23.799983],[90.330115,23.799992],[90.330191,23.800041],[90.330174,23.800069],[90.330153,23.800106],[90.330115,23.800172],[90.330022,23.80011]]]}},{"type":"Feature","properties":{"survey":"bds","sheet":"072","dag":"35526","label_bn":"35526","area_sqm":197.5},"geometry":{"type":"Polygon","coordinates":[[[90.329105,23.799817],[90.329134,23.799806],[90.329136,23.799814],[90.329208,23.799959],[90.329296,23.79992],[90.329371,23.799886],[90.329383,23.79988],[90.329409,23.799873],[90.329458,23.799857],[90.329507,23.799841],[90.329534,23.799832],[90.329584,23.799815],[90.329577,23.799846],[90.329379,23.79992],[90.329282,23.799957],[90.329221,23.79998],[90.329194,23.799993],[90.32915,23.799905],[90.329105,23.799817]]]}},{"type":"Feature","properties":{"survey":"bds","sheet":"072","dag":"35520","label_bn":"35520","area_sqm":199.7},"geometry":{"type":"Polygon","coordinates":[[[90.329064,23.800049],[90.329194,23.799993],[90.329221,23.79998],[90.329267,23.800073],[90.329217,23.800095],[90.329166,23.80012],[90.329151,23.800128],[90.32912,23.800144],[90.3291,23.80011],[90.329092,23.800096],[90.329091,23.800094],[90.329064,23.800049]]]}},{"type":"Feature","properties":{"survey":"bds","sheet":"072","dag":"35517","label_bn":"35517","area_sqm":201.4},"geometry":{"type":"Polygon","coordinates":[[[90.328907,23.799797],[90.328933,23.799785],[90.329015,23.799756],[90.329094,23.799725],[90.329106,23.79975],[90.329134,23.799806],[90.329105,23.799817],[90.328957,23.799876],[90.328907,23.799797]]]}},{"type":"Feature","properties":{"survey":"bds","sheet":"072","dag":"35589","label_bn":"35589","area_sqm":214.5},"geometry":{"type":"Polygon","coordinates":[[[90.330383,23.799605],[90.330457,23.799489],[90.330486,23.799504],[90.330487,23.799504],[90.330577,23.799557],[90.330503,23.799673],[90.330383,23.799605]]]}},{"type":"Feature","properties":{"survey":"bds","sheet":"072","dag":"35503","label_bn":"35503","area_sqm":216.8},"geometry":{"type":"Polygon","coordinates":[[[90.328653,23.800097],[90.328806,23.800015],[90.328866,23.800108],[90.328733,23.800175],[90.328703,23.800186],[90.328653,23.800097]]]}},{"type":"Feature","properties":{"survey":"bds","sheet":"072","dag":"35556","label_bn":"35556","area_sqm":218.0},"geometry":{"type":"Polygon","coordinates":[[[90.329571,23.799657],[90.329633,23.799578],[90.329764,23.799644],[90.329706,23.799743],[90.329708,23.799744],[90.329689,23.799774],[90.329571,23.799657]]]}},{"type":"Feature","properties":{"survey":"bds","sheet":"072","dag":"35558","label_bn":"35558","area_sqm":218.5},"geometry":{"type":"Polygon","coordinates":[[[90.329638,23.799853],[90.329689,23.799774],[90.329708,23.799744],[90.329796,23.7998],[90.329819,23.799815],[90.32983,23.799824],[90.329762,23.799934],[90.329732,23.799917],[90.329638,23.799853]]]}},{"type":"Feature","properties":{"survey":"bds","sheet":"072","dag":"35585","label_bn":"35585","area_sqm":272.7},"geometry":{"type":"Polygon","coordinates":[[[90.329942,23.799341],[90.330031,23.799283],[90.33008,23.799251],[90.330193,23.799321],[90.33011,23.799439],[90.329942,23.799341]]]}},{"type":"Feature","properties":{"survey":"bds","sheet":"072","dag":"35525","label_bn":"35525","area_sqm":308.4},"geometry":{"type":"Polygon","coordinates":[[[90.32949,23.800075],[90.329512,23.80006],[90.329538,23.800017],[90.329543,23.800004],[90.329549,23.799988],[90.329557,23.799961],[90.329552,23.799945],[90.329577,23.799846],[90.329584,23.799815],[90.329638,23.799853],[90.329732,23.799917],[90.329762,23.799934],[90.329865,23.799994],[90.329949,23.800049],[90.329952,23.800051],[90.330027,23.800101],[90.330022,23.80011],[90.330115,23.800172],[90.330117,23.8002],[90.330036,23.800149],[90.330008,23.800131],[90.330003,23.800127],[90.329982,23.800114],[90.329877,23.800042],[90.329741,23.799955],[90.329718,23.799938],[90.329614,23.799875],[90.329583,23.799961],[90.329549,23.800054],[90.329497,23.800109],[90.32949,23.800075]]]}},{"type":"Feature","properties":{"survey":"bds","sheet":"072","dag":"35584","label_bn":"35584","area_sqm":312.4},"geometry":{"type":"Polygon","coordinates":[[[90.329768,23.799277],[90.329773,23.799274],[90.329786,23.799267],[90.329799,23.799258],[90.329913,23.799324],[90.329942,23.799341],[90.33011,23.799439],[90.33019,23.799486],[90.330288,23.799543],[90.330383,23.799605],[90.330503,23.799673],[90.330482,23.799702],[90.330385,23.799648],[90.330311,23.799599],[90.330308,23.799597],[90.330217,23.799539],[90.329838,23.799318],[90.329768,23.799277]]]}},{"type":"Feature","properties":{"survey":"bds","sheet":"072","dag":"35578","label_bn":"35578","area_sqm":404.4},"geometry":{"type":"Polygon","coordinates":[[[90.330296,23.799914],[90.330348,23.799787],[90.33041,23.799822],[90.330578,23.799921],[90.330529,23.800045],[90.330304,23.799919],[90.330296,23.799914]]]}},{"type":"Feature","properties":{"survey":"bds","sheet":"072","dag":"35554","label_bn":"35554","area_sqm":420.4},"geometry":{"type":"Polygon","coordinates":[[[90.329314,23.799472],[90.32934,23.799465],[90.329379,23.799455],[90.329457,23.799434],[90.329517,23.799412],[90.329533,23.799461],[90.329567,23.799542],[90.329606,23.799567],[90.329553,23.799635],[90.329475,23.799582],[90.329389,23.799631],[90.32937,23.799592],[90.329335,23.799518],[90.329314,23.799472]]]}},{"type":"Feature","properties":{"survey":"bds","sheet":"072","dag":"35573","label_bn":"35573","area_sqm":426.4},"geometry":{"type":"Polygon","coordinates":[[[90.329763,23.799606],[90.329814,23.799478],[90.330053,23.799613],[90.33,23.799742],[90.329763,23.799606]]]}},{"type":"Feature","properties":{"survey":"bds","sheet":"072","dag":"35502","label_bn":"35502","area_sqm":447.3},"geometry":{"type":"Polygon","coordinates":[[[90.328583,23.799944],[90.328615,23.79985],[90.328619,23.799839],[90.328629,23.799788],[90.328637,23.799747],[90.328639,23.799738],[90.328639,23.799737],[90.328669,23.799786],[90.328806,23.800015],[90.328653,23.800097],[90.328653,23.800096],[90.328641,23.800075],[90.328584,23.79996],[90.328583,23.799944]]]}},{"type":"Feature","properties":{"survey":"bds","sheet":"072","dag":"35505","label_bn":"35505","area_sqm":505.3},"geometry":{"type":"Polygon","coordinates":[[[90.328639,23.799737],[90.328653,23.799695],[90.328662,23.799675],[90.32867,23.799662],[90.328671,23.799661],[90.328676,23.799657],[90.328693,23.799682],[90.328747,23.799761],[90.328798,23.799843],[90.328859,23.799942],[90.328919,23.800041],[90.328981,23.800142],[90.328916,23.800184],[90.328866,23.800108],[90.328806,23.800015],[90.328669,23.799786],[90.328639,23.799737]]]}},{"type":"Feature","properties":{"survey":"bds","sheet":"072","dag":"35568","label_bn":"35568","area_sqm":535.0},"geometry":{"type":"Polygon","coordinates":[[[90.329517,23.799412],[90.329544,23.799402],[90.329548,23.7994],[90.329565,23.799448],[90.329596,23.799525],[90.329681,23.799565],[90.329763,23.799606],[90.33,23.799742],[90.330077,23.799789],[90.330136,23.799824],[90.330217,23.79987],[90.330296,23.799914],[90.330304,23.799919],[90.330529,23.800045],[90.330578,23.799921],[90.330585,23.799903],[90.330606,23.799942],[90.330598,23.799963],[90.330568,23.800048],[90.330558,23.800073],[90.330513,23.800074],[90.330492,23.800063],[90.330464,23.800048],[90.330439,23.800035],[90.330366,23.799997],[90.330333,23.799978],[90.330308,23.799963],[90.330266,23.799937],[90.330179,23.799887],[90.33007,23.799823],[90.329979,23.799769],[90.32988,23.799713],[90.329764,23.799644],[90.329633,23.799578],[90.329606,23.799567],[90.329567,23.799542],[90.329533,23.799461],[90.329517,23.799412]]]}},{"type":"Feature","properties":{"survey":"bds","sheet":"072","dag":"35582","label_bn":"35582","area_sqm":729.0},"geometry":{"type":"Polygon","coordinates":[[[90.329758,23.799448],[90.329838,23.799318],[90.330217,23.799539],[90.330131,23.799659],[90.330053,23.799613],[90.329814,23.799478],[90.329758,23.799448]]]}},{"type":"Feature","properties":{"survey":"bds","sheet":"072","dag":"35595","label_bn":"35595","area_sqm":815.4},"geometry":{"type":"Polygon","coordinates":[[[90.330407,23.798938],[90.330448,23.798815],[90.330474,23.798791],[90.330454,23.798767],[90.330447,23.798761],[90.330436,23.79875],[90.330425,23.79874],[90.330458,23.798725],[90.330564,23.79865],[90.330753,23.798564],[90.330838,23.79871],[90.330843,23.798718],[90.330769,23.798745],[90.330666,23.798791],[90.3306,23.79882],[90.330599,23.798821],[90.330597,23.798824],[90.330568,23.798868],[90.330557,23.798883],[90.330539,23.79891],[90.330502,23.798914],[90.330498,23.798915],[90.330483,23.798918],[90.330464,23.798922],[90.330435,23.79893],[90.330407,23.798938]]]}},{"type":"Feature","properties":{"survey":"bds","sheet":"072","dag":"35593","label_bn":"35593","area_sqm":988.7},"geometry":{"type":"Polygon","coordinates":[[[90.329799,23.799258],[90.329803,23.799256],[90.329803,23.799256],[90.329805,23.799255],[90.329815,23.79925],[90.329826,23.799244],[90.329854,23.799226],[90.329882,23.799208],[90.329917,23.799181],[90.32994,23.799164],[90.329945,23.79916],[90.329953,23.799154],[90.329968,23.799145],[90.330013,23.79912],[90.330067,23.799093],[90.33009,23.799083],[90.330122,23.799066],[90.330154,23.799049],[90.330209,23.799017],[90.330306,23.798972],[90.330344,23.798957],[90.330407,23.798938],[90.330407,23.798938],[90.330435,23.79893],[90.330464,23.798922],[90.330483,23.798918],[90.330498,23.798915],[90.330502,23.798914],[90.330539,23.79891],[90.330518,23.79894],[90.330514,23.798947],[90.330339,23.799074],[90.330191,23.799176],[90.330108,23.799233],[90.33008,23.799251],[90.330031,23.799283],[90.329942,23.799341],[90.329913,23.799324],[90.329799,23.799258]]]}},{"type":"Feature","properties":{"survey":"bds","sheet":"072","dag":"35591","label_bn":"35591","area_sqm":1383.9},"geometry":{"type":"Polygon","coordinates":[[[90.33041,23.799822],[90.330482,23.799702],[90.330503,23.799673],[90.330577,23.799557],[90.330751,23.799283],[90.330774,23.799295],[90.330825,23.799323],[90.330916,23.799372],[90.330585,23.799903],[90.330578,23.799921],[90.33041,23.799822]]]}},{"type":"Feature","properties":{"survey":"bds","sheet":"072","dag":"35597","label_bn":"35597","area_sqm":1389.3},"geometry":{"type":"Polygon","coordinates":[[[90.330177,23.798415],[90.330231,23.798321],[90.330283,23.798246],[90.330332,23.798176],[90.330389,23.798079],[90.330429,23.798019],[90.330461,23.797977],[90.330486,23.79795],[90.330527,23.797919],[90.33053,23.797917],[90.330547,23.797902],[90.330563,23.79788],[90.330572,23.797859],[90.330576,23.797845],[90.330776,23.797859],[90.330957,23.797881],[90.331002,23.797862],[90.331054,23.797829],[90.331065,23.797744],[90.331056,23.797662],[90.331076,23.797586],[90.331081,23.797556],[90.33115,23.797513],[90.331214,23.797486],[90.331284,23.797469],[90.331291,23.797481],[90.331297,23.797493],[90.331302,23.797506],[90.331275,23.797501],[90.331258,23.797501],[90.331248,23.797501],[90.331238,23.797502],[90.331231,23.797507],[90.331172,23.797554],[90.331147,23.797582],[90.331135,23.797614],[90.331135,23.797636],[90.331142,23.79769],[90.331149,23.797745],[90.331141,23.797788],[90.33113,23.797812],[90.331119,23.797836],[90.331106,23.797853],[90.331094,23.79787],[90.33106,23.797899],[90.331021,23.797916],[90.330992,23.797923],[90.330919,23.797917],[90.330808,23.797928],[90.330781,23.797928],[90.3307,23.797923],[90.330655,23.797926],[90.33061,23.797928],[90.330593,23.797942],[90.330555,23.797975],[90.330534,23.797999],[90.330512,23.798022],[90.330494,23.798049],[90.330476,23.798076],[90.330444,23.798129],[90.330416,23.798194],[90.330388,23.79826],[90.330344,23.798359],[90.330282,23.798477],[90.330246,23.798539],[90.330237,23.798527],[90.330214,23.798492],[90.330183,23.798444],[90.330177,23.798415]]]}},{"type":"Feature","properties":{"survey":"bds","sheet":"072","dag":"35592","label_bn":"35592","area_sqm":1961.8},"geometry":{"type":"Polygon","coordinates":[[[90.33008,23.799251],[90.330108,23.799233],[90.330191,23.799176],[90.330339,23.799074],[90.330514,23.798947],[90.330503,23.798962],[90.330436,23.799041],[90.330515,23.799133],[90.330567,23.799166],[90.33064,23.799222],[90.330674,23.799241],[90.330718,23.799265],[90.330751,23.799283],[90.330577,23.799557],[90.330487,23.799504],[90.330486,23.799504],[90.330457,23.799489],[90.330459,23.799487],[90.330423,23.799463],[90.33036,23.799424],[90.330275,23.799372],[90.330272,23.799369],[90.330267,23.799367],[90.330193,23.799321],[90.33008,23.799251]]]}},{"type":"Feature","properties":{"survey":"bds","sheet":"072","dag":"35594","label_bn":"35594","area_sqm":2857.3},"geometry":{"type":"Polygon","coordinates":[[[90.329742,23.799011],[90.329782,23.798998],[90.329822,23.798986],[90.329861,23.798975],[90.329891,23.798972],[90.329915,23.798963],[90.329936,23.798947],[90.329957,23.798932],[90.329997,23.798883],[90.330022,23.798833],[90.330034,23.798803],[90.330032,23.798785],[90.330016,23.798763],[90.330001,23.79874],[90.330001,23.79874],[90.329972,23.798705],[90.32994,23.798639],[90.330183,23.798444],[90.330214,23.798492],[90.330237,23.798527],[90.330246,23.798539],[90.330303,23.798615],[90.330348,23.798667],[90.330401,23.798717],[90.330415,23.79873],[90.330425,23.79874],[90.330436,23.79875],[90.330447,23.798761],[90.330454,23.798767],[90.330474,23.798791],[90.330448,23.798815],[90.330407,23.798938],[90.330407,23.798938],[90.330344,23.798957],[90.330306,23.798972],[90.330209,23.799017],[90.330154,23.799049],[90.330122,23.799066],[90.33009,23.799083],[90.330067,23.799093],[90.330013,23.79912],[90.329968,23.799145],[90.329953,23.799154],[90.329945,23.79916],[90.32994,23.799164],[90.329917,23.799181],[90.329882,23.799208],[90.329854,23.799226],[90.329826,23.799244],[90.329815,23.79925],[90.329805,23.799255],[90.329803,23.799256],[90.329742,23.799011]]]}},{"type":"Feature","properties":{"survey":"bds","sheet":"072","dag":"35600","label_bn":"35600","area_sqm":4193.8},"geometry":{"type":"Polygon","coordinates":[[[90.328455,23.798676],[90.328462,23.798668],[90.328478,23.798647],[90.328572,23.798529],[90.328595,23.798531],[90.328649,23.798538],[90.32875,23.798545],[90.3288,23.798548],[90.328841,23.798548],[90.328906,23.798547],[90.328938,23.798544],[90.32897,23.798542],[90.329005,23.798539],[90.329039,23.798537],[90.329071,23.798536],[90.329071,23.798536],[90.329103,23.798534],[90.329103,23.798534],[90.329151,23.79853],[90.329199,23.798526],[90.329217,23.798523],[90.329235,23.798521],[90.329271,23.798512],[90.329307,23.798503],[90.329333,23.7985],[90.32936,23.798497],[90.329407,23.798491],[90.329454,23.798484],[90.329488,23.798481],[90.329521,23.798478],[90.329552,23.798474],[90.329584,23.79847],[90.329607,23.798465],[90.329631,23.798459],[90.32969,23.798455],[90.32975,23.798452],[90.329809,23.798445],[90.329867,23.798439],[90.329908,23.798438],[90.32993,23.798437],[90.329993,23.798436],[90.330056,23.798434],[90.33007,23.798435],[90.330126,23.798439],[90.330183,23.798444],[90.32994,23.798639],[90.329919,23.798626],[90.329889,23.798618],[90.329865,23.798618],[90.329749,23.798647],[90.329615,23.798685],[90.329509,23.798716],[90.32938,23.798754],[90.32925,23.798792],[90.329197,23.798805],[90.329161,23.798812],[90.329084,23.798825],[90.329038,23.798832],[90.328992,23.798838],[90.328937,23.798841],[90.328898,23.798832],[90.328808,23.798807],[90.328699,23.798767],[90.328566,23.798717],[90.328496,23.798686],[90.328457,23.798676],[90.328455,23.798676]]]}},{"type":"Feature","properties":{"survey":"bds","sheet":"072","dag":"35596","label_bn":"35596","area_sqm":5220.4},"geometry":{"type":"Polygon","coordinates":[[[90.330246,23.798539],[90.330282,23.798477],[90.330344,23.798359],[90.330388,23.79826],[90.330416,23.798194],[90.330444,23.798129],[90.330476,23.798076],[90.330494,23.798049],[90.330512,23.798022],[90.330534,23.797999],[90.330555,23.797975],[90.330593,23.797942],[90.33061,23.797928],[90.330655,23.797926],[90.3307,23.797923],[90.330781,23.797928],[90.330808,23.797928],[90.330919,23.797917],[90.330931,23.797978],[90.330964,23.798051],[90.330998,23.798103],[90.331058,23.798141],[90.331151,23.798204],[90.331185,23.798228],[90.331242,23.79828],[90.331232,23.79831],[90.331194,23.798364],[90.331133,23.79843],[90.331096,23.798449],[90.33106,23.79845],[90.33096,23.798488],[90.330753,23.798564],[90.330564,23.79865],[90.330458,23.798725],[90.330425,23.79874],[90.330415,23.79873],[90.330401,23.798717],[90.330348,23.798667],[90.330303,23.798615],[90.330246,23.798539]]]}},{"type":"Feature","properties":{"survey":"bds","sheet":"072","dag":"35501","label_bn":"35501","area_sqm":6710.2},"geometry":{"type":"Polygon","coordinates":[[[90.328212,23.800025],[90.328221,23.799999],[90.328294,23.799779],[90.328313,23.799686],[90.328316,23.799672],[90.328319,23.799667],[90.328342,23.799628],[90.328379,23.799582],[90.328452,23.799513],[90.328526,23.79945],[90.32859,23.799415],[90.328708,23.799362],[90.328767,23.79934],[90.328903,23.79929],[90.328963,23.799327],[90.328974,23.79933],[90.328984,23.799329],[90.329029,23.799312],[90.329127,23.799269],[90.329234,23.799219],[90.329341,23.799168],[90.329476,23.799101],[90.329558,23.799071],[90.329664,23.799034],[90.329742,23.799011],[90.329803,23.799256],[90.329803,23.799256],[90.329799,23.799258],[90.329786,23.799267],[90.329773,23.799274],[90.329768,23.799277],[90.329768,23.799277],[90.32972,23.799303],[90.329712,23.799308],[90.32968,23.799325],[90.329672,23.799329],[90.329638,23.799348],[90.329603,23.799366],[90.329602,23.799367],[90.329597,23.79937],[90.329592,23.799373],[90.32958,23.79938],[90.329562,23.799391],[90.329548,23.7994],[90.329544,23.799402],[90.329517,23.799412],[90.329457,23.799434],[90.329379,23.799455],[90.32934,23.799465],[90.329314,23.799472],[90.329307,23.799474],[90.3293,23.799476],[90.329236,23.799489],[90.329229,23.799491],[90.329218,23.799493],[90.329204,23.799496],[90.329196,23.799497],[90.329136,23.79951],[90.329112,23.799513],[90.329103,23.799514],[90.329089,23.799516],[90.329041,23.799522],[90.328995,23.799531],[90.32899,23.799532],[90.328987,23.799533],[90.328939,23.799543],[90.328912,23.799549],[90.328904,23.79955],[90.328903,23.79955],[90.32886,23.799564],[90.328828,23.799573],[90.32882,23.799576],[90.328816,23.799577],[90.328779,23.799593],[90.328742,23.799609],[90.32872,23.799621],[90.328698,23.799634],[90.328684,23.799647],[90.328676,23.799657],[90.328671,23.799661],[90.32867,23.799662],[90.328662,23.799675],[90.328653,23.799695],[90.328639,23.799737],[90.328639,23.799738],[90.328637,23.799747],[90.328629,23.799788],[90.328619,23.799839],[90.328615,23.79985],[90.328583,23.799944],[90.328584,23.79996],[90.328641,23.800075],[90.328653,23.800096],[90.328653,23.800097],[90.328703,23.800186],[90.328679,23.800195],[90.328679,23.800195],[90.32866,23.800202],[90.328379,23.800302],[90.328344,23.800315],[90.328284,23.800336],[90.328212,23.800025]]]}},{"type":"Feature","properties":{"survey":"bds","sheet":"072","dag":"35599","label_bn":"35599","area_sqm":9002.7},"geometry":{"type":"Polygon","coordinates":[[[90.328254,23.798928],[90.328455,23.798676],[90.328457,23.798676],[90.328496,23.798686],[90.328566,23.798717],[90.328699,23.798767],[90.328808,23.798807],[90.328898,23.798832],[90.328937,23.798841],[90.328992,23.798838],[90.329038,23.798832],[90.329084,23.798825],[90.329161,23.798812],[90.329197,23.798805],[90.32925,23.798792],[90.32938,23.798754],[90.329509,23.798716],[90.329615,23.798685],[90.329749,23.798647],[90.329865,23.798618],[90.329889,23.798618],[90.329919,23.798626],[90.32994,23.798639],[90.329972,23.798705],[90.330001,23.79874],[90.330001,23.79874],[90.330016,23.798763],[90.330032,23.798785],[90.330034,23.798803],[90.330022,23.798833],[90.329997,23.798883],[90.329957,23.798932],[90.329936,23.798947],[90.329915,23.798963],[90.329891,23.798972],[90.329861,23.798975],[90.329822,23.798986],[90.329782,23.798998],[90.329742,23.799011],[90.329664,23.799034],[90.329558,23.799071],[90.329476,23.799101],[90.329341,23.799168],[90.329234,23.799219],[90.329127,23.799269],[90.329029,23.799312],[90.328984,23.799329],[90.328974,23.79933],[90.328963,23.799327],[90.328903,23.79929],[90.328767,23.79934],[90.328708,23.799362],[90.32859,23.799415],[90.328526,23.79945],[90.328452,23.799513],[90.328379,23.799582],[90.328342,23.799628],[90.328319,23.799667],[90.328316,23.799672],[90.32835,23.799509],[90.328372,23.7994],[90.328421,23.799127],[90.328254,23.798928]]]}},{"type":"Feature","properties":{"survey":"bds","sheet":"072","dag":"35602","label_bn":"35602","area_sqm":11115.2},"geometry":{"type":"Polygon","coordinates":[[[90.327724,23.797646],[90.327743,23.797603],[90.327771,23.797563],[90.327829,23.797525],[90.328047,23.797399],[90.328137,23.797347],[90.328272,23.797285],[90.328311,23.797267],[90.328445,23.797227],[90.328601,23.797172],[90.328671,23.797147],[90.328747,23.797106],[90.328735,23.797114],[90.328718,23.797136],[90.328698,23.797179],[90.328678,23.797222],[90.32866,23.797271],[90.328661,23.797402],[90.328658,23.79756],[90.328645,23.797708],[90.328643,23.797895],[90.328639,23.797973],[90.328658,23.798087],[90.328717,23.798148],[90.328792,23.798175],[90.3289,23.798193],[90.329057,23.798221],[90.329101,23.79839],[90.329071,23.798536],[90.329071,23.798536],[90.329039,23.798537],[90.329005,23.798539],[90.32897,23.798542],[90.328938,23.798544],[90.328906,23.798547],[90.328841,23.798548],[90.3288,23.798548],[90.32875,23.798545],[90.328649,23.798538],[90.328595,23.798531],[90.328572,23.798529],[90.328576,23.798524],[90.328514,23.79852],[90.328392,23.798431],[90.328333,23.798386],[90.328284,23.798347],[90.328193,23.798276],[90.328116,23.798214],[90.32807,23.798172],[90.32806,23.798161],[90.32805,23.798151],[90.328022,23.798123],[90.32796,23.798061],[90.327915,23.798005],[90.327814,23.797836],[90.327724,23.797646]]]}},{"type":"Feature","properties":{"survey":"bds","sheet":"072","dag":"35603","label_bn":"35603","area_sqm":17415.5},"geometry":{"type":"Polygon","coordinates":[[[90.329057,23.798221],[90.32908,23.798228],[90.329108,23.798236],[90.32914,23.798246],[90.329416,23.798118],[90.329578,23.798052],[90.32959,23.798047],[90.329665,23.797972],[90.329708,23.79792],[90.329789,23.797807],[90.329848,23.797708],[90.329902,23.797609],[90.329938,23.797507],[90.329972,23.797333],[90.329992,23.797142],[90.330004,23.797024],[90.330024,23.796987],[90.33006,23.796942],[90.3301,23.796917],[90.330145,23.7969],[90.330197,23.796897],[90.330297,23.796914],[90.330369,23.796935],[90.330428,23.796963],[90.33051,23.797012],[90.330531,23.797046],[90.330563,23.797137],[90.330601,23.797259],[90.330598,23.797316],[90.330771,23.797342],[90.330965,23.797176],[90.331091,23.797075],[90.331101,23.797139],[90.331284,23.797469],[90.331214,23.797486],[90.33115,23.797513],[90.331081,23.797556],[90.331076,23.797586],[90.331056,23.797662],[90.331065,23.797744],[90.331054,23.797829],[90.331002,23.797862],[90.330957,23.797881],[90.330776,23.797859],[90.330576,23.797845],[90.330572,23.797859],[90.330563,23.79788],[90.330547,23.797902],[90.33053,23.797917],[90.330527,23.797919],[90.330486,23.79795],[90.330461,23.797977],[90.330429,23.798019],[90.330389,23.798079],[90.330332,23.798176],[90.330283,23.798246],[90.330231,23.798321],[90.330177,23.798415],[90.330183,23.798444],[90.330126,23.798439],[90.33007,23.798435],[90.330056,23.798434],[90.329993,23.798436],[90.32993,23.798437],[90.329908,23.798438],[90.329867,23.798439],[90.329809,23.798445],[90.32975,23.798452],[90.32969,23.798455],[90.329631,23.798459],[90.329607,23.798465],[90.329584,23.79847],[90.329552,23.798474],[90.329521,23.798478],[90.329488,23.798481],[90.329454,23.798484],[90.329407,23.798491],[90.32936,23.798497],[90.329333,23.7985],[90.329307,23.798503],[90.329271,23.798512],[90.329235,23.798521],[90.329217,23.798523],[90.329199,23.798526],[90.329151,23.79853],[90.329103,23.798534],[90.329103,23.798534],[90.329071,23.798536],[90.329101,23.79839],[90.329057,23.798221]]]}}]}