{"type":"FeatureCollection","features":[{"type":"Feature","properties":{"survey":"bds","sheet":"073","dag":"36114","label_bn":"36114","area_sqm":37.1},"geometry":{"type":"Polygon","coordinates":[[[90.330184,23.800526],[90.330201,23.800475],[90.330261,23.800491],[90.330244,23.80054],[90.330184,23.800526]]]}},{"type":"Feature","properties":{"survey":"bds","sheet":"073","dag":"36061","label_bn":"36061","area_sqm":39.8},"geometry":{"type":"Polygon","coordinates":[[[90.329231,23.80055],[90.329233,23.800549],[90.329248,23.800544],[90.32928,23.800531],[90.329314,23.800592],[90.329281,23.800605],[90.329268,23.80061],[90.329242,23.800568],[90.329231,23.80055]]]}},{"type":"Feature","properties":{"survey":"bds","sheet":"073","dag":"36117","label_bn":"36117","area_sqm":40.5},"geometry":{"type":"Polygon","coordinates":[[[90.330241,23.800366],[90.330265,23.800309],[90.33027,23.800311],[90.33032,23.800341],[90.330302,23.800386],[90.330302,23.800387],[90.330241,23.800366]]]}},{"type":"Feature","properties":{"survey":"bds","sheet":"073","dag":"36060","label_bn":"36060","area_sqm":40.9},"geometry":{"type":"Polygon","coordinates":[[[90.329198,23.800495],[90.329203,23.800493],[90.329216,23.800486],[90.32925,23.800471],[90.329255,23.80048],[90.32928,23.800531],[90.329248,23.800544],[90.329233,23.800549],[90.329231,23.80055],[90.329198,23.800495]]]}},{"type":"Feature","properties":{"survey":"bds","sheet":"073","dag":"36024","label_bn":"36024","area_sqm":62.0},"geometry":{"type":"Polygon","coordinates":[[[90.329583,23.801262],[90.329655,23.801225],[90.32966,23.801236],[90.329688,23.801288],[90.329619,23.80132],[90.329583,23.801262]]]}},{"type":"Feature","properties":{"survey":"bds","sheet":"073","dag":"36095","label_bn":"36095","area_sqm":63.3},"geometry":{"type":"Polygon","coordinates":[[[90.329755,23.800375],[90.329756,23.800373],[90.32977,23.800334],[90.329879,23.800402],[90.329864,23.800446],[90.329755,23.800375]]]}},{"type":"Feature","properties":{"survey":"bds","sheet":"073","dag":"36054","label_bn":"36054","area_sqm":70.2},"geometry":{"type":"Polygon","coordinates":[[[90.329438,23.800306],[90.329486,23.800145],[90.329486,23.800144],[90.329497,23.800109],[90.329549,23.800054],[90.329515,23.800147],[90.329512,23.800155],[90.329511,23.800156],[90.329476,23.800261],[90.329454,23.800315],[90.329438,23.800306]]]}},{"type":"Feature","properties":{"survey":"bds","sheet":"073","dag":"36140","label_bn":"36140","area_sqm":72.2},"geometry":{"type":"Polygon","coordinates":[[[90.330442,23.800391],[90.330461,23.800346],[90.330585,23.800379],[90.330568,23.800426],[90.330442,23.800391]]]}},{"type":"Feature","properties":{"survey":"bds","sheet":"073","dag":"36139","label_bn":"36139","area_sqm":72.4},"geometry":{"type":"Polygon","coordinates":[[[90.330426,23.800436],[90.330442,23.800391],[90.330568,23.800426],[90.330568,23.800427],[90.330558,23.800458],[90.330553,23.800473],[90.330426,23.800436]]]}},{"type":"Feature","properties":{"survey":"bds","sheet":"073","dag":"36046","label_bn":"36046","area_sqm":75.9},"geometry":{"type":"Polygon","coordinates":[[[90.328981,23.800142],[90.328994,23.800137],[90.32901,23.80013],[90.329091,23.800094],[90.329092,23.800096],[90.3291,23.80011],[90.32912,23.800144],[90.329039,23.800178],[90.329024,23.800185],[90.329012,23.80019],[90.328981,23.800142]]]}},{"type":"Feature","properties":{"survey":"bds","sheet":"073","dag":"36047","label_bn":"36047","area_sqm":77.2},"geometry":{"type":"Polygon","coordinates":[[[90.329012,23.80019],[90.329024,23.800185],[90.329039,23.800178],[90.32912,23.800144],[90.329151,23.800193],[90.32907,23.800228],[90.329055,23.800234],[90.329042,23.80024],[90.329012,23.80019]]]}},{"type":"Feature","properties":{"survey":"bds","sheet":"073","dag":"36059","label_bn":"36059","area_sqm":79.0},"geometry":{"type":"Polygon","coordinates":[[[90.329138,23.800394],[90.329141,23.800392],[90.32916,23.800384],[90.329195,23.800368],[90.329245,23.800461],[90.32925,23.800471],[90.329216,23.800486],[90.329203,23.800493],[90.329198,23.800495],[90.329138,23.800394]]]}},{"type":"Feature","properties":{"survey":"bds","sheet":"073","dag":"36033","label_bn":"36033","area_sqm":125.0},"geometry":{"type":"Polygon","coordinates":[[[90.329587,23.801331],[90.329588,23.801333],[90.329537,23.80136],[90.329536,23.801361],[90.329533,23.801363],[90.329508,23.801376],[90.329506,23.801375],[90.329492,23.801371],[90.329446,23.801277],[90.329469,23.801265],[90.329509,23.801246],[90.329519,23.801241],[90.329527,23.801237],[90.329587,23.801331]]]}},{"type":"Feature","properties":{"survey":"bds","sheet":"073","dag":"36116","label_bn":"36116","area_sqm":82.4},"geometry":{"type":"Polygon","coordinates":[[[90.330201,23.800475],[90.330239,23.80037],[90.330241,23.800366],[90.330302,23.800387],[90.330286,23.800429],[90.330261,23.800491],[90.330201,23.800475]]]}},{"type":"Feature","properties":{"survey":"bds","sheet":"073","dag":"36118","label_bn":"36118","area_sqm":87.9},"geometry":{"type":"Polygon","coordinates":[[[90.330286,23.800429],[90.330302,23.800387],[90.330302,23.800386],[90.33032,23.800341],[90.330328,23.800346],[90.330368,23.80037],[90.330396,23.800387],[90.330368,23.800462],[90.330336,23.80045],[90.330329,23.800447],[90.330292,23.800432],[90.330286,23.800429]]]}},{"type":"Feature","properties":{"survey":"bds","sheet":"073","dag":"36013","label_bn":"36013","area_sqm":88.8},"geometry":{"type":"Polygon","coordinates":[[[90.330283,23.801409],[90.330314,23.801324],[90.330384,23.80116],[90.330409,23.801177],[90.330347,23.801323],[90.330311,23.801415],[90.330283,23.801409]]]}},{"type":"Feature","properties":{"survey":"bds","sheet":"073","dag":"36055","label_bn":"36055","area_sqm":89.6},"geometry":{"type":"Polygon","coordinates":[[[90.329325,23.800309],[90.3294,23.800274],[90.329438,23.800306],[90.329454,23.800315],[90.329431,23.80037],[90.329428,23.80037],[90.329395,23.800368],[90.329362,23.800366],[90.329338,23.800329],[90.329327,23.800311],[90.329325,23.800309]]]}},{"type":"Feature","properties":{"survey":"bds","sheet":"073","dag":"36048","label_bn":"36048","area_sqm":94.3},"geometry":{"type":"Polygon","coordinates":[[[90.329042,23.80024],[90.329055,23.800234],[90.32907,23.800228],[90.329151,23.800193],[90.329174,23.800183],[90.329203,23.80023],[90.329101,23.80028],[90.329085,23.800288],[90.329076,23.800292],[90.329042,23.80024]]]}},{"type":"Feature","properties":{"survey":"bds","sheet":"073","dag":"36136","label_bn":"36136","area_sqm":95.7},"geometry":{"type":"Polygon","coordinates":[[[90.330384,23.800556],[90.330396,23.800525],[90.330522,23.800555],[90.330644,23.800584],[90.330633,23.800615],[90.330511,23.800586],[90.330384,23.800556]]]}},{"type":"Feature","properties":{"survey":"bds","sheet":"073","dag":"36154","label_bn":"36154","area_sqm":107.6},"geometry":{"type":"Polygon","coordinates":[[[90.330078,23.801355],[90.330112,23.80127],[90.330167,23.801287],[90.330209,23.8013],[90.330178,23.801387],[90.330078,23.801355]]]}},{"type":"Feature","properties":{"survey":"bds","sheet":"073","dag":"36012","label_bn":"36012","area_sqm":109.4},"geometry":{"type":"Polygon","coordinates":[[[90.330311,23.801415],[90.330347,23.801323],[90.330453,23.801365],[90.330399,23.801433],[90.33039,23.801444],[90.330322,23.801419],[90.330311,23.801415]]]}},{"type":"Feature","properties":{"survey":"bds","sheet":"073","dag":"36016","label_bn":"36016","area_sqm":113.1},"geometry":{"type":"Polygon","coordinates":[[[90.330112,23.80127],[90.330127,23.801231],[90.330147,23.80118],[90.330247,23.801211],[90.330222,23.801271],[90.330214,23.801292],[90.330212,23.801295],[90.330209,23.8013],[90.330167,23.801287],[90.330112,23.80127]]]}},{"type":"Feature","properties":{"survey":"bds","sheet":"073","dag":"36128","label_bn":"36128","area_sqm":114.5},"geometry":{"type":"Polygon","coordinates":[[[90.330347,23.801118],[90.330405,23.801],[90.330473,23.801041],[90.33042,23.80115],[90.330347,23.801118]]]}},{"type":"Feature","properties":{"survey":"bds","sheet":"073","dag":"36105","label_bn":"36105","area_sqm":115.4},"geometry":{"type":"Polygon","coordinates":[[[90.33009,23.800272],[90.330111,23.800211],[90.330188,23.80026],[90.330211,23.800275],[90.33024,23.800294],[90.330207,23.800361],[90.330186,23.800345],[90.330162,23.800327],[90.33009,23.800272]]]}},{"type":"Feature","properties":{"survey":"bds","sheet":"073","dag":"36039","label_bn":"36039","area_sqm":115.6},"geometry":{"type":"Polygon","coordinates":[[[90.329199,23.800848],[90.329312,23.800799],[90.329337,23.800843],[90.329355,23.800877],[90.329327,23.800888],[90.329247,23.800917],[90.329199,23.800848]]]}},{"type":"Feature","properties":{"survey":"bds","sheet":"073","dag":"36014","label_bn":"36014","area_sqm":115.6},"geometry":{"type":"Polygon","coordinates":[[[90.330178,23.801387],[90.330209,23.8013],[90.330212,23.801295],[90.330214,23.801292],[90.330234,23.801298],[90.330237,23.801299],[90.33024,23.8013],[90.330314,23.801324],[90.330283,23.801409],[90.33027,23.801406],[90.330267,23.801406],[90.330258,23.801404],[90.330178,23.801387]]]}},{"type":"Feature","properties":{"survey":"bds","sheet":"073","dag":"36127","label_bn":"36127","area_sqm":117.8},"geometry":{"type":"Polygon","coordinates":[[[90.330276,23.801083],[90.330334,23.800966],[90.330357,23.800974],[90.330405,23.801],[90.330347,23.801118],[90.330276,23.801083]]]}},{"type":"Feature","properties":{"survey":"bds","sheet":"073","dag":"36145","label_bn":"36145","area_sqm":118.7},"geometry":{"type":"Polygon","coordinates":[[[90.330617,23.800282],[90.330646,23.800201],[90.330764,23.800233],[90.330736,23.800314],[90.330617,23.800282]]]}},{"type":"Feature","properties":{"survey":"bds","sheet":"073","dag":"36017","label_bn":"36017","area_sqm":121.4},"geometry":{"type":"Polygon","coordinates":[[[90.330147,23.80118],[90.330196,23.801074],[90.330283,23.801127],[90.330247,23.801211],[90.330147,23.80118]]]}},{"type":"Feature","properties":{"survey":"bds","sheet":"073","dag":"36051","label_bn":"36051","area_sqm":121.5},"geometry":{"type":"Polygon","coordinates":[[[90.32934,23.800039],[90.329368,23.800026],[90.329397,23.800013],[90.329406,23.800009],[90.329438,23.799995],[90.32949,23.800075],[90.329423,23.800111],[90.329419,23.800113],[90.329394,23.800126],[90.329372,23.800091],[90.329356,23.800066],[90.32934,23.800039]]]}},{"type":"Feature","properties":{"survey":"bds","sheet":"073","dag":"36146","label_bn":"36146","area_sqm":121.5},"geometry":{"type":"Polygon","coordinates":[[[90.330589,23.800364],[90.330615,23.800288],[90.330617,23.800282],[90.330736,23.800314],[90.330708,23.800396],[90.330589,23.800364]]]}},{"type":"Feature","properties":{"survey":"bds","sheet":"073","dag":"36104","label_bn":"36104","area_sqm":121.6},"geometry":{"type":"Polygon","coordinates":[[[90.329978,23.800211],[90.330008,23.800131],[90.330036,23.800149],[90.330117,23.8002],[90.330111,23.800211],[90.33009,23.800272],[90.330088,23.800281],[90.330013,23.800233],[90.329978,23.800211]]]}},{"type":"Feature","properties":{"survey":"bds","sheet":"073","dag":"36115","label_bn":"36115","area_sqm":122.3},"geometry":{"type":"Polygon","coordinates":[[[90.330244,23.80054],[90.330261,23.800491],[90.330286,23.800429],[90.330292,23.800432],[90.330329,23.800447],[90.330336,23.80045],[90.330368,23.800462],[90.330352,23.800516],[90.330328,23.800574],[90.330289,23.800558],[90.330254,23.800543],[90.330247,23.800541],[90.330244,23.80054]]]}},{"type":"Feature","properties":{"survey":"bds","sheet":"073","dag":"36049","label_bn":"36049","area_sqm":122.5},"geometry":{"type":"Polygon","coordinates":[[[90.32912,23.800144],[90.329151,23.800128],[90.329166,23.80012],[90.329217,23.800095],[90.329275,23.800191],[90.329235,23.800212],[90.329224,23.800219],[90.329203,23.80023],[90.329174,23.800183],[90.329151,23.800193],[90.32912,23.800144]]]}},{"type":"Feature","properties":{"survey":"bds","sheet":"073","dag":"36085","label_bn":"36085","area_sqm":123.6},"geometry":{"type":"Polygon","coordinates":[[[90.329583,23.799961],[90.329614,23.799875],[90.329718,23.799938],[90.329681,23.800024],[90.329583,23.799961]]]}},{"type":"Feature","properties":{"survey":"bds","sheet":"073","dag":"36094","label_bn":"36094","area_sqm":123.7},"geometry":{"type":"Polygon","coordinates":[[[90.32977,23.800334],[90.329784,23.800289],[90.329788,23.800277],[90.329792,23.800268],[90.329798,23.800252],[90.329879,23.800303],[90.329907,23.800321],[90.329904,23.800331],[90.329879,23.800402],[90.32977,23.800334]]]}},{"type":"Feature","properties":{"survey":"bds","sheet":"073","dag":"36126","label_bn":"36126","area_sqm":124.4},"geometry":{"type":"Polygon","coordinates":[[[90.330204,23.801047],[90.330246,23.800933],[90.330334,23.800966],[90.330276,23.801083],[90.330204,23.801047]]]}},{"type":"Feature","properties":{"survey":"bds","sheet":"073","dag":"36102","label_bn":"36102","area_sqm":124.5},"geometry":{"type":"Polygon","coordinates":[[[90.32992,23.800376],[90.329931,23.800344],[90.329937,23.800326],[90.329943,23.800307],[90.329948,23.800293],[90.329984,23.800316],[90.330056,23.800362],[90.330048,23.800382],[90.330044,23.800393],[90.330041,23.800405],[90.330027,23.800447],[90.32992,23.800376]]]}},{"type":"Feature","properties":{"survey":"bds","sheet":"073","dag":"36103","label_bn":"36103","area_sqm":124.9},"geometry":{"type":"Polygon","coordinates":[[[90.329948,23.800293],[90.329978,23.800211],[90.330013,23.800233],[90.330088,23.800281],[90.330056,23.800362],[90.329984,23.800316],[90.329948,23.800293]]]}},{"type":"Feature","properties":{"survey":"bds","sheet":"073","dag":"36096","label_bn":"36096","area_sqm":125.3},"geometry":{"type":"Polygon","coordinates":[[[90.329725,23.800458],[90.329755,23.800375],[90.329864,23.800446],[90.329834,23.800527],[90.329725,23.800458]]]}},{"type":"Feature","properties":{"survey":"bds","sheet":"073","dag":"36099","label_bn":"36099","area_sqm":125.8},"geometry":{"type":"Polygon","coordinates":[[[90.329828,23.800626],[90.329834,23.800609],[90.329843,23.800584],[90.329858,23.800543],[90.329967,23.800613],[90.329957,23.800638],[90.329948,23.800666],[90.329937,23.800696],[90.329866,23.80065],[90.329828,23.800626]]]}},{"type":"Feature","properties":{"survey":"bds","sheet":"073","dag":"36097","label_bn":"36097","area_sqm":125.9},"geometry":{"type":"Polygon","coordinates":[[[90.329696,23.80054],[90.329696,23.80054],[90.329705,23.800515],[90.329725,23.800458],[90.329834,23.800527],[90.329818,23.800572],[90.329809,23.800596],[90.329804,23.800611],[90.329696,23.80054]]]}},{"type":"Feature","properties":{"survey":"bds","sheet":"073","dag":"36100","label_bn":"36100","area_sqm":126.7},"geometry":{"type":"Polygon","coordinates":[[[90.329858,23.800543],[90.329889,23.80046],[90.329998,23.800531],[90.329967,23.800613],[90.329858,23.800543]]]}},{"type":"Feature","properties":{"survey":"bds","sheet":"073","dag":"36119","label_bn":"36119","area_sqm":126.8},"geometry":{"type":"Polygon","coordinates":[[[90.330111,23.800211],[90.330117,23.8002],[90.330115,23.800172],[90.330202,23.80023],[90.330219,23.800241],[90.330223,23.800244],[90.330341,23.800315],[90.33038,23.800338],[90.330401,23.800351],[90.330396,23.800387],[90.330368,23.80037],[90.330328,23.800346],[90.33032,23.800341],[90.33027,23.800311],[90.330265,23.800309],[90.33024,23.800294],[90.330211,23.800275],[90.330188,23.80026],[90.330111,23.800211]]]}},{"type":"Feature","properties":{"survey":"bds","sheet":"073","dag":"36084","label_bn":"36084","area_sqm":127.0},"geometry":{"type":"Polygon","coordinates":[[[90.329549,23.800054],[90.329583,23.799961],[90.329681,23.800024],[90.329649,23.800116],[90.329549,23.800054]]]}},{"type":"Feature","properties":{"survey":"bds","sheet":"073","dag":"36101","label_bn":"36101","area_sqm":127.3},"geometry":{"type":"Polygon","coordinates":[[[90.329889,23.80046],[90.32992,23.800376],[90.330027,23.800447],[90.330013,23.800488],[90.329998,23.800531],[90.329889,23.80046]]]}},{"type":"Feature","properties":{"survey":"bds","sheet":"073","dag":"36151","label_bn":"36151","area_sqm":127.8},"geometry":{"type":"Polygon","coordinates":[[[90.330751,23.800383],[90.330784,23.800296],[90.330821,23.800308],[90.330869,23.800322],[90.330901,23.800332],[90.330866,23.800419],[90.330828,23.800407],[90.330785,23.800394],[90.330751,23.800383]]]}},{"type":"Feature","properties":{"survey":"bds","sheet":"073","dag":"36093","label_bn":"36093","area_sqm":127.9},"geometry":{"type":"Polygon","coordinates":[[[90.329798,23.800252],[90.329814,23.800206],[90.329829,23.800167],[90.329937,23.800236],[90.329909,23.800315],[90.329907,23.800321],[90.329879,23.800303],[90.329798,23.800252]]]}},{"type":"Feature","properties":{"survey":"bds","sheet":"073","dag":"36152","label_bn":"36152","area_sqm":128.7},"geometry":{"type":"Polygon","coordinates":[[[90.330784,23.800296],[90.330816,23.800211],[90.330857,23.800223],[90.330904,23.800238],[90.330937,23.800248],[90.330926,23.800272],[90.330901,23.800332],[90.330869,23.800322],[90.330821,23.800308],[90.330784,23.800296]]]}},{"type":"Feature","properties":{"survey":"bds","sheet":"073","dag":"36113","label_bn":"36113","area_sqm":129.8},"geometry":{"type":"Polygon","coordinates":[[[90.330132,23.800673],[90.330184,23.800526],[90.330244,23.80054],[90.330247,23.800541],[90.330254,23.800543],[90.330206,23.80069],[90.330193,23.800687],[90.330132,23.800673]]]}},{"type":"Feature","properties":{"survey":"bds","sheet":"073","dag":"36153","label_bn":"36153","area_sqm":130.8},"geometry":{"type":"Polygon","coordinates":[[[90.330816,23.800211],[90.330848,23.800127],[90.330868,23.800133],[90.330885,23.800138],[90.330895,23.800141],[90.330938,23.800153],[90.330938,23.800153],[90.330973,23.800163],[90.330937,23.800248],[90.330904,23.800238],[90.330857,23.800223],[90.330816,23.800211]]]}},{"type":"Feature","properties":{"survey":"bds","sheet":"073","dag":"36083","label_bn":"36083","area_sqm":131.6},"geometry":{"type":"Polygon","coordinates":[[[90.329515,23.800147],[90.329549,23.800054],[90.329649,23.800116],[90.329618,23.800202],[90.329617,23.800206],[90.329615,23.800211],[90.329578,23.800188],[90.329568,23.800181],[90.329517,23.800149],[90.329515,23.800147]]]}},{"type":"Feature","properties":{"survey":"bds","sheet":"073","dag":"36044","label_bn":"36044","area_sqm":131.6},"geometry":{"type":"Polygon","coordinates":[[[90.32878,23.80024],[90.328916,23.800184],[90.328954,23.800242],[90.328808,23.800314],[90.328794,23.800294],[90.32878,23.80024]]]}},{"type":"Feature","properties":{"survey":"bds","sheet":"073","dag":"36079","label_bn":"36079","area_sqm":132.0},"geometry":{"type":"Polygon","coordinates":[[[90.329331,23.800419],[90.329358,23.800406],[90.329418,23.800519],[90.329485,23.80049],[90.329528,23.800446],[90.329536,23.800438],[90.32956,23.800453],[90.329569,23.800459],[90.329596,23.800476],[90.329589,23.800479],[90.329574,23.800486],[90.329461,23.800536],[90.32943,23.800551],[90.329405,23.800562],[90.329331,23.800419]]]}},{"type":"Feature","properties":{"survey":"bds","sheet":"073","dag":"36132","label_bn":"36132","area_sqm":132.8},"geometry":{"type":"Polygon","coordinates":[[[90.330284,23.80083],[90.33029,23.800814],[90.330317,23.800739],[90.33044,23.80077],[90.330405,23.800855],[90.330357,23.800845],[90.330284,23.80083]]]}},{"type":"Feature","properties":{"survey":"bds","sheet":"073","dag":"36112","label_bn":"36112","area_sqm":132.8},"geometry":{"type":"Polygon","coordinates":[[[90.330206,23.80069],[90.330254,23.800543],[90.330289,23.800558],[90.330328,23.800574],[90.330286,23.800705],[90.330232,23.800694],[90.330206,23.80069]]]}},{"type":"Feature","properties":{"survey":"bds","sheet":"073","dag":"36138","label_bn":"36138","area_sqm":134.6},"geometry":{"type":"Polygon","coordinates":[[[90.330396,23.800525],[90.330426,23.800436],[90.330553,23.800473],[90.330522,23.800555],[90.330396,23.800525]]]}},{"type":"Feature","properties":{"survey":"bds","sheet":"073","dag":"36135","label_bn":"36135","area_sqm":134.8},"geometry":{"type":"Polygon","coordinates":[[[90.330478,23.800676],[90.330491,23.800644],[90.330511,23.800586],[90.330633,23.800615],[90.330598,23.800706],[90.330478,23.800676]]]}},{"type":"Feature","properties":{"survey":"bds","sheet":"073","dag":"36149","label_bn":"36149","area_sqm":135.4},"geometry":{"type":"Polygon","coordinates":[[[90.330678,23.800577],[90.33071,23.800492],[90.33074,23.8005],[90.330778,23.800511],[90.330827,23.800525],[90.330836,23.800527],[90.330803,23.800613],[90.330749,23.800597],[90.330703,23.800585],[90.330678,23.800577]]]}},{"type":"Feature","properties":{"survey":"bds","sheet":"073","dag":"36143","label_bn":"36143","area_sqm":136.8},"geometry":{"type":"Polygon","coordinates":[[[90.330526,23.800162],[90.330558,23.800073],[90.330682,23.800107],[90.330648,23.800196],[90.330526,23.800162]]]}},{"type":"Feature","properties":{"survey":"bds","sheet":"073","dag":"36147","label_bn":"36147","area_sqm":138.5},"geometry":{"type":"Polygon","coordinates":[[[90.330558,23.800458],[90.330568,23.800427],[90.330568,23.800426],[90.330585,23.800379],[90.330589,23.800364],[90.330708,23.800396],[90.330676,23.800491],[90.330558,23.800458]]]}},{"type":"Feature","properties":{"survey":"bds","sheet":"073","dag":"36144","label_bn":"36144","area_sqm":138.7},"geometry":{"type":"Polygon","coordinates":[[[90.330646,23.800201],[90.330648,23.800196],[90.330682,23.800107],[90.330801,23.800141],[90.330764,23.800233],[90.330646,23.800201]]]}},{"type":"Feature","properties":{"survey":"bds","sheet":"073","dag":"36141","label_bn":"36141","area_sqm":139.0},"geometry":{"type":"Polygon","coordinates":[[[90.330461,23.800346],[90.330492,23.800254],[90.330615,23.800288],[90.330589,23.800364],[90.330585,23.800379],[90.330461,23.800346]]]}},{"type":"Feature","properties":{"survey":"bds","sheet":"073","dag":"36133","label_bn":"36133","area_sqm":140.1},"geometry":{"type":"Polygon","coordinates":[[[90.330317,23.800739],[90.330351,23.800648],[90.330476,23.80068],[90.33044,23.80077],[90.330317,23.800739]]]}},{"type":"Feature","properties":{"survey":"bds","sheet":"073","dag":"36142","label_bn":"36142","area_sqm":140.1},"geometry":{"type":"Polygon","coordinates":[[[90.330492,23.800254],[90.330526,23.800162],[90.330648,23.800196],[90.330646,23.800201],[90.330617,23.800282],[90.330615,23.800288],[90.330492,23.800254]]]}},{"type":"Feature","properties":{"survey":"bds","sheet":"073","dag":"36137","label_bn":"36137","area_sqm":140.4},"geometry":{"type":"Polygon","coordinates":[[[90.330522,23.800555],[90.330553,23.800473],[90.330558,23.800458],[90.330676,23.800491],[90.330644,23.800584],[90.330522,23.800555]]]}},{"type":"Feature","properties":{"survey":"bds","sheet":"073","dag":"36058","label_bn":"36058","area_sqm":140.5},"geometry":{"type":"Polygon","coordinates":[[[90.329093,23.800321],[90.329102,23.800317],[90.329118,23.800309],[90.329221,23.80026],[90.32927,23.800334],[90.329195,23.800368],[90.32916,23.800384],[90.329141,23.800392],[90.329138,23.800394],[90.329093,23.800321]]]}},{"type":"Feature","properties":{"survey":"bds","sheet":"073","dag":"36043","label_bn":"36043","area_sqm":144.4},"geometry":{"type":"Polygon","coordinates":[[[90.328808,23.800314],[90.328954,23.800242],[90.328997,23.800309],[90.328851,23.80038],[90.328808,23.800314]]]}},{"type":"Feature","properties":{"survey":"bds","sheet":"073","dag":"36134","label_bn":"36134","area_sqm":145.0},"geometry":{"type":"Polygon","coordinates":[[[90.330351,23.800648],[90.330364,23.800612],[90.330384,23.800556],[90.330511,23.800586],[90.330491,23.800644],[90.330478,23.800676],[90.330476,23.80068],[90.330351,23.800648]]]}},{"type":"Feature","properties":{"survey":"bds","sheet":"073","dag":"36123","label_bn":"36123","area_sqm":146.1},"geometry":{"type":"Polygon","coordinates":[[[90.33029,23.800124],[90.330366,23.799997],[90.330439,23.800035],[90.330373,23.800166],[90.33029,23.800124]]]}},{"type":"Feature","properties":{"survey":"bds","sheet":"073","dag":"36036","label_bn":"36036","area_sqm":182.7},"geometry":{"type":"Polygon","coordinates":[[[90.329602,23.801197],[90.329527,23.801237],[90.329519,23.801241],[90.329509,23.801246],[90.329469,23.801265],[90.329446,23.801277],[90.329406,23.801195],[90.329442,23.801177],[90.329496,23.801149],[90.329503,23.801145],[90.329561,23.801115],[90.329602,23.801197]]]}},{"type":"Feature","properties":{"survey":"bds","sheet":"073","dag":"36053","label_bn":"36053","area_sqm":150.3},"geometry":{"type":"Polygon","coordinates":[[[90.329349,23.80019],[90.329414,23.80015],[90.329455,23.80013],[90.329457,23.800129],[90.329497,23.800109],[90.329486,23.800144],[90.329486,23.800145],[90.329438,23.800306],[90.3294,23.800274],[90.329349,23.80019]]]}},{"type":"Feature","properties":{"survey":"bds","sheet":"073","dag":"36124","label_bn":"36124","area_sqm":150.9},"geometry":{"type":"Polygon","coordinates":[[[90.330373,23.800166],[90.330439,23.800035],[90.330464,23.800048],[90.330492,23.800063],[90.330513,23.800074],[90.330459,23.800212],[90.330433,23.800198],[90.330403,23.800182],[90.330373,23.800166]]]}},{"type":"Feature","properties":{"survey":"bds","sheet":"073","dag":"36041","label_bn":"36041","area_sqm":151.6},"geometry":{"type":"Polygon","coordinates":[[[90.328935,23.800506],[90.329077,23.800437],[90.32908,23.800436],[90.329126,23.800507],[90.329039,23.800548],[90.328983,23.800575],[90.328975,23.800566],[90.328935,23.800506]]]}},{"type":"Feature","properties":{"survey":"bds","sheet":"073","dag":"36057","label_bn":"36057","area_sqm":154.1},"geometry":{"type":"Polygon","coordinates":[[[90.329221,23.80026],[90.329244,23.800247],[90.329257,23.80024],[90.329349,23.80019],[90.3294,23.800274],[90.329325,23.800309],[90.329324,23.80031],[90.329316,23.800313],[90.32927,23.800334],[90.329221,23.80026]]]}},{"type":"Feature","properties":{"survey":"bds","sheet":"073","dag":"36150","label_bn":"36150","area_sqm":154.1},"geometry":{"type":"Polygon","coordinates":[[[90.33071,23.800492],[90.330751,23.800383],[90.330785,23.800394],[90.330828,23.800407],[90.330866,23.800419],[90.330851,23.800454],[90.330844,23.800471],[90.330837,23.800488],[90.330827,23.800525],[90.330778,23.800511],[90.33074,23.8005],[90.33071,23.800492]]]}},{"type":"Feature","properties":{"survey":"bds","sheet":"073","dag":"36009","label_bn":"36009","area_sqm":155.4},"geometry":{"type":"Polygon","coordinates":[[[90.33039,23.801444],[90.330399,23.801433],[90.330453,23.801365],[90.330558,23.801442],[90.330527,23.801471],[90.33051,23.801536],[90.33039,23.801444]]]}},{"type":"Feature","properties":{"survey":"bds","sheet":"073","dag":"36091","label_bn":"36091","area_sqm":155.8},"geometry":{"type":"Polygon","coordinates":[[[90.329709,23.800034],[90.329741,23.799955],[90.329877,23.800042],[90.329844,23.800123],[90.329709,23.800034]]]}},{"type":"Feature","properties":{"survey":"bds","sheet":"073","dag":"36082","label_bn":"36082","area_sqm":156.9},"geometry":{"type":"Polygon","coordinates":[[[90.329476,23.800261],[90.329511,23.800156],[90.329512,23.800155],[90.329515,23.800147],[90.329517,23.800149],[90.329568,23.800181],[90.329578,23.800188],[90.329615,23.800211],[90.329575,23.800325],[90.329476,23.800261]]]}},{"type":"Feature","properties":{"survey":"bds","sheet":"073","dag":"36089","label_bn":"36089","area_sqm":156.9},"geometry":{"type":"Polygon","coordinates":[[[90.32965,23.8002],[90.329679,23.800117],[90.329814,23.800206],[90.329798,23.800252],[90.329792,23.800268],[90.329788,23.800277],[90.329784,23.800289],[90.329725,23.80025],[90.329699,23.800232],[90.32965,23.8002]]]}},{"type":"Feature","properties":{"survey":"bds","sheet":"073","dag":"36020","label_bn":"36020","area_sqm":157.4},"geometry":{"type":"Polygon","coordinates":[[[90.329869,23.800966],[90.329896,23.800952],[90.329927,23.800937],[90.329983,23.800909],[90.33,23.800933],[90.329976,23.800989],[90.329986,23.800993],[90.329979,23.801046],[90.32998,23.801082],[90.329939,23.801103],[90.329916,23.801057],[90.329896,23.801019],[90.329869,23.800966]]]}},{"type":"Feature","properties":{"survey":"bds","sheet":"073","dag":"36090","label_bn":"36090","area_sqm":157.5},"geometry":{"type":"Polygon","coordinates":[[[90.329679,23.800117],[90.329709,23.800034],[90.329844,23.800123],[90.329829,23.800167],[90.329814,23.800206],[90.329679,23.800117]]]}},{"type":"Feature","properties":{"survey":"bds","sheet":"073","dag":"36076","label_bn":"36076","area_sqm":159.1},"geometry":{"type":"Polygon","coordinates":[[[90.329624,23.800576],[90.329696,23.80054],[90.329804,23.800611],[90.329816,23.800619],[90.329686,23.800685],[90.329624,23.800576]]]}},{"type":"Feature","properties":{"survey":"bds","sheet":"073","dag":"36081","label_bn":"36081","area_sqm":159.3},"geometry":{"type":"Polygon","coordinates":[[[90.329431,23.80037],[90.329454,23.800315],[90.329476,23.800261],[90.329575,23.800325],[90.329538,23.800434],[90.329536,23.800438],[90.329448,23.800381],[90.329431,23.80037]]]}},{"type":"Feature","properties":{"survey":"bds","sheet":"073","dag":"36075","label_bn":"36075","area_sqm":160.4},"geometry":{"type":"Polygon","coordinates":[[[90.329577,23.800739],[90.329686,23.800685],[90.329816,23.800619],[90.329828,23.800626],[90.329866,23.80065],[90.329735,23.800716],[90.329603,23.800782],[90.329577,23.800739]]]}},{"type":"Feature","properties":{"survey":"bds","sheet":"073","dag":"36088","label_bn":"36088","area_sqm":161.2},"geometry":{"type":"Polygon","coordinates":[[[90.32962,23.800286],[90.329644,23.800217],[90.329646,23.800212],[90.32965,23.8002],[90.329699,23.800232],[90.329725,23.80025],[90.329784,23.800289],[90.32977,23.800334],[90.329756,23.800373],[90.329755,23.800375],[90.32962,23.800286]]]}},{"type":"Feature","properties":{"survey":"bds","sheet":"073","dag":"36131","label_bn":"36131","area_sqm":162.5},"geometry":{"type":"Polygon","coordinates":[[[90.330246,23.800933],[90.330259,23.800898],[90.330274,23.800857],[90.330284,23.80083],[90.330357,23.800845],[90.330405,23.800855],[90.3304,23.800868],[90.330383,23.800909],[90.330357,23.800974],[90.330334,23.800966],[90.330246,23.800933]]]}},{"type":"Feature","properties":{"survey":"bds","sheet":"073","dag":"36050","label_bn":"36050","area_sqm":163.9},"geometry":{"type":"Polygon","coordinates":[[[90.329217,23.800095],[90.329267,23.800073],[90.329326,23.800045],[90.32934,23.800039],[90.329356,23.800066],[90.329372,23.800091],[90.329394,23.800126],[90.329275,23.800191],[90.329217,23.800095]]]}},{"type":"Feature","properties":{"survey":"bds","sheet":"073","dag":"36080","label_bn":"36080","area_sqm":164.2},"geometry":{"type":"Polygon","coordinates":[[[90.329358,23.800406],[90.329413,23.800379],[90.32943,23.800371],[90.329431,23.80037],[90.329448,23.800381],[90.329536,23.800438],[90.329528,23.800446],[90.329485,23.80049],[90.329418,23.800519],[90.329358,23.800406]]]}},{"type":"Feature","properties":{"survey":"bds","sheet":"073","dag":"36077","label_bn":"36077","area_sqm":172.1},"geometry":{"type":"Polygon","coordinates":[[[90.329516,23.800626],[90.329589,23.800592],[90.329609,23.800583],[90.329624,23.800576],[90.329686,23.800685],[90.329577,23.800739],[90.329574,23.800733],[90.329552,23.800691],[90.329516,23.800626]]]}},{"type":"Feature","properties":{"survey":"bds","sheet":"073","dag":"36086","label_bn":"36086","area_sqm":173.4},"geometry":{"type":"Polygon","coordinates":[[[90.329536,23.800438],[90.329538,23.800434],[90.329575,23.800325],[90.329615,23.800211],[90.329617,23.800206],[90.329618,23.800202],[90.329649,23.800116],[90.329681,23.800024],[90.329718,23.799938],[90.329741,23.799955],[90.329709,23.800034],[90.329679,23.800117],[90.32965,23.8002],[90.329646,23.800212],[90.329644,23.800217],[90.32962,23.800286],[90.329562,23.800447],[90.32956,23.800453],[90.329536,23.800438]]]}},{"type":"Feature","properties":{"survey":"bds","sheet":"073","dag":"36052","label_bn":"36052","area_sqm":173.8},"geometry":{"type":"Polygon","coordinates":[[[90.329076,23.800292],[90.329085,23.800288],[90.329101,23.80028],[90.329203,23.80023],[90.329224,23.800219],[90.329235,23.800212],[90.329275,23.800191],[90.329394,23.800126],[90.329419,23.800113],[90.329423,23.800111],[90.32949,23.800075],[90.329497,23.800109],[90.329457,23.800129],[90.329455,23.80013],[90.329414,23.80015],[90.329349,23.80019],[90.329257,23.80024],[90.329244,23.800247],[90.329221,23.80026],[90.329118,23.800309],[90.329102,23.800317],[90.329093,23.800321],[90.329076,23.800292]]]}},{"type":"Feature","properties":{"survey":"bds","sheet":"073","dag":"36062","label_bn":"36062","area_sqm":174.1},"geometry":{"type":"Polygon","coordinates":[[[90.329245,23.800461],[90.329331,23.800419],[90.329405,23.800562],[90.32932,23.800602],[90.329314,23.800592],[90.32928,23.800531],[90.329255,23.80048],[90.32925,23.800471],[90.329245,23.800461]]]}},{"type":"Feature","properties":{"survey":"bds","sheet":"073","dag":"36074","label_bn":"36074","area_sqm":174.4},"geometry":{"type":"Polygon","coordinates":[[[90.329603,23.800782],[90.329735,23.800716],[90.329791,23.800804],[90.32977,23.800815],[90.329659,23.800871],[90.329603,23.800782]]]}},{"type":"Feature","properties":{"survey":"bds","sheet":"073","dag":"36026","label_bn":"36026","area_sqm":175.2},"geometry":{"type":"Polygon","coordinates":[[[90.329701,23.801217],[90.329754,23.801193],[90.329792,23.801174],[90.329884,23.801302],[90.329793,23.801344],[90.329701,23.801217]]]}},{"type":"Feature","properties":{"survey":"bds","sheet":"073","dag":"36098","label_bn":"36098","area_sqm":175.3},"geometry":{"type":"Polygon","coordinates":[[[90.329804,23.800611],[90.329809,23.800596],[90.329818,23.800572],[90.329834,23.800527],[90.329864,23.800446],[90.329879,23.800402],[90.329904,23.800331],[90.329907,23.800321],[90.329909,23.800315],[90.329937,23.800236],[90.329982,23.800114],[90.330003,23.800127],[90.330008,23.800131],[90.329978,23.800211],[90.329948,23.800293],[90.329943,23.800307],[90.329937,23.800326],[90.329931,23.800344],[90.32992,23.800376],[90.329889,23.80046],[90.329858,23.800543],[90.329843,23.800584],[90.329834,23.800609],[90.329828,23.800626],[90.329816,23.800619],[90.329804,23.800611]]]}},{"type":"Feature","properties":{"survey":"bds","sheet":"073","dag":"36037","label_bn":"36037","area_sqm":175.7},"geometry":{"type":"Polygon","coordinates":[[[90.329442,23.801177],[90.329442,23.801023],[90.329466,23.800988],[90.329467,23.800985],[90.329486,23.800958],[90.329547,23.801057],[90.329527,23.801068],[90.329561,23.801115],[90.329503,23.801145],[90.329496,23.801149],[90.329442,23.801177]]]}},{"type":"Feature","properties":{"survey":"bds","sheet":"073","dag":"36021","label_bn":"36021","area_sqm":176.3},"geometry":{"type":"Polygon","coordinates":[[[90.329779,23.801008],[90.329869,23.800966],[90.329896,23.801019],[90.329916,23.801057],[90.329939,23.801103],[90.329911,23.801116],[90.329899,23.801123],[90.329883,23.801131],[90.329848,23.801148],[90.329779,23.801008]]]}},{"type":"Feature","properties":{"survey":"bds","sheet":"073","dag":"36065","label_bn":"36065","area_sqm":176.4},"geometry":{"type":"Polygon","coordinates":[[[90.329453,23.800831],[90.3295,23.80081],[90.329563,23.800782],[90.329635,23.800893],[90.329526,23.800941],[90.329467,23.800852],[90.329453,23.800831]]]}},{"type":"Feature","properties":{"survey":"bds","sheet":"073","dag":"36121","label_bn":"36121","area_sqm":176.8},"geometry":{"type":"Polygon","coordinates":[[[90.330115,23.800172],[90.330191,23.800041],[90.3302,23.800046],[90.330183,23.800075],[90.330251,23.800115],[90.330267,23.800124],[90.330282,23.800133],[90.330231,23.800221],[90.330219,23.800241],[90.330202,23.80023],[90.330115,23.800172]]]}},{"type":"Feature","properties":{"survey":"bds","sheet":"073","dag":"36027","label_bn":"36027","area_sqm":177.0},"geometry":{"type":"Polygon","coordinates":[[[90.329792,23.801174],[90.329848,23.801148],[90.329883,23.801131],[90.3299,23.801155],[90.329912,23.801171],[90.329919,23.801181],[90.329957,23.801233],[90.329975,23.801259],[90.329884,23.801302],[90.329792,23.801174]]]}},{"type":"Feature","properties":{"survey":"bds","sheet":"073","dag":"36031","label_bn":"36031","area_sqm":729.3},"geometry":{"type":"Polygon","coordinates":[[[90.330045,23.801367],[90.330021,23.801383],[90.329923,23.801486],[90.329857,23.801592],[90.329847,23.801603],[90.329808,23.801644],[90.32962,23.801498],[90.329647,23.801481],[90.329653,23.801477],[90.329685,23.801457],[90.329688,23.801455],[90.329688,23.801455],[90.32969,23.801454],[90.329719,23.801434],[90.329739,23.801419],[90.329842,23.801358],[90.329967,23.801299],[90.329993,23.801287],[90.330045,23.801367]]]}},{"type":"Feature","properties":{"survey":"bds","sheet":"073","dag":"36107","label_bn":"36107","area_sqm":182.1},"geometry":{"type":"Polygon","coordinates":[[[90.330013,23.800488],[90.330027,23.800447],[90.330041,23.800405],[90.330044,23.800393],[90.330048,23.800382],[90.33012,23.800431],[90.330148,23.80045],[90.330171,23.800466],[90.330136,23.800573],[90.33011,23.800555],[90.330069,23.800527],[90.330013,23.800488]]]}},{"type":"Feature","properties":{"survey":"bds","sheet":"073","dag":"36056","label_bn":"36056","area_sqm":183.5},"geometry":{"type":"Polygon","coordinates":[[[90.329195,23.800368],[90.32927,23.800334],[90.329316,23.800313],[90.329324,23.80031],[90.329325,23.800309],[90.329327,23.800311],[90.329338,23.800329],[90.329362,23.800366],[90.329395,23.800368],[90.329428,23.80037],[90.329431,23.80037],[90.32943,23.800371],[90.329413,23.800379],[90.329358,23.800406],[90.329331,23.800419],[90.329245,23.800461],[90.329195,23.800368]]]}},{"type":"Feature","properties":{"survey":"bds","sheet":"073","dag":"36025","label_bn":"36025","area_sqm":184.0},"geometry":{"type":"Polygon","coordinates":[[[90.329619,23.80132],[90.329688,23.801288],[90.32966,23.801236],[90.329701,23.801217],[90.329793,23.801344],[90.329695,23.801411],[90.329693,23.801413],[90.32968,23.801397],[90.329619,23.80132]]]}},{"type":"Feature","properties":{"survey":"bds","sheet":"073","dag":"36106","label_bn":"36106","area_sqm":184.1},"geometry":{"type":"Polygon","coordinates":[[[90.330048,23.800382],[90.330056,23.800362],[90.330088,23.800281],[90.33009,23.800272],[90.330162,23.800327],[90.330186,23.800345],[90.330207,23.800361],[90.330171,23.800466],[90.330148,23.80045],[90.33012,23.800431],[90.330048,23.800382]]]}},{"type":"Feature","properties":{"survey":"bds","sheet":"073","dag":"36063","label_bn":"36063","area_sqm":186.3},"geometry":{"type":"Polygon","coordinates":[[[90.32932,23.800602],[90.329405,23.800562],[90.32943,23.800551],[90.329498,23.800665],[90.329382,23.800719],[90.32932,23.800602]]]}},{"type":"Feature","properties":{"survey":"bds","sheet":"073","dag":"36092","label_bn":"36092","area_sqm":188.3},"geometry":{"type":"Polygon","coordinates":[[[90.329829,23.800167],[90.329844,23.800123],[90.329877,23.800042],[90.329982,23.800114],[90.329937,23.800236],[90.329829,23.800167]]]}},{"type":"Feature","properties":{"survey":"bds","sheet":"073","dag":"36066","label_bn":"36066","area_sqm":188.9},"geometry":{"type":"Polygon","coordinates":[[[90.329268,23.80061],[90.329281,23.800605],[90.329314,23.800592],[90.32932,23.800602],[90.329382,23.800719],[90.329397,23.800749],[90.32944,23.800812],[90.329453,23.800831],[90.329467,23.800852],[90.329526,23.800941],[90.329486,23.800958],[90.32944,23.800884],[90.32943,23.800868],[90.329406,23.800831],[90.329382,23.800792],[90.329336,23.800718],[90.329268,23.80061]]]}},{"type":"Feature","properties":{"survey":"bds","sheet":"073","dag":"36064","label_bn":"36064","area_sqm":189.5},"geometry":{"type":"Polygon","coordinates":[[[90.329382,23.800719],[90.329498,23.800665],[90.329526,23.800716],[90.329549,23.800757],[90.329563,23.800782],[90.3295,23.80081],[90.329453,23.800831],[90.32944,23.800812],[90.329397,23.800749],[90.329382,23.800719]]]}},{"type":"Feature","properties":{"survey":"bds","sheet":"073","dag":"36022","label_bn":"36022","area_sqm":195.0},"geometry":{"type":"Polygon","coordinates":[[[90.329677,23.801036],[90.329717,23.801018],[90.329755,23.801021],[90.329779,23.801008],[90.329848,23.801148],[90.329792,23.801174],[90.329754,23.801193],[90.329677,23.801036]]]}},{"type":"Feature","properties":{"survey":"bds","sheet":"073","dag":"36069","label_bn":"36069","area_sqm":200.6},"geometry":{"type":"Polygon","coordinates":[[[90.32943,23.800551],[90.329461,23.800536],[90.329516,23.800626],[90.329552,23.800691],[90.329574,23.800733],[90.329577,23.800739],[90.329603,23.800782],[90.329659,23.800871],[90.329737,23.800992],[90.329697,23.800989],[90.329635,23.800893],[90.329563,23.800782],[90.329549,23.800757],[90.329526,23.800716],[90.329498,23.800665],[90.32943,23.800551]]]}},{"type":"Feature","properties":{"survey":"bds","sheet":"073","dag":"36071","label_bn":"36071","area_sqm":202.5},"geometry":{"type":"Polygon","coordinates":[[[90.32977,23.800815],[90.329791,23.800804],[90.329877,23.800761],[90.329918,23.800816],[90.329948,23.800857],[90.329964,23.800878],[90.32993,23.800895],[90.329899,23.800912],[90.32985,23.800937],[90.32977,23.800815]]]}},{"type":"Feature","properties":{"survey":"bds","sheet":"073","dag":"36073","label_bn":"36073","area_sqm":202.8},"geometry":{"type":"Polygon","coordinates":[[[90.329735,23.800716],[90.329866,23.80065],[90.329937,23.800696],[90.329967,23.800716],[90.329967,23.800716],[90.329967,23.800716],[90.329877,23.800761],[90.329791,23.800804],[90.329735,23.800716]]]}},{"type":"Feature","properties":{"survey":"bds","sheet":"073","dag":"36078","label_bn":"36078","area_sqm":203.1},"geometry":{"type":"Polygon","coordinates":[[[90.329461,23.800536],[90.329574,23.800486],[90.329589,23.800479],[90.329596,23.800476],[90.329693,23.800538],[90.329696,23.80054],[90.329624,23.800576],[90.329609,23.800583],[90.329589,23.800592],[90.329516,23.800626],[90.329461,23.800536]]]}},{"type":"Feature","properties":{"survey":"bds","sheet":"073","dag":"36070","label_bn":"36070","area_sqm":203.2},"geometry":{"type":"Polygon","coordinates":[[[90.329659,23.800871],[90.32977,23.800815],[90.32985,23.800937],[90.329737,23.800992],[90.329659,23.800871]]]}},{"type":"Feature","properties":{"survey":"bds","sheet":"073","dag":"36007","label_bn":"36007","area_sqm":203.2},"geometry":{"type":"Polygon","coordinates":[[[90.330488,23.801622],[90.330501,23.801572],[90.330502,23.801569],[90.330507,23.801547],[90.33051,23.801536],[90.330708,23.801569],[90.330708,23.80157],[90.330711,23.801592],[90.330713,23.801605],[90.330717,23.801635],[90.330717,23.801648],[90.330488,23.801622]]]}},{"type":"Feature","properties":{"survey":"bds","sheet":"073","dag":"36023","label_bn":"36023","area_sqm":205.0},"geometry":{"type":"Polygon","coordinates":[[[90.329583,23.801078],[90.329677,23.801036],[90.329754,23.801193],[90.329701,23.801217],[90.32966,23.801236],[90.329655,23.801225],[90.329583,23.801078]]]}},{"type":"Feature","properties":{"survey":"bds","sheet":"073","dag":"36067","label_bn":"36067","area_sqm":211.8},"geometry":{"type":"Polygon","coordinates":[[[90.329486,23.800958],[90.329526,23.800941],[90.329635,23.800893],[90.329697,23.800989],[90.329547,23.801057],[90.329486,23.800958]]]}},{"type":"Feature","properties":{"survey":"bds","sheet":"073","dag":"36122","label_bn":"36122","area_sqm":212.1},"geometry":{"type":"Polygon","coordinates":[[[90.330183,23.800075],[90.3302,23.800046],[90.330266,23.799937],[90.330308,23.799963],[90.330333,23.799978],[90.330366,23.799997],[90.33029,23.800124],[90.330282,23.800133],[90.330267,23.800124],[90.330251,23.800115],[90.330183,23.800075]]]}},{"type":"Feature","properties":{"survey":"bds","sheet":"073","dag":"36015","label_bn":"36015","area_sqm":213.8},"geometry":{"type":"Polygon","coordinates":[[[90.330214,23.801292],[90.330222,23.801271],[90.330247,23.801211],[90.330283,23.801127],[90.330384,23.80116],[90.330314,23.801324],[90.33024,23.8013],[90.330237,23.801299],[90.330234,23.801298],[90.330214,23.801292]]]}},{"type":"Feature","properties":{"survey":"bds","sheet":"073","dag":"36001","label_bn":"36001","area_sqm":218.1},"geometry":{"type":"Polygon","coordinates":[[[90.330586,23.80306],[90.330672,23.80304],[90.330771,23.803008],[90.330829,23.802989],[90.33086,23.802981],[90.330887,23.803026],[90.330886,23.803056],[90.330875,23.80311],[90.330769,23.803091],[90.330757,23.803089],[90.330755,23.803089],[90.330586,23.80306]]]}},{"type":"Feature","properties":{"survey":"bds","sheet":"073","dag":"36072","label_bn":"36072","area_sqm":223.7},"geometry":{"type":"Polygon","coordinates":[[[90.329877,23.800761],[90.329967,23.800716],[90.329967,23.800716],[90.330009,23.800744],[90.330064,23.800782],[90.33,23.800933],[90.329983,23.800909],[90.329964,23.800878],[90.329948,23.800857],[90.329918,23.800816],[90.329877,23.800761]]]}},{"type":"Feature","properties":{"survey":"bds","sheet":"073","dag":"36019","label_bn":"36019","area_sqm":225.1},"geometry":{"type":"Polygon","coordinates":[[[90.329883,23.801131],[90.329899,23.801123],[90.329911,23.801116],[90.329939,23.801103],[90.32998,23.801082],[90.330024,23.801204],[90.330042,23.801254],[90.330075,23.801344],[90.330045,23.801366],[90.330045,23.801367],[90.329975,23.801259],[90.329957,23.801233],[90.329919,23.801181],[90.329912,23.801171],[90.3299,23.801155],[90.329883,23.801131]]]}},{"type":"Feature","properties":{"survey":"bds","sheet":"073","dag":"36011","label_bn":"36011","area_sqm":226.0},"geometry":{"type":"Polygon","coordinates":[[[90.330347,23.801323],[90.330409,23.801177],[90.330542,23.801249],[90.330453,23.801365],[90.330347,23.801323]]]}},{"type":"Feature","properties":{"survey":"bds","sheet":"073","dag":"36129","label_bn":"36129","area_sqm":226.8},"geometry":{"type":"Polygon","coordinates":[[[90.33042,23.80115],[90.330473,23.801041],[90.330608,23.801083],[90.3306,23.801105],[90.330596,23.801114],[90.330596,23.801114],[90.330568,23.801191],[90.330558,23.801226],[90.33042,23.80115]]]}},{"type":"Feature","properties":{"survey":"bds","sheet":"073","dag":"36109","label_bn":"36109","area_sqm":235.3},"geometry":{"type":"Polygon","coordinates":[[[90.329976,23.800989],[90.33,23.800933],[90.330064,23.800782],[90.330136,23.800573],[90.330171,23.800466],[90.330207,23.800361],[90.33024,23.800294],[90.330265,23.800309],[90.330241,23.800366],[90.330239,23.80037],[90.330201,23.800475],[90.330184,23.800526],[90.330132,23.800673],[90.330111,23.800732],[90.330091,23.800795],[90.330069,23.800849],[90.330019,23.800929],[90.329999,23.800973],[90.329989,23.800994],[90.329986,23.800993],[90.329976,23.800989]]]}},{"type":"Feature","properties":{"survey":"bds","sheet":"073","dag":"36028","label_bn":"36028","area_sqm":214.6},"geometry":{"type":"Polygon","coordinates":[[[90.329967,23.801299],[90.329842,23.801358],[90.329739,23.801419],[90.329719,23.801434],[90.32969,23.801454],[90.329688,23.801455],[90.329688,23.801455],[90.329685,23.801457],[90.329675,23.801444],[90.329669,23.801437],[90.329665,23.801432],[90.329588,23.801333],[90.329587,23.801331],[90.329527,23.801237],[90.329583,23.801262],[90.329619,23.80132],[90.32968,23.801397],[90.329693,23.801413],[90.329695,23.801411],[90.329793,23.801344],[90.329884,23.801302],[90.329975,23.801259],[90.329993,23.801287],[90.329967,23.801299]]]}},{"type":"Feature","properties":{"survey":"bds","sheet":"073","dag":"36042","label_bn":"36042","area_sqm":273.8},"geometry":{"type":"Polygon","coordinates":[[[90.328851,23.80038],[90.328997,23.800309],[90.32908,23.800436],[90.329077,23.800437],[90.328935,23.800506],[90.328851,23.80038]]]}},{"type":"Feature","properties":{"survey":"bds","sheet":"073","dag":"36010","label_bn":"36010","area_sqm":278.5},"geometry":{"type":"Polygon","coordinates":[[[90.330453,23.801365],[90.330542,23.801249],[90.330557,23.801229],[90.33068,23.801292],[90.330583,23.801416],[90.330574,23.801428],[90.330558,23.801442],[90.330453,23.801365]]]}},{"type":"Feature","properties":{"survey":"bds","sheet":"073","dag":"36110","label_bn":"36110","area_sqm":284.6},"geometry":{"type":"Polygon","coordinates":[[[90.329999,23.800973],[90.330019,23.800929],[90.330069,23.800849],[90.330139,23.800872],[90.330162,23.800879],[90.330178,23.800884],[90.330232,23.800901],[90.330196,23.800988],[90.330186,23.801029],[90.329999,23.800973]]]}},{"type":"Feature","properties":{"survey":"bds","sheet":"073","dag":"36068","label_bn":"36068","area_sqm":285.7},"geometry":{"type":"Polygon","coordinates":[[[90.329527,23.801237],[90.329602,23.801197],[90.329561,23.801115],[90.329527,23.801068],[90.329547,23.801057],[90.329697,23.800989],[90.329737,23.800992],[90.32985,23.800937],[90.329899,23.800912],[90.32993,23.800895],[90.329964,23.800878],[90.329983,23.800909],[90.329927,23.800937],[90.329896,23.800952],[90.329869,23.800966],[90.329779,23.801008],[90.329755,23.801021],[90.329717,23.801018],[90.329677,23.801036],[90.329583,23.801078],[90.329655,23.801225],[90.329583,23.801262],[90.329527,23.801237]]]}},{"type":"Feature","properties":{"survey":"bds","sheet":"073","dag":"36087","label_bn":"36087","area_sqm":315.2},"geometry":{"type":"Polygon","coordinates":[[[90.32956,23.800453],[90.329562,23.800447],[90.32962,23.800286],[90.329755,23.800375],[90.329725,23.800458],[90.329705,23.800515],[90.329696,23.80054],[90.329696,23.80054],[90.329693,23.800538],[90.329596,23.800476],[90.329569,23.800459],[90.32956,23.800453]]]}},{"type":"Feature","properties":{"survey":"bds","sheet":"073","dag":"36148","label_bn":"36148","area_sqm":324.8},"geometry":{"type":"Polygon","coordinates":[[[90.330558,23.800073],[90.330568,23.800048],[90.330689,23.800081],[90.330848,23.800127],[90.330816,23.800211],[90.330784,23.800296],[90.330751,23.800383],[90.33071,23.800492],[90.330678,23.800577],[90.330624,23.800719],[90.330598,23.800706],[90.330633,23.800615],[90.330644,23.800584],[90.330676,23.800491],[90.330708,23.800396],[90.330736,23.800314],[90.330764,23.800233],[90.330801,23.800141],[90.330682,23.800107],[90.330558,23.800073]]]}},{"type":"Feature","properties":{"survey":"bds","sheet":"073","dag":"36120","label_bn":"36120","area_sqm":329.6},"geometry":{"type":"Polygon","coordinates":[[[90.330219,23.800241],[90.330231,23.800221],[90.330282,23.800133],[90.33029,23.800124],[90.330373,23.800166],[90.330403,23.800182],[90.330433,23.800198],[90.330459,23.800212],[90.330401,23.800351],[90.33038,23.800338],[90.330341,23.800315],[90.330223,23.800244],[90.330219,23.800241]]]}},{"type":"Feature","properties":{"survey":"bds","sheet":"073","dag":"36038","label_bn":"36038","area_sqm":339.5},"geometry":{"type":"Polygon","coordinates":[[[90.329247,23.800917],[90.329327,23.800888],[90.329355,23.800877],[90.329374,23.800908],[90.329442,23.801023],[90.329442,23.801177],[90.329406,23.801195],[90.329392,23.801166],[90.32936,23.801105],[90.32932,23.801033],[90.329247,23.800917]]]}},{"type":"Feature","properties":{"survey":"bds","sheet":"073","dag":"36111","label_bn":"36111","area_sqm":355.8},"geometry":{"type":"Polygon","coordinates":[[[90.330069,23.800849],[90.330091,23.800795],[90.330111,23.800732],[90.330132,23.800673],[90.330193,23.800687],[90.330206,23.80069],[90.330232,23.800694],[90.330286,23.800705],[90.33026,23.800784],[90.330257,23.800799],[90.330246,23.800844],[90.330232,23.800901],[90.330178,23.800884],[90.330162,23.800879],[90.330139,23.800872],[90.330069,23.800849]]]}},{"type":"Feature","properties":{"survey":"bds","sheet":"073","dag":"36108","label_bn":"36108","area_sqm":367.2},"geometry":{"type":"Polygon","coordinates":[[[90.329937,23.800696],[90.329948,23.800666],[90.329957,23.800638],[90.329967,23.800613],[90.329998,23.800531],[90.330013,23.800488],[90.330069,23.800527],[90.33011,23.800555],[90.330136,23.800573],[90.330064,23.800782],[90.330009,23.800744],[90.329967,23.800716],[90.329967,23.800716],[90.329937,23.800696]]]}},{"type":"Feature","properties":{"survey":"bds","sheet":"073","dag":"36018","label_bn":"36018","area_sqm":512.3},"geometry":{"type":"Polygon","coordinates":[[[90.329979,23.801046],[90.329986,23.800993],[90.329989,23.800994],[90.329999,23.800973],[90.330186,23.801029],[90.330178,23.801062],[90.330196,23.801074],[90.330147,23.80118],[90.330127,23.801231],[90.330112,23.80127],[90.330078,23.801355],[90.330075,23.801344],[90.330042,23.801254],[90.330024,23.801204],[90.32998,23.801082],[90.329979,23.801046]]]}},{"type":"Feature","properties":{"survey":"bds","sheet":"073","dag":"36008","label_bn":"36008","area_sqm":541.6},"geometry":{"type":"Polygon","coordinates":[[[90.33051,23.801536],[90.330527,23.801471],[90.330558,23.801442],[90.330574,23.801428],[90.330583,23.801416],[90.33068,23.801292],[90.330557,23.801229],[90.330558,23.801226],[90.330568,23.801191],[90.330704,23.801261],[90.330784,23.801302],[90.330728,23.801437],[90.330714,23.80147],[90.330711,23.801487],[90.330711,23.801488],[90.330708,23.801507],[90.330703,23.801534],[90.330708,23.801569],[90.33051,23.801536]]]}},{"type":"Feature","properties":{"survey":"bds","sheet":"073","dag":"36040","label_bn":"36040","area_sqm":543.6},"geometry":{"type":"Polygon","coordinates":[[[90.328983,23.800575],[90.329039,23.800548],[90.329126,23.800507],[90.329312,23.800799],[90.329199,23.800848],[90.328983,23.800575]]]}},{"type":"Feature","properties":{"survey":"bds","sheet":"073","dag":"36125","label_bn":"36125","area_sqm":612.3},"geometry":{"type":"Polygon","coordinates":[[[90.330178,23.801062],[90.330186,23.801029],[90.330196,23.800988],[90.330232,23.800901],[90.330246,23.800844],[90.330257,23.800799],[90.33026,23.800784],[90.330286,23.800705],[90.330328,23.800574],[90.330352,23.800516],[90.330368,23.800462],[90.330396,23.800387],[90.330401,23.800351],[90.330459,23.800212],[90.330513,23.800074],[90.330558,23.800073],[90.330526,23.800162],[90.330492,23.800254],[90.330461,23.800346],[90.330442,23.800391],[90.330426,23.800436],[90.330396,23.800525],[90.330384,23.800556],[90.330364,23.800612],[90.330351,23.800648],[90.330317,23.800739],[90.33029,23.800814],[90.330284,23.80083],[90.330274,23.800857],[90.330259,23.800898],[90.330246,23.800933],[90.330204,23.801047],[90.330276,23.801083],[90.330347,23.801118],[90.33042,23.80115],[90.330558,23.801226],[90.330557,23.801229],[90.330542,23.801249],[90.330409,23.801177],[90.330384,23.80116],[90.330283,23.801127],[90.330196,23.801074],[90.330178,23.801062]]]}},{"type":"Feature","properties":{"survey":"bds","sheet":"073","dag":"36045","label_bn":"36045","area_sqm":765.5},"geometry":{"type":"Polygon","coordinates":[[[90.328916,23.800184],[90.328981,23.800142],[90.329012,23.80019],[90.329042,23.80024],[90.329076,23.800292],[90.329093,23.800321],[90.329138,23.800394],[90.329198,23.800495],[90.329231,23.80055],[90.329242,23.800568],[90.329268,23.80061],[90.329336,23.800718],[90.329382,23.800792],[90.329406,23.800831],[90.32943,23.800868],[90.32944,23.800884],[90.329486,23.800958],[90.329467,23.800985],[90.329466,23.800988],[90.329442,23.801023],[90.329374,23.800908],[90.329355,23.800877],[90.329337,23.800843],[90.329312,23.800799],[90.329126,23.800507],[90.32908,23.800436],[90.328997,23.800309],[90.328954,23.800242],[90.328916,23.800184]]]}},{"type":"Feature","properties":{"survey":"bds","sheet":"073","dag":"36006","label_bn":"36006","area_sqm":1268.8},"geometry":{"type":"Polygon","coordinates":[[[90.330717,23.801648],[90.330709,23.801889],[90.330709,23.801941],[90.330709,23.801982],[90.330709,23.802002],[90.330709,23.802023],[90.330709,23.802038],[90.330709,23.802039],[90.330709,23.802063],[90.330553,23.802037],[90.330387,23.802009],[90.330387,23.802008],[90.330392,23.801989],[90.330394,23.801981],[90.330402,23.80195],[90.330402,23.80195],[90.330414,23.801904],[90.330488,23.801622],[90.330717,23.801648]]]}},{"type":"Feature","properties":{"survey":"bds","sheet":"073","dag":"36004","label_bn":"36004","area_sqm":1260.2},"geometry":{"type":"Polygon","coordinates":[[[90.329556,23.801538],[90.32962,23.801498],[90.329808,23.801644],[90.329812,23.801647],[90.329936,23.801773],[90.330084,23.801916],[90.33016,23.80197],[90.330376,23.802008],[90.330387,23.802009],[90.330553,23.802037],[90.330709,23.802063],[90.33095,23.802077],[90.331026,23.802074],[90.331164,23.802011],[90.331255,23.802041],[90.331264,23.802045],[90.331231,23.802058],[90.331218,23.802064],[90.331183,23.802078],[90.331038,23.802134],[90.330708,23.802124],[90.330367,23.802061],[90.330127,23.802018],[90.329762,23.801705],[90.329556,23.801538]]]}},{"type":"Feature","properties":{"survey":"bds","sheet":"073","dag":"36130","label_bn":"36130","area_sqm":1303.1},"geometry":{"type":"Polygon","coordinates":[[[90.330357,23.800974],[90.330383,23.800909],[90.3304,23.800868],[90.330405,23.800855],[90.33044,23.80077],[90.330476,23.80068],[90.330478,23.800676],[90.330598,23.800706],[90.330624,23.800719],[90.330678,23.800577],[90.330703,23.800585],[90.330749,23.800597],[90.330803,23.800613],[90.330749,23.800757],[90.330676,23.800908],[90.330616,23.801063],[90.330608,23.801083],[90.330473,23.801041],[90.330405,23.801],[90.330357,23.800974]]]}},{"type":"Feature","properties":{"survey":"bds","sheet":"073","dag":"36005","label_bn":"36005","area_sqm":3340.9},"geometry":{"type":"Polygon","coordinates":[[[90.330078,23.801355],[90.330178,23.801387],[90.330258,23.801404],[90.330267,23.801406],[90.33027,23.801406],[90.330283,23.801409],[90.330311,23.801415],[90.330322,23.801419],[90.33039,23.801444],[90.33051,23.801536],[90.330507,23.801547],[90.330502,23.801569],[90.330501,23.801572],[90.330488,23.801622],[90.330414,23.801904],[90.330402,23.80195],[90.330402,23.80195],[90.330394,23.801981],[90.330392,23.801989],[90.330387,23.802008],[90.330387,23.802009],[90.330376,23.802008],[90.33016,23.80197],[90.330084,23.801916],[90.329936,23.801773],[90.329812,23.801647],[90.329808,23.801644],[90.329847,23.801603],[90.329857,23.801592],[90.329923,23.801486],[90.330021,23.801383],[90.330045,23.801367],[90.330045,23.801366],[90.330075,23.801344],[90.330078,23.801355]]]}},{"type":"Feature","properties":{"survey":"bds","sheet":"073","dag":"36002","label_bn":"36002","area_sqm":14178.6},"geometry":{"type":"Polygon","coordinates":[[[90.330406,23.803041],[90.330306,23.803055],[90.330046,23.803093],[90.32994,23.803108],[90.329932,23.8031],[90.32986,23.803065],[90.329841,23.803056],[90.329617,23.802947],[90.329497,23.802873],[90.329473,23.802858],[90.329438,23.802837],[90.329325,23.802767],[90.329296,23.802723],[90.329279,23.802696],[90.329266,23.802676],[90.32925,23.802651],[90.329141,23.802483],[90.329129,23.802229],[90.329131,23.802217],[90.329139,23.802177],[90.329141,23.802162],[90.329137,23.802088],[90.329178,23.802018],[90.329178,23.802018],[90.329178,23.80201],[90.329178,23.801995],[90.329177,23.801891],[90.329176,23.801763],[90.32915,23.801517],[90.329138,23.801429],[90.329129,23.801361],[90.329129,23.80136],[90.329126,23.801348],[90.329124,23.801336],[90.329117,23.801329],[90.329059,23.801289],[90.329049,23.801268],[90.328997,23.801157],[90.32894,23.801065],[90.328939,23.801062],[90.328859,23.800966],[90.328755,23.80084],[90.32866,23.800725],[90.32848,23.800504],[90.328367,23.800381],[90.328284,23.800336],[90.328344,23.800315],[90.328379,23.800302],[90.32866,23.800202],[90.328679,23.800195],[90.328733,23.800175],[90.328737,23.80018],[90.32878,23.80024],[90.328794,23.800294],[90.328808,23.800314],[90.328851,23.80038],[90.328935,23.800506],[90.328975,23.800566],[90.328983,23.800575],[90.329199,23.800848],[90.329247,23.800917],[90.32932,23.801033],[90.32936,23.801105],[90.329392,23.801166],[90.329406,23.801195],[90.329446,23.801277],[90.329492,23.801371],[90.329506,23.801375],[90.329552,23.801393],[90.329571,23.801422],[90.329593,23.801455],[90.32962,23.801498],[90.329556,23.801538],[90.329517,23.801521],[90.329516,23.801521],[90.329496,23.801521],[90.329487,23.80152],[90.329471,23.80152],[90.32946,23.80152],[90.329448,23.80153],[90.329448,23.80153],[90.329428,23.801548],[90.32942,23.801554],[90.329398,23.801607],[90.329374,23.801787],[90.329382,23.801918],[90.329395,23.801982],[90.329408,23.802048],[90.32941,23.80206],[90.32941,23.802095],[90.329409,23.802132],[90.329407,23.802303],[90.329433,23.802405],[90.32951,23.802535],[90.3296,23.80265],[90.329606,23.802659],[90.329657,23.802716],[90.329735,23.802788],[90.329749,23.802801],[90.329888,23.802881],[90.330031,23.802911],[90.330032,23.802913],[90.330174,23.802909],[90.33028,23.80288],[90.330293,23.802865],[90.330359,23.802783],[90.330362,23.802779],[90.330362,23.802779],[90.330367,23.802773],[90.330392,23.802698],[90.330393,23.802695],[90.330411,23.802642],[90.330418,23.802619],[90.330691,23.802596],[90.33076,23.80259],[90.33077,23.802641],[90.330782,23.8027],[90.330819,23.80288],[90.330822,23.802895],[90.330833,23.802923],[90.330836,23.802929],[90.33085,23.802963],[90.330858,23.802976],[90.33086,23.802981],[90.330829,23.802989],[90.330771,23.803008],[90.330672,23.80304],[90.330586,23.80306],[90.330541,23.803052],[90.330443,23.803036],[90.330406,23.803041]]]}},{"type":"Feature","properties":{"survey":"bds","sheet":"073","dag":"36003","label_bn":"36003","area_sqm":15652.0},"geometry":{"type":"Polygon","coordinates":[[[90.33135,23.802179],[90.331343,23.80219],[90.331326,23.80222],[90.33117,23.802486],[90.331124,23.802548],[90.331116,23.802559],[90.331089,23.802561],[90.33076,23.80259],[90.330691,23.802596],[90.330418,23.802619],[90.330411,23.802642],[90.330393,23.802695],[90.330392,23.802698],[90.330367,23.802773],[90.330362,23.802779],[90.330362,23.802779],[90.330359,23.802783],[90.330293,23.802865],[90.33028,23.80288],[90.330174,23.802909],[90.330032,23.802913],[90.330031,23.802911],[90.329888,23.802881],[90.329749,23.802801],[90.329735,23.802788],[90.329657,23.802716],[90.329606,23.802659],[90.3296,23.80265],[90.32951,23.802535],[90.329433,23.802405],[90.329407,23.802303],[90.329409,23.802132],[90.32941,23.802095],[90.32941,23.80206],[90.329408,23.802048],[90.329395,23.801982],[90.329382,23.801918],[90.329374,23.801787],[90.329398,23.801607],[90.32942,23.801554],[90.329428,23.801548],[90.329448,23.80153],[90.329448,23.80153],[90.32946,23.80152],[90.329471,23.80152],[90.329487,23.80152],[90.329496,23.801521],[90.329516,23.801521],[90.329517,23.801521],[90.329556,23.801538],[90.329762,23.801705],[90.330127,23.802018],[90.330367,23.802061],[90.330708,23.802124],[90.331038,23.802134],[90.331183,23.802078],[90.331218,23.802064],[90.331231,23.802058],[90.331264,23.802045],[90.331265,23.802045],[90.331326,23.80208],[90.33135,23.802179]]]}},{"type":"Feature","properties":{"survey":"bds","sheet":"073","dag":"36032","label_bn":"36032","area_sqm":130.2},"geometry":{"type":"Polygon","coordinates":[[[90.329665,23.801432],[90.329669,23.801437],[90.329675,23.801444],[90.329685,23.801457],[90.329653,23.801477],[90.329647,23.801481],[90.32962,23.801498],[90.329593,23.801455],[90.329571,23.801422],[90.329552,23.801393],[90.329508,23.801376],[90.329533,23.801363],[90.329536,23.801361],[90.329537,23.80136],[90.329588,23.801333],[90.329665,23.801432]]]}}]}