{"type":"FeatureCollection","features":[{"type":"Feature","properties":{"survey":"bds","sheet":"074","dag":"36505","label_bn":"36505","area_sqm":6.9},"geometry":{"type":"Polygon","coordinates":[[[90.32876,23.803197],[90.328757,23.803193],[90.328824,23.803168],[90.32888,23.803142],[90.328861,23.803151],[90.328821,23.803178],[90.328778,23.803191],[90.32876,23.803197]]]}},{"type":"Feature","properties":{"survey":"bds","sheet":"074","dag":"36506","label_bn":"36506","area_sqm":38.5},"geometry":{"type":"Polygon","coordinates":[[[90.328957,23.803105],[90.328978,23.803095],[90.329154,23.803026],[90.329174,23.803028],[90.329149,23.803071],[90.329083,23.803068],[90.328957,23.803105]]]}},{"type":"Feature","properties":{"survey":"bds","sheet":"074","dag":"36507","label_bn":"36507","area_sqm":80.9},"geometry":{"type":"Polygon","coordinates":[[[90.329154,23.803026],[90.329218,23.802902],[90.32926,23.802833],[90.32928,23.802801],[90.329312,23.802748],[90.329325,23.802767],[90.329262,23.802878],[90.329174,23.803028],[90.329154,23.803026]]]}},{"type":"Feature","properties":{"survey":"bds","sheet":"074","dag":"36508","label_bn":"36508","area_sqm":99.4},"geometry":{"type":"Polygon","coordinates":[[[90.329183,23.802811],[90.329266,23.802676],[90.329296,23.802723],[90.329312,23.802748],[90.32928,23.802801],[90.329246,23.802809],[90.329237,23.802811],[90.329183,23.802811]]]}},{"type":"Feature","properties":{"survey":"bds","sheet":"074","dag":"36504","label_bn":"36504","area_sqm":150.5},"geometry":{"type":"Polygon","coordinates":[[[90.328689,23.803157],[90.328756,23.803131],[90.328793,23.803114],[90.328872,23.803077],[90.32892,23.803097],[90.328946,23.803109],[90.32888,23.803142],[90.328824,23.803168],[90.328757,23.803193],[90.32876,23.803197],[90.328734,23.803205],[90.328731,23.803208],[90.328731,23.803202],[90.328689,23.803157]]]}},{"type":"Feature","properties":{"survey":"bds","sheet":"074","dag":"36515","label_bn":"36515","area_sqm":924.7},"geometry":{"type":"Polygon","coordinates":[[[90.328806,23.801773],[90.329167,23.801679],[90.329176,23.801763],[90.329178,23.802018],[90.329059,23.801995],[90.328982,23.801973],[90.328879,23.801887],[90.328806,23.801773]]]}},{"type":"Feature","properties":{"survey":"bds","sheet":"074","dag":"36503","label_bn":"36503","area_sqm":1752.1},"geometry":{"type":"Polygon","coordinates":[[[90.327633,23.802531],[90.327749,23.802444],[90.327912,23.802593],[90.32816,23.802749],[90.328289,23.802825],[90.328508,23.80293],[90.328788,23.80304],[90.328872,23.803077],[90.328793,23.803114],[90.328756,23.803131],[90.328689,23.803157],[90.328731,23.803202],[90.328731,23.803208],[90.328726,23.803214],[90.328712,23.803206],[90.328636,23.803128],[90.328436,23.803019],[90.328326,23.802986],[90.328049,23.802813],[90.327633,23.802531]]]}},{"type":"Feature","properties":{"survey":"bds","sheet":"074","dag":"36516","label_bn":"36516","area_sqm":2188.2},"geometry":{"type":"Polygon","coordinates":[[[90.328604,23.801467],[90.328821,23.801307],[90.328874,23.8013],[90.329009,23.801268],[90.329059,23.801289],[90.32911,23.801321],[90.329124,23.801336],[90.329129,23.80136],[90.32915,23.801517],[90.329167,23.801679],[90.328806,23.801773],[90.32878,23.801733],[90.328669,23.80156],[90.328604,23.801467]]]}},{"type":"Feature","properties":{"survey":"bds","sheet":"074","dag":"36512","label_bn":"36512","area_sqm":2669.6},"geometry":{"type":"Polygon","coordinates":[[[90.328137,23.802111],[90.328179,23.802054],[90.328357,23.80194],[90.329069,23.802219],[90.329129,23.802229],[90.329141,23.802483],[90.329024,23.802469],[90.328137,23.802111]]]}},{"type":"Feature","properties":{"survey":"bds","sheet":"074","dag":"36514","label_bn":"36514","area_sqm":3049.5},"geometry":{"type":"Polygon","coordinates":[[[90.328357,23.80194],[90.328385,23.801783],[90.328479,23.801542],[90.328604,23.801467],[90.328669,23.80156],[90.32878,23.801733],[90.328806,23.801773],[90.328879,23.801887],[90.328982,23.801973],[90.329059,23.801995],[90.329178,23.802018],[90.329137,23.802088],[90.329141,23.802162],[90.329129,23.802229],[90.329069,23.802219],[90.328357,23.80194]]]}},{"type":"Feature","properties":{"survey":"bds","sheet":"074","dag":"36511","label_bn":"36511","area_sqm":3610.3},"geometry":{"type":"Polygon","coordinates":[[[90.328005,23.802269],[90.328137,23.802111],[90.329024,23.802469],[90.329141,23.802483],[90.329266,23.802676],[90.329183,23.802811],[90.329156,23.802812],[90.328833,23.802696],[90.328688,23.802627],[90.328005,23.802269]]]}},{"type":"Feature","properties":{"survey":"bds","sheet":"074","dag":"36510","label_bn":"36510","area_sqm":5552.9},"geometry":{"type":"Polygon","coordinates":[[[90.32926,23.802833],[90.329218,23.802902],[90.329154,23.803026],[90.328978,23.803095],[90.328957,23.803105],[90.328946,23.803109],[90.32892,23.803097],[90.328872,23.803077],[90.328788,23.80304],[90.328508,23.80293],[90.328289,23.802825],[90.32816,23.802749],[90.327912,23.802593],[90.327749,23.802444],[90.328005,23.802269],[90.328688,23.802627],[90.328833,23.802696],[90.329156,23.802812],[90.329183,23.802811],[90.329237,23.802811],[90.329246,23.802809],[90.32928,23.802801],[90.32926,23.802833]]]}},{"type":"Feature","properties":{"survey":"bds","sheet":"074","dag":"36502","label_bn":"36502","area_sqm":7943.0},"geometry":{"type":"Polygon","coordinates":[[[90.327247,23.802984],[90.327291,23.802903],[90.327356,23.802797],[90.327486,23.802583],[90.327633,23.802531],[90.328049,23.802813],[90.328326,23.802986],[90.328436,23.803019],[90.328636,23.803128],[90.328712,23.803206],[90.328726,23.803214],[90.328697,23.803244],[90.328549,23.803547],[90.328397,23.803475],[90.328327,23.803481],[90.328296,23.803483],[90.32805,23.803384],[90.328045,23.803395],[90.327745,23.803237],[90.327549,23.803134],[90.327374,23.803047],[90.327247,23.802984]]]}},{"type":"Feature","properties":{"survey":"bds","sheet":"074","dag":"36513","label_bn":"36513","area_sqm":29223.2},"geometry":{"type":"Polygon","coordinates":[[[90.328874,23.8013],[90.328821,23.801307],[90.328604,23.801467],[90.328479,23.801542],[90.328385,23.801783],[90.328357,23.80194],[90.328179,23.802054],[90.328137,23.802111],[90.328005,23.802269],[90.327749,23.802444],[90.327453,23.802157],[90.327274,23.802064],[90.327198,23.801872],[90.327179,23.801733],[90.32713,23.801571],[90.327084,23.801361],[90.327114,23.8009],[90.32714,23.800572],[90.328284,23.800336],[90.328367,23.800381],[90.32848,23.800504],[90.328713,23.80079],[90.328939,23.801062],[90.328997,23.801157],[90.329059,23.801289],[90.329009,23.801268],[90.328874,23.8013]]]}},{"type":"Feature","properties":{"survey":"bds","sheet":"074","dag":"36501","label_bn":"36501","area_sqm":46378.1},"geometry":{"type":"Polygon","coordinates":[[[90.325295,23.803031],[90.325328,23.802874],[90.325354,23.802759],[90.325365,23.802615],[90.325385,23.802454],[90.325415,23.802201],[90.32543,23.802019],[90.325508,23.801862],[90.325579,23.801679],[90.325721,23.801722],[90.325815,23.801372],[90.325861,23.801334],[90.325892,23.801305],[90.325941,23.800882],[90.325943,23.800591],[90.325952,23.800527],[90.326083,23.800525],[90.32714,23.800572],[90.327114,23.8009],[90.327084,23.801361],[90.32713,23.801571],[90.327179,23.801733],[90.327198,23.801872],[90.327274,23.802064],[90.327453,23.802157],[90.327749,23.802444],[90.327633,23.802531],[90.327486,23.802583],[90.327356,23.802797],[90.327291,23.802903],[90.327247,23.802984],[90.325295,23.803089],[90.325295,23.803031]]]}}]}