{"type":"FeatureCollection","features":[{"type":"Feature","properties":{"survey":"bds","sheet":"075","dag":"37011","label_bn":"37011","area_sqm":24.8},"geometry":{"type":"Polygon","coordinates":[[[90.328258,23.799862],[90.328278,23.799776],[90.32828,23.799765],[90.328283,23.799758],[90.328297,23.799718],[90.328303,23.7997],[90.328314,23.799682],[90.328313,23.799686],[90.328294,23.799779],[90.328258,23.799886],[90.328258,23.799862]]]}},{"type":"Feature","properties":{"survey":"bds","sheet":"075","dag":"37010","label_bn":"37010","area_sqm":125.1},"geometry":{"type":"Polygon","coordinates":[[[90.32787,23.800111],[90.327896,23.800112],[90.3279,23.800112],[90.3279,23.800113],[90.327898,23.800118],[90.327872,23.800244],[90.327793,23.800241],[90.327812,23.800109],[90.32787,23.800111]]]}},{"type":"Feature","properties":{"survey":"bds","sheet":"075","dag":"37008","label_bn":"37008","area_sqm":164.1},"geometry":{"type":"Polygon","coordinates":[[[90.327647,23.800114],[90.32763,23.8002],[90.327626,23.800222],[90.327622,23.800244],[90.327511,23.800246],[90.327526,23.800169],[90.32753,23.800153],[90.327537,23.800113],[90.327647,23.800113],[90.327647,23.800114]]]}},{"type":"Feature","properties":{"survey":"bds","sheet":"075","dag":"37009","label_bn":"37009","area_sqm":249.5},"geometry":{"type":"Polygon","coordinates":[[[90.327793,23.800241],[90.327672,23.800243],[90.327665,23.800243],[90.327622,23.800244],[90.327626,23.800222],[90.32763,23.8002],[90.327647,23.800114],[90.327647,23.800113],[90.327812,23.800109],[90.327793,23.800241]]]}},{"type":"Feature","properties":{"survey":"bds","sheet":"075","dag":"37003","label_bn":"37003","area_sqm":430.9},"geometry":{"type":"Polygon","coordinates":[[[90.326286,23.797418],[90.326286,23.797414],[90.326286,23.797401],[90.326291,23.797272],[90.326467,23.797302],[90.326496,23.797349],[90.326471,23.797504],[90.326471,23.797507],[90.326468,23.797521],[90.326466,23.797535],[90.326449,23.797531],[90.326295,23.797423],[90.326286,23.797418]]]}},{"type":"Feature","properties":{"survey":"bds","sheet":"075","dag":"37004","label_bn":"37004","area_sqm":1560.2},"geometry":{"type":"Polygon","coordinates":[[[90.326466,23.797535],[90.326468,23.797521],[90.326471,23.797507],[90.326471,23.797504],[90.326496,23.797349],[90.326695,23.79744],[90.326846,23.797488],[90.326968,23.797522],[90.327203,23.797547],[90.327276,23.797564],[90.327338,23.797578],[90.327368,23.797608],[90.327378,23.797625],[90.32738,23.797629],[90.32738,23.79763],[90.327383,23.797634],[90.327392,23.79765],[90.327396,23.797691],[90.327398,23.79772],[90.32739,23.797868],[90.32739,23.797869],[90.327382,23.797859],[90.327322,23.797786],[90.32727,23.797722],[90.327224,23.797675],[90.327175,23.797675],[90.327079,23.797656],[90.326983,23.797638],[90.326779,23.797607],[90.326585,23.797568],[90.326517,23.797549],[90.326466,23.797535]]]}},{"type":"Feature","properties":{"survey":"bds","sheet":"075","dag":"37017","label_bn":"37017","area_sqm":2168.7},"geometry":{"type":"Polygon","coordinates":[[[90.327428,23.796741],[90.327573,23.79668],[90.327541,23.796609],[90.327719,23.796544],[90.327712,23.796498],[90.327983,23.796423],[90.328022,23.796462],[90.32797,23.796579],[90.327974,23.796583],[90.328082,23.796684],[90.328012,23.796775],[90.327703,23.796925],[90.327594,23.796965],[90.327428,23.796741]]]}},{"type":"Feature","properties":{"survey":"bds","sheet":"075","dag":"37016","label_bn":"37016","area_sqm":3083.3},"geometry":{"type":"Polygon","coordinates":[[[90.326905,23.796537],[90.326914,23.796537],[90.327258,23.796553],[90.327305,23.796555],[90.327335,23.796557],[90.327366,23.796629],[90.327391,23.796694],[90.327414,23.796723],[90.327428,23.796741],[90.327594,23.796965],[90.327354,23.797053],[90.327073,23.79707],[90.326939,23.797056],[90.326912,23.796646],[90.326905,23.796537]]]}},{"type":"Feature","properties":{"survey":"bds","sheet":"075","dag":"37015","label_bn":"37015","area_sqm":3252.6},"geometry":{"type":"Polygon","coordinates":[[[90.326355,23.796751],[90.326471,23.796477],[90.326508,23.796425],[90.326509,23.796424],[90.326548,23.796428],[90.326629,23.796436],[90.326811,23.796453],[90.326854,23.796457],[90.326907,23.796462],[90.326905,23.796537],[90.326912,23.796646],[90.326939,23.797056],[90.326753,23.797036],[90.326492,23.796963],[90.326397,23.796877],[90.326364,23.796809],[90.326362,23.796806],[90.326358,23.796774],[90.326355,23.796751]]]}},{"type":"Feature","properties":{"survey":"bds","sheet":"075","dag":"37005","label_bn":"37005","area_sqm":4542.2},"geometry":{"type":"Polygon","coordinates":[[[90.326453,23.797615],[90.326466,23.797535],[90.326517,23.797549],[90.326585,23.797568],[90.326779,23.797607],[90.326983,23.797638],[90.327079,23.797656],[90.327175,23.797675],[90.327224,23.797675],[90.32727,23.797722],[90.327322,23.797786],[90.327382,23.797859],[90.32739,23.797869],[90.327388,23.797877],[90.327388,23.797878],[90.327376,23.797917],[90.327373,23.797925],[90.32735,23.797956],[90.327285,23.798042],[90.327242,23.798093],[90.327195,23.798148],[90.32719,23.798154],[90.327166,23.798172],[90.327143,23.798189],[90.327129,23.7982],[90.327092,23.798228],[90.327054,23.798256],[90.326912,23.798271],[90.3266,23.798252],[90.326604,23.798232],[90.32661,23.798202],[90.326615,23.798177],[90.326657,23.797966],[90.326712,23.797668],[90.326453,23.797615]]]}},{"type":"Feature","properties":{"survey":"bds","sheet":"075","dag":"37002","label_bn":"37002","area_sqm":5101.2},"geometry":{"type":"Polygon","coordinates":[[[90.326244,23.799063],[90.326247,23.799054],[90.326258,23.799007],[90.326263,23.798982],[90.32628,23.79891],[90.326321,23.798857],[90.326309,23.798655],[90.326305,23.79858],[90.3263,23.798498],[90.326282,23.798178],[90.326281,23.798161],[90.326279,23.79814],[90.326272,23.798005],[90.326268,23.797938],[90.326273,23.7978],[90.326276,23.79771],[90.326284,23.79746],[90.326285,23.79743],[90.326286,23.797418],[90.326295,23.797423],[90.326449,23.797531],[90.326466,23.797535],[90.326453,23.797615],[90.326712,23.797668],[90.326657,23.797966],[90.326615,23.798177],[90.32661,23.798202],[90.326604,23.798232],[90.3266,23.798252],[90.326537,23.798582],[90.326533,23.798603],[90.32653,23.798622],[90.326529,23.798628],[90.326488,23.798871],[90.32646,23.799025],[90.326457,23.799043],[90.326454,23.799061],[90.326451,23.799061],[90.326263,23.799063],[90.326244,23.799063]]]}},{"type":"Feature","properties":{"survey":"bds","sheet":"075","dag":"37001","label_bn":"37001","area_sqm":6959.1},"geometry":{"type":"Polygon","coordinates":[[[90.325382,23.800387],[90.325501,23.800111],[90.325588,23.799909],[90.325686,23.799682],[90.32596,23.799048],[90.32596,23.799048],[90.326159,23.799048],[90.326188,23.799048],[90.326205,23.799048],[90.326201,23.799136],[90.326198,23.799221],[90.326193,23.799326],[90.326171,23.799446],[90.326168,23.79946],[90.326163,23.799487],[90.32614,23.799607],[90.326127,23.799679],[90.326127,23.79968],[90.326115,23.799722],[90.326108,23.79975],[90.326095,23.799797],[90.32607,23.799891],[90.326009,23.800055],[90.326002,23.800073],[90.326002,23.800091],[90.326002,23.800091],[90.326002,23.800094],[90.326002,23.800094],[90.325997,23.800115],[90.325988,23.800161],[90.325985,23.800173],[90.325912,23.800529],[90.32591,23.800529],[90.325842,23.800508],[90.325792,23.800492],[90.325618,23.800465],[90.325555,23.800443],[90.325502,23.800424],[90.32549,23.80042],[90.325382,23.800387]]]}},{"type":"Feature","properties":{"survey":"bds","sheet":"075","dag":"37013","label_bn":"37013","area_sqm":7871.5},"geometry":{"type":"Polygon","coordinates":[[[90.32735,23.797956],[90.327373,23.797925],[90.327376,23.797917],[90.327388,23.797878],[90.327388,23.797877],[90.32739,23.797869],[90.32739,23.797868],[90.327398,23.79772],[90.327396,23.797691],[90.327392,23.79765],[90.327383,23.797634],[90.32738,23.79763],[90.32738,23.797629],[90.327378,23.797625],[90.327731,23.797606],[90.327742,23.797606],[90.327724,23.797646],[90.327769,23.797741],[90.327814,23.797836],[90.327915,23.798005],[90.327939,23.798035],[90.32796,23.798061],[90.327995,23.798095],[90.32805,23.798151],[90.32807,23.798172],[90.328116,23.798214],[90.328152,23.798243],[90.328234,23.798309],[90.328333,23.798386],[90.328392,23.798431],[90.328514,23.79852],[90.328576,23.798524],[90.328481,23.798643],[90.328463,23.798666],[90.328461,23.798668],[90.328355,23.798801],[90.328341,23.798819],[90.328341,23.798819],[90.328254,23.798928],[90.328013,23.798762],[90.328,23.798752],[90.327954,23.798719],[90.32793,23.798702],[90.327648,23.798497],[90.327543,23.798306],[90.327536,23.798294],[90.327527,23.798278],[90.32735,23.797956]]]}},{"type":"Feature","properties":{"survey":"bds","sheet":"075","dag":"37012","label_bn":"37012","area_sqm":9702.1},"geometry":{"type":"Polygon","coordinates":[[[90.32719,23.798154],[90.327195,23.798148],[90.327242,23.798093],[90.327285,23.798042],[90.32735,23.797956],[90.327527,23.798278],[90.327536,23.798294],[90.327543,23.798306],[90.327648,23.798497],[90.32793,23.798702],[90.327954,23.798719],[90.328,23.798752],[90.328013,23.798762],[90.328254,23.798928],[90.32831,23.798995],[90.328328,23.799016],[90.328345,23.799037],[90.328421,23.799127],[90.328408,23.799198],[90.328406,23.799212],[90.328403,23.799224],[90.328376,23.799376],[90.328376,23.799378],[90.328372,23.7994],[90.328016,23.799307],[90.32798,23.799297],[90.327805,23.799252],[90.327735,23.799234],[90.327711,23.799243],[90.327698,23.799249],[90.327618,23.799281],[90.327358,23.799387],[90.32734,23.799291],[90.327333,23.799247],[90.327331,23.799237],[90.327282,23.79897],[90.327277,23.798943],[90.327275,23.798931],[90.327252,23.798801],[90.32725,23.798795],[90.327245,23.798763],[90.327227,23.798666],[90.327222,23.798638],[90.327218,23.798619],[90.327218,23.798614],[90.327228,23.79819],[90.327228,23.798188],[90.327228,23.798187],[90.327206,23.798168],[90.32719,23.798154]]]}},{"type":"Feature","properties":{"survey":"bds","sheet":"075","dag":"37014","label_bn":"37014","area_sqm":13196.0},"geometry":{"type":"Polygon","coordinates":[[[90.326291,23.797272],[90.326349,23.797055],[90.326352,23.797042],[90.326359,23.797016],[90.326374,23.796961],[90.326397,23.796877],[90.326492,23.796963],[90.326753,23.797036],[90.326939,23.797056],[90.327073,23.79707],[90.327354,23.797053],[90.327594,23.796965],[90.327703,23.796925],[90.328012,23.796775],[90.328082,23.796684],[90.328142,23.79674],[90.328163,23.796744],[90.328174,23.796746],[90.328281,23.796767],[90.328311,23.796774],[90.328589,23.796975],[90.3287,23.797055],[90.32876,23.797099],[90.328671,23.797147],[90.328445,23.797227],[90.328311,23.797267],[90.328137,23.797347],[90.327938,23.797462],[90.327829,23.797525],[90.3278,23.797544],[90.327771,23.797563],[90.327743,23.797603],[90.327742,23.797606],[90.327731,23.797606],[90.327378,23.797625],[90.327368,23.797608],[90.327338,23.797578],[90.327276,23.797564],[90.327203,23.797547],[90.326968,23.797522],[90.326846,23.797488],[90.326695,23.79744],[90.326496,23.797349],[90.326467,23.797302],[90.326291,23.797272]]]}},{"type":"Feature","properties":{"survey":"bds","sheet":"075","dag":"37007","label_bn":"37007","area_sqm":13659.9},"geometry":{"type":"Polygon","coordinates":[[[90.328273,23.800291],[90.328284,23.800336],[90.328242,23.800345],[90.328209,23.800352],[90.327821,23.800432],[90.327798,23.800437],[90.327776,23.800441],[90.327437,23.800511],[90.327403,23.800518],[90.32714,23.800572],[90.327165,23.800407],[90.327174,23.800349],[90.327174,23.800339],[90.327175,23.80031],[90.327181,23.799982],[90.327187,23.799963],[90.327194,23.799942],[90.327199,23.799926],[90.327227,23.799837],[90.327234,23.799758],[90.327238,23.799709],[90.327239,23.799705],[90.32724,23.799684],[90.327358,23.799387],[90.327618,23.799281],[90.327698,23.799249],[90.327711,23.799243],[90.327735,23.799234],[90.327805,23.799252],[90.32798,23.799297],[90.328016,23.799307],[90.328372,23.7994],[90.32837,23.79941],[90.328359,23.799461],[90.32835,23.799506],[90.328341,23.799552],[90.328336,23.799577],[90.328314,23.799682],[90.328303,23.7997],[90.328297,23.799718],[90.328283,23.799758],[90.32828,23.799765],[90.328278,23.799776],[90.328258,23.799862],[90.328258,23.799886],[90.328257,23.79989],[90.328242,23.799933],[90.328225,23.799984],[90.328221,23.799999],[90.328212,23.800025],[90.328225,23.800083],[90.328258,23.800227],[90.328263,23.800246],[90.328273,23.800291]]]}},{"type":"Feature","properties":{"survey":"bds","sheet":"075","dag":"37006","label_bn":"37006","area_sqm":26192.7},"geometry":{"type":"Polygon","coordinates":[[[90.325912,23.800529],[90.325985,23.800173],[90.325988,23.800161],[90.325997,23.800115],[90.326002,23.800094],[90.326002,23.800094],[90.326002,23.800091],[90.326002,23.800091],[90.326002,23.800073],[90.326009,23.800055],[90.32607,23.799891],[90.326095,23.799797],[90.326108,23.79975],[90.326115,23.799722],[90.326127,23.79968],[90.326127,23.799679],[90.32614,23.799607],[90.326163,23.799487],[90.326168,23.79946],[90.326171,23.799446],[90.326193,23.799326],[90.326198,23.799221],[90.326201,23.799136],[90.326205,23.799048],[90.326235,23.79906],[90.326244,23.799063],[90.326263,23.799063],[90.326451,23.799061],[90.326454,23.799061],[90.326457,23.799043],[90.32646,23.799025],[90.326488,23.798871],[90.326529,23.798628],[90.32653,23.798622],[90.326533,23.798603],[90.326537,23.798582],[90.3266,23.798252],[90.326912,23.798271],[90.327054,23.798256],[90.327092,23.798228],[90.327129,23.7982],[90.327143,23.798189],[90.327166,23.798172],[90.32719,23.798154],[90.327206,23.798168],[90.327228,23.798187],[90.327228,23.798188],[90.327228,23.79819],[90.327218,23.798614],[90.327218,23.798619],[90.327222,23.798638],[90.327227,23.798666],[90.327245,23.798763],[90.32725,23.798795],[90.327252,23.798801],[90.327275,23.798931],[90.327277,23.798943],[90.327282,23.79897],[90.327331,23.799237],[90.327333,23.799247],[90.32734,23.799291],[90.327358,23.799387],[90.32724,23.799684],[90.327239,23.799705],[90.327238,23.799709],[90.327234,23.799758],[90.327227,23.799837],[90.327199,23.799926],[90.327194,23.799942],[90.327187,23.799963],[90.327181,23.799982],[90.327175,23.80031],[90.327174,23.800339],[90.327174,23.800349],[90.327165,23.800407],[90.32714,23.800572],[90.326879,23.800561],[90.32685,23.800559],[90.326667,23.800551],[90.326623,23.800549],[90.326173,23.800529],[90.326172,23.800529],[90.326132,23.800527],[90.326083,23.800525],[90.325952,23.800527],[90.325912,23.800529]]]}}]}