{"type":"FeatureCollection","features":[{"type":"Feature","properties":{"survey":"bds","sheet":"076","dag":"37519","label_bn":"37519","area_sqm":1503.1},"geometry":{"type":"Polygon","coordinates":[[[90.324597,23.796939],[90.324572,23.797066],[90.324458,23.797062],[90.324338,23.797056],[90.324081,23.797036],[90.323953,23.797023],[90.323872,23.797018],[90.32381,23.797018],[90.323597,23.797015],[90.323518,23.797021],[90.323609,23.796981],[90.3238,23.796891],[90.324079,23.79687],[90.324597,23.796939]]]}},{"type":"Feature","properties":{"survey":"bds","sheet":"076","dag":"37520","label_bn":"37520","area_sqm":563.4},"geometry":{"type":"Polygon","coordinates":[[[90.324597,23.796939],[90.325363,23.797089],[90.325231,23.79708],[90.325136,23.797082],[90.325088,23.797083],[90.324982,23.797075],[90.324734,23.797071],[90.324572,23.797066],[90.324597,23.796939]]]}},{"type":"Feature","properties":{"survey":"bds","sheet":"076","dag":"37521","label_bn":"37521","area_sqm":34.9},"geometry":{"type":"Polygon","coordinates":[[[90.325665,23.797148],[90.325624,23.797176],[90.325596,23.797162],[90.325539,23.797135],[90.325486,23.797114],[90.325479,23.797112],[90.325665,23.797148]]]}},{"type":"Feature","properties":{"survey":"bds","sheet":"076","dag":"37531","label_bn":"37531","area_sqm":929.1},"geometry":{"type":"Polygon","coordinates":[[[90.326066,23.797389],[90.326048,23.79744],[90.326034,23.797415],[90.326014,23.797388],[90.325998,23.797372],[90.325972,23.797355],[90.325882,23.797306],[90.325766,23.797241],[90.325731,23.797226],[90.325671,23.797199],[90.325624,23.797176],[90.325665,23.797148],[90.325955,23.797178],[90.326291,23.797272],[90.326286,23.797414],[90.326243,23.797389],[90.326204,23.797372],[90.326155,23.797358],[90.326114,23.797356],[90.32611,23.797356],[90.326073,23.797356],[90.326066,23.797389]]]}},{"type":"Feature","properties":{"survey":"bds","sheet":"076","dag":"37518","label_bn":"37518","area_sqm":4917.4},"geometry":{"type":"Polygon","coordinates":[[[90.323882,23.797303],[90.323771,23.797452],[90.323164,23.797296],[90.323332,23.797102],[90.323518,23.797021],[90.323597,23.797015],[90.32381,23.797018],[90.323872,23.797018],[90.323953,23.797023],[90.324081,23.797036],[90.324338,23.797056],[90.324458,23.797062],[90.324572,23.797066],[90.324503,23.797411],[90.324431,23.797428],[90.323882,23.797303]]]}},{"type":"Feature","properties":{"survey":"bds","sheet":"076","dag":"37522","label_bn":"37522","area_sqm":4177.6},"geometry":{"type":"Polygon","coordinates":[[[90.325173,23.797538],[90.325011,23.797544],[90.324916,23.797517],[90.324869,23.797465],[90.324503,23.797411],[90.324572,23.797066],[90.324734,23.797071],[90.324982,23.797075],[90.325088,23.797083],[90.325136,23.797082],[90.325231,23.79708],[90.325363,23.797089],[90.325479,23.797112],[90.325486,23.797114],[90.325539,23.797135],[90.325596,23.797162],[90.325624,23.797176],[90.325433,23.797303],[90.325323,23.79737],[90.32528,23.797435],[90.32525,23.79754],[90.325173,23.797538]]]}},{"type":"Feature","properties":{"survey":"bds","sheet":"076","dag":"37512","label_bn":"37512","area_sqm":1536.4},"geometry":{"type":"Polygon","coordinates":[[[90.32204,23.797451],[90.321967,23.797545],[90.321901,23.797535],[90.321839,23.797529],[90.321788,23.797519],[90.321629,23.79749],[90.321445,23.797471],[90.321393,23.797468],[90.321431,23.797364],[90.321298,23.797343],[90.321314,23.797261],[90.321328,23.797181],[90.321488,23.797207],[90.32204,23.797451]]]}},{"type":"Feature","properties":{"survey":"bds","sheet":"076","dag":"37511","label_bn":"37511","area_sqm":461.4},"geometry":{"type":"Polygon","coordinates":[[[90.321967,23.797545],[90.321912,23.797617],[90.321912,23.797617],[90.321879,23.797606],[90.321819,23.797591],[90.321745,23.797577],[90.321691,23.797566],[90.321575,23.797559],[90.321438,23.797549],[90.321367,23.797545],[90.321374,23.797519],[90.321393,23.797468],[90.321445,23.797471],[90.321629,23.79749],[90.321788,23.797519],[90.321839,23.797529],[90.321901,23.797535],[90.321967,23.797545]]]}},{"type":"Feature","properties":{"survey":"bds","sheet":"076","dag":"37513","label_bn":"37513","area_sqm":335.6},"geometry":{"type":"Polygon","coordinates":[[[90.322274,23.797556],[90.322188,23.79768],[90.322142,23.797666],[90.32212,23.797655],[90.322124,23.79763],[90.322137,23.797584],[90.322092,23.797571],[90.32208,23.797567],[90.321999,23.797549],[90.321967,23.797545],[90.32204,23.797451],[90.322274,23.797556]]]}},{"type":"Feature","properties":{"survey":"bds","sheet":"076","dag":"37514","label_bn":"37514","area_sqm":245.6},"geometry":{"type":"Polygon","coordinates":[[[90.322188,23.79768],[90.322154,23.797729],[90.32215,23.797726],[90.322127,23.797704],[90.3221,23.797687],[90.322078,23.797676],[90.322042,23.797662],[90.322032,23.797658],[90.321998,23.797645],[90.321912,23.797617],[90.321967,23.797545],[90.321999,23.797549],[90.32208,23.797567],[90.322092,23.797571],[90.322137,23.797584],[90.322124,23.79763],[90.32212,23.797655],[90.322142,23.797666],[90.322188,23.79768]]]}},{"type":"Feature","properties":{"survey":"bds","sheet":"076","dag":"37523","label_bn":"37523","area_sqm":483.6},"geometry":{"type":"Polygon","coordinates":[[[90.32525,23.79754],[90.325195,23.797733],[90.324989,23.797691],[90.32494,23.797686],[90.325011,23.797544],[90.325173,23.797538],[90.32525,23.79754]]]}},{"type":"Feature","properties":{"survey":"bds","sheet":"076","dag":"37530","label_bn":"37530","area_sqm":6274.7},"geometry":{"type":"Polygon","coordinates":[[[90.326286,23.797414],[90.326268,23.797938],[90.325847,23.797866],[90.325195,23.797733],[90.32525,23.79754],[90.32528,23.797435],[90.325323,23.79737],[90.325433,23.797303],[90.325624,23.797176],[90.325671,23.797199],[90.325731,23.797226],[90.325766,23.797241],[90.325882,23.797306],[90.325972,23.797355],[90.325998,23.797372],[90.326014,23.797388],[90.326034,23.797415],[90.326048,23.79744],[90.326066,23.797389],[90.326073,23.797356],[90.32611,23.797356],[90.326114,23.797356],[90.326155,23.797358],[90.326204,23.797372],[90.326243,23.797389],[90.326286,23.797414]]]}},{"type":"Feature","properties":{"survey":"bds","sheet":"076","dag":"37515","label_bn":"37515","area_sqm":10.9},"geometry":{"type":"Polygon","coordinates":[[[90.322668,23.797939],[90.32265,23.797993],[90.322627,23.797987],[90.322678,23.797914],[90.322668,23.797939]]]}},{"type":"Feature","properties":{"survey":"bds","sheet":"076","dag":"37510","label_bn":"37510","area_sqm":976.6},"geometry":{"type":"Polygon","coordinates":[[[90.321912,23.797617],[90.321588,23.79804],[90.321583,23.797974],[90.32158,23.797912],[90.321572,23.797826],[90.321572,23.797689],[90.321572,23.797581],[90.321575,23.797559],[90.321691,23.797566],[90.321745,23.797577],[90.321819,23.797591],[90.321879,23.797606],[90.321912,23.797617],[90.321912,23.797617]]]}},{"type":"Feature","properties":{"survey":"bds","sheet":"076","dag":"37525","label_bn":"37525","area_sqm":813.2},"geometry":{"type":"Polygon","coordinates":[[[90.324605,23.797858],[90.324544,23.798144],[90.324532,23.79814],[90.324302,23.798077],[90.324356,23.797806],[90.324605,23.797858]]]}},{"type":"Feature","properties":{"survey":"bds","sheet":"076","dag":"37501","label_bn":"37501","area_sqm":21655.7},"geometry":{"type":"Polygon","coordinates":[[[90.322763,23.79779],[90.322678,23.797914],[90.322627,23.797987],[90.322516,23.798264],[90.322384,23.798413],[90.322341,23.798648],[90.322331,23.798705],[90.322411,23.799054],[90.322434,23.799156],[90.322479,23.79935],[90.322696,23.799856],[90.322931,23.800165],[90.322529,23.800173],[90.322082,23.800182],[90.32189,23.799961],[90.321805,23.799896],[90.321604,23.798837],[90.321627,23.798735],[90.321657,23.798543],[90.321696,23.798407],[90.321744,23.798279],[90.321769,23.798253],[90.321837,23.798162],[90.32213,23.797764],[90.322154,23.797729],[90.322188,23.79768],[90.322274,23.797556],[90.322763,23.79779]]]}},{"type":"Feature","properties":{"survey":"bds","sheet":"076","dag":"37516","label_bn":"37516","area_sqm":6692.1},"geometry":{"type":"Polygon","coordinates":[[[90.323582,23.797829],[90.323426,23.79819],[90.323163,23.798135],[90.32265,23.797993],[90.322668,23.797939],[90.322678,23.797914],[90.322763,23.79779],[90.322872,23.797635],[90.323164,23.797296],[90.323771,23.797452],[90.323582,23.797829]]]}},{"type":"Feature","properties":{"survey":"bds","sheet":"076","dag":"37524","label_bn":"37524","area_sqm":3713.5},"geometry":{"type":"Polygon","coordinates":[[[90.324896,23.797947],[90.324825,23.798237],[90.324544,23.798144],[90.324605,23.797858],[90.324356,23.797806],[90.324431,23.797428],[90.324503,23.797411],[90.324869,23.797465],[90.324916,23.797517],[90.325011,23.797544],[90.32494,23.797686],[90.324896,23.797947]]]}},{"type":"Feature","properties":{"survey":"bds","sheet":"076","dag":"37509","label_bn":"37509","area_sqm":1984.3},"geometry":{"type":"Polygon","coordinates":[[[90.321769,23.798253],[90.321744,23.798279],[90.321597,23.798173],[90.321591,23.798072],[90.321588,23.79804],[90.321912,23.797617],[90.321998,23.797645],[90.322032,23.797658],[90.322042,23.797662],[90.322078,23.797676],[90.3221,23.797687],[90.322127,23.797704],[90.32215,23.797726],[90.322154,23.797729],[90.32213,23.797764],[90.321837,23.798162],[90.321769,23.798253]]]}},{"type":"Feature","properties":{"survey":"bds","sheet":"076","dag":"37507","label_bn":"37507","area_sqm":94.1},"geometry":{"type":"Polygon","coordinates":[[[90.322553,23.798249],[90.322541,23.79828],[90.322516,23.798264],[90.322627,23.797987],[90.32265,23.797993],[90.322619,23.798082],[90.322553,23.798249]]]}},{"type":"Feature","properties":{"survey":"bds","sheet":"076","dag":"37506","label_bn":"37506","area_sqm":2254.0},"geometry":{"type":"Polygon","coordinates":[[[90.323036,23.798403],[90.323,23.798569],[90.322795,23.798446],[90.322649,23.798351],[90.322541,23.79828],[90.322553,23.798249],[90.322619,23.798082],[90.32265,23.797993],[90.323163,23.798135],[90.3231,23.798252],[90.323036,23.798403]]]}},{"type":"Feature","properties":{"survey":"bds","sheet":"076","dag":"37508","label_bn":"37508","area_sqm":277.5},"geometry":{"type":"Polygon","coordinates":[[[90.322346,23.798645],[90.322341,23.798648],[90.322384,23.798413],[90.322516,23.798264],[90.322541,23.79828],[90.322488,23.798416],[90.322427,23.798537],[90.322404,23.798575],[90.322379,23.798607],[90.322346,23.798645]]]}},{"type":"Feature","properties":{"survey":"bds","sheet":"076","dag":"37517","label_bn":"37517","area_sqm":11649.4},"geometry":{"type":"Polygon","coordinates":[[[90.324302,23.798077],[90.32421,23.798702],[90.324173,23.798697],[90.323699,23.798648],[90.32329,23.798552],[90.323426,23.79819],[90.323582,23.797829],[90.323771,23.797452],[90.323882,23.797303],[90.324431,23.797428],[90.324356,23.797806],[90.324302,23.798077]]]}},{"type":"Feature","properties":{"survey":"bds","sheet":"076","dag":"37526","label_bn":"37526","area_sqm":3414.8},"geometry":{"type":"Polygon","coordinates":[[[90.324681,23.798614],[90.324707,23.798773],[90.324692,23.798771],[90.32421,23.798702],[90.324302,23.798077],[90.324532,23.79814],[90.324544,23.798144],[90.324825,23.798237],[90.32477,23.798484],[90.324681,23.798614]]]}},{"type":"Feature","properties":{"survey":"bds","sheet":"076","dag":"37505","label_bn":"37505","area_sqm":2589.4},"geometry":{"type":"Polygon","coordinates":[[[90.323,23.798569],[90.322883,23.798907],[90.322733,23.798849],[90.322553,23.798785],[90.322413,23.79873],[90.322331,23.798705],[90.322341,23.798648],[90.322346,23.798645],[90.322379,23.798607],[90.322404,23.798575],[90.322427,23.798537],[90.322488,23.798416],[90.322541,23.79828],[90.322649,23.798351],[90.322795,23.798446],[90.323,23.798569]]]}},{"type":"Feature","properties":{"survey":"bds","sheet":"076","dag":"37529","label_bn":"37529","area_sqm":19127.3},"geometry":{"type":"Polygon","coordinates":[[[90.32628,23.79891],[90.326244,23.799063],[90.326205,23.799048],[90.32596,23.799048],[90.324707,23.798773],[90.324681,23.798614],[90.32477,23.798484],[90.324825,23.798237],[90.324896,23.797947],[90.32494,23.797686],[90.324989,23.797691],[90.325195,23.797733],[90.325847,23.797866],[90.326268,23.797938],[90.326321,23.798857],[90.32628,23.79891]]]}},{"type":"Feature","properties":{"survey":"bds","sheet":"076","dag":"37504","label_bn":"37504","area_sqm":1760.8},"geometry":{"type":"Polygon","coordinates":[[[90.322804,23.799128],[90.322434,23.799156],[90.322411,23.799054],[90.322331,23.798705],[90.322413,23.79873],[90.322553,23.798785],[90.322733,23.798849],[90.322883,23.798907],[90.322804,23.799128]]]}},{"type":"Feature","properties":{"survey":"bds","sheet":"076","dag":"37503","label_bn":"37503","area_sqm":6306.3},"geometry":{"type":"Polygon","coordinates":[[[90.323699,23.798648],[90.323448,23.799266],[90.322804,23.799128],[90.322883,23.798907],[90.323,23.798569],[90.323036,23.798403],[90.3231,23.798252],[90.323163,23.798135],[90.323426,23.79819],[90.32329,23.798552],[90.323699,23.798648]]]}},{"type":"Feature","properties":{"survey":"bds","sheet":"076","dag":"37527","label_bn":"37527","area_sqm":5484.5},"geometry":{"type":"Polygon","coordinates":[[[90.324692,23.798771],[90.3246,23.799752],[90.32418,23.79964],[90.324188,23.799611],[90.324082,23.799574],[90.32421,23.798702],[90.324692,23.798771]]]}},{"type":"Feature","properties":{"survey":"bds","sheet":"076","dag":"37528","label_bn":"37528","area_sqm":15378.0},"geometry":{"type":"Polygon","coordinates":[[[90.325501,23.800111],[90.324619,23.800129],[90.324642,23.799855],[90.3246,23.799752],[90.324692,23.798771],[90.324707,23.798773],[90.32596,23.799048],[90.325501,23.800111]]]}},{"type":"Feature","properties":{"survey":"bds","sheet":"076","dag":"37502","label_bn":"37502","area_sqm":22331.8},"geometry":{"type":"Polygon","coordinates":[[[90.324319,23.800136],[90.322931,23.800165],[90.322696,23.799856],[90.322479,23.79935],[90.322434,23.799156],[90.322804,23.799128],[90.323448,23.799266],[90.323699,23.798648],[90.324173,23.798697],[90.32421,23.798702],[90.324082,23.799574],[90.324188,23.799611],[90.32418,23.79964],[90.3246,23.799752],[90.324642,23.799855],[90.324619,23.800129],[90.324319,23.800136]]]}}]}