{"type":"FeatureCollection","features":[{"type":"Feature","properties":{"survey":"bds","sheet":"077","dag":"38028","label_bn":"38028","area_sqm":2852.5},"geometry":{"type":"Polygon","coordinates":[[[90.321768,23.794647],[90.32177,23.795113],[90.321538,23.795102],[90.321278,23.795037],[90.321126,23.794942],[90.32111,23.79491],[90.321156,23.794807],[90.321195,23.794759],[90.321206,23.794706],[90.321234,23.794614],[90.321334,23.794643],[90.321413,23.79469],[90.321476,23.794669],[90.321768,23.794647]]]}},{"type":"Feature","properties":{"survey":"bds","sheet":"077","dag":"38024","label_bn":"38024","area_sqm":2077.5},"geometry":{"type":"Polygon","coordinates":[[[90.319439,23.796141],[90.31939,23.796202],[90.318938,23.796088],[90.318959,23.795749],[90.318979,23.795752],[90.319016,23.795755],[90.319485,23.795838],[90.319452,23.795985],[90.319439,23.796141]]]}},{"type":"Feature","properties":{"survey":"bds","sheet":"077","dag":"38006","label_bn":"38006","area_sqm":289.3},"geometry":{"type":"Polygon","coordinates":[[[90.318838,23.796105],[90.318828,23.796284],[90.318818,23.796284],[90.318637,23.796282],[90.318586,23.796279],[90.318654,23.796226],[90.318743,23.796137],[90.318838,23.796105]]]}},{"type":"Feature","properties":{"survey":"bds","sheet":"077","dag":"38007","label_bn":"38007","area_sqm":1763.7},"geometry":{"type":"Polygon","coordinates":[[[90.318549,23.796278],[90.318513,23.796308],[90.318495,23.796289],[90.318327,23.796105],[90.318698,23.795797],[90.318858,23.795773],[90.318838,23.796103],[90.318838,23.796105],[90.318743,23.796137],[90.318654,23.796226],[90.318586,23.796279],[90.318549,23.796278]]]}},{"type":"Feature","properties":{"survey":"bds","sheet":"077","dag":"38023","label_bn":"38023","area_sqm":888.1},"geometry":{"type":"Polygon","coordinates":[[[90.319278,23.79641],[90.319267,23.796412],[90.319263,23.796392],[90.319239,23.796323],[90.319147,23.796304],[90.319035,23.796287],[90.318927,23.796284],[90.318937,23.796107],[90.318938,23.796088],[90.31939,23.796202],[90.319345,23.796363],[90.319278,23.79641]]]}},{"type":"Feature","properties":{"survey":"bds","sheet":"077","dag":"38026","label_bn":"38026","area_sqm":49213.3},"geometry":{"type":"Polygon","coordinates":[[[90.319593,23.797112],[90.319568,23.797117],[90.31957,23.797036],[90.319579,23.796767],[90.319589,23.796581],[90.319618,23.796408],[90.319641,23.796221],[90.319658,23.796123],[90.319682,23.795986],[90.31969,23.795909],[90.319695,23.795859],[90.319696,23.795856],[90.319579,23.795836],[90.319528,23.795825],[90.319485,23.795838],[90.319016,23.795755],[90.319068,23.795576],[90.319041,23.795573],[90.319029,23.795359],[90.319087,23.794659],[90.32018,23.794586],[90.321234,23.794614],[90.321206,23.794706],[90.321195,23.794759],[90.321156,23.794807],[90.32111,23.79491],[90.321126,23.794942],[90.321278,23.795037],[90.321318,23.795116],[90.321186,23.795887],[90.320804,23.79705],[90.320582,23.797],[90.320572,23.797016],[90.320449,23.797051],[90.319903,23.797065],[90.319774,23.797061],[90.319741,23.797072],[90.319623,23.797102],[90.319593,23.797112]]]}},{"type":"Feature","properties":{"survey":"bds","sheet":"077","dag":"38027","label_bn":"38027","area_sqm":14854.8},"geometry":{"type":"Polygon","coordinates":[[[90.321499,23.79713],[90.321444,23.797137],[90.320804,23.79705],[90.321186,23.795887],[90.321318,23.795116],[90.321278,23.795037],[90.321538,23.795102],[90.32177,23.795113],[90.32188,23.795119],[90.321805,23.795814],[90.321763,23.795926],[90.321736,23.796252],[90.321717,23.796388],[90.321624,23.796836],[90.32157,23.797094],[90.321499,23.79713]]]}},{"type":"Feature","properties":{"survey":"bds","sheet":"077","dag":"38025","label_bn":"38025","area_sqm":3935.9},"geometry":{"type":"Polygon","coordinates":[[[90.319412,23.797147],[90.319325,23.797176],[90.319324,23.797152],[90.319313,23.797001],[90.319302,23.796884],[90.319298,23.796831],[90.319295,23.796656],[90.31929,23.79658],[90.31928,23.796479],[90.319267,23.796412],[90.319278,23.79641],[90.319345,23.796363],[90.31939,23.796202],[90.319439,23.796141],[90.319452,23.795985],[90.319485,23.795838],[90.319528,23.795825],[90.319579,23.795836],[90.319696,23.795856],[90.319695,23.795859],[90.31969,23.795909],[90.319682,23.795986],[90.319658,23.796123],[90.319641,23.796221],[90.319618,23.796408],[90.319589,23.796581],[90.319579,23.796767],[90.31957,23.797036],[90.319568,23.797117],[90.319412,23.797147]]]}},{"type":"Feature","properties":{"survey":"bds","sheet":"077","dag":"38005","label_bn":"38005","area_sqm":2232.2},"geometry":{"type":"Polygon","coordinates":[[[90.318764,23.797241],[90.318763,23.797244],[90.318747,23.797199],[90.318715,23.797144],[90.318686,23.797049],[90.318677,23.797015],[90.318673,23.796972],[90.318676,23.796941],[90.318688,23.796896],[90.318696,23.796883],[90.318706,23.796871],[90.318699,23.796846],[90.318657,23.796784],[90.318601,23.796716],[90.318514,23.796603],[90.318441,23.796486],[90.318421,23.796458],[90.318393,23.796425],[90.318472,23.796342],[90.318513,23.796308],[90.318549,23.796278],[90.318586,23.796279],[90.318637,23.796282],[90.318818,23.796284],[90.318828,23.796284],[90.31879,23.796986],[90.318779,23.797244],[90.318764,23.797241]]]}},{"type":"Feature","properties":{"survey":"bds","sheet":"077","dag":"38022","label_bn":"38022","area_sqm":4195.1},"geometry":{"type":"Polygon","coordinates":[[[90.319027,23.797263],[90.318885,23.797265],[90.318878,23.797263],[90.318888,23.79699],[90.318927,23.796284],[90.319035,23.796287],[90.319147,23.796304],[90.319239,23.796323],[90.319263,23.796392],[90.319267,23.796412],[90.31928,23.796479],[90.31929,23.79658],[90.319295,23.796656],[90.319298,23.796831],[90.319302,23.796884],[90.319313,23.797001],[90.319324,23.797152],[90.319325,23.797176],[90.319155,23.797231],[90.319027,23.797263]]]}},{"type":"Feature","properties":{"survey":"bds","sheet":"077","dag":"38021","label_bn":"38021","area_sqm":1523.6},"geometry":{"type":"Polygon","coordinates":[[[90.319148,23.797286],[90.319035,23.797305],[90.318876,23.797301],[90.318878,23.797263],[90.318885,23.797265],[90.319027,23.797263],[90.319155,23.797231],[90.319325,23.797176],[90.319412,23.797147],[90.319568,23.797117],[90.319593,23.797112],[90.319623,23.797102],[90.319741,23.797072],[90.319774,23.797061],[90.319903,23.797065],[90.320449,23.797051],[90.320572,23.797016],[90.320582,23.797],[90.320804,23.79705],[90.321444,23.797137],[90.321499,23.79713],[90.32157,23.797094],[90.321488,23.797207],[90.321328,23.797181],[90.32103,23.797135],[90.32057,23.79707],[90.320471,23.797086],[90.320193,23.79711],[90.319875,23.79711],[90.319782,23.797116],[90.319636,23.797136],[90.319612,23.79714],[90.31957,23.797148],[90.319452,23.797185],[90.319285,23.797241],[90.319148,23.797286]]]}},{"type":"Feature","properties":{"survey":"bds","sheet":"077","dag":"38004","label_bn":"38004","area_sqm":25.2},"geometry":{"type":"Polygon","coordinates":[[[90.318776,23.797327],[90.318743,23.797327],[90.318751,23.797281],[90.318763,23.797244],[90.318764,23.797241],[90.318779,23.797244],[90.318777,23.79729],[90.318776,23.797327]]]}},{"type":"Feature","properties":{"survey":"bds","sheet":"077","dag":"38013","label_bn":"38013","area_sqm":186.3},"geometry":{"type":"Polygon","coordinates":[[[90.319088,23.797345],[90.31902,23.797376],[90.318996,23.797373],[90.318939,23.797358],[90.318874,23.797345],[90.318876,23.797301],[90.319035,23.797305],[90.319148,23.797286],[90.319285,23.797241],[90.319266,23.797249],[90.319168,23.797302],[90.319088,23.797345]]]}},{"type":"Feature","properties":{"survey":"bds","sheet":"077","dag":"38018","label_bn":"38018","area_sqm":230.1},"geometry":{"type":"Polygon","coordinates":[[[90.321374,23.797519],[90.321367,23.797545],[90.321339,23.797543],[90.3213,23.797539],[90.321189,23.797519],[90.321119,23.797508],[90.321044,23.797489],[90.321035,23.797486],[90.321035,23.797474],[90.321076,23.797469],[90.321141,23.797459],[90.321207,23.797458],[90.321263,23.797457],[90.321313,23.797463],[90.321393,23.797468],[90.321374,23.797519]]]}},{"type":"Feature","properties":{"survey":"bds","sheet":"077","dag":"38012","label_bn":"38012","area_sqm":1137.3},"geometry":{"type":"Polygon","coordinates":[[[90.318956,23.797763],[90.318857,23.797773],[90.318874,23.797345],[90.318939,23.797358],[90.318996,23.797373],[90.31902,23.797376],[90.319023,23.797399],[90.319036,23.797428],[90.319052,23.797449],[90.319093,23.797498],[90.319173,23.797607],[90.319182,23.797648],[90.319189,23.797733],[90.318956,23.797763]]]}},{"type":"Feature","properties":{"survey":"bds","sheet":"077","dag":"38003","label_bn":"38003","area_sqm":2912.7},"geometry":{"type":"Polygon","coordinates":[[[90.318331,23.797823],[90.318238,23.797834],[90.318227,23.797679],[90.318186,23.797381],[90.318238,23.797373],[90.318318,23.797357],[90.318411,23.797347],[90.31844,23.797343],[90.318515,23.797342],[90.318678,23.797328],[90.318743,23.797327],[90.318776,23.797327],[90.318758,23.797783],[90.318687,23.797791],[90.318486,23.797813],[90.318393,23.797819],[90.318331,23.797823]]]}},{"type":"Feature","properties":{"survey":"bds","sheet":"077","dag":"38020","label_bn":"38020","area_sqm":4778.4},"geometry":{"type":"Polygon","coordinates":[[[90.320894,23.797196],[90.320747,23.797872],[90.320334,23.797754],[90.320227,23.797293],[90.320193,23.79711],[90.320471,23.797086],[90.32057,23.79707],[90.32103,23.797135],[90.320996,23.797203],[90.320996,23.797203],[90.320894,23.797196]]]}},{"type":"Feature","properties":{"survey":"bds","sheet":"077","dag":"38019","label_bn":"38019","area_sqm":3988.2},"geometry":{"type":"Polygon","coordinates":[[[90.321221,23.797861],[90.321177,23.797904],[90.320747,23.797872],[90.320894,23.797196],[90.320996,23.797203],[90.320996,23.797203],[90.32103,23.797135],[90.321328,23.797181],[90.321314,23.797261],[90.321298,23.797343],[90.321431,23.797364],[90.321393,23.797468],[90.321313,23.797463],[90.321263,23.797457],[90.321207,23.797458],[90.321141,23.797459],[90.321076,23.797469],[90.321035,23.797474],[90.321035,23.797486],[90.321044,23.797489],[90.321119,23.797508],[90.321189,23.797519],[90.3213,23.797539],[90.321339,23.797543],[90.321367,23.797652],[90.321384,23.797695],[90.32129,23.797783],[90.321221,23.797861]]]}},{"type":"Feature","properties":{"survey":"bds","sheet":"077","dag":"38014","label_bn":"38014","area_sqm":9858.1},"geometry":{"type":"Polygon","coordinates":[[[90.319603,23.797948],[90.319401,23.797949],[90.319315,23.797949],[90.319219,23.797944],[90.319215,23.797932],[90.319198,23.79788],[90.319189,23.797733],[90.319182,23.797648],[90.319173,23.797607],[90.319093,23.797498],[90.319052,23.797449],[90.319036,23.797428],[90.319023,23.797399],[90.31902,23.797376],[90.319088,23.797345],[90.319168,23.797302],[90.319266,23.797249],[90.319285,23.797241],[90.319452,23.797185],[90.31957,23.797148],[90.319612,23.79714],[90.319636,23.797136],[90.319782,23.797116],[90.319875,23.79711],[90.320193,23.79711],[90.320227,23.797293],[90.320334,23.797754],[90.320301,23.797798],[90.320272,23.797804],[90.320266,23.797875],[90.320047,23.797908],[90.319938,23.797926],[90.31983,23.797941],[90.319753,23.797947],[90.319603,23.797948]]]}},{"type":"Feature","properties":{"survey":"bds","sheet":"077","dag":"38011","label_bn":"38011","area_sqm":1467.4},"geometry":{"type":"Polygon","coordinates":[[[90.318965,23.79812],[90.318843,23.798125],[90.318857,23.797773],[90.318956,23.797763],[90.319189,23.797733],[90.319198,23.79788],[90.319215,23.797932],[90.319219,23.797944],[90.319226,23.797987],[90.31923,23.798099],[90.319039,23.79811],[90.318965,23.79812]]]}},{"type":"Feature","properties":{"survey":"bds","sheet":"077","dag":"38002","label_bn":"38002","area_sqm":1310.7},"geometry":{"type":"Polygon","coordinates":[[[90.318497,23.798154],[90.318433,23.798158],[90.318393,23.797819],[90.318486,23.797813],[90.318687,23.797791],[90.318758,23.797783],[90.318744,23.79813],[90.318705,23.798131],[90.318604,23.798142],[90.318497,23.798154]]]}},{"type":"Feature","properties":{"survey":"bds","sheet":"077","dag":"38001","label_bn":"38001","area_sqm":713.8},"geometry":{"type":"Polygon","coordinates":[[[90.318739,23.798239],[90.318728,23.798532],[90.318546,23.798523],[90.318602,23.798157],[90.318604,23.798142],[90.318705,23.798131],[90.318744,23.79813],[90.318739,23.798239]]]}},{"type":"Feature","properties":{"survey":"bds","sheet":"077","dag":"38008","label_bn":"38008","area_sqm":3114.0},"geometry":{"type":"Polygon","coordinates":[[[90.318838,23.798243],[90.318826,23.798537],[90.318728,23.798532],[90.318739,23.798239],[90.318744,23.79813],[90.318758,23.797783],[90.318776,23.797327],[90.318777,23.79729],[90.318779,23.797244],[90.31879,23.796986],[90.318828,23.796284],[90.318838,23.796105],[90.318838,23.796103],[90.318858,23.795773],[90.318942,23.795761],[90.318939,23.795747],[90.318959,23.795749],[90.318938,23.796088],[90.318937,23.796107],[90.318927,23.796284],[90.318888,23.79699],[90.318878,23.797263],[90.318876,23.797301],[90.318874,23.797345],[90.318857,23.797773],[90.318843,23.798125],[90.318838,23.798243]]]}},{"type":"Feature","properties":{"survey":"bds","sheet":"077","dag":"38009","label_bn":"38009","area_sqm":1885.5},"geometry":{"type":"Polygon","coordinates":[[[90.319182,23.79852],[90.319168,23.798556],[90.31892,23.798542],[90.318919,23.798542],[90.318826,23.798537],[90.318838,23.798243],[90.318843,23.798125],[90.318965,23.79812],[90.319039,23.79811],[90.31923,23.798099],[90.319227,23.798248],[90.319221,23.798354],[90.319224,23.798431],[90.319182,23.79852]]]}},{"type":"Feature","properties":{"survey":"bds","sheet":"077","dag":"38010","label_bn":"38010","area_sqm":4736.9},"geometry":{"type":"Polygon","coordinates":[[[90.319667,23.798676],[90.319638,23.798742],[90.319531,23.798723],[90.319484,23.798712],[90.319344,23.798677],[90.319227,23.798663],[90.319131,23.798652],[90.319144,23.798613],[90.319168,23.798556],[90.319182,23.79852],[90.319224,23.798431],[90.319221,23.798354],[90.319227,23.798248],[90.31923,23.798099],[90.319226,23.797987],[90.319219,23.797944],[90.319315,23.797949],[90.319401,23.797949],[90.319603,23.797948],[90.319753,23.797947],[90.31983,23.797941],[90.31983,23.797977],[90.319818,23.798068],[90.319812,23.79813],[90.319807,23.798194],[90.319763,23.798378],[90.31969,23.798607],[90.319667,23.798676]]]}},{"type":"Feature","properties":{"survey":"bds","sheet":"077","dag":"38017","label_bn":"38017","area_sqm":4947.9},"geometry":{"type":"Polygon","coordinates":[[[90.321517,23.7987],[90.321467,23.798768],[90.321426,23.798754],[90.321396,23.798752],[90.321355,23.798742],[90.321326,23.798727],[90.321282,23.798698],[90.321266,23.798683],[90.321218,23.798622],[90.321185,23.798603],[90.321146,23.798582],[90.321141,23.79859],[90.321238,23.798168],[90.321261,23.797911],[90.321177,23.797904],[90.321221,23.797861],[90.32129,23.797783],[90.321384,23.797695],[90.321367,23.797652],[90.321339,23.797543],[90.321367,23.797545],[90.321438,23.797549],[90.321575,23.797559],[90.321572,23.797581],[90.321572,23.797689],[90.321572,23.797826],[90.32158,23.797912],[90.321583,23.797974],[90.321591,23.798072],[90.321597,23.798173],[90.321744,23.798279],[90.321696,23.798407],[90.321657,23.798543],[90.321653,23.798565],[90.321597,23.798615],[90.321517,23.7987]]]}},{"type":"Feature","properties":{"survey":"bds","sheet":"077","dag":"38016","label_bn":"38016","area_sqm":348.7},"geometry":{"type":"Polygon","coordinates":[[[90.321604,23.798837],[90.321431,23.798866],[90.321449,23.798804],[90.321467,23.798768],[90.321517,23.7987],[90.321597,23.798615],[90.321653,23.798565],[90.321627,23.798735],[90.321604,23.798837]]]}},{"type":"Feature","properties":{"survey":"bds","sheet":"077","dag":"38015","label_bn":"38015","area_sqm":15739.8},"geometry":{"type":"Polygon","coordinates":[[[90.320956,23.798974],[90.32095,23.798988],[90.3208,23.798957],[90.320713,23.79893],[90.32052,23.798865],[90.320459,23.798845],[90.320379,23.798823],[90.320215,23.798774],[90.32021,23.798782],[90.320132,23.798795],[90.320037,23.798798],[90.319985,23.798796],[90.319834,23.798768],[90.319739,23.798757],[90.319638,23.798742],[90.319667,23.798676],[90.31969,23.798607],[90.319763,23.798378],[90.319807,23.798194],[90.319812,23.79813],[90.319818,23.798068],[90.31983,23.797977],[90.31983,23.797941],[90.319938,23.797926],[90.320047,23.797908],[90.320266,23.797875],[90.320272,23.797804],[90.320301,23.797798],[90.320334,23.797754],[90.320747,23.797872],[90.321177,23.797904],[90.321261,23.797911],[90.321238,23.798168],[90.321141,23.79859],[90.321114,23.798637],[90.321087,23.798693],[90.32104,23.798786],[90.320998,23.798871],[90.320983,23.798907],[90.320956,23.798974]]]}}]}