{"type":"FeatureCollection","features":[{"type":"Feature","properties":{"survey":"bds","sheet":"078","dag":"38514","label_bn":"38514","area_sqm":1602.7},"geometry":{"type":"Polygon","coordinates":[[[90.31643,23.795772],[90.316358,23.796039],[90.316198,23.796004],[90.316142,23.795982],[90.316104,23.795953],[90.316094,23.795919],[90.316102,23.795861],[90.316175,23.79562],[90.316212,23.795489],[90.316486,23.795568],[90.31643,23.795772]]]}},{"type":"Feature","properties":{"survey":"bds","sheet":"078","dag":"38515","label_bn":"38515","area_sqm":2493.4},"geometry":{"type":"Polygon","coordinates":[[[90.317501,23.795861],[90.317431,23.796056],[90.31643,23.795772],[90.316486,23.795568],[90.317501,23.795861]]]}},{"type":"Feature","properties":{"survey":"bds","sheet":"078","dag":"38513","label_bn":"38513","area_sqm":3017.0},"geometry":{"type":"Polygon","coordinates":[[[90.317421,23.796086],[90.3174,23.796275],[90.317243,23.796256],[90.31661,23.796094],[90.316358,23.796039],[90.31643,23.795772],[90.317431,23.796056],[90.317421,23.796086]]]}},{"type":"Feature","properties":{"survey":"bds","sheet":"078","dag":"38512","label_bn":"38512","area_sqm":362.4},"geometry":{"type":"Polygon","coordinates":[[[90.317395,23.796453],[90.317356,23.796723],[90.317347,23.796711],[90.317317,23.796647],[90.317311,23.796589],[90.317325,23.796428],[90.317324,23.796335],[90.317291,23.796291],[90.317243,23.796256],[90.3174,23.796275],[90.317419,23.796277],[90.317395,23.796453]]]}},{"type":"Feature","properties":{"survey":"bds","sheet":"078","dag":"38510","label_bn":"38510","area_sqm":5579.7},"geometry":{"type":"Polygon","coordinates":[[[90.317277,23.796688],[90.317321,23.796767],[90.316849,23.796684],[90.316247,23.796598],[90.316256,23.796551],[90.316271,23.796415],[90.316299,23.796288],[90.316347,23.796081],[90.316371,23.796087],[90.316601,23.796131],[90.317079,23.796248],[90.317164,23.796273],[90.317248,23.79631],[90.317277,23.796336],[90.317291,23.796365],[90.317271,23.796575],[90.317277,23.796688]]]}},{"type":"Feature","properties":{"survey":"bds","sheet":"078","dag":"38516","label_bn":"38516","area_sqm":826.3},"geometry":{"type":"Polygon","coordinates":[[[90.317498,23.796245],[90.317434,23.796805],[90.317409,23.796795],[90.317356,23.796723],[90.317395,23.796453],[90.317419,23.796277],[90.3174,23.796275],[90.317421,23.796086],[90.317431,23.796056],[90.317501,23.795861],[90.317538,23.795862],[90.317498,23.796245]]]}},{"type":"Feature","properties":{"survey":"bds","sheet":"078","dag":"38517","label_bn":"38517","area_sqm":649.2},"geometry":{"type":"Polygon","coordinates":[[[90.317557,23.796251],[90.317492,23.796824],[90.317457,23.796815],[90.317434,23.796805],[90.317498,23.796245],[90.317538,23.795862],[90.317598,23.795865],[90.317557,23.796251]]]}},{"type":"Feature","properties":{"survey":"bds","sheet":"078","dag":"38511","label_bn":"38511","area_sqm":825.3},"geometry":{"type":"Polygon","coordinates":[[[90.317434,23.796805],[90.317429,23.796848],[90.317379,23.796831],[90.317321,23.796767],[90.317277,23.796688],[90.317271,23.796575],[90.317291,23.796365],[90.317277,23.796336],[90.317248,23.79631],[90.317164,23.796273],[90.317079,23.796248],[90.316601,23.796131],[90.316371,23.796087],[90.316347,23.796081],[90.316125,23.796027],[90.316077,23.796006],[90.316072,23.796004],[90.316142,23.795982],[90.316198,23.796004],[90.316358,23.796039],[90.31661,23.796094],[90.317243,23.796256],[90.317291,23.796291],[90.317324,23.796335],[90.317325,23.796428],[90.317311,23.796589],[90.317317,23.796647],[90.317347,23.796711],[90.317356,23.796723],[90.317409,23.796795],[90.317434,23.796805]]]}},{"type":"Feature","properties":{"survey":"bds","sheet":"078","dag":"38509","label_bn":"38509","area_sqm":5560.8},"geometry":{"type":"Polygon","coordinates":[[[90.316189,23.796804],[90.316174,23.796851],[90.315649,23.796593],[90.315664,23.796515],[90.315639,23.796409],[90.315605,23.796225],[90.315674,23.795848],[90.315697,23.795858],[90.315906,23.795941],[90.316072,23.796004],[90.316077,23.796006],[90.316125,23.796027],[90.316347,23.796081],[90.316299,23.796288],[90.316271,23.796415],[90.316256,23.796551],[90.316247,23.796598],[90.316227,23.796651],[90.316194,23.796783],[90.316189,23.796803],[90.316189,23.796804]]]}},{"type":"Feature","properties":{"survey":"bds","sheet":"078","dag":"38549","label_bn":"38549","area_sqm":9541.7},"geometry":{"type":"Polygon","coordinates":[[[90.318202,23.796851],[90.317948,23.796868],[90.317657,23.796855],[90.3175,23.796826],[90.317492,23.796824],[90.317557,23.796251],[90.317598,23.795865],[90.318073,23.795886],[90.318082,23.795986],[90.318327,23.796105],[90.318495,23.796289],[90.318513,23.796308],[90.318472,23.796342],[90.318393,23.796425],[90.318421,23.796458],[90.318441,23.796486],[90.318514,23.796603],[90.318601,23.796716],[90.318657,23.796784],[90.318689,23.796832],[90.318613,23.796813],[90.318202,23.796851]]]}},{"type":"Feature","properties":{"survey":"bds","sheet":"078","dag":"38518","label_bn":"38518","area_sqm":28.9},"geometry":{"type":"Polygon","coordinates":[[[90.317492,23.796824],[90.317487,23.796869],[90.317444,23.796853],[90.317429,23.796848],[90.317434,23.796805],[90.317457,23.796815],[90.317492,23.796824]]]}},{"type":"Feature","properties":{"survey":"bds","sheet":"078","dag":"38548","label_bn":"38548","area_sqm":499.7},"geometry":{"type":"Polygon","coordinates":[[[90.318688,23.796896],[90.318679,23.79693],[90.318678,23.796921],[90.318662,23.796893],[90.318621,23.796862],[90.318544,23.796854],[90.318337,23.796875],[90.318219,23.796885],[90.318192,23.796888],[90.318092,23.796897],[90.317819,23.796891],[90.317504,23.796876],[90.317487,23.796869],[90.317492,23.796824],[90.3175,23.796826],[90.317657,23.796855],[90.317948,23.796868],[90.318202,23.796851],[90.318613,23.796813],[90.318689,23.796832],[90.318699,23.796846],[90.318706,23.796871],[90.318696,23.796883],[90.318688,23.796896]]]}},{"type":"Feature","properties":{"survey":"bds","sheet":"078","dag":"38519","label_bn":"38519","area_sqm":2581.7},"geometry":{"type":"Polygon","coordinates":[[[90.317429,23.796848],[90.317416,23.796966],[90.317387,23.796962],[90.317305,23.796951],[90.316786,23.796871],[90.316781,23.79687],[90.316194,23.796783],[90.316227,23.796651],[90.316247,23.796598],[90.316849,23.796684],[90.317321,23.796767],[90.317379,23.796831],[90.317429,23.796848]]]}},{"type":"Feature","properties":{"survey":"bds","sheet":"078","dag":"38508","label_bn":"38508","area_sqm":1215.8},"geometry":{"type":"Polygon","coordinates":[[[90.316174,23.796851],[90.31612,23.797028],[90.31561,23.796785],[90.315649,23.796593],[90.316174,23.796851]]]}},{"type":"Feature","properties":{"survey":"bds","sheet":"078","dag":"38520","label_bn":"38520","area_sqm":2325.8},"geometry":{"type":"Polygon","coordinates":[[[90.317416,23.796966],[90.31738,23.797281],[90.317304,23.79728],[90.316933,23.797199],[90.31672,23.797152],[90.316739,23.796986],[90.316781,23.79687],[90.316786,23.796871],[90.317305,23.796951],[90.317387,23.796962],[90.317416,23.796966]]]}},{"type":"Feature","properties":{"survey":"bds","sheet":"078","dag":"38547","label_bn":"38547","area_sqm":2419.1},"geometry":{"type":"Polygon","coordinates":[[[90.318411,23.797347],[90.318318,23.797357],[90.318303,23.79732],[90.31829,23.79726],[90.318259,23.79714],[90.318259,23.797087],[90.31824,23.797],[90.318192,23.796888],[90.318219,23.796885],[90.318337,23.796875],[90.318544,23.796854],[90.318621,23.796862],[90.318662,23.796893],[90.318678,23.796921],[90.318679,23.79693],[90.318676,23.796941],[90.318673,23.796972],[90.318677,23.797015],[90.318686,23.797049],[90.318715,23.797144],[90.318747,23.797199],[90.318763,23.797244],[90.318751,23.797281],[90.318743,23.797327],[90.318678,23.797328],[90.318515,23.797342],[90.31844,23.797343],[90.318411,23.797347]]]}},{"type":"Feature","properties":{"survey":"bds","sheet":"078","dag":"38546","label_bn":"38546","area_sqm":4674.0},"geometry":{"type":"Polygon","coordinates":[[[90.317469,23.797408],[90.317425,23.797412],[90.317487,23.796869],[90.317504,23.796876],[90.317819,23.796891],[90.318092,23.796897],[90.318192,23.796888],[90.31824,23.797],[90.318259,23.797087],[90.318259,23.79714],[90.31829,23.79726],[90.318303,23.79732],[90.318318,23.797357],[90.318238,23.797373],[90.318186,23.797381],[90.318131,23.797386],[90.317989,23.797398],[90.317903,23.797404],[90.317827,23.797412],[90.317626,23.797407],[90.317529,23.797404],[90.317469,23.797408]]]}},{"type":"Feature","properties":{"survey":"bds","sheet":"078","dag":"38507","label_bn":"38507","area_sqm":3546.6},"geometry":{"type":"Polygon","coordinates":[[[90.316481,23.797409],[90.316326,23.797412],[90.316267,23.797405],[90.316188,23.797391],[90.316158,23.797358],[90.316121,23.797331],[90.316156,23.797143],[90.316169,23.79707],[90.31612,23.797028],[90.316174,23.796851],[90.316189,23.796804],[90.316189,23.796803],[90.316194,23.796783],[90.316781,23.79687],[90.316739,23.796986],[90.31672,23.797152],[90.316672,23.797286],[90.316526,23.79731],[90.316482,23.797399],[90.316482,23.797409],[90.316481,23.797409]]]}},{"type":"Feature","properties":{"survey":"bds","sheet":"078","dag":"38521","label_bn":"38521","area_sqm":90.0},"geometry":{"type":"Polygon","coordinates":[[[90.31738,23.797281],[90.317361,23.797446],[90.31736,23.79741],[90.317295,23.797355],[90.317304,23.79728],[90.31738,23.797281]]]}},{"type":"Feature","properties":{"survey":"bds","sheet":"078","dag":"38545","label_bn":"38545","area_sqm":4509.4},"geometry":{"type":"Polygon","coordinates":[[[90.317542,23.797957],[90.317521,23.797968],[90.317495,23.797926],[90.317414,23.797789],[90.317387,23.797743],[90.317425,23.797412],[90.317469,23.797408],[90.317529,23.797404],[90.317626,23.797407],[90.317827,23.797412],[90.317903,23.797404],[90.317989,23.797398],[90.318131,23.797386],[90.318186,23.797381],[90.318227,23.797679],[90.318238,23.797834],[90.318123,23.797848],[90.318049,23.797859],[90.317869,23.797899],[90.317685,23.79793],[90.317578,23.797948],[90.317542,23.797957]]]}},{"type":"Feature","properties":{"survey":"bds","sheet":"078","dag":"38543","label_bn":"38543","area_sqm":3372.6},"geometry":{"type":"Polygon","coordinates":[[[90.317524,23.798233],[90.317403,23.798239],[90.317447,23.798134],[90.317473,23.798082],[90.3175,23.798029],[90.317512,23.798],[90.317521,23.797968],[90.317542,23.797957],[90.317578,23.797948],[90.317685,23.79793],[90.317869,23.797899],[90.318049,23.797859],[90.318123,23.797848],[90.318238,23.797834],[90.318331,23.797823],[90.318393,23.797819],[90.318433,23.798158],[90.318285,23.79817],[90.318176,23.798179],[90.318068,23.798189],[90.317921,23.798197],[90.317792,23.798213],[90.317646,23.798228],[90.317524,23.798233]]]}},{"type":"Feature","properties":{"survey":"bds","sheet":"078","dag":"38544","label_bn":"38544","area_sqm":626.1},"geometry":{"type":"Polygon","coordinates":[[[90.31738,23.798287],[90.317367,23.798338],[90.317358,23.798337],[90.31732,23.798335],[90.317347,23.798098],[90.317366,23.797928],[90.317387,23.797743],[90.317414,23.797789],[90.317495,23.797926],[90.317521,23.797968],[90.317512,23.798],[90.3175,23.798029],[90.317473,23.798082],[90.317447,23.798134],[90.317403,23.798239],[90.31738,23.798287]]]}},{"type":"Feature","properties":{"survey":"bds","sheet":"078","dag":"38506","label_bn":"38506","area_sqm":12110.6},"geometry":{"type":"Polygon","coordinates":[[[90.315365,23.798407],[90.315305,23.79846],[90.315305,23.79846],[90.315509,23.795772],[90.315535,23.795782],[90.315674,23.795848],[90.315605,23.796225],[90.315639,23.796409],[90.315664,23.796515],[90.315649,23.796593],[90.31561,23.796785],[90.31612,23.797028],[90.316169,23.79707],[90.316156,23.797143],[90.316121,23.797331],[90.316114,23.797431],[90.315991,23.79764],[90.315635,23.798374],[90.315365,23.798407]]]}},{"type":"Feature","properties":{"survey":"bds","sheet":"078","dag":"38542","label_bn":"38542","area_sqm":3302.0},"geometry":{"type":"Polygon","coordinates":[[[90.318602,23.798157],[90.318546,23.798523],[90.317932,23.798504],[90.317934,23.798368],[90.317367,23.798338],[90.31738,23.798287],[90.317403,23.798239],[90.317524,23.798233],[90.317646,23.798228],[90.317792,23.798213],[90.317921,23.798197],[90.318068,23.798189],[90.318176,23.798179],[90.318285,23.79817],[90.318433,23.798158],[90.318497,23.798154],[90.318604,23.798142],[90.318602,23.798157]]]}},{"type":"Feature","properties":{"survey":"bds","sheet":"078","dag":"38539","label_bn":"38539","area_sqm":168.3},"geometry":{"type":"Polygon","coordinates":[[[90.318869,23.79871],[90.318819,23.79873],[90.318826,23.798537],[90.318919,23.798542],[90.31892,23.798542],[90.318897,23.798702],[90.318869,23.79871]]]}},{"type":"Feature","properties":{"survey":"bds","sheet":"078","dag":"38505","label_bn":"38505","area_sqm":18906.3},"geometry":{"type":"Polygon","coordinates":[[[90.317287,23.798092],[90.317211,23.798763],[90.317001,23.79871],[90.316991,23.798698],[90.316802,23.798465],[90.316051,23.798327],[90.315635,23.798374],[90.315991,23.79764],[90.316114,23.797431],[90.316121,23.797331],[90.316158,23.797358],[90.316188,23.797391],[90.316267,23.797405],[90.316326,23.797412],[90.316481,23.797409],[90.316482,23.797409],[90.316482,23.797399],[90.316526,23.79731],[90.316672,23.797286],[90.31672,23.797152],[90.316933,23.797199],[90.317304,23.79728],[90.317295,23.797355],[90.31736,23.79741],[90.317361,23.797446],[90.317287,23.798092]]]}},{"type":"Feature","properties":{"survey":"bds","sheet":"078","dag":"38540","label_bn":"38540","area_sqm":240.7},"geometry":{"type":"Polygon","coordinates":[[[90.318729,23.798764],[90.318718,23.798768],[90.318728,23.798532],[90.318747,23.798533],[90.318807,23.798536],[90.318826,23.798537],[90.318819,23.79873],[90.318799,23.798737],[90.318738,23.798761],[90.318729,23.798764]]]}},{"type":"Feature","properties":{"survey":"bds","sheet":"078","dag":"38522","label_bn":"38522","area_sqm":1304.2},"geometry":{"type":"Polygon","coordinates":[[[90.31732,23.798335],[90.317269,23.798778],[90.317211,23.798763],[90.317287,23.798092],[90.317361,23.797446],[90.31738,23.797281],[90.317416,23.796966],[90.317429,23.796848],[90.317444,23.796853],[90.317487,23.796869],[90.317425,23.797412],[90.317387,23.797743],[90.317366,23.797928],[90.317347,23.798098],[90.31732,23.798335]]]}},{"type":"Feature","properties":{"survey":"bds","sheet":"078","dag":"38531","label_bn":"38531","area_sqm":219.3},"geometry":{"type":"Polygon","coordinates":[[[90.317295,23.798785],[90.317305,23.798907],[90.317255,23.798905],[90.317269,23.798778],[90.31732,23.798335],[90.317358,23.798337],[90.317295,23.798785]]]}},{"type":"Feature","properties":{"survey":"bds","sheet":"078","dag":"38532","label_bn":"38532","area_sqm":3906.7},"geometry":{"type":"Polygon","coordinates":[[[90.317932,23.798504],[90.317928,23.798925],[90.317305,23.798907],[90.317295,23.798785],[90.317358,23.798337],[90.317367,23.798338],[90.317934,23.798368],[90.317932,23.798504]]]}},{"type":"Feature","properties":{"survey":"bds","sheet":"078","dag":"38541","label_bn":"38541","area_sqm":3249.3},"geometry":{"type":"Polygon","coordinates":[[[90.318445,23.798859],[90.318168,23.798937],[90.318071,23.798936],[90.317935,23.798926],[90.317928,23.798925],[90.317932,23.798504],[90.318546,23.798523],[90.318728,23.798532],[90.318718,23.798768],[90.318445,23.798859]]]}},{"type":"Feature","properties":{"survey":"bds","sheet":"078","dag":"38538","label_bn":"38538","area_sqm":249.0},"geometry":{"type":"Polygon","coordinates":[[[90.318839,23.799103],[90.318803,23.799122],[90.318819,23.79873],[90.318869,23.79871],[90.318897,23.798702],[90.318839,23.799103]]]}},{"type":"Feature","properties":{"survey":"bds","sheet":"078","dag":"38535","label_bn":"38535","area_sqm":448.9},"geometry":{"type":"Polygon","coordinates":[[[90.318708,23.799172],[90.318702,23.799174],[90.318718,23.798768],[90.318729,23.798764],[90.318738,23.798761],[90.318799,23.798737],[90.318819,23.79873],[90.318803,23.799122],[90.318783,23.799133],[90.318769,23.79914],[90.318722,23.799165],[90.318708,23.799172]]]}},{"type":"Feature","properties":{"survey":"bds","sheet":"078","dag":"38534","label_bn":"38534","area_sqm":3942.7},"geometry":{"type":"Polygon","coordinates":[[[90.318013,23.799432],[90.317976,23.799437],[90.317968,23.799404],[90.317956,23.799332],[90.317937,23.799131],[90.317935,23.798926],[90.318071,23.798936],[90.318168,23.798937],[90.318445,23.798859],[90.318718,23.798768],[90.318702,23.799174],[90.318527,23.799249],[90.318258,23.799386],[90.318195,23.799413],[90.318157,23.799419],[90.318089,23.799429],[90.318013,23.799432]]]}},{"type":"Feature","properties":{"survey":"bds","sheet":"078","dag":"38536","label_bn":"38536","area_sqm":313.3},"geometry":{"type":"Polygon","coordinates":[[[90.318793,23.799363],[90.31879,23.79945],[90.318771,23.799441],[90.318712,23.799414],[90.318712,23.799414],[90.318693,23.799405],[90.318694,23.79936],[90.318702,23.799174],[90.318708,23.799172],[90.318722,23.799165],[90.318769,23.79914],[90.318783,23.799133],[90.318803,23.799122],[90.318793,23.799363]]]}},{"type":"Feature","properties":{"survey":"bds","sheet":"078","dag":"38537","label_bn":"38537","area_sqm":66.4},"geometry":{"type":"Polygon","coordinates":[[[90.318839,23.799103],[90.31879,23.79945],[90.31879,23.79945],[90.318793,23.799363],[90.318803,23.799122],[90.318839,23.799103]]]}},{"type":"Feature","properties":{"survey":"bds","sheet":"078","dag":"38530","label_bn":"38530","area_sqm":716.1},"geometry":{"type":"Polygon","coordinates":[[[90.317305,23.798907],[90.317351,23.799503],[90.317219,23.799495],[90.317188,23.799492],[90.317204,23.799351],[90.317255,23.798905],[90.317305,23.798907]]]}},{"type":"Feature","properties":{"survey":"bds","sheet":"078","dag":"38533","label_bn":"38533","area_sqm":3838.1},"geometry":{"type":"Polygon","coordinates":[[[90.317569,23.799463],[90.317351,23.799503],[90.317305,23.798907],[90.317928,23.798925],[90.317935,23.798926],[90.317937,23.799131],[90.317956,23.799332],[90.317968,23.799404],[90.317976,23.799437],[90.317569,23.799463]]]}},{"type":"Feature","properties":{"survey":"bds","sheet":"078","dag":"38502","label_bn":"38502","area_sqm":103.0},"geometry":{"type":"Polygon","coordinates":[[[90.31575,23.79965],[90.315652,23.799665],[90.315633,23.799575],[90.315733,23.799561],[90.31575,23.79965]]]}},{"type":"Feature","properties":{"survey":"bds","sheet":"078","dag":"38527","label_bn":"38527","area_sqm":286.9},"geometry":{"type":"Polygon","coordinates":[[[90.317863,23.799786],[90.31768,23.799822],[90.317824,23.799731],[90.317943,23.79965],[90.317966,23.79965],[90.317993,23.799656],[90.318028,23.799656],[90.318059,23.799652],[90.318082,23.799645],[90.318098,23.799634],[90.318165,23.799578],[90.318292,23.799467],[90.318323,23.799462],[90.31812,23.799626],[90.317993,23.799727],[90.317863,23.799786]]]}},{"type":"Feature","properties":{"survey":"bds","sheet":"078","dag":"38528","label_bn":"38528","area_sqm":2468.4},"geometry":{"type":"Polygon","coordinates":[[[90.31768,23.799822],[90.31765,23.799828],[90.317569,23.799463],[90.317976,23.799437],[90.318013,23.799432],[90.318089,23.799429],[90.318157,23.799419],[90.318195,23.799413],[90.318258,23.799386],[90.318527,23.799249],[90.318702,23.799174],[90.318694,23.79936],[90.318693,23.799405],[90.318634,23.799379],[90.318536,23.799374],[90.31839,23.799407],[90.318323,23.799462],[90.318292,23.799467],[90.318165,23.799578],[90.318098,23.799634],[90.318082,23.799645],[90.318059,23.799652],[90.318028,23.799656],[90.317993,23.799656],[90.317966,23.79965],[90.317943,23.79965],[90.317824,23.799731],[90.31768,23.799822]]]}},{"type":"Feature","properties":{"survey":"bds","sheet":"078","dag":"38501","label_bn":"38501","area_sqm":25300.7},"geometry":{"type":"Polygon","coordinates":[[[90.316742,23.800015],[90.316748,23.80002],[90.315797,23.799883],[90.315766,23.799819],[90.31568,23.799758],[90.315624,23.799746],[90.315398,23.799752],[90.315275,23.799729],[90.315307,23.799371],[90.315301,23.799191],[90.315305,23.79846],[90.315365,23.798407],[90.315635,23.798374],[90.316051,23.798327],[90.316802,23.798465],[90.316991,23.798698],[90.316935,23.798758],[90.316858,23.798851],[90.316846,23.798871],[90.316823,23.798941],[90.316793,23.799031],[90.316773,23.799093],[90.316769,23.799136],[90.316762,23.79918],[90.316764,23.7993],[90.316767,23.799354],[90.316778,23.799413],[90.316534,23.799421],[90.316388,23.799422],[90.316307,23.799423],[90.316414,23.799443],[90.316578,23.799476],[90.316709,23.799497],[90.316715,23.79956],[90.316721,23.799636],[90.316725,23.799704],[90.316727,23.79981],[90.316733,23.799879],[90.316739,23.799988],[90.316742,23.800015]]]}},{"type":"Feature","properties":{"survey":"bds","sheet":"078","dag":"38503","label_bn":"38503","area_sqm":567.7},"geometry":{"type":"Polygon","coordinates":[[[90.316805,23.800002],[90.316834,23.800033],[90.316748,23.80002],[90.316742,23.800015],[90.316739,23.799988],[90.316733,23.799879],[90.316727,23.79981],[90.316725,23.799704],[90.316721,23.799636],[90.316715,23.79956],[90.316709,23.799497],[90.316578,23.799476],[90.316414,23.799443],[90.316307,23.799423],[90.316388,23.799422],[90.316534,23.799421],[90.316778,23.799413],[90.316782,23.799476],[90.316778,23.799571],[90.31677,23.799648],[90.316775,23.799846],[90.316775,23.799892],[90.316783,23.799955],[90.316805,23.800002]]]}},{"type":"Feature","properties":{"survey":"bds","sheet":"078","dag":"38526","label_bn":"38526","area_sqm":140.8},"geometry":{"type":"Polygon","coordinates":[[[90.31763,23.800072],[90.317388,23.800106],[90.317405,23.800098],[90.317465,23.800069],[90.317516,23.800035],[90.317623,23.799973],[90.317643,23.799962],[90.31763,23.800072]]]}},{"type":"Feature","properties":{"survey":"bds","sheet":"078","dag":"38529","label_bn":"38529","area_sqm":2384.8},"geometry":{"type":"Polygon","coordinates":[[[90.317273,23.800068],[90.317169,23.800123],[90.317219,23.799495],[90.317351,23.799503],[90.317569,23.799463],[90.31765,23.799828],[90.317651,23.79984],[90.317528,23.799917],[90.317273,23.800068]]]}},{"type":"Feature","properties":{"survey":"bds","sheet":"078","dag":"38504","label_bn":"38504","area_sqm":5204.8},"geometry":{"type":"Polygon","coordinates":[[[90.317145,23.799345],[90.317055,23.800134],[90.31694,23.800058],[90.316862,23.800037],[90.316834,23.800033],[90.316805,23.800002],[90.316783,23.799955],[90.316775,23.799892],[90.316775,23.799846],[90.31677,23.799648],[90.316778,23.799571],[90.316782,23.799476],[90.316778,23.799413],[90.316767,23.799354],[90.316764,23.7993],[90.316762,23.79918],[90.316769,23.799136],[90.316773,23.799093],[90.316793,23.799031],[90.316823,23.798941],[90.316846,23.798871],[90.316858,23.798851],[90.316935,23.798758],[90.316991,23.798698],[90.317001,23.79871],[90.317211,23.798763],[90.317145,23.799345]]]}},{"type":"Feature","properties":{"survey":"bds","sheet":"078","dag":"38525","label_bn":"38525","area_sqm":479.9},"geometry":{"type":"Polygon","coordinates":[[[90.317168,23.800136],[90.317136,23.800141],[90.317169,23.800123],[90.317273,23.800068],[90.317528,23.799917],[90.317651,23.79984],[90.317653,23.799878],[90.317643,23.799962],[90.317623,23.799973],[90.317516,23.800035],[90.317465,23.800069],[90.317405,23.800098],[90.317388,23.800106],[90.317168,23.800136]]]}},{"type":"Feature","properties":{"survey":"bds","sheet":"078","dag":"38524","label_bn":"38524","area_sqm":308.6},"geometry":{"type":"Polygon","coordinates":[[[90.317136,23.800141],[90.317114,23.800144],[90.317188,23.799492],[90.317219,23.799495],[90.317169,23.800123],[90.317136,23.800141]]]}},{"type":"Feature","properties":{"survey":"bds","sheet":"078","dag":"38523","label_bn":"38523","area_sqm":936.9},"geometry":{"type":"Polygon","coordinates":[[[90.317114,23.800144],[90.317077,23.800149],[90.317055,23.800134],[90.317145,23.799345],[90.317211,23.798763],[90.317269,23.798778],[90.317255,23.798905],[90.317204,23.799351],[90.317188,23.799492],[90.317114,23.800144]]]}}]}