{"type":"FeatureCollection","features":[{"type":"Feature","properties":{"survey":"bds","sheet":"079","dag":"39011","label_bn":"39011","area_sqm":470.0},"geometry":{"type":"Polygon","coordinates":[[[90.313397,23.795489],[90.313397,23.79549],[90.313234,23.795467],[90.313074,23.795441],[90.313083,23.795325],[90.31334,23.795352],[90.31342,23.795357],[90.313397,23.795489]]]}},{"type":"Feature","properties":{"survey":"bds","sheet":"079","dag":"39010","label_bn":"39010","area_sqm":58387.9},"geometry":{"type":"Polygon","coordinates":[[[90.315516,23.795681],[90.315305,23.79846],[90.315281,23.79842],[90.315148,23.798335],[90.314845,23.798185],[90.314703,23.798126],[90.31456,23.798076],[90.31443,23.798019],[90.314362,23.797948],[90.314293,23.797894],[90.314235,23.797865],[90.314139,23.797833],[90.314064,23.797822],[90.314079,23.797767],[90.314034,23.797608],[90.314006,23.797502],[90.31396,23.797393],[90.31389,23.797349],[90.313844,23.797264],[90.313835,23.797201],[90.313872,23.797091],[90.313919,23.796986],[90.313868,23.796998],[90.313767,23.79698],[90.313582,23.796897],[90.313546,23.796857],[90.313397,23.79685],[90.313335,23.796678],[90.312817,23.796628],[90.313074,23.795441],[90.313234,23.795467],[90.313397,23.79549],[90.313397,23.795489],[90.31342,23.795357],[90.313599,23.795399],[90.313932,23.795393],[90.314076,23.795419],[90.314216,23.795432],[90.314387,23.795439],[90.314534,23.795482],[90.314612,23.795682],[90.314683,23.795712],[90.31475,23.795712],[90.314842,23.795646],[90.315011,23.795596],[90.315174,23.79556],[90.315461,23.795663],[90.315516,23.795681]]]}},{"type":"Feature","properties":{"survey":"bds","sheet":"079","dag":"39007","label_bn":"39007","area_sqm":590.9},"geometry":{"type":"Polygon","coordinates":[[[90.3141,23.798467],[90.31403,23.798543],[90.314034,23.798522],[90.314029,23.798472],[90.314022,23.798417],[90.314013,23.798397],[90.313988,23.798359],[90.313967,23.79834],[90.31393,23.79832],[90.313858,23.798285],[90.31377,23.79825],[90.313654,23.798203],[90.313546,23.798162],[90.313471,23.798132],[90.313417,23.798115],[90.313355,23.798101],[90.313272,23.798086],[90.31326,23.798089],[90.313272,23.798014],[90.313355,23.798051],[90.313462,23.798092],[90.313682,23.798167],[90.313801,23.798207],[90.313898,23.798245],[90.313966,23.798271],[90.314047,23.798306],[90.314074,23.79836],[90.314093,23.798417],[90.314102,23.798466],[90.3141,23.798467]]]}},{"type":"Feature","properties":{"survey":"bds","sheet":"079","dag":"39004","label_bn":"39004","area_sqm":18726.8},"geometry":{"type":"Polygon","coordinates":[[[90.312938,23.798629],[90.312927,23.798655],[90.312865,23.798642],[90.312817,23.796628],[90.313335,23.796678],[90.313397,23.79685],[90.313546,23.796857],[90.313582,23.796897],[90.313767,23.79698],[90.313868,23.796998],[90.313919,23.796986],[90.313872,23.797091],[90.313835,23.797201],[90.313844,23.797264],[90.31389,23.797349],[90.31396,23.797393],[90.314006,23.797502],[90.314034,23.797608],[90.314079,23.797767],[90.314064,23.797822],[90.314139,23.797833],[90.314235,23.797865],[90.314293,23.797894],[90.314362,23.797948],[90.31443,23.798019],[90.314393,23.798051],[90.314339,23.798182],[90.314317,23.798347],[90.314302,23.798426],[90.314102,23.798466],[90.314093,23.798417],[90.314074,23.79836],[90.314047,23.798306],[90.313966,23.798271],[90.313898,23.798245],[90.313801,23.798207],[90.313682,23.798167],[90.313462,23.798092],[90.313355,23.798051],[90.313272,23.798014],[90.313293,23.797889],[90.313331,23.797715],[90.313376,23.79754],[90.3134,23.797451],[90.313409,23.797396],[90.313353,23.797338],[90.313298,23.797289],[90.313294,23.797309],[90.313276,23.797356],[90.313256,23.797424],[90.313207,23.79756],[90.313129,23.797792],[90.313084,23.797952],[90.313073,23.79806],[90.313062,23.798139],[90.313041,23.798255],[90.312996,23.798439],[90.312956,23.798564],[90.312938,23.798629]]]}},{"type":"Feature","properties":{"survey":"bds","sheet":"079","dag":"39005","label_bn":"39005","area_sqm":2751.3},"geometry":{"type":"Polygon","coordinates":[[[90.31315,23.798611],[90.313133,23.798696],[90.312927,23.798655],[90.312938,23.798629],[90.312956,23.798564],[90.312996,23.798439],[90.313041,23.798255],[90.313062,23.798139],[90.313073,23.79806],[90.313084,23.797952],[90.313129,23.797792],[90.313207,23.79756],[90.313256,23.797424],[90.313276,23.797356],[90.313294,23.797309],[90.313298,23.797289],[90.313353,23.797338],[90.313409,23.797396],[90.3134,23.797451],[90.313376,23.79754],[90.313331,23.797715],[90.313293,23.797889],[90.313272,23.798014],[90.31326,23.798089],[90.313246,23.798135],[90.313216,23.798246],[90.313203,23.798319],[90.313188,23.798433],[90.313182,23.79848],[90.313168,23.798544],[90.31315,23.798611]]]}},{"type":"Feature","properties":{"survey":"bds","sheet":"079","dag":"39006","label_bn":"39006","area_sqm":3187.8},"geometry":{"type":"Polygon","coordinates":[[[90.313232,23.798657],[90.313153,23.7987],[90.313133,23.798696],[90.31315,23.798611],[90.313168,23.798544],[90.313182,23.79848],[90.313188,23.798433],[90.313203,23.798319],[90.313216,23.798246],[90.313246,23.798135],[90.31326,23.798089],[90.313272,23.798086],[90.313355,23.798101],[90.313417,23.798115],[90.313471,23.798132],[90.313546,23.798162],[90.313654,23.798203],[90.31377,23.79825],[90.313858,23.798285],[90.31393,23.79832],[90.313967,23.79834],[90.313988,23.798359],[90.314013,23.798397],[90.314022,23.798417],[90.314029,23.798472],[90.314034,23.798522],[90.31403,23.798543],[90.314017,23.798558],[90.313957,23.79859],[90.313693,23.7985],[90.313547,23.798442],[90.313435,23.798498],[90.313334,23.798564],[90.313281,23.798604],[90.313232,23.798657]]]}},{"type":"Feature","properties":{"survey":"bds","sheet":"079","dag":"39003","label_bn":"39003","area_sqm":364.6},"geometry":{"type":"Polygon","coordinates":[[[90.312673,23.799271],[90.312664,23.799285],[90.312865,23.798642],[90.312927,23.798655],[90.312881,23.798774],[90.312822,23.798967],[90.312788,23.799076],[90.312756,23.799136],[90.312738,23.799175],[90.312673,23.799271]]]}},{"type":"Feature","properties":{"survey":"bds","sheet":"079","dag":"39002","label_bn":"39002","area_sqm":1655.7},"geometry":{"type":"Polygon","coordinates":[[[90.31261,23.799481],[90.312598,23.799496],[90.312664,23.799285],[90.312673,23.799271],[90.312738,23.799175],[90.312756,23.799136],[90.312788,23.799076],[90.312822,23.798967],[90.312881,23.798774],[90.312927,23.798655],[90.313133,23.798696],[90.313127,23.798725],[90.31307,23.798881],[90.313024,23.798999],[90.312974,23.799123],[90.312959,23.799162],[90.312932,23.799194],[90.312895,23.79923],[90.312817,23.799295],[90.312719,23.799376],[90.312652,23.79944],[90.31261,23.799481]]]}},{"type":"Feature","properties":{"survey":"bds","sheet":"079","dag":"39009","label_bn":"39009","area_sqm":20978.7},"geometry":{"type":"Polygon","coordinates":[[[90.315275,23.799729],[90.314005,23.799761],[90.314003,23.799749],[90.313995,23.799664],[90.313989,23.799583],[90.313985,23.799493],[90.313988,23.799444],[90.313998,23.799398],[90.314046,23.799284],[90.3141,23.799172],[90.314104,23.799067],[90.314103,23.798902],[90.314101,23.798807],[90.314106,23.798676],[90.314106,23.798551],[90.314102,23.79847],[90.314102,23.798466],[90.314302,23.798426],[90.314317,23.798347],[90.314339,23.798182],[90.314393,23.798051],[90.31443,23.798019],[90.31456,23.798076],[90.314703,23.798126],[90.314845,23.798185],[90.315148,23.798335],[90.315281,23.79842],[90.315305,23.79846],[90.315297,23.798886],[90.315313,23.799243],[90.315275,23.799729]]]}},{"type":"Feature","properties":{"survey":"bds","sheet":"079","dag":"39008","label_bn":"39008","area_sqm":2252.7},"geometry":{"type":"Polygon","coordinates":[[[90.314005,23.799761],[90.313792,23.799766],[90.313784,23.799725],[90.313756,23.799623],[90.313751,23.799623],[90.313779,23.799506],[90.313806,23.799421],[90.313872,23.799255],[90.313924,23.799128],[90.313951,23.79905],[90.313966,23.798996],[90.313987,23.798883],[90.313989,23.798836],[90.314016,23.798705],[90.314024,23.798608],[90.314026,23.798569],[90.31403,23.798543],[90.3141,23.798467],[90.314102,23.798466],[90.314102,23.79847],[90.314106,23.798551],[90.314106,23.798676],[90.314101,23.798807],[90.314103,23.798902],[90.314104,23.799067],[90.3141,23.799172],[90.314046,23.799284],[90.313998,23.799398],[90.313988,23.799444],[90.313985,23.799493],[90.313989,23.799583],[90.313995,23.799664],[90.314003,23.799749],[90.314005,23.799761]]]}},{"type":"Feature","properties":{"survey":"bds","sheet":"079","dag":"39001","label_bn":"39001","area_sqm":14379.2},"geometry":{"type":"Polygon","coordinates":[[[90.313792,23.799766],[90.312503,23.799798],[90.312598,23.799496],[90.31261,23.799481],[90.312652,23.79944],[90.312719,23.799376],[90.312817,23.799295],[90.312895,23.79923],[90.312932,23.799194],[90.312959,23.799162],[90.312974,23.799123],[90.313024,23.798999],[90.31307,23.798881],[90.313127,23.798725],[90.313133,23.798696],[90.313153,23.7987],[90.313232,23.798657],[90.313281,23.798604],[90.313334,23.798564],[90.313435,23.798498],[90.313547,23.798442],[90.313693,23.7985],[90.313957,23.79859],[90.314017,23.798558],[90.31403,23.798543],[90.314026,23.798569],[90.314024,23.798608],[90.314016,23.798705],[90.313989,23.798836],[90.313987,23.798883],[90.313966,23.798996],[90.313951,23.79905],[90.313924,23.799128],[90.313872,23.799255],[90.313806,23.799421],[90.313779,23.799506],[90.313751,23.799623],[90.313756,23.799623],[90.313784,23.799725],[90.313792,23.799766]]]}}]}