{"type":"FeatureCollection","features":[{"type":"Feature","properties":{"survey":"bds","sheet":"080","dag":"39506","label_bn":"39506","area_sqm":2521.5},"geometry":{"type":"Polygon","coordinates":[[[90.311124,23.799598],[90.311051,23.799605],[90.310836,23.799519],[90.310683,23.799477],[90.310458,23.799387],[90.310433,23.799379],[90.310587,23.799166],[90.310677,23.799022],[90.310762,23.798993],[90.31084,23.799088],[90.310926,23.799212],[90.311021,23.799314],[90.311158,23.799495],[90.31119,23.799553],[90.311202,23.799574],[90.311124,23.799598]]]}},{"type":"Feature","properties":{"survey":"bds","sheet":"080","dag":"39513","label_bn":"39513","area_sqm":15218.5},"geometry":{"type":"Polygon","coordinates":[[[90.312039,23.799652],[90.311944,23.799654],[90.311804,23.799642],[90.311453,23.799595],[90.311373,23.799572],[90.311209,23.799425],[90.311071,23.799274],[90.310942,23.799131],[90.310907,23.799058],[90.310812,23.798918],[90.310702,23.798721],[90.312801,23.798846],[90.312664,23.799285],[90.312587,23.799401],[90.312562,23.79944],[90.312548,23.799459],[90.312528,23.799473],[90.312478,23.799488],[90.312291,23.799551],[90.312125,23.799609],[90.312056,23.799634],[90.312051,23.799649],[90.312039,23.799652]]]}},{"type":"Feature","properties":{"survey":"bds","sheet":"080","dag":"39512","label_bn":"39512","area_sqm":532.6},"geometry":{"type":"Polygon","coordinates":[[[90.312544,23.799559],[90.312451,23.799702],[90.312443,23.799687],[90.312391,23.799619],[90.312339,23.799602],[90.31219,23.799618],[90.312051,23.799649],[90.312056,23.799634],[90.312125,23.799609],[90.312291,23.799551],[90.312478,23.799488],[90.312528,23.799473],[90.312548,23.799459],[90.312562,23.79944],[90.312587,23.799401],[90.312664,23.799285],[90.312598,23.799496],[90.312544,23.799559]]]}},{"type":"Feature","properties":{"survey":"bds","sheet":"080","dag":"39507","label_bn":"39507","area_sqm":1701.4},"geometry":{"type":"Polygon","coordinates":[[[90.31202,23.799727],[90.311983,23.799729],[90.31178,23.79972],[90.311629,23.799708],[90.311551,23.79969],[90.311376,23.79967],[90.311297,23.79965],[90.311258,23.799629],[90.311202,23.799574],[90.31119,23.799553],[90.311158,23.799495],[90.311021,23.799314],[90.310926,23.799212],[90.31084,23.799088],[90.310762,23.798993],[90.310654,23.798801],[90.3106,23.798694],[90.310702,23.798721],[90.310812,23.798918],[90.310907,23.799058],[90.310942,23.799131],[90.311071,23.799274],[90.311209,23.799425],[90.311373,23.799572],[90.311453,23.799595],[90.311804,23.799642],[90.311944,23.799654],[90.312039,23.799652],[90.312051,23.799649],[90.312043,23.799676],[90.312033,23.799696],[90.312019,23.799724],[90.31202,23.799727]]]}},{"type":"Feature","properties":{"survey":"bds","sheet":"080","dag":"39511","label_bn":"39511","area_sqm":151.1},"geometry":{"type":"Polygon","coordinates":[[[90.312598,23.799496],[90.312503,23.799798],[90.312451,23.799702],[90.312544,23.799559],[90.312598,23.799496]]]}},{"type":"Feature","properties":{"survey":"bds","sheet":"080","dag":"39509","label_bn":"39509","area_sqm":320.8},"geometry":{"type":"Polygon","coordinates":[[[90.312411,23.799765],[90.312385,23.799807],[90.312347,23.799796],[90.312317,23.799792],[90.312248,23.799791],[90.312175,23.799789],[90.312115,23.799793],[90.312051,23.799796],[90.312029,23.799745],[90.31202,23.799727],[90.312104,23.799721],[90.312238,23.799705],[90.312329,23.799708],[90.312375,23.799728],[90.312411,23.799765]]]}},{"type":"Feature","properties":{"survey":"bds","sheet":"080","dag":"39510","label_bn":"39510","area_sqm":502.7},"geometry":{"type":"Polygon","coordinates":[[[90.312503,23.799798],[90.312449,23.799835],[90.312421,23.799776],[90.312411,23.799765],[90.312375,23.799728],[90.312329,23.799708],[90.312238,23.799705],[90.312104,23.799721],[90.31202,23.799727],[90.312019,23.799724],[90.312033,23.799696],[90.312043,23.799676],[90.312051,23.799649],[90.31219,23.799618],[90.312339,23.799602],[90.312391,23.799619],[90.312443,23.799687],[90.312451,23.799702],[90.312503,23.799798]]]}},{"type":"Feature","properties":{"survey":"bds","sheet":"080","dag":"39503","label_bn":"39503","area_sqm":20139.0},"geometry":{"type":"Polygon","coordinates":[[[90.308321,23.800662],[90.308291,23.800677],[90.308258,23.800629],[90.308234,23.800593],[90.308197,23.800543],[90.308153,23.800452],[90.30814,23.800422],[90.308086,23.80034],[90.308022,23.800246],[90.308007,23.800228],[90.307988,23.800209],[90.307984,23.800207],[90.308516,23.800064],[90.308393,23.799759],[90.308437,23.79972],[90.308502,23.799563],[90.308417,23.799363],[90.308388,23.799273],[90.308315,23.799194],[90.308402,23.799204],[90.30867,23.799271],[90.30905,23.799227],[90.309247,23.799026],[90.30934,23.798945],[90.309364,23.798816],[90.309336,23.798719],[90.309353,23.798644],[90.309499,23.798554],[90.310221,23.79879],[90.30972,23.799437],[90.309654,23.79953],[90.309638,23.799584],[90.309437,23.799715],[90.309368,23.799623],[90.309305,23.799691],[90.309314,23.799784],[90.309242,23.799995],[90.309164,23.800185],[90.309079,23.80035],[90.309033,23.800383],[90.308724,23.800431],[90.308447,23.800599],[90.308321,23.800662]]]}},{"type":"Feature","properties":{"survey":"bds","sheet":"080","dag":"39505","label_bn":"39505","area_sqm":331.7},"geometry":{"type":"Polygon","coordinates":[[[90.309913,23.80093],[90.309819,23.800955],[90.309698,23.800919],[90.309724,23.800909],[90.309769,23.800886],[90.309822,23.800862],[90.309858,23.800845],[90.309914,23.800737],[90.309968,23.800626],[90.310014,23.800633],[90.309983,23.800718],[90.309928,23.800879],[90.309913,23.80093]]]}},{"type":"Feature","properties":{"survey":"bds","sheet":"080","dag":"39508","label_bn":"39508","area_sqm":13310.7},"geometry":{"type":"Polygon","coordinates":[[[90.312433,23.80091],[90.311338,23.800981],[90.311402,23.800743],[90.311403,23.800577],[90.311505,23.800191],[90.311553,23.800087],[90.311562,23.799931],[90.311547,23.799767],[90.311551,23.79969],[90.311629,23.799708],[90.31178,23.79972],[90.311983,23.799729],[90.31202,23.799727],[90.312029,23.799745],[90.312051,23.799796],[90.312115,23.799793],[90.312175,23.799789],[90.312248,23.799791],[90.312317,23.799792],[90.312347,23.799796],[90.312385,23.799807],[90.312411,23.799765],[90.312421,23.799776],[90.312449,23.799835],[90.312467,23.799908],[90.312467,23.80013],[90.312452,23.800259],[90.312456,23.800392],[90.31245,23.80056],[90.312443,23.80069],[90.312435,23.800865],[90.312433,23.80091]]]}},{"type":"Feature","properties":{"survey":"bds","sheet":"080","dag":"39504","label_bn":"39504","area_sqm":42964.1},"geometry":{"type":"Polygon","coordinates":[[[90.311074,23.801118],[90.310558,23.80113],[90.310332,23.801094],[90.309946,23.800994],[90.309819,23.800955],[90.309913,23.80093],[90.309928,23.800879],[90.309983,23.800718],[90.310014,23.800633],[90.309968,23.800626],[90.309914,23.800737],[90.309858,23.800845],[90.309822,23.800862],[90.309769,23.800886],[90.309724,23.800909],[90.309698,23.800919],[90.309689,23.800916],[90.309545,23.800882],[90.309216,23.800885],[90.309213,23.800833],[90.309071,23.800478],[90.309079,23.80035],[90.309164,23.800185],[90.309242,23.799995],[90.309314,23.799784],[90.309305,23.799691],[90.309368,23.799623],[90.309437,23.799715],[90.309638,23.799584],[90.309654,23.79953],[90.30972,23.799437],[90.310221,23.79879],[90.310398,23.7988],[90.3106,23.798694],[90.310654,23.798801],[90.310762,23.798993],[90.310677,23.799022],[90.310587,23.799166],[90.310433,23.799379],[90.310458,23.799387],[90.310683,23.799477],[90.310836,23.799519],[90.311051,23.799605],[90.311124,23.799598],[90.311202,23.799574],[90.311258,23.799629],[90.311297,23.79965],[90.311376,23.79967],[90.311551,23.79969],[90.311547,23.799767],[90.311562,23.799931],[90.311553,23.800087],[90.311505,23.800191],[90.311403,23.800577],[90.311402,23.800743],[90.311338,23.800981],[90.311074,23.801118]]]}},{"type":"Feature","properties":{"survey":"bds","sheet":"080","dag":"39502","label_bn":"39502","area_sqm":4587.9},"geometry":{"type":"Polygon","coordinates":[[[90.308681,23.80108],[90.308616,23.801143],[90.308573,23.801088],[90.308552,23.801053],[90.308503,23.800976],[90.308448,23.800897],[90.308386,23.80081],[90.30834,23.800751],[90.308291,23.800677],[90.308321,23.800662],[90.308447,23.800599],[90.308724,23.800431],[90.309033,23.800383],[90.309079,23.80035],[90.309071,23.800478],[90.309213,23.800833],[90.309216,23.800885],[90.309174,23.80092],[90.309072,23.800944],[90.308863,23.800959],[90.308755,23.800998],[90.308681,23.80108]]]}},{"type":"Feature","properties":{"survey":"bds","sheet":"080","dag":"39501","label_bn":"39501","area_sqm":2693.3},"geometry":{"type":"Polygon","coordinates":[[[90.30848,23.801282],[90.308478,23.801294],[90.308402,23.801184],[90.308361,23.801123],[90.308343,23.801098],[90.308296,23.801039],[90.30831,23.801033],[90.308276,23.800989],[90.308199,23.800887],[90.308169,23.800838],[90.308139,23.800782],[90.308121,23.800758],[90.308099,23.800727],[90.308051,23.800664],[90.307974,23.800562],[90.30795,23.80053],[90.307927,23.800497],[90.3079,23.800456],[90.307848,23.800378],[90.307823,23.800341],[90.30777,23.800264],[90.307984,23.800207],[90.307988,23.800209],[90.308007,23.800228],[90.308022,23.800246],[90.308086,23.80034],[90.30814,23.800422],[90.308153,23.800452],[90.308197,23.800543],[90.308234,23.800593],[90.308258,23.800629],[90.308291,23.800677],[90.30834,23.800751],[90.308386,23.80081],[90.308448,23.800897],[90.308503,23.800976],[90.308552,23.801053],[90.308573,23.801088],[90.308616,23.801143],[90.308542,23.801215],[90.308478,23.801274],[90.30848,23.801282]]]}}]}