{"type":"FeatureCollection","features":[{"type":"Feature","properties":{"survey":"bds","sheet":"081","dag":"40004","label_bn":"40004","area_sqm":1840.3},"geometry":{"type":"Polygon","coordinates":[[[90.306469,23.797241],[90.306281,23.797528],[90.30573,23.797272],[90.30576,23.797121],[90.306345,23.797209],[90.306469,23.797241]]]}},{"type":"Feature","properties":{"survey":"bds","sheet":"081","dag":"40005","label_bn":"40005","area_sqm":2081.9},"geometry":{"type":"Polygon","coordinates":[[[90.306955,23.797368],[90.306856,23.797695],[90.306281,23.797528],[90.306469,23.797241],[90.306955,23.797368]]]}},{"type":"Feature","properties":{"survey":"bds","sheet":"081","dag":"40008","label_bn":"40008","area_sqm":966.6},"geometry":{"type":"Polygon","coordinates":[[[90.309408,23.797762],[90.309335,23.797771],[90.309325,23.797724],[90.309303,23.797635],[90.309231,23.79756],[90.309084,23.797455],[90.308971,23.797416],[90.308708,23.797348],[90.30857,23.797328],[90.308469,23.797337],[90.308398,23.797331],[90.308229,23.7973],[90.308028,23.797287],[90.308037,23.797219],[90.30807,23.797238],[90.308337,23.797276],[90.308678,23.797285],[90.308998,23.797378],[90.309149,23.797424],[90.309465,23.797698],[90.309408,23.797762]]]}},{"type":"Feature","properties":{"survey":"bds","sheet":"081","dag":"40007","label_bn":"40007","area_sqm":23762.9},"geometry":{"type":"Polygon","coordinates":[[[90.30905,23.799227],[90.30867,23.799271],[90.308402,23.799204],[90.308315,23.799194],[90.308035,23.798638],[90.308149,23.798218],[90.308217,23.797996],[90.308373,23.797525],[90.308421,23.797396],[90.308447,23.797357],[90.308469,23.797337],[90.30857,23.797328],[90.308708,23.797348],[90.308971,23.797416],[90.309084,23.797455],[90.309231,23.79756],[90.309303,23.797635],[90.309325,23.797724],[90.309335,23.797771],[90.309408,23.797762],[90.309377,23.798005],[90.309492,23.798249],[90.309443,23.798326],[90.309423,23.798446],[90.309499,23.798554],[90.309353,23.798644],[90.309336,23.798719],[90.309364,23.798816],[90.30934,23.798945],[90.309247,23.799026],[90.30905,23.799227]]]}},{"type":"Feature","properties":{"survey":"bds","sheet":"081","dag":"40003","label_bn":"40003","area_sqm":16938.5},"geometry":{"type":"Polygon","coordinates":[[[90.307346,23.799337],[90.307416,23.799488],[90.307288,23.799371],[90.307237,23.799326],[90.307189,23.799274],[90.307142,23.799219],[90.307082,23.799145],[90.307039,23.799082],[90.307012,23.799041],[90.306996,23.799012],[90.306991,23.799],[90.306982,23.798985],[90.306963,23.798973],[90.306855,23.798901],[90.306793,23.798853],[90.306681,23.798759],[90.306612,23.798708],[90.306485,23.798614],[90.306421,23.798562],[90.306243,23.798408],[90.306114,23.798302],[90.306008,23.798207],[90.30592,23.798136],[90.305794,23.798013],[90.305704,23.797926],[90.305592,23.797812],[90.305565,23.797791],[90.305474,23.797696],[90.305329,23.797539],[90.30523,23.79743],[90.305205,23.797411],[90.305196,23.797404],[90.30517,23.797377],[90.305134,23.797348],[90.305108,23.797317],[90.305339,23.797084],[90.30576,23.797121],[90.30573,23.797272],[90.306281,23.797528],[90.306856,23.797695],[90.306779,23.797932],[90.306756,23.798015],[90.306768,23.798124],[90.306779,23.798195],[90.306787,23.798262],[90.306811,23.798331],[90.306857,23.798459],[90.306961,23.798658],[90.307042,23.798623],[90.307079,23.798655],[90.30729,23.79916],[90.307267,23.799168],[90.307346,23.799337]]]}},{"type":"Feature","properties":{"survey":"bds","sheet":"081","dag":"40006","label_bn":"40006","area_sqm":33947.3},"geometry":{"type":"Polygon","coordinates":[[[90.307741,23.799858],[90.307718,23.79986],[90.307674,23.799799],[90.307657,23.799779],[90.30755,23.799634],[90.307416,23.799488],[90.307346,23.799337],[90.307267,23.799168],[90.30729,23.79916],[90.307079,23.798655],[90.307042,23.798623],[90.306961,23.798658],[90.306857,23.798459],[90.306811,23.798331],[90.306787,23.798262],[90.306779,23.798195],[90.306768,23.798124],[90.306756,23.798015],[90.306779,23.797932],[90.306856,23.797695],[90.306955,23.797368],[90.30726,23.797347],[90.307574,23.797274],[90.307725,23.79725],[90.308028,23.797287],[90.308229,23.7973],[90.308398,23.797331],[90.308469,23.797337],[90.308447,23.797357],[90.308421,23.797396],[90.308373,23.797525],[90.308217,23.797996],[90.308149,23.798218],[90.308035,23.798638],[90.308315,23.799194],[90.308388,23.799273],[90.308417,23.799363],[90.308502,23.799563],[90.308437,23.79972],[90.308393,23.799759],[90.308232,23.79976],[90.308157,23.799786],[90.307741,23.799858]]]}},{"type":"Feature","properties":{"survey":"bds","sheet":"081","dag":"40002","label_bn":"40002","area_sqm":2592.0},"geometry":{"type":"Polygon","coordinates":[[[90.308516,23.800064],[90.307984,23.800207],[90.307961,23.800192],[90.307923,23.800143],[90.307873,23.800081],[90.307824,23.800017],[90.307804,23.799993],[90.307728,23.799874],[90.307718,23.79986],[90.307741,23.799858],[90.308157,23.799786],[90.308232,23.79976],[90.308393,23.799759],[90.308516,23.800064]]]}},{"type":"Feature","properties":{"survey":"bds","sheet":"081","dag":"40001","label_bn":"40001","area_sqm":11090.7},"geometry":{"type":"Polygon","coordinates":[[[90.307802,23.800255],[90.30777,23.800264],[90.307727,23.800202],[90.3077,23.800165],[90.307674,23.800129],[90.30765,23.800092],[90.307626,23.800055],[90.307608,23.800028],[90.307521,23.799912],[90.307401,23.799764],[90.307283,23.799629],[90.307116,23.799472],[90.307077,23.79944],[90.306974,23.799363],[90.30685,23.799257],[90.306671,23.799096],[90.306519,23.798958],[90.306385,23.798842],[90.306323,23.798787],[90.306248,23.798728],[90.30621,23.798704],[90.306154,23.798655],[90.306106,23.798614],[90.306058,23.798574],[90.305998,23.798524],[90.30595,23.798485],[90.305902,23.798446],[90.305856,23.798406],[90.305809,23.798366],[90.305722,23.798289],[90.305635,23.798212],[90.305602,23.798186],[90.305569,23.798159],[90.305525,23.798121],[90.305492,23.798088],[90.305452,23.798051],[90.305413,23.798014],[90.305391,23.797997],[90.30537,23.797979],[90.305294,23.797917],[90.305219,23.797855],[90.305178,23.797815],[90.305138,23.797774],[90.305088,23.797732],[90.305041,23.797692],[90.304994,23.797652],[90.30493,23.797593],[90.304909,23.79757],[90.304884,23.797542],[90.305108,23.797317],[90.305134,23.797348],[90.30517,23.797377],[90.305196,23.797404],[90.305205,23.797411],[90.30523,23.79743],[90.305329,23.797539],[90.305474,23.797696],[90.305565,23.797791],[90.305592,23.797812],[90.305704,23.797926],[90.305794,23.798013],[90.30592,23.798136],[90.306008,23.798207],[90.306114,23.798302],[90.306243,23.798408],[90.306421,23.798562],[90.306485,23.798614],[90.306612,23.798708],[90.306681,23.798759],[90.306793,23.798853],[90.306855,23.798901],[90.306963,23.798973],[90.306982,23.798985],[90.306991,23.799],[90.306996,23.799012],[90.307012,23.799041],[90.307039,23.799082],[90.307082,23.799145],[90.307142,23.799219],[90.307189,23.799274],[90.307237,23.799326],[90.307288,23.799371],[90.307416,23.799488],[90.30755,23.799634],[90.307657,23.799779],[90.307674,23.799799],[90.307718,23.79986],[90.307728,23.799874],[90.307804,23.799993],[90.307824,23.800017],[90.307873,23.800081],[90.307923,23.800143],[90.307961,23.800192],[90.307984,23.800207],[90.307802,23.800255]]]}}]}