{"type":"FeatureCollection","features":[{"type":"Feature","properties":{"survey":"bds","sheet":"082","dag":"40508","label_bn":"40508","area_sqm":9221.5},"geometry":{"type":"Polygon","coordinates":[[[90.307653,23.79541],[90.307596,23.795454],[90.307537,23.79543],[90.307435,23.795382],[90.307273,23.795303],[90.307177,23.795263],[90.307126,23.79523],[90.307056,23.795208],[90.306997,23.795198],[90.306905,23.795188],[90.306757,23.79518],[90.3067,23.795177],[90.306549,23.795187],[90.306408,23.795191],[90.306339,23.795201],[90.306179,23.795226],[90.306223,23.795136],[90.306264,23.795035],[90.30631,23.794928],[90.306326,23.794869],[90.30634,23.79481],[90.306911,23.794762],[90.307046,23.794493],[90.307054,23.794497],[90.307261,23.794613],[90.307355,23.79468],[90.307485,23.794773],[90.307522,23.794729],[90.307523,23.794727],[90.307526,23.79473],[90.30766,23.79485],[90.30785,23.794908],[90.307761,23.795316],[90.307734,23.795339],[90.307653,23.79541]]]}},{"type":"Feature","properties":{"survey":"bds","sheet":"082","dag":"40507","label_bn":"40507","area_sqm":1900.4},"geometry":{"type":"Polygon","coordinates":[[[90.307695,23.795617],[90.307677,23.795653],[90.307639,23.795628],[90.307594,23.795593],[90.307531,23.795544],[90.307454,23.795491],[90.307397,23.795456],[90.307253,23.79538],[90.307249,23.795378],[90.30719,23.795334],[90.307153,23.795311],[90.307086,23.795286],[90.307014,23.795267],[90.306966,23.795263],[90.306867,23.795263],[90.30673,23.795269],[90.306725,23.795269],[90.306663,23.795267],[90.30656,23.795278],[90.306454,23.795285],[90.3064,23.795311],[90.306324,23.795348],[90.306191,23.795407],[90.306183,23.795348],[90.306173,23.795283],[90.306172,23.795239],[90.306179,23.795226],[90.306339,23.795201],[90.306408,23.795191],[90.306549,23.795187],[90.3067,23.795177],[90.306757,23.79518],[90.306905,23.795188],[90.306997,23.795198],[90.307056,23.795208],[90.307126,23.79523],[90.307177,23.795263],[90.307273,23.795303],[90.307435,23.795382],[90.307537,23.79543],[90.307596,23.795454],[90.307653,23.79541],[90.307734,23.795339],[90.307761,23.795316],[90.307695,23.795617]]]}},{"type":"Feature","properties":{"survey":"bds","sheet":"082","dag":"40509","label_bn":"40509","area_sqm":523.0},"geometry":{"type":"Polygon","coordinates":[[[90.307819,23.79562],[90.307771,23.795707],[90.307709,23.795675],[90.307677,23.795653],[90.307695,23.795617],[90.307761,23.795316],[90.307794,23.795288],[90.307828,23.795264],[90.307824,23.795305],[90.307819,23.795397],[90.30789,23.795405],[90.307877,23.795461],[90.307852,23.795544],[90.307819,23.79562]]]}},{"type":"Feature","properties":{"survey":"bds","sheet":"082","dag":"40515","label_bn":"40515","area_sqm":7124.3},"geometry":{"type":"Polygon","coordinates":[[[90.307769,23.795996],[90.30767,23.796046],[90.307528,23.796018],[90.307546,23.795928],[90.30762,23.795771],[90.307677,23.795653],[90.307709,23.795675],[90.307771,23.795707],[90.307819,23.79562],[90.307852,23.795544],[90.307877,23.795461],[90.30789,23.795405],[90.307819,23.795397],[90.307824,23.795305],[90.307828,23.795264],[90.307794,23.795288],[90.307761,23.795316],[90.30785,23.794908],[90.307851,23.794906],[90.307876,23.794777],[90.308269,23.794792],[90.308269,23.794793],[90.308351,23.794792],[90.308381,23.794784],[90.308402,23.794966],[90.308432,23.795216],[90.308336,23.79525],[90.308383,23.795331],[90.308404,23.795389],[90.308451,23.79543],[90.308494,23.795472],[90.308499,23.795476],[90.30861,23.795506],[90.30858,23.795613],[90.308474,23.795615],[90.308254,23.795565],[90.308048,23.795556],[90.308007,23.795811],[90.30797,23.795942],[90.307881,23.795966],[90.307864,23.79597],[90.307769,23.795996]]]}},{"type":"Feature","properties":{"survey":"bds","sheet":"082","dag":"40514","label_bn":"40514","area_sqm":6156.1},"geometry":{"type":"Polygon","coordinates":[[[90.3086,23.796262],[90.308088,23.796355],[90.307897,23.796316],[90.3079,23.796297],[90.307921,23.796156],[90.307889,23.796106],[90.307857,23.796048],[90.307904,23.796033],[90.307903,23.796027],[90.307881,23.795966],[90.30797,23.795942],[90.308007,23.795811],[90.308048,23.795556],[90.308254,23.795565],[90.308474,23.795615],[90.30858,23.795613],[90.308785,23.795638],[90.308777,23.795739],[90.308768,23.795874],[90.308542,23.795845],[90.308479,23.79585],[90.308467,23.795878],[90.308455,23.795909],[90.308456,23.795978],[90.308522,23.795984],[90.30878,23.79601],[90.308795,23.796089],[90.308811,23.796174],[90.30882,23.796218],[90.3086,23.796262]]]}},{"type":"Feature","properties":{"survey":"bds","sheet":"082","dag":"40511","label_bn":"40511","area_sqm":1234.9},"geometry":{"type":"Polygon","coordinates":[[[90.307515,23.796474],[90.307515,23.796475],[90.307499,23.796475],[90.307411,23.796472],[90.307255,23.796466],[90.307276,23.796373],[90.307282,23.796335],[90.307306,23.796289],[90.307405,23.796112],[90.307451,23.796065],[90.307528,23.796018],[90.30767,23.796046],[90.307558,23.796313],[90.307543,23.796349],[90.307515,23.796474]]]}},{"type":"Feature","properties":{"survey":"bds","sheet":"082","dag":"40510","label_bn":"40510","area_sqm":4625.3},"geometry":{"type":"Polygon","coordinates":[[[90.306945,23.796481],[90.306893,23.796481],[90.306891,23.796465],[90.30686,23.796277],[90.306912,23.796251],[90.30691,23.796225],[90.307135,23.795859],[90.307144,23.795692],[90.307149,23.795525],[90.307428,23.795554],[90.307594,23.795593],[90.307639,23.795628],[90.307677,23.795653],[90.30762,23.795771],[90.307546,23.795928],[90.307528,23.796018],[90.307451,23.796065],[90.307405,23.796112],[90.307306,23.796289],[90.307282,23.796335],[90.307276,23.796373],[90.307255,23.796466],[90.307154,23.796427],[90.307078,23.796443],[90.307029,23.796481],[90.306945,23.796481]]]}},{"type":"Feature","properties":{"survey":"bds","sheet":"082","dag":"40506","label_bn":"40506","area_sqm":15306.1},"geometry":{"type":"Polygon","coordinates":[[[90.306218,23.796521],[90.306105,23.796522],[90.305951,23.796519],[90.305797,23.796515],[90.305326,23.796467],[90.305476,23.796297],[90.305572,23.796175],[90.305644,23.796079],[90.305804,23.79589],[90.305935,23.79572],[90.305989,23.795649],[90.306146,23.795474],[90.306191,23.795407],[90.306324,23.795348],[90.3064,23.795311],[90.306454,23.795285],[90.30656,23.795278],[90.306663,23.795267],[90.306725,23.795269],[90.30673,23.795269],[90.306867,23.795263],[90.306966,23.795263],[90.307014,23.795267],[90.307086,23.795286],[90.307153,23.795311],[90.30719,23.795334],[90.307249,23.795378],[90.307253,23.79538],[90.307397,23.795456],[90.307454,23.795491],[90.307531,23.795544],[90.307594,23.795593],[90.307428,23.795554],[90.307149,23.795525],[90.307144,23.795692],[90.307135,23.795859],[90.30691,23.796225],[90.306738,23.796174],[90.306635,23.796145],[90.306557,23.796133],[90.306482,23.796131],[90.306466,23.79613],[90.306409,23.796128],[90.306393,23.796199],[90.306203,23.796223],[90.306196,23.796224],[90.306206,23.796294],[90.30624,23.796521],[90.306218,23.796521]]]}},{"type":"Feature","properties":{"survey":"bds","sheet":"082","dag":"40505","label_bn":"40505","area_sqm":2807.2},"geometry":{"type":"Polygon","coordinates":[[[90.306541,23.796548],[90.306245,23.796558],[90.30624,23.796521],[90.306206,23.796294],[90.306196,23.796224],[90.306203,23.796223],[90.306393,23.796199],[90.306409,23.796128],[90.306466,23.79613],[90.306482,23.796131],[90.306557,23.796133],[90.306635,23.796145],[90.306738,23.796174],[90.30691,23.796225],[90.306912,23.796251],[90.30686,23.796277],[90.306891,23.796465],[90.306893,23.796481],[90.306815,23.796541],[90.306541,23.796548]]]}},{"type":"Feature","properties":{"survey":"bds","sheet":"082","dag":"40512","label_bn":"40512","area_sqm":3982.1},"geometry":{"type":"Polygon","coordinates":[[[90.308639,23.79658],[90.308463,23.796619],[90.308468,23.796578],[90.308313,23.796573],[90.308196,23.796564],[90.308171,23.796563],[90.307899,23.796551],[90.307616,23.796518],[90.307515,23.796475],[90.307515,23.796474],[90.307543,23.796349],[90.307558,23.796313],[90.30767,23.796046],[90.307769,23.795996],[90.307864,23.79597],[90.307881,23.795966],[90.307903,23.796027],[90.307904,23.796033],[90.307857,23.796048],[90.307889,23.796106],[90.307921,23.796156],[90.3079,23.796297],[90.307897,23.796316],[90.308088,23.796355],[90.3086,23.796262],[90.308639,23.79658]]]}},{"type":"Feature","properties":{"survey":"bds","sheet":"082","dag":"40503","label_bn":"40503","area_sqm":816.7},"geometry":{"type":"Polygon","coordinates":[[[90.30637,23.79712],[90.306345,23.797209],[90.306227,23.797191],[90.30576,23.797121],[90.305339,23.797084],[90.305354,23.797041],[90.305354,23.797041],[90.305607,23.797017],[90.305734,23.797058],[90.305826,23.797074],[90.306204,23.797106],[90.30637,23.79712]]]}},{"type":"Feature","properties":{"survey":"bds","sheet":"082","dag":"40502","label_bn":"40502","area_sqm":8161.8},"geometry":{"type":"Polygon","coordinates":[[[90.305339,23.797084],[90.305108,23.797317],[90.305081,23.797284],[90.305042,23.797225],[90.305024,23.797188],[90.305022,23.797145],[90.305012,23.79709],[90.304987,23.796989],[90.304981,23.796943],[90.305034,23.796885],[90.305086,23.796827],[90.305117,23.796785],[90.305143,23.796741],[90.3052,23.796644],[90.305191,23.79658],[90.305292,23.796463],[90.305326,23.796467],[90.305797,23.796515],[90.305951,23.796519],[90.306105,23.796522],[90.306218,23.796521],[90.30624,23.796521],[90.306245,23.796558],[90.306268,23.796684],[90.306282,23.796758],[90.30637,23.79712],[90.306204,23.797106],[90.305826,23.797074],[90.305734,23.797058],[90.305607,23.797017],[90.305354,23.797041],[90.305354,23.797041],[90.305339,23.797084]]]}},{"type":"Feature","properties":{"survey":"bds","sheet":"082","dag":"40504","label_bn":"40504","area_sqm":17791.1},"geometry":{"type":"Polygon","coordinates":[[[90.30726,23.797347],[90.306955,23.797368],[90.306469,23.797241],[90.306424,23.797229],[90.306345,23.797209],[90.30637,23.79712],[90.306282,23.796758],[90.306268,23.796684],[90.306245,23.796558],[90.306541,23.796548],[90.306815,23.796541],[90.306893,23.796481],[90.306945,23.796481],[90.307029,23.796481],[90.307078,23.796443],[90.307154,23.796427],[90.307255,23.796466],[90.307411,23.796472],[90.307499,23.796475],[90.307515,23.796475],[90.307616,23.796518],[90.307899,23.796551],[90.308171,23.796563],[90.308196,23.796564],[90.308313,23.796573],[90.308468,23.796578],[90.308463,23.796619],[90.308477,23.796687],[90.308489,23.79672],[90.308566,23.796937],[90.30845,23.796964],[90.308349,23.796986],[90.308296,23.79702],[90.308173,23.797082],[90.308005,23.797097],[90.308003,23.797158],[90.308037,23.797219],[90.308031,23.797262],[90.308028,23.797287],[90.307982,23.797281],[90.307725,23.79725],[90.307702,23.797253],[90.307574,23.797274],[90.30726,23.797347]]]}},{"type":"Feature","properties":{"survey":"bds","sheet":"082","dag":"40501","label_bn":"40501","area_sqm":15520.4},"geometry":{"type":"Polygon","coordinates":[[[90.305108,23.797317],[90.304884,23.797542],[90.304858,23.797514],[90.304829,23.797482],[90.304771,23.797418],[90.304713,23.797354],[90.304685,23.797319],[90.304657,23.797283],[90.304642,23.797253],[90.304639,23.797248],[90.304627,23.797223],[90.304611,23.797164],[90.304599,23.797129],[90.304594,23.797092],[90.30459,23.797059],[90.304583,23.797032],[90.304577,23.797006],[90.304572,23.796979],[90.304567,23.796951],[90.304565,23.796937],[90.304563,23.796924],[90.304563,23.796923],[90.304562,23.796909],[90.304561,23.796895],[90.304562,23.79688],[90.304566,23.796861],[90.304575,23.796841],[90.304583,23.796828],[90.304584,23.796827],[90.304594,23.796812],[90.304607,23.79679],[90.304619,23.79677],[90.304621,23.796767],[90.304631,23.796746],[90.304642,23.796725],[90.304667,23.796687],[90.304698,23.796646],[90.30473,23.796608],[90.304745,23.796585],[90.304752,23.796574],[90.30477,23.796549],[90.304788,23.796525],[90.304805,23.796502],[90.304842,23.796452],[90.304846,23.796447],[90.304863,23.796424],[90.304887,23.796389],[90.304911,23.796354],[90.304936,23.796321],[90.304961,23.796291],[90.304985,23.796261],[90.305022,23.796222],[90.305043,23.796197],[90.305064,23.796172],[90.305074,23.796157],[90.305085,23.796143],[90.305102,23.796115],[90.305119,23.796087],[90.305155,23.796035],[90.305164,23.796021],[90.30517,23.796013],[90.305177,23.796],[90.305185,23.795986],[90.305198,23.795966],[90.30521,23.795952],[90.305221,23.795938],[90.305229,23.79593],[90.305232,23.795927],[90.305242,23.795915],[90.305256,23.795899],[90.30527,23.795883],[90.305294,23.79585],[90.305329,23.795786],[90.305329,23.795784],[90.30535,23.79574],[90.305369,23.79571],[90.305407,23.795661],[90.305432,23.795618],[90.305448,23.795591],[90.305477,23.795547],[90.305488,23.795529],[90.305505,23.795497],[90.305531,23.795425],[90.305553,23.79538],[90.305565,23.795356],[90.305577,23.795332],[90.305589,23.795301],[90.30559,23.795293],[90.305593,23.795277],[90.305595,23.795262],[90.3056,23.795229],[90.305605,23.795197],[90.305609,23.795169],[90.305614,23.795141],[90.305616,23.795125],[90.305618,23.795108],[90.305625,23.795058],[90.30563,23.795033],[90.305632,23.795009],[90.305641,23.794934],[90.305647,23.794901],[90.305654,23.794867],[90.30576,23.794859],[90.30634,23.79481],[90.306326,23.794869],[90.30631,23.794928],[90.306264,23.795035],[90.306223,23.795136],[90.306179,23.795226],[90.306172,23.795239],[90.306173,23.795283],[90.306183,23.795348],[90.306191,23.795407],[90.306146,23.795474],[90.305989,23.795649],[90.305935,23.79572],[90.305804,23.79589],[90.305644,23.796079],[90.305572,23.796175],[90.305476,23.796297],[90.305326,23.796467],[90.305292,23.796463],[90.305191,23.79658],[90.3052,23.796644],[90.305143,23.796741],[90.305117,23.796785],[90.305086,23.796827],[90.305034,23.796885],[90.304981,23.796943],[90.304987,23.796989],[90.305012,23.79709],[90.305022,23.797145],[90.305024,23.797188],[90.305042,23.797225],[90.305081,23.797284],[90.305108,23.797317]]]}},{"type":"Feature","properties":{"survey":"bds","sheet":"082","dag":"40513","label_bn":"40513","area_sqm":17095.4},"geometry":{"type":"Polygon","coordinates":[[[90.309465,23.796872],[90.309465,23.797698],[90.309149,23.797424],[90.308998,23.797378],[90.308911,23.797353],[90.308678,23.797285],[90.3086,23.797283],[90.308337,23.797276],[90.308087,23.797241],[90.30807,23.797238],[90.308037,23.797219],[90.308003,23.797158],[90.308005,23.797097],[90.308173,23.797082],[90.308296,23.79702],[90.308349,23.796986],[90.30845,23.796964],[90.308566,23.796937],[90.308489,23.79672],[90.308477,23.796687],[90.308463,23.796619],[90.308639,23.79658],[90.3086,23.796262],[90.30882,23.796218],[90.308811,23.796174],[90.308795,23.796089],[90.30878,23.79601],[90.308522,23.795984],[90.308456,23.795978],[90.308455,23.795909],[90.308467,23.795878],[90.308479,23.79585],[90.308542,23.795845],[90.308768,23.795874],[90.309464,23.795798],[90.309464,23.795857],[90.309465,23.796164],[90.309465,23.796872]]]}}]}