{"type":"FeatureCollection","features":[{"type":"Feature","properties":{"survey":"bds","sheet":"083","dag":"41018","label_bn":"41018","area_sqm":1478.4},"geometry":{"type":"Polygon","coordinates":[[[90.30643,23.791334],[90.306352,23.791356],[90.306352,23.791349],[90.306354,23.791191],[90.306354,23.791161],[90.306354,23.791157],[90.306709,23.791063],[90.306903,23.791011],[90.306935,23.791003],[90.306979,23.790991],[90.307052,23.791187],[90.306638,23.791268],[90.30648,23.791319],[90.30643,23.791334]]]}},{"type":"Feature","properties":{"survey":"bds","sheet":"083","dag":"41017","label_bn":"41017","area_sqm":1678.3},"geometry":{"type":"Polygon","coordinates":[[[90.306356,23.791533],[90.306352,23.791534],[90.306352,23.791446],[90.306352,23.791372],[90.306352,23.791356],[90.30643,23.791334],[90.30648,23.791319],[90.306638,23.791268],[90.307052,23.791187],[90.307118,23.791366],[90.306797,23.79145],[90.306356,23.791533]]]}},{"type":"Feature","properties":{"survey":"bds","sheet":"083","dag":"41016","label_bn":"41016","area_sqm":1833.2},"geometry":{"type":"Polygon","coordinates":[[[90.304741,23.79187],[90.304185,23.792009],[90.304033,23.791862],[90.304618,23.791721],[90.305405,23.791733],[90.304741,23.79187]]]}},{"type":"Feature","properties":{"survey":"bds","sheet":"083","dag":"41015","label_bn":"41015","area_sqm":21611.4},"geometry":{"type":"Polygon","coordinates":[[[90.305395,23.792531],[90.305226,23.792566],[90.305202,23.792518],[90.305123,23.792371],[90.305048,23.792219],[90.30501,23.792136],[90.304983,23.792048],[90.304936,23.792055],[90.304889,23.792063],[90.304837,23.792076],[90.304692,23.792113],[90.304623,23.792129],[90.304574,23.792137],[90.304478,23.792148],[90.304346,23.792167],[90.304262,23.792085],[90.304185,23.792009],[90.304741,23.79187],[90.305405,23.791733],[90.305584,23.791696],[90.30598,23.791613],[90.306158,23.791576],[90.306236,23.791559],[90.306352,23.791534],[90.306356,23.791533],[90.306797,23.79145],[90.307118,23.791366],[90.307395,23.792117],[90.307337,23.792129],[90.306997,23.792199],[90.306987,23.792202],[90.306799,23.79224],[90.306422,23.792318],[90.306382,23.792327],[90.306188,23.792367],[90.306175,23.79237],[90.305793,23.792449],[90.305766,23.792454],[90.305634,23.792482],[90.305464,23.792517],[90.305395,23.792531]]]}},{"type":"Feature","properties":{"survey":"bds","sheet":"083","dag":"41014","label_bn":"41014","area_sqm":1483.9},"geometry":{"type":"Polygon","coordinates":[[[90.30741,23.792372],[90.307154,23.792592],[90.307124,23.792521],[90.306987,23.792202],[90.306997,23.792199],[90.307337,23.792129],[90.307395,23.792117],[90.307459,23.792255],[90.307484,23.792308],[90.30741,23.792372]]]}},{"type":"Feature","properties":{"survey":"bds","sheet":"083","dag":"41013","label_bn":"41013","area_sqm":2541.7},"geometry":{"type":"Polygon","coordinates":[[[90.306578,23.792695],[90.306535,23.792709],[90.306504,23.792608],[90.306457,23.792442],[90.306422,23.792318],[90.306799,23.79224],[90.306987,23.792202],[90.307124,23.792521],[90.306578,23.792695]]]}},{"type":"Feature","properties":{"survey":"bds","sheet":"083","dag":"41011","label_bn":"41011","area_sqm":809.5},"geometry":{"type":"Polygon","coordinates":[[[90.306142,23.792584],[90.306113,23.792776],[90.306051,23.792661],[90.305993,23.792557],[90.305899,23.792581],[90.30586,23.792546],[90.305808,23.792509],[90.305772,23.792465],[90.305766,23.792454],[90.305793,23.792449],[90.306175,23.79237],[90.306188,23.792367],[90.306187,23.79237],[90.306171,23.792449],[90.306142,23.792584]]]}},{"type":"Feature","properties":{"survey":"bds","sheet":"083","dag":"41012","label_bn":"41012","area_sqm":1563.3},"geometry":{"type":"Polygon","coordinates":[[[90.306165,23.792787],[90.306124,23.792796],[90.306113,23.792776],[90.306142,23.792584],[90.306171,23.792449],[90.306187,23.79237],[90.306188,23.792367],[90.306382,23.792327],[90.306422,23.792318],[90.306457,23.792442],[90.306504,23.792608],[90.306535,23.792709],[90.306212,23.792778],[90.306165,23.792787]]]}},{"type":"Feature","properties":{"survey":"bds","sheet":"083","dag":"41010","label_bn":"41010","area_sqm":11912.7},"geometry":{"type":"Polygon","coordinates":[[[90.306588,23.793443],[90.306426,23.793484],[90.306393,23.793374],[90.306346,23.793249],[90.306328,23.793199],[90.306327,23.793198],[90.306263,23.793078],[90.306171,23.792884],[90.306166,23.792872],[90.306124,23.792796],[90.306165,23.792787],[90.306212,23.792778],[90.306535,23.792709],[90.306578,23.792695],[90.307124,23.792521],[90.307154,23.792592],[90.30741,23.792372],[90.307411,23.792373],[90.307576,23.792688],[90.307599,23.792827],[90.30769,23.793361],[90.307637,23.793361],[90.307544,23.793353],[90.307456,23.793339],[90.3074,23.79333],[90.307343,23.793325],[90.307258,23.793322],[90.307144,23.793335],[90.307039,23.79334],[90.306904,23.793358],[90.306757,23.793394],[90.306588,23.793443]]]}},{"type":"Feature","properties":{"survey":"bds","sheet":"083","dag":"41006","label_bn":"41006","area_sqm":88.6},"geometry":{"type":"Polygon","coordinates":[[[90.307688,23.793483],[90.307644,23.793486],[90.307531,23.79348],[90.307695,23.793387],[90.307688,23.793483]]]}},{"type":"Feature","properties":{"survey":"bds","sheet":"083","dag":"41009","label_bn":"41009","area_sqm":1882.5},"geometry":{"type":"Polygon","coordinates":[[[90.306754,23.793548],[90.306669,23.793585],[90.306446,23.793572],[90.306426,23.793484],[90.306588,23.793443],[90.306757,23.793394],[90.306904,23.793358],[90.307039,23.79334],[90.307144,23.793335],[90.307258,23.793322],[90.307343,23.793325],[90.3074,23.79333],[90.307456,23.793339],[90.307544,23.793353],[90.307637,23.793361],[90.30769,23.793361],[90.307695,23.793387],[90.307531,23.79348],[90.307506,23.793479],[90.307362,23.793475],[90.307265,23.793475],[90.307143,23.793478],[90.307018,23.79348],[90.306954,23.793483],[90.306922,23.79349],[90.306902,23.793494],[90.306843,23.79351],[90.306754,23.793548]]]}},{"type":"Feature","properties":{"survey":"bds","sheet":"083","dag":"41007","label_bn":"41007","area_sqm":886.7},"geometry":{"type":"Polygon","coordinates":[[[90.307336,23.793572],[90.307186,23.79362],[90.306932,23.793602],[90.306914,23.793601],[90.306669,23.793585],[90.306754,23.793548],[90.306843,23.79351],[90.306902,23.793494],[90.306922,23.79349],[90.306954,23.793483],[90.307018,23.79348],[90.307143,23.793478],[90.307265,23.793475],[90.307362,23.793475],[90.307506,23.793479],[90.307531,23.79348],[90.307444,23.79353],[90.307336,23.793572]]]}},{"type":"Feature","properties":{"survey":"bds","sheet":"083","dag":"41008","label_bn":"41008","area_sqm":149.4},"geometry":{"type":"Polygon","coordinates":[[[90.306507,23.793668],[90.306448,23.793678],[90.306451,23.793649],[90.306447,23.793578],[90.306446,23.793572],[90.306669,23.793585],[90.306654,23.793592],[90.306507,23.793668]]]}},{"type":"Feature","properties":{"survey":"bds","sheet":"083","dag":"41005","label_bn":"41005","area_sqm":7590.4},"geometry":{"type":"Polygon","coordinates":[[[90.30764,23.794135],[90.307603,23.794281],[90.307396,23.794225],[90.30739,23.794249],[90.307244,23.794213],[90.307005,23.79412],[90.30698,23.79411],[90.306951,23.79411],[90.306895,23.794198],[90.306879,23.794211],[90.30683,23.794253],[90.306816,23.794233],[90.306707,23.794083],[90.306442,23.793715],[90.306447,23.793691],[90.306448,23.793678],[90.306507,23.793668],[90.306654,23.793592],[90.306669,23.793585],[90.306914,23.793601],[90.306932,23.793602],[90.307186,23.79362],[90.307336,23.793572],[90.307444,23.79353],[90.307531,23.79348],[90.307644,23.793486],[90.307688,23.793483],[90.307661,23.793849],[90.30764,23.794135]]]}},{"type":"Feature","properties":{"survey":"bds","sheet":"083","dag":"41003","label_bn":"41003","area_sqm":1028.0},"geometry":{"type":"Polygon","coordinates":[[[90.307046,23.794493],[90.306979,23.794518],[90.306939,23.794473],[90.30686,23.794423],[90.306848,23.794358],[90.30683,23.794253],[90.306879,23.794211],[90.306895,23.794198],[90.306951,23.79411],[90.30698,23.79411],[90.307005,23.79412],[90.307244,23.794213],[90.307242,23.794215],[90.307039,23.794416],[90.307018,23.794461],[90.307042,23.794489],[90.307046,23.794493]]]}},{"type":"Feature","properties":{"survey":"bds","sheet":"083","dag":"41004","label_bn":"41004","area_sqm":2211.4},"geometry":{"type":"Polygon","coordinates":[[[90.307522,23.794729],[90.307485,23.794773],[90.307355,23.79468],[90.307261,23.794613],[90.307054,23.794497],[90.307046,23.794493],[90.307042,23.794489],[90.307018,23.794461],[90.307039,23.794416],[90.307242,23.794215],[90.307244,23.794213],[90.30739,23.794249],[90.307396,23.794225],[90.307603,23.794281],[90.307595,23.794328],[90.307523,23.794727],[90.307522,23.794729]]]}},{"type":"Feature","properties":{"survey":"bds","sheet":"083","dag":"41002","label_bn":"41002","area_sqm":4601.6},"geometry":{"type":"Polygon","coordinates":[[[90.306911,23.794762],[90.30634,23.79481],[90.306348,23.794779],[90.306371,23.794577],[90.30639,23.79443],[90.306405,23.794226],[90.306417,23.794074],[90.306418,23.793984],[90.306438,23.793734],[90.306442,23.793715],[90.306707,23.794083],[90.306816,23.794233],[90.30683,23.794253],[90.306848,23.794358],[90.30686,23.794423],[90.306939,23.794473],[90.306979,23.794518],[90.307046,23.794493],[90.306911,23.794762]]]}},{"type":"Feature","properties":{"survey":"bds","sheet":"083","dag":"41001","label_bn":"41001","area_sqm":20083.3},"geometry":{"type":"Polygon","coordinates":[[[90.30576,23.794859],[90.305654,23.794867],[90.305664,23.79483],[90.305666,23.794809],[90.305667,23.794797],[90.30567,23.794741],[90.305675,23.794639],[90.305677,23.794605],[90.305676,23.794509],[90.305674,23.794448],[90.305679,23.79439],[90.305678,23.79437],[90.305674,23.794279],[90.305671,23.794199],[90.305673,23.794174],[90.305677,23.794058],[90.305678,23.793942],[90.305672,23.793802],[90.305667,23.793719],[90.305664,23.793687],[90.305655,23.793619],[90.305652,23.793609],[90.305633,23.793558],[90.305605,23.793495],[90.30559,23.793466],[90.305576,23.793424],[90.30555,23.793335],[90.305525,23.793269],[90.305512,23.793238],[90.305484,23.793165],[90.305461,23.793093],[90.305425,23.792993],[90.305391,23.792913],[90.305376,23.79287],[90.305273,23.792663],[90.305226,23.792566],[90.305395,23.792531],[90.305464,23.792517],[90.305634,23.792482],[90.305766,23.792454],[90.305772,23.792465],[90.305808,23.792509],[90.30586,23.792546],[90.305899,23.792581],[90.305993,23.792557],[90.306051,23.792661],[90.306113,23.792776],[90.306124,23.792796],[90.306166,23.792872],[90.306171,23.792884],[90.306263,23.793078],[90.306327,23.793198],[90.306328,23.793199],[90.306346,23.793249],[90.306393,23.793374],[90.306426,23.793484],[90.306446,23.793572],[90.306447,23.793578],[90.306451,23.793649],[90.306448,23.793678],[90.306447,23.793691],[90.306442,23.793715],[90.306438,23.793734],[90.306418,23.793984],[90.306417,23.794074],[90.306405,23.794226],[90.30639,23.79443],[90.306371,23.794577],[90.306348,23.794779],[90.30634,23.79481],[90.30576,23.794859]]]}}]}