{"type":"FeatureCollection","features":[{"type":"Feature","properties":{"survey":"bds","sheet":"084","dag":"41529","label_bn":"41529","area_sqm":838.1},"geometry":{"type":"Polygon","coordinates":[[[90.310721,23.78992],[90.310696,23.789931],[90.310685,23.789929],[90.310642,23.789921],[90.310551,23.789904],[90.310619,23.78988],[90.3107,23.789851],[90.31098,23.789751],[90.311291,23.789644],[90.31143,23.789604],[90.311476,23.789615],[90.311603,23.789592],[90.311657,23.78967],[90.311194,23.78974],[90.310992,23.789801],[90.310721,23.78992]]]}},{"type":"Feature","properties":{"survey":"bds","sheet":"084","dag":"41528","label_bn":"41528","area_sqm":12292.0},"geometry":{"type":"Polygon","coordinates":[[[90.308779,23.790557],[90.30846,23.790623],[90.308448,23.790561],[90.308388,23.790255],[90.308378,23.790212],[90.308357,23.790125],[90.308318,23.789961],[90.308449,23.789925],[90.308474,23.789922],[90.308634,23.789902],[90.309051,23.789848],[90.309108,23.789841],[90.309364,23.789802],[90.309813,23.789748],[90.309862,23.789742],[90.310197,23.789702],[90.310341,23.789657],[90.310468,23.789926],[90.310139,23.790072],[90.309975,23.790145],[90.309323,23.790372],[90.309039,23.790492],[90.308925,23.79054],[90.308808,23.790551],[90.308779,23.790557]]]}},{"type":"Feature","properties":{"survey":"bds","sheet":"084","dag":"41527","label_bn":"41527","area_sqm":262.7},"geometry":{"type":"Polygon","coordinates":[[[90.307496,23.790864],[90.307463,23.790867],[90.307619,23.790824],[90.308057,23.7907],[90.308078,23.790689],[90.308448,23.790561],[90.30846,23.790623],[90.308276,23.790661],[90.308083,23.790712],[90.307496,23.790864]]]}},{"type":"Feature","properties":{"survey":"bds","sheet":"084","dag":"41523","label_bn":"41523","area_sqm":119.6},"geometry":{"type":"Polygon","coordinates":[[[90.311995,23.791035],[90.311805,23.791038],[90.31189,23.791018],[90.312187,23.790972],[90.31219,23.791014],[90.311999,23.791032],[90.311995,23.791035]]]}},{"type":"Feature","properties":{"survey":"bds","sheet":"084","dag":"41522","label_bn":"41522","area_sqm":359.4},"geometry":{"type":"Polygon","coordinates":[[[90.311983,23.791144],[90.311698,23.791153],[90.311683,23.791067],[90.311805,23.791038],[90.311995,23.791035],[90.311983,23.791144]]]}},{"type":"Feature","properties":{"survey":"bds","sheet":"084","dag":"41526","label_bn":"41526","area_sqm":20608.6},"geometry":{"type":"Polygon","coordinates":[[[90.307071,23.791184],[90.307052,23.791187],[90.306979,23.790991],[90.307085,23.790963],[90.307266,23.790915],[90.307463,23.790867],[90.307496,23.790864],[90.308083,23.790712],[90.308276,23.790661],[90.30846,23.790623],[90.308779,23.790557],[90.308808,23.790551],[90.308925,23.79054],[90.309039,23.790492],[90.309323,23.790372],[90.309975,23.790145],[90.310139,23.790072],[90.310468,23.789926],[90.310471,23.789933],[90.310492,23.789926],[90.310551,23.789904],[90.310642,23.789921],[90.310685,23.789929],[90.310696,23.789931],[90.310721,23.78992],[90.310992,23.789801],[90.311194,23.78974],[90.311657,23.78967],[90.311703,23.789735],[90.311804,23.790054],[90.311855,23.790195],[90.31145,23.790278],[90.310821,23.790397],[90.310664,23.790435],[90.310239,23.790527],[90.309763,23.790622],[90.309034,23.790768],[90.308752,23.790839],[90.308302,23.790929],[90.308141,23.790952],[90.307797,23.791035],[90.307507,23.791096],[90.30741,23.791116],[90.307317,23.791135],[90.307214,23.791156],[90.307142,23.79117],[90.307071,23.791184]]]}},{"type":"Feature","properties":{"survey":"bds","sheet":"084","dag":"41525","label_bn":"41525","area_sqm":14597.5},"geometry":{"type":"Polygon","coordinates":[[[90.307124,23.791365],[90.307118,23.791366],[90.307052,23.791187],[90.307071,23.791184],[90.307142,23.79117],[90.307214,23.791156],[90.307317,23.791135],[90.30741,23.791116],[90.307507,23.791096],[90.307797,23.791035],[90.308141,23.790952],[90.308302,23.790929],[90.308752,23.790839],[90.309034,23.790768],[90.309763,23.790622],[90.310239,23.790527],[90.310664,23.790435],[90.310821,23.790397],[90.31145,23.790278],[90.311855,23.790195],[90.31213,23.790426],[90.308016,23.791237],[90.307602,23.791339],[90.307577,23.791278],[90.307488,23.791295],[90.307398,23.791311],[90.307261,23.791338],[90.307124,23.791365]]]}},{"type":"Feature","properties":{"survey":"bds","sheet":"084","dag":"41518","label_bn":"41518","area_sqm":1765.1},"geometry":{"type":"Polygon","coordinates":[[[90.311093,23.791495],[90.311088,23.79156],[90.310889,23.791528],[90.310755,23.79152],[90.310475,23.791498],[90.310309,23.791451],[90.310261,23.791432],[90.310909,23.79125],[90.311072,23.791211],[90.311073,23.791216],[90.311053,23.791219],[90.311069,23.79131],[90.311068,23.791373],[90.311086,23.791372],[90.311093,23.791495]]]}},{"type":"Feature","properties":{"survey":"bds","sheet":"084","dag":"41519","label_bn":"41519","area_sqm":1587.2},"geometry":{"type":"Polygon","coordinates":[[[90.311398,23.791134],[90.311442,23.791604],[90.311257,23.79158],[90.311088,23.79156],[90.311093,23.791495],[90.311086,23.791372],[90.311068,23.791373],[90.311069,23.79131],[90.311053,23.791219],[90.311073,23.791216],[90.311072,23.791211],[90.311398,23.791134]]]}},{"type":"Feature","properties":{"survey":"bds","sheet":"084","dag":"41520","label_bn":"41520","area_sqm":1396.8},"geometry":{"type":"Polygon","coordinates":[[[90.311703,23.791635],[90.311639,23.791637],[90.311442,23.791604],[90.311398,23.791134],[90.311683,23.791067],[90.311698,23.791153],[90.311636,23.79116],[90.311637,23.791202],[90.311623,23.791223],[90.311623,23.791305],[90.311649,23.791431],[90.311703,23.791635]]]}},{"type":"Feature","properties":{"survey":"bds","sheet":"084","dag":"41505","label_bn":"41505","area_sqm":91.4},"geometry":{"type":"Polygon","coordinates":[[[90.309451,23.791647],[90.309458,23.791717],[90.30928,23.791706],[90.309288,23.791681],[90.309451,23.791647]]]}},{"type":"Feature","properties":{"survey":"bds","sheet":"084","dag":"41506","label_bn":"41506","area_sqm":320.8},"geometry":{"type":"Polygon","coordinates":[[[90.309475,23.791843],[90.309229,23.791846],[90.30928,23.791706],[90.309458,23.791717],[90.309475,23.791843]]]}},{"type":"Feature","properties":{"survey":"bds","sheet":"084","dag":"41512","label_bn":"41512","area_sqm":1047.0},"geometry":{"type":"Polygon","coordinates":[[[90.309873,23.791693],[90.309805,23.791898],[90.309551,23.791847],[90.309529,23.791627],[90.309882,23.791535],[90.309873,23.791693]]]}},{"type":"Feature","properties":{"survey":"bds","sheet":"084","dag":"41517","label_bn":"41517","area_sqm":6402.8},"geometry":{"type":"Polygon","coordinates":[[[90.311792,23.791983],[90.311685,23.791986],[90.311557,23.791975],[90.311329,23.791947],[90.311181,23.791948],[90.310927,23.791949],[90.310763,23.791945],[90.310356,23.791934],[90.310313,23.791894],[90.310309,23.791451],[90.310475,23.791498],[90.310755,23.79152],[90.310889,23.791528],[90.311088,23.79156],[90.311257,23.79158],[90.311442,23.791604],[90.311639,23.791637],[90.311703,23.791635],[90.311722,23.791831],[90.311751,23.791906],[90.311792,23.791983]]]}},{"type":"Feature","properties":{"survey":"bds","sheet":"084","dag":"41511","label_bn":"41511","area_sqm":563.9},"geometry":{"type":"Polygon","coordinates":[[[90.309805,23.791898],[90.309861,23.792056],[90.309559,23.792054],[90.309551,23.791847],[90.309805,23.791898]]]}},{"type":"Feature","properties":{"survey":"bds","sheet":"084","dag":"41521","label_bn":"41521","area_sqm":2606.9},"geometry":{"type":"Polygon","coordinates":[[[90.311952,23.791499],[90.311929,23.79206],[90.311895,23.79205],[90.311825,23.792005],[90.311792,23.791983],[90.311751,23.791906],[90.311722,23.791831],[90.311703,23.791635],[90.311649,23.791431],[90.311623,23.791305],[90.311623,23.791223],[90.311637,23.791202],[90.311636,23.79116],[90.311698,23.791153],[90.311983,23.791144],[90.311952,23.791499]]]}},{"type":"Feature","properties":{"survey":"bds","sheet":"084","dag":"41524","label_bn":"41524","area_sqm":36712.1},"geometry":{"type":"Polygon","coordinates":[[[90.307778,23.792038],[90.307395,23.792117],[90.307118,23.791366],[90.307124,23.791365],[90.307261,23.791338],[90.307398,23.791311],[90.307488,23.791295],[90.307577,23.791278],[90.307602,23.791339],[90.308016,23.791237],[90.31213,23.790426],[90.312134,23.790453],[90.312141,23.790533],[90.312173,23.790744],[90.312187,23.790972],[90.31189,23.791018],[90.311805,23.791038],[90.311683,23.791067],[90.311398,23.791134],[90.311072,23.791211],[90.310909,23.79125],[90.310261,23.791432],[90.310078,23.791484],[90.309882,23.791535],[90.309529,23.791627],[90.309453,23.791647],[90.309451,23.791647],[90.309288,23.791681],[90.308742,23.791794],[90.308661,23.791811],[90.308378,23.791884],[90.308344,23.791892],[90.307984,23.791985],[90.307778,23.792038]]]}},{"type":"Feature","properties":{"survey":"bds","sheet":"084","dag":"41503","label_bn":"41503","area_sqm":690.5},"geometry":{"type":"Polygon","coordinates":[[[90.308544,23.792127],[90.308537,23.792149],[90.308334,23.791935],[90.30836,23.791903],[90.308378,23.791884],[90.308661,23.791811],[90.308742,23.791794],[90.308715,23.791842],[90.308625,23.791951],[90.308624,23.79195],[90.308607,23.791975],[90.308586,23.792024],[90.308554,23.792101],[90.308544,23.792127]]]}},{"type":"Feature","properties":{"survey":"bds","sheet":"084","dag":"41513","label_bn":"41513","area_sqm":2706.3},"geometry":{"type":"Polygon","coordinates":[[[90.310111,23.791886],[90.30998,23.792205],[90.309861,23.792056],[90.309805,23.791898],[90.309873,23.791693],[90.309882,23.791535],[90.310078,23.791484],[90.310261,23.791432],[90.310309,23.791451],[90.310313,23.791894],[90.310111,23.791886]]]}},{"type":"Feature","properties":{"survey":"bds","sheet":"084","dag":"41504","label_bn":"41504","area_sqm":3141.8},"geometry":{"type":"Polygon","coordinates":[[[90.309046,23.79228],[90.30904,23.792296],[90.308833,23.792272],[90.308805,23.792266],[90.308783,23.792259],[90.308639,23.7922],[90.308615,23.792187],[90.308586,23.792176],[90.30855,23.792168],[90.308537,23.792149],[90.308544,23.792127],[90.308554,23.792101],[90.308586,23.792024],[90.308607,23.791975],[90.308624,23.79195],[90.308625,23.791951],[90.308715,23.791842],[90.308742,23.791794],[90.309288,23.791681],[90.30928,23.791706],[90.309229,23.791846],[90.309046,23.79228]]]}},{"type":"Feature","properties":{"survey":"bds","sheet":"084","dag":"41507","label_bn":"41507","area_sqm":1783.8},"geometry":{"type":"Polygon","coordinates":[[[90.30949,23.792116],[90.309498,23.792304],[90.309046,23.79228],[90.309229,23.791846],[90.309475,23.791843],[90.30949,23.792116],[90.30949,23.792116]]]}},{"type":"Feature","properties":{"survey":"bds","sheet":"084","dag":"41510","label_bn":"41510","area_sqm":1002.6},"geometry":{"type":"Polygon","coordinates":[[[90.309977,23.792269],[90.309603,23.792327],[90.309559,23.792054],[90.309861,23.792056],[90.30998,23.792205],[90.309977,23.792269]]]}},{"type":"Feature","properties":{"survey":"bds","sheet":"084","dag":"41516","label_bn":"41516","area_sqm":2988.8},"geometry":{"type":"Polygon","coordinates":[[[90.310691,23.792386],[90.310466,23.792416],[90.310399,23.792283],[90.310338,23.792219],[90.310327,23.792175],[90.310311,23.792107],[90.310312,23.792044],[90.310356,23.791934],[90.310763,23.791945],[90.310927,23.791949],[90.31097,23.792353],[90.310691,23.792386]]]}},{"type":"Feature","properties":{"survey":"bds","sheet":"084","dag":"41514","label_bn":"41514","area_sqm":2265.2},"geometry":{"type":"Polygon","coordinates":[[[90.310179,23.792462],[90.310002,23.79252],[90.310005,23.792441],[90.309975,23.792436],[90.309977,23.792269],[90.30998,23.792205],[90.310111,23.791886],[90.310313,23.791894],[90.310356,23.791934],[90.310312,23.792044],[90.310311,23.792107],[90.310327,23.792175],[90.310338,23.792219],[90.310399,23.792283],[90.310466,23.792416],[90.310179,23.792462]]]}},{"type":"Feature","properties":{"survey":"bds","sheet":"084","dag":"41502","label_bn":"41502","area_sqm":8314.5},"geometry":{"type":"Polygon","coordinates":[[[90.309512,23.792411],[90.309521,23.79267],[90.307917,23.79261],[90.307948,23.79249],[90.307985,23.79238],[90.308018,23.792301],[90.307984,23.791985],[90.308344,23.791892],[90.308378,23.791884],[90.30836,23.791903],[90.308334,23.791935],[90.308537,23.792149],[90.30855,23.792168],[90.308586,23.792176],[90.308615,23.792187],[90.308639,23.7922],[90.308783,23.792259],[90.308805,23.792266],[90.308833,23.792272],[90.30904,23.792296],[90.309046,23.79228],[90.309498,23.792304],[90.309512,23.792411]]]}},{"type":"Feature","properties":{"survey":"bds","sheet":"084","dag":"41508","label_bn":"41508","area_sqm":988.5},"geometry":{"type":"Polygon","coordinates":[[[90.309603,23.792327],[90.309606,23.792675],[90.309521,23.79267],[90.309512,23.792411],[90.309498,23.792304],[90.30949,23.792116],[90.30949,23.792116],[90.309475,23.791843],[90.309458,23.791717],[90.309451,23.791647],[90.309453,23.791647],[90.309529,23.791627],[90.309551,23.791847],[90.309559,23.792054],[90.309603,23.792327]]]}},{"type":"Feature","properties":{"survey":"bds","sheet":"084","dag":"41509","label_bn":"41509","area_sqm":1598.3},"geometry":{"type":"Polygon","coordinates":[[[90.309966,23.792532],[90.309945,23.792683],[90.309606,23.792675],[90.309603,23.792327],[90.309977,23.792269],[90.309975,23.792436],[90.310005,23.792441],[90.310002,23.79252],[90.309966,23.792532]]]}},{"type":"Feature","properties":{"survey":"bds","sheet":"084","dag":"41501","label_bn":"41501","area_sqm":3569.9},"geometry":{"type":"Polygon","coordinates":[[[90.307652,23.792681],[90.307576,23.792688],[90.30741,23.792372],[90.307484,23.792308],[90.307459,23.792255],[90.307395,23.792117],[90.307778,23.792038],[90.307984,23.791985],[90.308018,23.792301],[90.307985,23.79238],[90.307948,23.79249],[90.307917,23.79261],[90.307841,23.79264],[90.307765,23.79267],[90.307652,23.792681]]]}},{"type":"Feature","properties":{"survey":"bds","sheet":"084","dag":"41515","label_bn":"41515","area_sqm":3300.7},"geometry":{"type":"Polygon","coordinates":[[[90.311011,23.792515],[90.311064,23.792709],[90.309945,23.792683],[90.309966,23.792532],[90.310002,23.79252],[90.310179,23.792462],[90.310466,23.792416],[90.310691,23.792386],[90.31097,23.792353],[90.311011,23.792515]]]}}]}