{"type":"FeatureCollection","features":[{"type":"Feature","properties":{"survey":"bds","sheet":"085","dag":"42020","label_bn":"42020","area_sqm":1254.3},"geometry":{"type":"Polygon","coordinates":[[[90.309709,23.793029],[90.30969,23.793039],[90.30966,23.793008],[90.30966,23.793007],[90.30961,23.79282],[90.309606,23.792675],[90.309944,23.792683],[90.309931,23.792765],[90.309967,23.793017],[90.309709,23.793029]]]}},{"type":"Feature","properties":{"survey":"bds","sheet":"085","dag":"42021","label_bn":"42021","area_sqm":4601.8},"geometry":{"type":"Polygon","coordinates":[[[90.309745,23.793206],[90.309727,23.793211],[90.309705,23.793114],[90.30969,23.793039],[90.309709,23.793029],[90.309967,23.793017],[90.309931,23.792765],[90.309944,23.792683],[90.311064,23.792709],[90.311091,23.792764],[90.311099,23.792818],[90.311088,23.79283],[90.311039,23.792885],[90.311008,23.792935],[90.310959,23.792941],[90.310945,23.79294],[90.310886,23.792932],[90.310816,23.792922],[90.310766,23.792919],[90.310735,23.792925],[90.310646,23.792977],[90.310642,23.79298],[90.310564,23.793024],[90.310501,23.793055],[90.310438,23.793085],[90.310388,23.793098],[90.310325,23.793103],[90.310245,23.793102],[90.31017,23.793105],[90.310076,23.793105],[90.310029,23.793104],[90.309973,23.793102],[90.309945,23.793096],[90.309936,23.793115],[90.309913,23.793143],[90.309859,23.793165],[90.309745,23.793206]]]}},{"type":"Feature","properties":{"survey":"bds","sheet":"085","dag":"42019","label_bn":"42019","area_sqm":1617.1},"geometry":{"type":"Polygon","coordinates":[[[90.309938,23.79324],[90.309751,23.793313],[90.309749,23.793304],[90.309727,23.793211],[90.309745,23.793206],[90.309859,23.793165],[90.309913,23.793143],[90.309936,23.793115],[90.309945,23.793096],[90.309973,23.793102],[90.310029,23.793104],[90.310076,23.793105],[90.31017,23.793105],[90.310245,23.793102],[90.310325,23.793103],[90.310388,23.793098],[90.310438,23.793085],[90.310501,23.793055],[90.310564,23.793024],[90.310642,23.79298],[90.310646,23.792977],[90.310735,23.792925],[90.310766,23.792919],[90.310816,23.792922],[90.310886,23.792932],[90.310945,23.79294],[90.310959,23.792941],[90.311008,23.792935],[90.311039,23.792885],[90.311088,23.79283],[90.311099,23.792818],[90.3111,23.792828],[90.311129,23.79292],[90.311149,23.792922],[90.311148,23.792924],[90.31111,23.792971],[90.311034,23.793047],[90.311013,23.793047],[90.310963,23.793032],[90.310922,23.793026],[90.310847,23.79302],[90.310763,23.793025],[90.310691,23.793059],[90.310503,23.793122],[90.310313,23.793192],[90.310197,23.793238],[90.310131,23.793225],[90.310014,23.793202],[90.309938,23.79324]]]}},{"type":"Feature","properties":{"survey":"bds","sheet":"085","dag":"42013","label_bn":"42013","area_sqm":1027.5},"geometry":{"type":"Polygon","coordinates":[[[90.308321,23.793164],[90.308294,23.793332],[90.308279,23.793327],[90.308243,23.793325],[90.308206,23.793323],[90.308131,23.793316],[90.308053,23.793319],[90.307995,23.793322],[90.307936,23.793325],[90.307877,23.793326],[90.307819,23.793327],[90.307787,23.793324],[90.307952,23.793212],[90.308117,23.7931],[90.308116,23.7931],[90.308325,23.793012],[90.308343,23.79303],[90.308321,23.793164]]]}},{"type":"Feature","properties":{"survey":"bds","sheet":"085","dag":"42014","label_bn":"42014","area_sqm":3115.6},"geometry":{"type":"Polygon","coordinates":[[[90.30773,23.793351],[90.307692,23.793361],[90.30769,23.793361],[90.307645,23.793094],[90.307599,23.792827],[90.307576,23.792688],[90.307765,23.79267],[90.307917,23.79261],[90.308004,23.792677],[90.308086,23.792869],[90.308134,23.792988],[90.308114,23.793098],[90.308116,23.7931],[90.308117,23.7931],[90.307952,23.793212],[90.307787,23.793324],[90.30775,23.793321],[90.307748,23.793337],[90.30773,23.793351]]]}},{"type":"Feature","properties":{"survey":"bds","sheet":"085","dag":"42015","label_bn":"42015","area_sqm":11300.9},"geometry":{"type":"Polygon","coordinates":[[[90.308631,23.793461],[90.308614,23.793464],[90.308549,23.793429],[90.308492,23.793398],[90.308375,23.793361],[90.308294,23.793332],[90.308321,23.793164],[90.308343,23.79303],[90.308325,23.793012],[90.308116,23.7931],[90.308114,23.793098],[90.308134,23.792988],[90.308086,23.792869],[90.308004,23.792677],[90.307917,23.79261],[90.309521,23.79267],[90.309568,23.792949],[90.30961,23.793069],[90.309646,23.793215],[90.309481,23.793258],[90.309178,23.793332],[90.30877,23.793389],[90.308682,23.793421],[90.308631,23.793461]]]}},{"type":"Feature","properties":{"survey":"bds","sheet":"085","dag":"42012","label_bn":"42012","area_sqm":953.8},"geometry":{"type":"Polygon","coordinates":[[[90.307766,23.793478],[90.307688,23.793483],[90.307695,23.793387],[90.30769,23.793361],[90.307692,23.793361],[90.30773,23.793351],[90.307748,23.793337],[90.30775,23.793321],[90.307787,23.793324],[90.307819,23.793327],[90.307877,23.793326],[90.307936,23.793325],[90.307995,23.793322],[90.308053,23.793319],[90.308131,23.793316],[90.308206,23.793323],[90.308243,23.793325],[90.308279,23.793327],[90.308294,23.793332],[90.308283,23.793403],[90.308304,23.793464],[90.308273,23.793457],[90.308211,23.793449],[90.308143,23.793449],[90.308089,23.793456],[90.308034,23.793463],[90.307968,23.793469],[90.307903,23.793476],[90.307834,23.793477],[90.307766,23.793478]]]}},{"type":"Feature","properties":{"survey":"bds","sheet":"085","dag":"42011","label_bn":"42011","area_sqm":332.9},"geometry":{"type":"Polygon","coordinates":[[[90.308482,23.793485],[90.308431,23.793508],[90.308421,23.793502],[90.308361,23.793478],[90.308304,23.793464],[90.308283,23.793403],[90.308294,23.793332],[90.308375,23.793361],[90.308492,23.793398],[90.308549,23.793429],[90.308614,23.793464],[90.308482,23.793485]]]}},{"type":"Feature","properties":{"survey":"bds","sheet":"085","dag":"42010","label_bn":"42010","area_sqm":734.3},"geometry":{"type":"Polygon","coordinates":[[[90.308797,23.793492],[90.308696,23.793511],[90.308639,23.793478],[90.308614,23.793464],[90.308631,23.793461],[90.308682,23.793421],[90.30877,23.793389],[90.309178,23.793332],[90.309481,23.793258],[90.309646,23.793215],[90.309649,23.793231],[90.309635,23.793235],[90.309516,23.793267],[90.309437,23.793304],[90.309362,23.79334],[90.309306,23.793357],[90.309194,23.793393],[90.30907,23.793422],[90.30898,23.793441],[90.308905,23.793463],[90.308797,23.793492]]]}},{"type":"Feature","properties":{"survey":"bds","sheet":"085","dag":"42008","label_bn":"42008","area_sqm":52.9},"geometry":{"type":"Polygon","coordinates":[[[90.308431,23.793508],[90.30835,23.793545],[90.308308,23.793478],[90.308304,23.793464],[90.308361,23.793478],[90.308421,23.793502],[90.308431,23.793508]]]}},{"type":"Feature","properties":{"survey":"bds","sheet":"085","dag":"42009","label_bn":"42009","area_sqm":1571.2},"geometry":{"type":"Polygon","coordinates":[[[90.308741,23.793641],[90.308702,23.793646],[90.308686,23.793642],[90.308658,23.793634],[90.308591,23.793601],[90.308506,23.793549],[90.308467,23.793528],[90.308431,23.793508],[90.308482,23.793485],[90.308614,23.793464],[90.308639,23.793478],[90.308696,23.793511],[90.308797,23.793492],[90.308905,23.793463],[90.30898,23.793441],[90.30907,23.793422],[90.309194,23.793393],[90.309306,23.793357],[90.309362,23.79334],[90.309437,23.793304],[90.309516,23.793267],[90.309635,23.793235],[90.309649,23.793231],[90.309673,23.793343],[90.309586,23.793377],[90.309417,23.793433],[90.309277,23.793474],[90.309168,23.7935],[90.309006,23.793542],[90.308935,23.793562],[90.308848,23.793602],[90.308741,23.793641]]]}},{"type":"Feature","properties":{"survey":"bds","sheet":"085","dag":"42006","label_bn":"42006","area_sqm":656.6},"geometry":{"type":"Polygon","coordinates":[[[90.308056,23.794248],[90.308058,23.79436],[90.307849,23.794324],[90.307782,23.794312],[90.307603,23.794281],[90.30764,23.794135],[90.307804,23.794179],[90.30793,23.794214],[90.308056,23.794248]]]}},{"type":"Feature","properties":{"survey":"bds","sheet":"085","dag":"42007","label_bn":"42007","area_sqm":6118.8},"geometry":{"type":"Polygon","coordinates":[[[90.308269,23.794345],[90.308149,23.794369],[90.308058,23.79436],[90.308056,23.794248],[90.30793,23.794214],[90.307804,23.794179],[90.30764,23.794135],[90.307688,23.793483],[90.307766,23.793478],[90.307834,23.793477],[90.307903,23.793476],[90.307968,23.793469],[90.308034,23.793463],[90.308089,23.793456],[90.308143,23.793449],[90.308211,23.793449],[90.308273,23.793457],[90.308304,23.793464],[90.308308,23.793478],[90.30835,23.793545],[90.308336,23.793804],[90.308354,23.794271],[90.308351,23.794285],[90.308308,23.794341],[90.308269,23.794345]]]}},{"type":"Feature","properties":{"survey":"bds","sheet":"085","dag":"42018","label_bn":"42018","area_sqm":27820.2},"geometry":{"type":"Polygon","coordinates":[[[90.311386,23.794323],[90.311097,23.794621],[90.310779,23.794572],[90.310525,23.794554],[90.309936,23.794537],[90.309877,23.794411],[90.309873,23.794288],[90.309854,23.79417],[90.309857,23.793959],[90.309847,23.793775],[90.309828,23.793638],[90.309811,23.793563],[90.309798,23.793507],[90.309762,23.793368],[90.309751,23.793313],[90.309938,23.79324],[90.310014,23.793202],[90.310131,23.793225],[90.310197,23.793238],[90.310313,23.793192],[90.310503,23.793122],[90.310691,23.793059],[90.310763,23.793025],[90.310847,23.79302],[90.310922,23.793026],[90.310963,23.793032],[90.311013,23.793047],[90.311034,23.793047],[90.31111,23.792971],[90.311148,23.792924],[90.311149,23.792922],[90.311277,23.792936],[90.311398,23.792968],[90.311535,23.793231],[90.311532,23.793387],[90.311576,23.793503],[90.311601,23.793567],[90.311619,23.793662],[90.311636,23.793804],[90.311636,23.793921],[90.311634,23.794037],[90.31161,23.794124],[90.311523,23.794107],[90.311359,23.794289],[90.311386,23.794323]]]}},{"type":"Feature","properties":{"survey":"bds","sheet":"085","dag":"42005","label_bn":"42005","area_sqm":4275.2},"geometry":{"type":"Polygon","coordinates":[[[90.307876,23.794777],[90.30785,23.794908],[90.30766,23.79485],[90.307526,23.79473],[90.307523,23.794727],[90.307559,23.794528],[90.307603,23.794281],[90.307782,23.794312],[90.307849,23.794324],[90.308058,23.79436],[90.308149,23.794369],[90.308269,23.794345],[90.308308,23.794341],[90.308381,23.794784],[90.308351,23.794792],[90.308269,23.794793],[90.308269,23.794792],[90.308072,23.794784],[90.307876,23.794777]]]}},{"type":"Feature","properties":{"survey":"bds","sheet":"085","dag":"42017","label_bn":"42017","area_sqm":11154.8},"geometry":{"type":"Polygon","coordinates":[[[90.312105,23.79482],[90.31204,23.794827],[90.310289,23.795035],[90.310147,23.794834],[90.310016,23.794677],[90.309936,23.794537],[90.310525,23.794554],[90.310779,23.794572],[90.311097,23.794621],[90.311386,23.794323],[90.311359,23.794289],[90.311523,23.794107],[90.31161,23.794124],[90.312029,23.794462],[90.312131,23.794544],[90.312105,23.79482]]]}},{"type":"Feature","properties":{"survey":"bds","sheet":"085","dag":"42016","label_bn":"42016","area_sqm":2238.4},"geometry":{"type":"Polygon","coordinates":[[[90.310289,23.795035],[90.310144,23.79504],[90.310054,23.794876],[90.309991,23.794784],[90.30987,23.794546],[90.309817,23.79441],[90.309779,23.794157],[90.309782,23.794073],[90.309784,23.793943],[90.309783,23.79384],[90.309771,23.793764],[90.309733,23.793646],[90.309729,23.793606],[90.309692,23.79343],[90.309673,23.793343],[90.309649,23.793231],[90.309646,23.793215],[90.30961,23.793069],[90.309568,23.792949],[90.309521,23.79267],[90.309606,23.792675],[90.30961,23.79282],[90.30966,23.793007],[90.30966,23.793008],[90.30969,23.793039],[90.309705,23.793114],[90.309727,23.793211],[90.309749,23.793304],[90.309751,23.793313],[90.309762,23.793368],[90.309798,23.793507],[90.309811,23.793563],[90.309828,23.793638],[90.309847,23.793775],[90.309857,23.793959],[90.309854,23.79417],[90.309873,23.794288],[90.309877,23.794411],[90.309936,23.794537],[90.310016,23.794677],[90.310147,23.794834],[90.310289,23.795035]]]}},{"type":"Feature","properties":{"survey":"bds","sheet":"085","dag":"42004","label_bn":"42004","area_sqm":34675.6},"geometry":{"type":"Polygon","coordinates":[[[90.310218,23.79546],[90.310214,23.795555],[90.310136,23.795515],[90.310049,23.795483],[90.309852,23.79541],[90.309736,23.795408],[90.309618,23.795419],[90.309447,23.795459],[90.308958,23.795487],[90.30861,23.795506],[90.308499,23.795476],[90.308451,23.79543],[90.308404,23.795389],[90.308383,23.795331],[90.308336,23.79525],[90.308432,23.795216],[90.308381,23.794784],[90.308308,23.794341],[90.308351,23.794285],[90.308354,23.794271],[90.308336,23.793804],[90.30835,23.793545],[90.308431,23.793508],[90.308467,23.793528],[90.308506,23.793549],[90.308591,23.793601],[90.308658,23.793634],[90.308686,23.793642],[90.308702,23.793646],[90.308741,23.793641],[90.308848,23.793602],[90.308935,23.793562],[90.309006,23.793542],[90.309168,23.7935],[90.309277,23.793474],[90.309417,23.793433],[90.309586,23.793377],[90.309673,23.793343],[90.309692,23.79343],[90.309729,23.793606],[90.309733,23.793646],[90.309771,23.793764],[90.309783,23.79384],[90.309784,23.793943],[90.309782,23.794073],[90.309779,23.794157],[90.309817,23.79441],[90.30987,23.794546],[90.309991,23.794784],[90.310054,23.794876],[90.310144,23.79504],[90.310207,23.795227],[90.310218,23.79546]]]}},{"type":"Feature","properties":{"survey":"bds","sheet":"085","dag":"42002","label_bn":"42002","area_sqm":720.0},"geometry":{"type":"Polygon","coordinates":[[[90.309464,23.795581],[90.308985,23.795624],[90.308958,23.795487],[90.309447,23.795459],[90.309464,23.795581]]]}},{"type":"Feature","properties":{"survey":"bds","sheet":"085","dag":"42003","label_bn":"42003","area_sqm":490.7},"geometry":{"type":"Polygon","coordinates":[[[90.310222,23.795788],[90.310072,23.795792],[90.310049,23.795483],[90.310136,23.795515],[90.310214,23.795555],[90.310228,23.795788],[90.310222,23.795788]]]}},{"type":"Feature","properties":{"survey":"bds","sheet":"085","dag":"42001","label_bn":"42001","area_sqm":4797.5},"geometry":{"type":"Polygon","coordinates":[[[90.309464,23.795798],[90.308768,23.795874],[90.308777,23.795739],[90.308785,23.795638],[90.30858,23.795613],[90.30861,23.795506],[90.308958,23.795487],[90.308985,23.795624],[90.309464,23.795581],[90.309447,23.795459],[90.309618,23.795419],[90.309736,23.795408],[90.309852,23.79541],[90.310049,23.795483],[90.310072,23.795792],[90.309464,23.795798]]]}}]}