{"type":"FeatureCollection","features":[{"type":"Feature","properties":{"survey":"bds","sheet":"086","dag":"42509","label_bn":"42509","area_sqm":2233.9},"geometry":{"type":"Polygon","coordinates":[[[90.312674,23.79485],[90.31261,23.79536],[90.31255,23.795352],[90.312437,23.795339],[90.312337,23.79533],[90.312327,23.795267],[90.312322,23.7952],[90.312314,23.795152],[90.312297,23.795122],[90.312272,23.795083],[90.312253,23.795064],[90.312215,23.795035],[90.312199,23.795016],[90.312187,23.794984],[90.312179,23.794952],[90.312169,23.794897],[90.31216,23.794871],[90.312145,23.794842],[90.312135,23.794825],[90.312133,23.794822],[90.312385,23.794839],[90.312466,23.794835],[90.312674,23.79485]]]}},{"type":"Feature","properties":{"survey":"bds","sheet":"086","dag":"42508","label_bn":"42508","area_sqm":421.5},"geometry":{"type":"Polygon","coordinates":[[[90.31261,23.79536],[90.312604,23.795407],[90.312402,23.795381],[90.312302,23.795372],[90.312302,23.795337],[90.312298,23.795249],[90.312292,23.795208],[90.312282,23.795181],[90.312267,23.795158],[90.312243,23.795136],[90.312233,23.795123],[90.312213,23.795086],[90.312196,23.795062],[90.312164,23.795026],[90.312153,23.795005],[90.312148,23.794956],[90.31214,23.794914],[90.312129,23.794898],[90.312113,23.794883],[90.312081,23.79486],[90.312044,23.794832],[90.31204,23.794827],[90.312105,23.79482],[90.312133,23.794822],[90.312135,23.794825],[90.312145,23.794842],[90.31216,23.794871],[90.312169,23.794897],[90.312179,23.794952],[90.312187,23.794984],[90.312199,23.795016],[90.312215,23.795035],[90.312253,23.795064],[90.312272,23.795083],[90.312297,23.795122],[90.312314,23.795152],[90.312322,23.7952],[90.312327,23.795267],[90.312337,23.79533],[90.312437,23.795339],[90.31255,23.795352],[90.31261,23.79536]]]}},{"type":"Feature","properties":{"survey":"bds","sheet":"086","dag":"42507","label_bn":"42507","area_sqm":50417.4},"geometry":{"type":"Polygon","coordinates":[[[90.311085,23.797312],[90.311041,23.79735],[90.310992,23.79735],[90.310946,23.797337],[90.310858,23.797285],[90.310855,23.797022],[90.3108,23.796825],[90.310667,23.796644],[90.310493,23.796388],[90.310493,23.796388],[90.310383,23.796218],[90.31033,23.79606],[90.31032,23.795829],[90.310328,23.795602],[90.310321,23.79531],[90.310289,23.795035],[90.31204,23.794827],[90.312044,23.794832],[90.312081,23.79486],[90.312113,23.794883],[90.312129,23.794898],[90.31214,23.794914],[90.312148,23.794956],[90.312153,23.795005],[90.312164,23.795026],[90.312196,23.795062],[90.312213,23.795086],[90.312233,23.795123],[90.312243,23.795136],[90.312267,23.795158],[90.312282,23.795181],[90.312292,23.795208],[90.312298,23.795249],[90.312302,23.795337],[90.312302,23.795372],[90.312402,23.795381],[90.312604,23.795407],[90.312602,23.795419],[90.313074,23.795441],[90.312817,23.796628],[90.312423,23.79658],[90.312173,23.796542],[90.312173,23.796543],[90.311962,23.79654],[90.311699,23.796572],[90.311556,23.796742],[90.311512,23.796818],[90.311468,23.797083],[90.311396,23.79731],[90.31116,23.797288],[90.311085,23.797312]]]}},{"type":"Feature","properties":{"survey":"bds","sheet":"086","dag":"42503","label_bn":"42503","area_sqm":23569.0},"geometry":{"type":"Polygon","coordinates":[[[90.310571,23.797839],[90.310498,23.797856],[90.310443,23.797852],[90.310139,23.797762],[90.309727,23.797687],[90.309465,23.797698],[90.309464,23.795798],[90.310072,23.795792],[90.310222,23.795788],[90.310228,23.795788],[90.310227,23.795943],[90.310315,23.796334],[90.310714,23.796905],[90.310747,23.796994],[90.310731,23.797259],[90.31073,23.797259],[90.31067,23.797502],[90.31064,23.797684],[90.310598,23.797802],[90.310571,23.797839]]]}},{"type":"Feature","properties":{"survey":"bds","sheet":"086","dag":"42502","label_bn":"42502","area_sqm":864.1},"geometry":{"type":"Polygon","coordinates":[[[90.310571,23.797839],[90.310577,23.797946],[90.309939,23.797786],[90.309724,23.797753],[90.30956,23.797753],[90.309408,23.797762],[90.309465,23.797698],[90.309727,23.797687],[90.310139,23.797762],[90.310443,23.797852],[90.310498,23.797856],[90.310571,23.797839]]]}},{"type":"Feature","properties":{"survey":"bds","sheet":"086","dag":"42506","label_bn":"42506","area_sqm":33967.9},"geometry":{"type":"Polygon","coordinates":[[[90.312817,23.796628],[90.312865,23.798642],[90.312522,23.798581],[90.312216,23.798515],[90.312069,23.798414],[90.311942,23.798331],[90.311788,23.798177],[90.311742,23.798152],[90.311637,23.798129],[90.311543,23.798103],[90.311325,23.798072],[90.311081,23.797996],[90.310987,23.797968],[90.310845,23.797928],[90.310669,23.797907],[90.310671,23.797835],[90.310722,23.797622],[90.310811,23.797358],[90.310858,23.797285],[90.310946,23.797337],[90.310992,23.79735],[90.311041,23.79735],[90.311085,23.797312],[90.31116,23.797288],[90.311396,23.79731],[90.311468,23.797083],[90.311512,23.796818],[90.311556,23.796742],[90.311699,23.796572],[90.311962,23.79654],[90.312173,23.796543],[90.312173,23.796542],[90.312423,23.79658],[90.312817,23.796628]]]}},{"type":"Feature","properties":{"survey":"bds","sheet":"086","dag":"42504","label_bn":"42504","area_sqm":4324.7},"geometry":{"type":"Polygon","coordinates":[[[90.310665,23.798573],[90.310702,23.798721],[90.3106,23.798694],[90.310553,23.798484],[90.31055,23.798323],[90.310565,23.798172],[90.31058,23.798007],[90.310577,23.797946],[90.310571,23.797839],[90.310598,23.797802],[90.31064,23.797684],[90.31067,23.797502],[90.31073,23.797259],[90.310731,23.797259],[90.310747,23.796994],[90.310714,23.796905],[90.310315,23.796334],[90.310227,23.795943],[90.310228,23.795788],[90.310214,23.795555],[90.310218,23.79546],[90.310207,23.795227],[90.310144,23.79504],[90.310289,23.795035],[90.310321,23.79531],[90.310328,23.795602],[90.31032,23.795829],[90.31033,23.79606],[90.310383,23.796218],[90.310493,23.796388],[90.310493,23.796388],[90.310667,23.796644],[90.3108,23.796825],[90.310855,23.797022],[90.310858,23.797285],[90.310811,23.797358],[90.310722,23.797622],[90.310671,23.797835],[90.310669,23.797907],[90.310664,23.797964],[90.310654,23.798118],[90.31063,23.798273],[90.310628,23.798382],[90.310665,23.798573]]]}},{"type":"Feature","properties":{"survey":"bds","sheet":"086","dag":"42501","label_bn":"42501","area_sqm":11332.8},"geometry":{"type":"Polygon","coordinates":[[[90.3106,23.798694],[90.310398,23.7988],[90.310221,23.79879],[90.309499,23.798554],[90.309423,23.798446],[90.309443,23.798326],[90.309492,23.798249],[90.309377,23.798005],[90.309408,23.797762],[90.30956,23.797753],[90.309724,23.797753],[90.309939,23.797786],[90.310577,23.797946],[90.31058,23.798007],[90.310565,23.798172],[90.31055,23.798323],[90.310553,23.798484],[90.3106,23.798694]]]}},{"type":"Feature","properties":{"survey":"bds","sheet":"086","dag":"42505","label_bn":"42505","area_sqm":13140.9},"geometry":{"type":"Polygon","coordinates":[[[90.312865,23.798642],[90.312801,23.798846],[90.310702,23.798721],[90.310665,23.798573],[90.310628,23.798382],[90.31063,23.798273],[90.310654,23.798118],[90.310664,23.797964],[90.310669,23.797907],[90.310845,23.797928],[90.310987,23.797968],[90.311081,23.797996],[90.311325,23.798072],[90.311543,23.798103],[90.311637,23.798129],[90.311742,23.798152],[90.311788,23.798177],[90.311942,23.798331],[90.312069,23.798414],[90.312216,23.798515],[90.312522,23.798581],[90.312865,23.798642]]]}}]}