{"type":"FeatureCollection","features":[{"type":"Feature","properties":{"survey":"bds","sheet":"087","dag":"43018","label_bn":"43018","area_sqm":1584.8},"geometry":{"type":"Polygon","coordinates":[[[90.314649,23.793297],[90.314499,23.793307],[90.314523,23.793116],[90.314564,23.79292],[90.314621,23.792685],[90.314666,23.792515],[90.314697,23.792417],[90.314823,23.79244],[90.314801,23.792608],[90.314759,23.792804],[90.3147,23.793063],[90.314649,23.793297]]]}},{"type":"Feature","properties":{"survey":"bds","sheet":"087","dag":"43006","label_bn":"43006","area_sqm":51.6},"geometry":{"type":"Polygon","coordinates":[[[90.311562,23.793352],[90.311573,23.793495],[90.311532,23.793387],[90.311535,23.793249],[90.311546,23.793285],[90.311562,23.793352]]]}},{"type":"Feature","properties":{"survey":"bds","sheet":"087","dag":"43016","label_bn":"43016","area_sqm":117.3},"geometry":{"type":"Polygon","coordinates":[[[90.31456,23.793701],[90.314454,23.793717],[90.314437,23.793624],[90.31454,23.793603],[90.31456,23.793701]]]}},{"type":"Feature","properties":{"survey":"bds","sheet":"087","dag":"43009","label_bn":"43009","area_sqm":16700.2},"geometry":{"type":"Polygon","coordinates":[[[90.31419,23.793872],[90.314179,23.793923],[90.313658,23.793799],[90.313418,23.793813],[90.313208,23.793117],[90.31322,23.792951],[90.31322,23.79281],[90.313232,23.792762],[90.313245,23.792739],[90.313262,23.792719],[90.313276,23.792683],[90.313296,23.792584],[90.313295,23.792584],[90.313336,23.792491],[90.314101,23.792589],[90.314543,23.79267],[90.314543,23.79267],[90.314469,23.793027],[90.314424,23.793244],[90.31438,23.793562],[90.314351,23.793835],[90.314244,23.793821],[90.31419,23.793872]]]}},{"type":"Feature","properties":{"survey":"bds","sheet":"087","dag":"43010","label_bn":"43010","area_sqm":207.0},"geometry":{"type":"Polygon","coordinates":[[[90.314351,23.793835],[90.314373,23.793955],[90.314179,23.793923],[90.31419,23.793872],[90.314244,23.793821],[90.314351,23.793835]]]}},{"type":"Feature","properties":{"survey":"bds","sheet":"087","dag":"43017","label_bn":"43017","area_sqm":8889.9},"geometry":{"type":"Polygon","coordinates":[[[90.315829,23.793494],[90.315536,23.794136],[90.315508,23.79413],[90.315469,23.794113],[90.315356,23.794092],[90.315127,23.794057],[90.314781,23.794],[90.314577,23.793957],[90.314522,23.793936],[90.314479,23.793908],[90.314447,23.793865],[90.314437,23.793813],[90.314437,23.793624],[90.314454,23.793717],[90.31456,23.793701],[90.31454,23.793603],[90.314437,23.793624],[90.314499,23.793307],[90.314649,23.793297],[90.314779,23.793303],[90.314898,23.793327],[90.315281,23.793467],[90.315611,23.793508],[90.315756,23.793514],[90.315829,23.793494]]]}},{"type":"Feature","properties":{"survey":"bds","sheet":"087","dag":"43019","label_bn":"43019","area_sqm":11978.0},"geometry":{"type":"Polygon","coordinates":[[[90.31583,23.793493],[90.315536,23.794136],[90.315829,23.793494],[90.315756,23.793514],[90.315611,23.793508],[90.315281,23.793467],[90.314898,23.793327],[90.314779,23.793303],[90.314649,23.793297],[90.3147,23.793063],[90.314759,23.792804],[90.314801,23.792608],[90.314823,23.79244],[90.314938,23.792452],[90.315202,23.792489],[90.315345,23.792529],[90.315598,23.792574],[90.31596,23.792639],[90.31583,23.793493]]]}},{"type":"Feature","properties":{"survey":"bds","sheet":"087","dag":"43005","label_bn":"43005","area_sqm":1641.5},"geometry":{"type":"Polygon","coordinates":[[[90.311995,23.794426],[90.312029,23.794462],[90.31161,23.794124],[90.311634,23.794037],[90.311636,23.793921],[90.311636,23.793804],[90.311619,23.793662],[90.311601,23.793567],[90.311578,23.793506],[90.311672,23.793538],[90.311813,23.793583],[90.311869,23.793601],[90.311872,23.793682],[90.311873,23.793695],[90.311852,23.7938],[90.311834,23.793934],[90.311811,23.793997],[90.311777,23.794071],[90.311771,23.794096],[90.311767,23.794114],[90.31179,23.794159],[90.311864,23.794259],[90.311935,23.794347],[90.311995,23.794426]]]}},{"type":"Feature","properties":{"survey":"bds","sheet":"087","dag":"43008","label_bn":"43008","area_sqm":20818.7},"geometry":{"type":"Polygon","coordinates":[[[90.312192,23.79449],[90.312148,23.79453],[90.312118,23.794493],[90.312108,23.794481],[90.312077,23.794445],[90.312039,23.794385],[90.311997,23.794336],[90.311969,23.794298],[90.311916,23.794224],[90.311865,23.794171],[90.311821,23.794115],[90.311839,23.794057],[90.311855,23.794019],[90.311876,23.793933],[90.311908,23.793823],[90.311931,23.793749],[90.311935,23.793636],[90.311931,23.793564],[90.311862,23.79354],[90.311796,23.793518],[90.311728,23.793487],[90.311647,23.793459],[90.311622,23.793388],[90.311607,23.793316],[90.311585,23.79323],[90.31195,23.793226],[90.312215,23.793264],[90.31224,23.793183],[90.312377,23.793143],[90.313137,23.793128],[90.313208,23.793117],[90.313418,23.793813],[90.313432,23.793965],[90.313415,23.794167],[90.31338,23.794261],[90.312893,23.794291],[90.312832,23.794341],[90.31276,23.794408],[90.312635,23.794408],[90.312397,23.794431],[90.312233,23.794458],[90.312192,23.79449]]]}},{"type":"Feature","properties":{"survey":"bds","sheet":"087","dag":"43007","label_bn":"43007","area_sqm":1042.4},"geometry":{"type":"Polygon","coordinates":[[[90.312148,23.79453],[90.312131,23.794544],[90.312029,23.794462],[90.311995,23.794426],[90.311935,23.794347],[90.311864,23.794259],[90.31179,23.794159],[90.311767,23.794114],[90.311771,23.794096],[90.311777,23.794071],[90.311811,23.793997],[90.311834,23.793934],[90.311852,23.7938],[90.311873,23.793695],[90.311872,23.793682],[90.311869,23.793601],[90.311813,23.793583],[90.311672,23.793538],[90.311578,23.793506],[90.311576,23.793503],[90.311573,23.793495],[90.311562,23.793352],[90.311546,23.793285],[90.311535,23.793249],[90.311535,23.793231],[90.311585,23.79323],[90.311607,23.793316],[90.311622,23.793388],[90.311647,23.793459],[90.311728,23.793487],[90.311796,23.793518],[90.311862,23.79354],[90.311931,23.793564],[90.311935,23.793636],[90.311931,23.793749],[90.311908,23.793823],[90.311876,23.793933],[90.311855,23.794019],[90.311839,23.794057],[90.311821,23.794115],[90.311865,23.794171],[90.311916,23.794224],[90.311969,23.794298],[90.311997,23.794336],[90.312039,23.794385],[90.312077,23.794445],[90.312108,23.794481],[90.312118,23.794493],[90.312148,23.79453]]]}},{"type":"Feature","properties":{"survey":"bds","sheet":"087","dag":"43014","label_bn":"43014","area_sqm":6838.0},"geometry":{"type":"Polygon","coordinates":[[[90.315471,23.794305],[90.315422,23.794687],[90.314859,23.794565],[90.314225,23.794439],[90.314373,23.793955],[90.314457,23.793965],[90.314572,23.793995],[90.314977,23.794068],[90.315201,23.794101],[90.315302,23.794116],[90.315358,23.794132],[90.315399,23.794149],[90.315431,23.794173],[90.315451,23.794196],[90.315466,23.794222],[90.315472,23.794248],[90.315474,23.79428],[90.315471,23.794305]]]}},{"type":"Feature","properties":{"survey":"bds","sheet":"087","dag":"43004","label_bn":"43004","area_sqm":40.2},"geometry":{"type":"Polygon","coordinates":[[[90.312135,23.794662],[90.312115,23.794713],[90.312131,23.794544],[90.312148,23.79453],[90.312165,23.794552],[90.312135,23.794662]]]}},{"type":"Feature","properties":{"survey":"bds","sheet":"087","dag":"43003","label_bn":"43003","area_sqm":6589.5},"geometry":{"type":"Polygon","coordinates":[[[90.313296,23.794837],[90.312906,23.794853],[90.312674,23.79485],[90.312466,23.794835],[90.312385,23.794839],[90.312133,23.794822],[90.312105,23.79482],[90.312108,23.794787],[90.312115,23.794713],[90.312135,23.794662],[90.312165,23.794552],[90.312148,23.79453],[90.312192,23.79449],[90.312233,23.794458],[90.312397,23.794431],[90.312635,23.794408],[90.31276,23.794408],[90.312832,23.794341],[90.312893,23.794291],[90.31338,23.794261],[90.313377,23.794432],[90.313339,23.794632],[90.313329,23.794789],[90.313296,23.794837]]]}},{"type":"Feature","properties":{"survey":"bds","sheet":"087","dag":"43011","label_bn":"43011","area_sqm":14196.8},"geometry":{"type":"Polygon","coordinates":[[[90.313932,23.795393],[90.313599,23.795399],[90.31342,23.795357],[90.31334,23.795352],[90.313315,23.795261],[90.313286,23.795125],[90.313247,23.795069],[90.313227,23.795017],[90.313237,23.794926],[90.313296,23.794837],[90.313329,23.794789],[90.313339,23.794632],[90.313377,23.794432],[90.31338,23.794261],[90.313415,23.794167],[90.313432,23.793965],[90.313418,23.793813],[90.313658,23.793799],[90.314179,23.793923],[90.314373,23.793955],[90.314225,23.794439],[90.313932,23.795393]]]}},{"type":"Feature","properties":{"survey":"bds","sheet":"087","dag":"43002","label_bn":"43002","area_sqm":3785.6},"geometry":{"type":"Polygon","coordinates":[[[90.313083,23.795325],[90.313076,23.795412],[90.313061,23.795411],[90.312886,23.795398],[90.312793,23.795384],[90.312631,23.795362],[90.31261,23.79536],[90.312674,23.79485],[90.312906,23.794853],[90.313296,23.794837],[90.313237,23.794926],[90.313227,23.795017],[90.313247,23.795069],[90.313286,23.795125],[90.313315,23.795261],[90.31334,23.795352],[90.313083,23.795325]]]}},{"type":"Feature","properties":{"survey":"bds","sheet":"087","dag":"43001","label_bn":"43001","area_sqm":219.6},"geometry":{"type":"Polygon","coordinates":[[[90.313076,23.795412],[90.313074,23.795441],[90.312602,23.795419],[90.31261,23.79536],[90.312631,23.795362],[90.312793,23.795384],[90.312886,23.795398],[90.313061,23.795411],[90.313076,23.795412]]]}},{"type":"Feature","properties":{"survey":"bds","sheet":"087","dag":"43013","label_bn":"43013","area_sqm":2232.9},"geometry":{"type":"Polygon","coordinates":[[[90.315665,23.79524],[90.315461,23.795663],[90.315174,23.79556],[90.315181,23.795513],[90.31525,23.795341],[90.315288,23.795242],[90.31538,23.795028],[90.315443,23.794999],[90.315513,23.794945],[90.31559,23.795109],[90.315635,23.795188],[90.315665,23.79524]]]}},{"type":"Feature","properties":{"survey":"bds","sheet":"087","dag":"43015","label_bn":"43015","area_sqm":2880.1},"geometry":{"type":"Polygon","coordinates":[[[90.315708,23.795279],[90.315516,23.795681],[90.315461,23.795663],[90.315665,23.79524],[90.315635,23.795188],[90.31559,23.795109],[90.315513,23.794945],[90.315493,23.794885],[90.315448,23.794779],[90.315422,23.794687],[90.315471,23.794305],[90.315474,23.79428],[90.315472,23.794248],[90.315466,23.794222],[90.315451,23.794196],[90.315431,23.794173],[90.315399,23.794149],[90.315358,23.794132],[90.315302,23.794116],[90.315201,23.794101],[90.314977,23.794068],[90.314572,23.793995],[90.314457,23.793965],[90.314373,23.793955],[90.314351,23.793835],[90.31438,23.793562],[90.314424,23.793244],[90.314469,23.793027],[90.314543,23.79267],[90.314621,23.792685],[90.314564,23.79292],[90.314523,23.793116],[90.314499,23.793307],[90.314437,23.793624],[90.314437,23.793813],[90.314447,23.793865],[90.314479,23.793908],[90.314522,23.793936],[90.314577,23.793957],[90.314781,23.794],[90.315127,23.794057],[90.315356,23.794092],[90.315469,23.794113],[90.315508,23.79413],[90.315536,23.794136],[90.31555,23.794162],[90.315576,23.794221],[90.315545,23.79431],[90.315524,23.794497],[90.315519,23.794605],[90.315548,23.794794],[90.315572,23.794903],[90.3156,23.794982],[90.315668,23.795128],[90.315708,23.795279]]]}},{"type":"Feature","properties":{"survey":"bds","sheet":"087","dag":"43012","label_bn":"43012","area_sqm":14594.3},"geometry":{"type":"Polygon","coordinates":[[[90.31475,23.795712],[90.314683,23.795712],[90.314612,23.795682],[90.314534,23.795482],[90.314387,23.795439],[90.314216,23.795432],[90.314076,23.795419],[90.313932,23.795393],[90.314225,23.794439],[90.314859,23.794565],[90.315422,23.794687],[90.315448,23.794779],[90.315493,23.794885],[90.315513,23.794945],[90.315443,23.794999],[90.31538,23.795028],[90.315288,23.795242],[90.31525,23.795341],[90.315181,23.795513],[90.315174,23.79556],[90.315011,23.795596],[90.314842,23.795646],[90.31475,23.795712]]]}}]}