{"type":"FeatureCollection","features":[{"type":"Feature","properties":{"survey":"bds","sheet":"088","dag":"43519","label_bn":"43519","area_sqm":2175.8},"geometry":{"type":"Polygon","coordinates":[[[90.314906,23.78996],[90.314678,23.789979],[90.31463,23.789783],[90.314867,23.789756],[90.314941,23.789757],[90.315153,23.789731],[90.315166,23.789727],[90.315216,23.789731],[90.315612,23.78971],[90.315593,23.78992],[90.315419,23.789921],[90.315338,23.78992],[90.315165,23.789933],[90.314981,23.789954],[90.314906,23.78996]]]}},{"type":"Feature","properties":{"survey":"bds","sheet":"088","dag":"43507","label_bn":"43507","area_sqm":14.3},"geometry":{"type":"Polygon","coordinates":[[[90.312912,23.790861],[90.312902,23.790894],[90.312832,23.790873],[90.312912,23.790861]]]}},{"type":"Feature","properties":{"survey":"bds","sheet":"088","dag":"43518","label_bn":"43518","area_sqm":26317.5},"geometry":{"type":"Polygon","coordinates":[[[90.312832,23.790873],[90.312187,23.790972],[90.312173,23.790744],[90.312141,23.790533],[90.312134,23.790453],[90.31213,23.790426],[90.312356,23.790304],[90.312926,23.790207],[90.313497,23.790111],[90.313811,23.790073],[90.314126,23.790035],[90.314214,23.790031],[90.314485,23.789997],[90.314678,23.789979],[90.314906,23.78996],[90.314981,23.789954],[90.315165,23.789933],[90.315338,23.78992],[90.315419,23.789921],[90.315593,23.78992],[90.315902,23.789928],[90.315925,23.790478],[90.315791,23.790489],[90.315417,23.790519],[90.315364,23.790523],[90.315168,23.79054],[90.314229,23.790616],[90.313958,23.790677],[90.313938,23.790682],[90.313821,23.790708],[90.31362,23.790753],[90.313544,23.790764],[90.313309,23.7908],[90.313032,23.790843],[90.312912,23.790861],[90.312832,23.790873]]]}},{"type":"Feature","properties":{"survey":"bds","sheet":"088","dag":"43506","label_bn":"43506","area_sqm":552.9},"geometry":{"type":"Polygon","coordinates":[[[90.312309,23.790956],[90.312302,23.791031],[90.312219,23.791018],[90.31219,23.791014],[90.312187,23.790972],[90.312832,23.790873],[90.312902,23.790894],[90.312893,23.790928],[90.312873,23.791003],[90.312564,23.790983],[90.312309,23.790956]]]}},{"type":"Feature","properties":{"survey":"bds","sheet":"088","dag":"43509","label_bn":"43509","area_sqm":860.8},"geometry":{"type":"Polygon","coordinates":[[[90.31384,23.791044],[90.313803,23.791044],[90.313696,23.791042],[90.313628,23.791042],[90.313544,23.790764],[90.31362,23.790753],[90.313821,23.790708],[90.31384,23.791044]]]}},{"type":"Feature","properties":{"survey":"bds","sheet":"088","dag":"43505","label_bn":"43505","area_sqm":599.1},"geometry":{"type":"Polygon","coordinates":[[[90.312873,23.791003],[90.312845,23.791113],[90.312645,23.791095],[90.312451,23.791052],[90.312302,23.791031],[90.312309,23.790956],[90.312564,23.790983],[90.312873,23.791003]]]}},{"type":"Feature","properties":{"survey":"bds","sheet":"088","dag":"43517","label_bn":"43517","area_sqm":5715.0},"geometry":{"type":"Polygon","coordinates":[[[90.315855,23.79109],[90.315812,23.791402],[90.315626,23.791374],[90.31541,23.791341],[90.315163,23.791304],[90.315247,23.791048],[90.315285,23.790932],[90.315363,23.790694],[90.315417,23.790519],[90.315791,23.790489],[90.315925,23.790478],[90.315925,23.790499],[90.315913,23.790625],[90.315898,23.79079],[90.315855,23.79109]]]}},{"type":"Feature","properties":{"survey":"bds","sheet":"088","dag":"43516","label_bn":"43516","area_sqm":1214.5},"geometry":{"type":"Polygon","coordinates":[[[90.315615,23.791581],[90.315572,23.791585],[90.315502,23.791557],[90.315432,23.791538],[90.315379,23.791506],[90.31535,23.791491],[90.315262,23.791474],[90.31523,23.79147],[90.315212,23.791425],[90.315131,23.791408],[90.315163,23.791304],[90.31541,23.791341],[90.315626,23.791374],[90.315812,23.791402],[90.315772,23.791472],[90.315734,23.791524],[90.315709,23.791546],[90.315615,23.791581]]]}},{"type":"Feature","properties":{"survey":"bds","sheet":"088","dag":"43515","label_bn":"43515","area_sqm":413.5},"geometry":{"type":"Polygon","coordinates":[[[90.31566,23.791606],[90.315584,23.791614],[90.315511,23.791606],[90.31518,23.791494],[90.31511,23.791479],[90.315131,23.791408],[90.315212,23.791425],[90.31523,23.79147],[90.315262,23.791474],[90.31535,23.791491],[90.315379,23.791506],[90.315432,23.791538],[90.315502,23.791557],[90.315572,23.791585],[90.315615,23.791581],[90.315709,23.791546],[90.315734,23.791524],[90.315772,23.791472],[90.315812,23.791402],[90.315854,23.791403],[90.315843,23.791442],[90.315808,23.791493],[90.315779,23.791527],[90.31566,23.791606]]]}},{"type":"Feature","properties":{"survey":"bds","sheet":"088","dag":"43508","label_bn":"43508","area_sqm":11085.4},"geometry":{"type":"Polygon","coordinates":[[[90.313671,23.791182],[90.313529,23.791923],[90.313435,23.791906],[90.312758,23.791787],[90.312671,23.791788],[90.312505,23.791783],[90.312632,23.791154],[90.312645,23.791095],[90.312845,23.791113],[90.312873,23.791003],[90.312893,23.790928],[90.312902,23.790894],[90.312912,23.790861],[90.313032,23.790843],[90.313309,23.7908],[90.313544,23.790764],[90.313628,23.791042],[90.313671,23.791182]]]}},{"type":"Feature","properties":{"survey":"bds","sheet":"088","dag":"43504","label_bn":"43504","area_sqm":7078.3},"geometry":{"type":"Polygon","coordinates":[[[90.312468,23.792006],[90.312443,23.792116],[90.312276,23.792101],[90.311929,23.79206],[90.311952,23.791499],[90.311983,23.791144],[90.311995,23.791035],[90.311999,23.791032],[90.31219,23.791014],[90.312219,23.791018],[90.312302,23.791031],[90.312451,23.791052],[90.312645,23.791095],[90.312632,23.791154],[90.312505,23.791783],[90.312468,23.792006]]]}},{"type":"Feature","properties":{"survey":"bds","sheet":"088","dag":"43514","label_bn":"43514","area_sqm":6271.3},"geometry":{"type":"Polygon","coordinates":[[[90.315494,23.792127],[90.315379,23.792451],[90.315046,23.792406],[90.314898,23.79238],[90.314782,23.792359],[90.314759,23.792336],[90.314753,23.792309],[90.314754,23.792293],[90.314852,23.792052],[90.314984,23.791718],[90.315035,23.791648],[90.315081,23.791567],[90.31511,23.791479],[90.31518,23.791494],[90.315511,23.791606],[90.315584,23.791614],[90.31566,23.791606],[90.315562,23.791906],[90.315514,23.792053],[90.315494,23.792127]]]}},{"type":"Feature","properties":{"survey":"bds","sheet":"088","dag":"43513","label_bn":"43513","area_sqm":500.2},"geometry":{"type":"Polygon","coordinates":[[[90.315379,23.792451],[90.315345,23.79253],[90.315202,23.792489],[90.314938,23.792452],[90.314823,23.79244],[90.314697,23.792417],[90.31471,23.792394],[90.314759,23.792336],[90.314782,23.792359],[90.314898,23.79238],[90.315046,23.792406],[90.315379,23.792451]]]}},{"type":"Feature","properties":{"survey":"bds","sheet":"088","dag":"43510","label_bn":"43510","area_sqm":29408.7},"geometry":{"type":"Polygon","coordinates":[[[90.314105,23.792321],[90.314101,23.792589],[90.313336,23.792491],[90.313366,23.792272],[90.313435,23.791906],[90.313529,23.791923],[90.313671,23.791182],[90.313628,23.791042],[90.313696,23.791042],[90.313803,23.791044],[90.31384,23.791044],[90.313821,23.790708],[90.313938,23.790682],[90.313958,23.790677],[90.314229,23.790616],[90.315168,23.79054],[90.315364,23.790523],[90.315336,23.790612],[90.315315,23.790674],[90.315279,23.790744],[90.31523,23.790875],[90.31514,23.791162],[90.315066,23.791327],[90.31504,23.791408],[90.315024,23.791485],[90.314988,23.791582],[90.314925,23.791723],[90.314874,23.791849],[90.314781,23.792069],[90.314662,23.792357],[90.31444,23.792325],[90.314105,23.792321]]]}},{"type":"Feature","properties":{"survey":"bds","sheet":"088","dag":"43511","label_bn":"43511","area_sqm":1709.1},"geometry":{"type":"Polygon","coordinates":[[[90.3146,23.792482],[90.314543,23.79267],[90.314101,23.792589],[90.314105,23.792321],[90.31444,23.792325],[90.314662,23.792357],[90.314643,23.79238],[90.3146,23.792482]]]}},{"type":"Feature","properties":{"survey":"bds","sheet":"088","dag":"43512","label_bn":"43512","area_sqm":1730.2},"geometry":{"type":"Polygon","coordinates":[[[90.314666,23.792515],[90.314621,23.792685],[90.314543,23.79267],[90.314543,23.79267],[90.3146,23.792482],[90.314643,23.79238],[90.314662,23.792357],[90.314781,23.792069],[90.314874,23.791849],[90.314925,23.791723],[90.314988,23.791582],[90.315024,23.791485],[90.31504,23.791408],[90.315066,23.791327],[90.31514,23.791162],[90.31523,23.790875],[90.315279,23.790744],[90.315315,23.790674],[90.315336,23.790612],[90.315364,23.790523],[90.315417,23.790519],[90.315363,23.790694],[90.315285,23.790932],[90.315247,23.791048],[90.315163,23.791304],[90.315131,23.791408],[90.31511,23.791479],[90.315081,23.791567],[90.315035,23.791648],[90.314984,23.791718],[90.314852,23.792052],[90.314754,23.792293],[90.314753,23.792309],[90.314759,23.792336],[90.31471,23.792394],[90.314697,23.792417],[90.314666,23.792515]]]}},{"type":"Feature","properties":{"survey":"bds","sheet":"088","dag":"43501","label_bn":"43501","area_sqm":475.7},"geometry":{"type":"Polygon","coordinates":[[[90.311506,23.793162],[90.311518,23.793198],[90.311398,23.792968],[90.311277,23.792936],[90.311149,23.792922],[90.311197,23.792869],[90.311209,23.792856],[90.311329,23.792839],[90.311401,23.792832],[90.311476,23.792829],[90.31151,23.792827],[90.311515,23.792869],[90.311502,23.792904],[90.31147,23.792978],[90.31147,23.793012],[90.311479,23.793078],[90.311506,23.793162]]]}},{"type":"Feature","properties":{"survey":"bds","sheet":"088","dag":"43502","label_bn":"43502","area_sqm":1516.1},"geometry":{"type":"Polygon","coordinates":[[[90.311585,23.79323],[90.311535,23.793231],[90.311518,23.793198],[90.311506,23.793162],[90.311479,23.793078],[90.31147,23.793012],[90.31147,23.792978],[90.311502,23.792904],[90.311515,23.792869],[90.31151,23.792827],[90.311476,23.792829],[90.311401,23.792832],[90.311329,23.792839],[90.311209,23.792856],[90.311197,23.792869],[90.311149,23.792922],[90.311129,23.79292],[90.3111,23.792828],[90.311099,23.792818],[90.31116,23.792749],[90.311271,23.792731],[90.311344,23.792724],[90.31147,23.792722],[90.311535,23.792723],[90.311602,23.792719],[90.31168,23.792721],[90.311718,23.792725],[90.311756,23.792733],[90.311755,23.792751],[90.311755,23.792818],[90.311799,23.792832],[90.311853,23.792839],[90.311914,23.792844],[90.311958,23.792841],[90.311977,23.79284],[90.312044,23.79283],[90.31211,23.792827],[90.312182,23.792829],[90.312179,23.792855],[90.312059,23.792861],[90.311955,23.79287],[90.311887,23.792876],[90.311775,23.792891],[90.311712,23.792906],[90.311626,23.79292],[90.311598,23.792925],[90.311567,23.79298],[90.311549,23.793027],[90.311551,23.793072],[90.311572,23.793184],[90.311585,23.79323]]]}},{"type":"Feature","properties":{"survey":"bds","sheet":"088","dag":"43503","label_bn":"43503","area_sqm":29018.4},"geometry":{"type":"Polygon","coordinates":[[[90.31224,23.793183],[90.312215,23.793264],[90.31195,23.793226],[90.311585,23.79323],[90.311572,23.793184],[90.311551,23.793072],[90.311549,23.793027],[90.311567,23.79298],[90.311598,23.792925],[90.311626,23.79292],[90.311712,23.792906],[90.311775,23.792891],[90.311887,23.792876],[90.311955,23.79287],[90.312059,23.792861],[90.312179,23.792855],[90.312182,23.792829],[90.31211,23.792827],[90.312044,23.79283],[90.311977,23.79284],[90.311958,23.792841],[90.311914,23.792844],[90.311853,23.792839],[90.311799,23.792832],[90.311755,23.792818],[90.311755,23.792751],[90.311756,23.792733],[90.311718,23.792725],[90.31168,23.792721],[90.311602,23.792719],[90.311535,23.792723],[90.31147,23.792722],[90.311344,23.792724],[90.311271,23.792731],[90.31116,23.792749],[90.311099,23.792818],[90.311091,23.792764],[90.311064,23.792709],[90.311011,23.792515],[90.31097,23.792353],[90.310927,23.791949],[90.311181,23.791948],[90.311329,23.791947],[90.311557,23.791975],[90.311685,23.791986],[90.311792,23.791983],[90.311825,23.792005],[90.311895,23.79205],[90.311929,23.79206],[90.312276,23.792101],[90.312443,23.792116],[90.312468,23.792006],[90.312505,23.791783],[90.312671,23.791788],[90.312758,23.791787],[90.313435,23.791906],[90.313366,23.792272],[90.313336,23.792491],[90.313295,23.792584],[90.313296,23.792584],[90.313276,23.792683],[90.313262,23.792719],[90.313245,23.792739],[90.313232,23.792762],[90.31322,23.79281],[90.31322,23.792951],[90.313208,23.793117],[90.313137,23.793128],[90.312377,23.793143],[90.31224,23.793183]]]}}]}