{"type":"FeatureCollection","features":[{"type":"Feature","properties":{"survey":"bds","sheet":"089","dag":"44008","label_bn":"44008","area_sqm":122.1},"geometry":{"type":"Polygon","coordinates":[[[90.313842,23.786987],[90.31375,23.787022],[90.313682,23.786885],[90.313722,23.786869],[90.313842,23.786987]]]}},{"type":"Feature","properties":{"survey":"bds","sheet":"089","dag":"44009","label_bn":"44009","area_sqm":8919.3},"geometry":{"type":"Polygon","coordinates":[[[90.313692,23.786445],[90.313798,23.786535],[90.313871,23.786584],[90.31399,23.786645],[90.313995,23.786647],[90.314022,23.786659],[90.314017,23.786683],[90.313996,23.786778],[90.31397,23.78691],[90.313967,23.786953],[90.31395,23.786987],[90.313904,23.787048],[90.313854,23.786999],[90.313842,23.786987],[90.313722,23.786869],[90.313709,23.786856],[90.31362,23.786775],[90.313535,23.786708],[90.313475,23.786672],[90.313462,23.786664],[90.313426,23.786634],[90.313356,23.786582],[90.313271,23.786531],[90.313164,23.786478],[90.312987,23.786396],[90.31296,23.786386],[90.312905,23.78639],[90.31286,23.786402],[90.312828,23.786421],[90.31279,23.786475],[90.312757,23.786538],[90.312744,23.786628],[90.312739,23.786709],[90.312642,23.786663],[90.312504,23.78657],[90.312444,23.78653],[90.312443,23.786529],[90.312393,23.786495],[90.312331,23.786453],[90.312245,23.786395],[90.312334,23.786383],[90.312353,23.786381],[90.312389,23.78636],[90.312434,23.786311],[90.312499,23.786216],[90.31255,23.786128],[90.312594,23.78606],[90.312638,23.785992],[90.312682,23.785946],[90.312756,23.785898],[90.312824,23.785881],[90.312836,23.785878],[90.312924,23.785867],[90.312974,23.785867],[90.313036,23.785884],[90.313147,23.785942],[90.313304,23.786042],[90.313408,23.7861],[90.31354,23.786261],[90.313583,23.786312],[90.313692,23.786445]]]}},{"type":"Feature","properties":{"survey":"bds","sheet":"089","dag":"44015","label_bn":"44015","area_sqm":4937.2},"geometry":{"type":"Polygon","coordinates":[[[90.314992,23.787694],[90.314883,23.787736],[90.31469,23.787659],[90.314522,23.787719],[90.31452,23.787715],[90.314458,23.787656],[90.314378,23.787578],[90.314157,23.787316],[90.313991,23.787134],[90.313976,23.787119],[90.313904,23.787048],[90.31395,23.786987],[90.313967,23.786953],[90.31397,23.78691],[90.313996,23.786778],[90.314017,23.786683],[90.314022,23.786659],[90.314028,23.786661],[90.314056,23.786659],[90.314102,23.786637],[90.314164,23.786742],[90.314214,23.786878],[90.314243,23.786929],[90.314308,23.786995],[90.314374,23.787061],[90.314463,23.787143],[90.314553,23.787224],[90.314628,23.787281],[90.314789,23.787402],[90.314873,23.787465],[90.314927,23.787526],[90.314959,23.787588],[90.314988,23.787665],[90.314992,23.787694]]]}},{"type":"Feature","properties":{"survey":"bds","sheet":"089","dag":"44007","label_bn":"44007","area_sqm":11796.5},"geometry":{"type":"Polygon","coordinates":[[[90.31384,23.788276],[90.313818,23.788324],[90.313741,23.788294],[90.313692,23.788294],[90.313684,23.788279],[90.313649,23.788277],[90.313605,23.788244],[90.313539,23.788066],[90.313355,23.788117],[90.313357,23.788109],[90.31336,23.788092],[90.313366,23.788039],[90.313348,23.787915],[90.313345,23.787908],[90.313306,23.787802],[90.313191,23.787588],[90.313076,23.787375],[90.312949,23.787118],[90.312755,23.786716],[90.312739,23.786709],[90.312744,23.786628],[90.312757,23.786538],[90.31279,23.786475],[90.312828,23.786421],[90.31286,23.786402],[90.312905,23.78639],[90.31296,23.786386],[90.312987,23.786396],[90.313164,23.786478],[90.313271,23.786531],[90.313356,23.786582],[90.313426,23.786634],[90.313462,23.786664],[90.313475,23.786672],[90.313535,23.786708],[90.31362,23.786775],[90.313709,23.786856],[90.313722,23.786869],[90.313682,23.786885],[90.31375,23.787022],[90.313842,23.786987],[90.313854,23.786999],[90.313904,23.787048],[90.313853,23.787117],[90.313789,23.787215],[90.313717,23.787305],[90.313685,23.787396],[90.313654,23.787474],[90.313624,23.787552],[90.313623,23.787619],[90.313638,23.78765],[90.313665,23.787687],[90.313669,23.787701],[90.313665,23.787778],[90.313694,23.787851],[90.313678,23.7879],[90.313689,23.787956],[90.313693,23.788016],[90.313699,23.788154],[90.313703,23.788178],[90.313719,23.788207],[90.313767,23.788252],[90.31384,23.788276]]]}},{"type":"Feature","properties":{"survey":"bds","sheet":"089","dag":"44011","label_bn":"44011","area_sqm":270.8},"geometry":{"type":"Polygon","coordinates":[[[90.314391,23.788423],[90.314374,23.788566],[90.314214,23.788553],[90.314233,23.7884],[90.314391,23.788423]]]}},{"type":"Feature","properties":{"survey":"bds","sheet":"089","dag":"44014","label_bn":"44014","area_sqm":3636.5},"geometry":{"type":"Polygon","coordinates":[[[90.315161,23.788946],[90.315161,23.788946],[90.315135,23.788929],[90.315058,23.788884],[90.315013,23.788798],[90.314909,23.788522],[90.314861,23.788392],[90.31482,23.788283],[90.314758,23.788161],[90.314675,23.787979],[90.31466,23.787944],[90.314627,23.787867],[90.314572,23.787782],[90.314522,23.787719],[90.31469,23.787659],[90.314883,23.787736],[90.314992,23.787694],[90.315012,23.787848],[90.315042,23.788021],[90.315161,23.788946]]]}},{"type":"Feature","properties":{"survey":"bds","sheet":"089","dag":"44006","label_bn":"44006","area_sqm":5287.2},"geometry":{"type":"Polygon","coordinates":[[[90.312509,23.789143],[90.3124,23.789176],[90.312409,23.789169],[90.312501,23.789109],[90.312564,23.789068],[90.312588,23.789052],[90.312675,23.788995],[90.312794,23.788897],[90.312914,23.788798],[90.313023,23.788721],[90.313118,23.788626],[90.313153,23.788583],[90.313187,23.78854],[90.313191,23.788534],[90.313221,23.788477],[90.313254,23.788413],[90.313291,23.788332],[90.313327,23.78825],[90.313341,23.788197],[90.313355,23.788117],[90.313539,23.788066],[90.313605,23.788244],[90.313609,23.788255],[90.313637,23.788332],[90.313638,23.788335],[90.313794,23.788761],[90.313557,23.788831],[90.312858,23.789039],[90.312587,23.78912],[90.312587,23.78912],[90.312509,23.789143]]]}},{"type":"Feature","properties":{"survey":"bds","sheet":"089","dag":"44013","label_bn":"44013","area_sqm":6701.4},"geometry":{"type":"Polygon","coordinates":[[[90.314966,23.789132],[90.314698,23.789209],[90.314486,23.788725],[90.314448,23.788599],[90.314429,23.788415],[90.314391,23.788423],[90.314361,23.788176],[90.31436,23.78805],[90.314388,23.787902],[90.314379,23.787779],[90.314441,23.787748],[90.314522,23.787719],[90.314572,23.787782],[90.314627,23.787867],[90.31466,23.787944],[90.314675,23.787979],[90.314758,23.788161],[90.31482,23.788283],[90.314861,23.788392],[90.314909,23.788522],[90.315013,23.788798],[90.315058,23.788884],[90.315135,23.788929],[90.315161,23.788946],[90.31507,23.789081],[90.314994,23.789119],[90.314966,23.789132]]]}},{"type":"Feature","properties":{"survey":"bds","sheet":"089","dag":"44012","label_bn":"44012","area_sqm":213.3},"geometry":{"type":"Polygon","coordinates":[[[90.315046,23.789203],[90.314704,23.789238],[90.314698,23.789209],[90.314966,23.789132],[90.314994,23.789119],[90.315019,23.789172],[90.315046,23.789203]]]}},{"type":"Feature","properties":{"survey":"bds","sheet":"089","dag":"44010","label_bn":"44010","area_sqm":17715.4},"geometry":{"type":"Polygon","coordinates":[[[90.3143,23.789278],[90.313736,23.789371],[90.313557,23.788831],[90.313794,23.788761],[90.313638,23.788335],[90.313637,23.788332],[90.313609,23.788255],[90.313605,23.788244],[90.313649,23.788277],[90.313684,23.788279],[90.313692,23.788294],[90.313741,23.788294],[90.313818,23.788324],[90.31384,23.788276],[90.313767,23.788252],[90.313719,23.788207],[90.313703,23.788178],[90.313699,23.788154],[90.313693,23.788016],[90.313689,23.787956],[90.313678,23.7879],[90.313694,23.787851],[90.313665,23.787778],[90.313669,23.787701],[90.313665,23.787687],[90.313638,23.78765],[90.313623,23.787619],[90.313624,23.787552],[90.313654,23.787474],[90.313685,23.787396],[90.313717,23.787305],[90.313789,23.787215],[90.313853,23.787117],[90.313904,23.787048],[90.313976,23.787119],[90.313991,23.787134],[90.314157,23.787316],[90.314378,23.787578],[90.314458,23.787656],[90.31452,23.787715],[90.314522,23.787719],[90.314441,23.787748],[90.314379,23.787779],[90.314388,23.787902],[90.31436,23.78805],[90.314361,23.788176],[90.314391,23.788423],[90.314233,23.7884],[90.314214,23.788553],[90.314374,23.788566],[90.314391,23.788423],[90.314429,23.788415],[90.314448,23.788599],[90.314486,23.788725],[90.314698,23.789209],[90.314704,23.789238],[90.3143,23.789278]]]}},{"type":"Feature","properties":{"survey":"bds","sheet":"089","dag":"44005","label_bn":"44005","area_sqm":5677.7},"geometry":{"type":"Polygon","coordinates":[[[90.312944,23.789501],[90.312755,23.789525],[90.312747,23.789496],[90.312587,23.78912],[90.312587,23.78912],[90.312858,23.789039],[90.313557,23.788831],[90.313736,23.789371],[90.312944,23.789501]]]}},{"type":"Feature","properties":{"survey":"bds","sheet":"089","dag":"44004","label_bn":"44004","area_sqm":388.9},"geometry":{"type":"Polygon","coordinates":[[[90.312702,23.789532],[90.312671,23.789536],[90.312665,23.789503],[90.312509,23.789143],[90.312587,23.78912],[90.312747,23.789496],[90.312755,23.789525],[90.312702,23.789532]]]}},{"type":"Feature","properties":{"survey":"bds","sheet":"089","dag":"44003","label_bn":"44003","area_sqm":3023.5},"geometry":{"type":"Polygon","coordinates":[[[90.311838,23.789643],[90.311657,23.78967],[90.311603,23.789592],[90.311476,23.789615],[90.31143,23.789604],[90.311486,23.789587],[90.311672,23.789523],[90.311875,23.789424],[90.312026,23.789402],[90.312125,23.789399],[90.312219,23.789307],[90.312318,23.789229],[90.312377,23.789191],[90.3124,23.789176],[90.312509,23.789143],[90.312665,23.789503],[90.312671,23.789536],[90.311838,23.789643]]]}},{"type":"Feature","properties":{"survey":"bds","sheet":"089","dag":"44002","label_bn":"44002","area_sqm":19359.5},"geometry":{"type":"Polygon","coordinates":[[[90.3127,23.790032],[90.311855,23.790195],[90.311804,23.790054],[90.311703,23.789735],[90.311657,23.78967],[90.311838,23.789643],[90.312671,23.789536],[90.312702,23.789532],[90.312755,23.789525],[90.312944,23.789501],[90.313736,23.789371],[90.3143,23.789278],[90.314704,23.789238],[90.315046,23.789203],[90.31505,23.789207],[90.315052,23.78921],[90.315077,23.789301],[90.315092,23.789381],[90.315125,23.789524],[90.315162,23.789662],[90.315166,23.789727],[90.315153,23.789731],[90.314941,23.789757],[90.314867,23.789756],[90.31463,23.789783],[90.314479,23.789789],[90.314205,23.789821],[90.313894,23.789849],[90.313603,23.78989],[90.312868,23.789947],[90.312744,23.789993],[90.3127,23.790032]]]}},{"type":"Feature","properties":{"survey":"bds","sheet":"089","dag":"44001","label_bn":"44001","area_sqm":6833.3},"geometry":{"type":"Polygon","coordinates":[[[90.312356,23.790304],[90.31213,23.790426],[90.311855,23.790195],[90.3127,23.790032],[90.312744,23.789993],[90.312868,23.789947],[90.313603,23.78989],[90.313894,23.789849],[90.314205,23.789821],[90.314479,23.789789],[90.31463,23.789783],[90.314678,23.789979],[90.314485,23.789997],[90.314214,23.790031],[90.314126,23.790035],[90.313811,23.790073],[90.313497,23.790111],[90.312926,23.790207],[90.312356,23.790304]]]}}]}