{"type":"FeatureCollection","features":[{"type":"Feature","properties":{"survey":"bds","sheet":"090","dag":"45514","label_bn":"45514","area_sqm":19.3},"geometry":{"type":"Polygon","coordinates":[[[90.316863,23.785577],[90.316879,23.785695],[90.316864,23.785695],[90.316849,23.785581],[90.316863,23.785577]]]}},{"type":"Feature","properties":{"survey":"bds","sheet":"090","dag":"45513","label_bn":"45513","area_sqm":207.6},"geometry":{"type":"Polygon","coordinates":[[[90.316731,23.785693],[90.316531,23.785717],[90.316532,23.785716],[90.316808,23.785593],[90.316849,23.785581],[90.316864,23.785695],[90.316731,23.785693]]]}},{"type":"Feature","properties":{"survey":"bds","sheet":"090","dag":"45512","label_bn":"45512","area_sqm":29709.2},"geometry":{"type":"Polygon","coordinates":[[[90.317129,23.788567],[90.315817,23.788722],[90.315782,23.788638],[90.31584,23.788273],[90.315957,23.787536],[90.316046,23.787111],[90.316099,23.786801],[90.316169,23.78639],[90.31623,23.786094],[90.316311,23.785957],[90.316459,23.785757],[90.316531,23.785717],[90.316731,23.785693],[90.317129,23.788567]]]}},{"type":"Feature","properties":{"survey":"bds","sheet":"090","dag":"45511","label_bn":"45511","area_sqm":4939.0},"geometry":{"type":"Polygon","coordinates":[[[90.31708,23.788607],[90.315837,23.788772],[90.315817,23.788722],[90.317129,23.788567],[90.316731,23.785693],[90.316864,23.785695],[90.31726,23.788584],[90.31708,23.788607]]]}},{"type":"Feature","properties":{"survey":"bds","sheet":"090","dag":"45510","label_bn":"45510","area_sqm":1074.4},"geometry":{"type":"Polygon","coordinates":[[[90.317262,23.788769],[90.317261,23.788777],[90.317051,23.788729],[90.317053,23.78872],[90.31708,23.788607],[90.31726,23.788584],[90.316864,23.785695],[90.316879,23.785695],[90.316879,23.785696],[90.317258,23.788376],[90.317299,23.788691],[90.317262,23.788696],[90.317262,23.788769]]]}},{"type":"Feature","properties":{"survey":"bds","sheet":"090","dag":"45506","label_bn":"45506","area_sqm":455.6},"geometry":{"type":"Polygon","coordinates":[[[90.315493,23.788818],[90.315235,23.788852],[90.315178,23.78845],[90.3152,23.788487],[90.315293,23.78864],[90.315345,23.788725],[90.315416,23.788769],[90.315448,23.788789],[90.315493,23.788818]]]}},{"type":"Feature","properties":{"survey":"bds","sheet":"090","dag":"45505","label_bn":"45505","area_sqm":843.7},"geometry":{"type":"Polygon","coordinates":[[[90.315272,23.788922],[90.315161,23.788946],[90.315161,23.788946],[90.315042,23.788021],[90.315064,23.788147],[90.315088,23.788282],[90.315106,23.788332],[90.315178,23.78845],[90.315235,23.788852],[90.315493,23.788818],[90.315568,23.788864],[90.315653,23.788881],[90.315272,23.788922]]]}},{"type":"Feature","properties":{"survey":"bds","sheet":"090","dag":"45504","label_bn":"45504","area_sqm":573.5},"geometry":{"type":"Polygon","coordinates":[[[90.315092,23.789183],[90.315036,23.789191],[90.315019,23.789172],[90.314994,23.789119],[90.31507,23.789081],[90.31516,23.788946],[90.315235,23.788997],[90.315358,23.789095],[90.315435,23.789136],[90.315105,23.789181],[90.315092,23.789183]]]}},{"type":"Feature","properties":{"survey":"bds","sheet":"090","dag":"45509","label_bn":"45509","area_sqm":14663.3},"geometry":{"type":"Polygon","coordinates":[[[90.317554,23.789609],[90.317353,23.789617],[90.31718,23.789616],[90.316943,23.789604],[90.316748,23.789602],[90.316197,23.789614],[90.316164,23.789111],[90.316145,23.788825],[90.317053,23.78872],[90.317051,23.788729],[90.317261,23.788777],[90.317222,23.7891],[90.317222,23.7891],[90.317973,23.789153],[90.318062,23.789163],[90.318061,23.789611],[90.31803,23.789613],[90.317882,23.789606],[90.317554,23.789609]]]}},{"type":"Feature","properties":{"survey":"bds","sheet":"090","dag":"45508","label_bn":"45508","area_sqm":2141.7},"geometry":{"type":"Polygon","coordinates":[[[90.316187,23.789614],[90.316119,23.789622],[90.316081,23.789224],[90.316075,23.789112],[90.316058,23.788838],[90.316058,23.788838],[90.315873,23.788858],[90.315837,23.788772],[90.31708,23.788607],[90.317053,23.78872],[90.316145,23.788825],[90.316164,23.789111],[90.316197,23.789614],[90.316187,23.789614]]]}},{"type":"Feature","properties":{"survey":"bds","sheet":"090","dag":"45507","label_bn":"45507","area_sqm":7751.2},"geometry":{"type":"Polygon","coordinates":[[[90.315668,23.789661],[90.315201,23.789675],[90.315096,23.789198],[90.315092,23.789183],[90.315105,23.789181],[90.315435,23.789136],[90.315358,23.789095],[90.315235,23.788997],[90.31516,23.788946],[90.315161,23.788946],[90.315272,23.788922],[90.315653,23.788881],[90.315718,23.788895],[90.315819,23.788912],[90.315895,23.788912],[90.315873,23.788858],[90.316058,23.788838],[90.316058,23.788838],[90.316075,23.789112],[90.316081,23.789224],[90.316119,23.789622],[90.316024,23.789633],[90.316011,23.789634],[90.315732,23.789654],[90.315668,23.789661]]]}},{"type":"Feature","properties":{"survey":"bds","sheet":"090","dag":"45503","label_bn":"45503","area_sqm":259.6},"geometry":{"type":"Polygon","coordinates":[[[90.315201,23.789675],[90.315216,23.789731],[90.315166,23.789727],[90.315162,23.789662],[90.315125,23.789524],[90.315092,23.789381],[90.315077,23.789301],[90.315052,23.78921],[90.315046,23.789203],[90.315036,23.789191],[90.315092,23.789183],[90.315096,23.789198],[90.315201,23.789675]]]}},{"type":"Feature","properties":{"survey":"bds","sheet":"090","dag":"45502","label_bn":"45502","area_sqm":2185.3},"geometry":{"type":"Polygon","coordinates":[[[90.315612,23.78971],[90.315216,23.789731],[90.315201,23.789675],[90.315668,23.789661],[90.315732,23.789654],[90.316011,23.789634],[90.316024,23.789633],[90.316119,23.789622],[90.316187,23.789614],[90.316197,23.789614],[90.316748,23.789602],[90.316943,23.789604],[90.31718,23.789616],[90.317353,23.789617],[90.317554,23.789609],[90.317882,23.789606],[90.31803,23.789613],[90.318061,23.789611],[90.318061,23.789678],[90.316213,23.789687],[90.315911,23.789702],[90.315612,23.78971]]]}},{"type":"Feature","properties":{"survey":"bds","sheet":"090","dag":"45501","label_bn":"45501","area_sqm":6263.5},"geometry":{"type":"Polygon","coordinates":[[[90.316055,23.789926],[90.315896,23.789928],[90.315593,23.78992],[90.315612,23.78971],[90.315911,23.789702],[90.316213,23.789687],[90.318061,23.789678],[90.318026,23.789884],[90.316964,23.789923],[90.316781,23.789915],[90.31672,23.789913],[90.316055,23.789926]]]}}]}