{"type":"FeatureCollection","features":[{"type":"Feature","properties":{"survey":"bds","sheet":"091","dag":"46035","label_bn":"46035","area_sqm":178.2},"geometry":{"type":"Polygon","coordinates":[[[90.319757,23.785317],[90.319645,23.785471],[90.319625,23.785396],[90.3196,23.785268],[90.319669,23.785284],[90.319757,23.785317]]]}},{"type":"Feature","properties":{"survey":"bds","sheet":"091","dag":"46034","label_bn":"46034","area_sqm":102.6},"geometry":{"type":"Polygon","coordinates":[[[90.319645,23.785471],[90.319616,23.78551],[90.31958,23.785376],[90.319558,23.785259],[90.3196,23.785268],[90.319625,23.785396],[90.319645,23.785471]]]}},{"type":"Feature","properties":{"survey":"bds","sheet":"091","dag":"46036","label_bn":"46036","area_sqm":146.1},"geometry":{"type":"Polygon","coordinates":[[[90.319814,23.785339],[90.319665,23.785543],[90.319645,23.785471],[90.319757,23.785317],[90.319814,23.785339]]]}},{"type":"Feature","properties":{"survey":"bds","sheet":"091","dag":"46033","label_bn":"46033","area_sqm":32.4},"geometry":{"type":"Polygon","coordinates":[[[90.319665,23.785543],[90.319636,23.785582],[90.319625,23.785543],[90.319616,23.78551],[90.319645,23.785471],[90.319665,23.785543]]]}},{"type":"Feature","properties":{"survey":"bds","sheet":"091","dag":"46026","label_bn":"46026","area_sqm":897.4},"geometry":{"type":"Polygon","coordinates":[[[90.319616,23.78551],[90.319499,23.785671],[90.319491,23.785649],[90.319428,23.785486],[90.319394,23.7854],[90.319339,23.785335],[90.319269,23.785262],[90.319214,23.7852],[90.319235,23.785201],[90.319356,23.785213],[90.319512,23.785249],[90.319532,23.785253],[90.319558,23.785259],[90.31958,23.785376],[90.319616,23.78551]]]}},{"type":"Feature","properties":{"survey":"bds","sheet":"091","dag":"46029","label_bn":"46029","area_sqm":10593.2},"geometry":{"type":"Polygon","coordinates":[[[90.319515,23.787309],[90.31948,23.78732],[90.319414,23.78729],[90.319391,23.78728],[90.319268,23.787236],[90.319159,23.787207],[90.319042,23.787165],[90.318886,23.787125],[90.318801,23.787096],[90.318767,23.787076],[90.318726,23.787047],[90.318688,23.787003],[90.318641,23.786944],[90.319521,23.785739],[90.319535,23.78578],[90.319581,23.78599],[90.319597,23.786136],[90.319627,23.7864],[90.31965,23.786581],[90.319659,23.786677],[90.319718,23.786888],[90.319773,23.787063],[90.319789,23.787102],[90.319807,23.787148],[90.319758,23.787189],[90.319675,23.787238],[90.319603,23.78728],[90.319559,23.787299],[90.319515,23.787309]]]}},{"type":"Feature","properties":{"survey":"bds","sheet":"091","dag":"46028","label_bn":"46028","area_sqm":3547.4},"geometry":{"type":"Polygon","coordinates":[[[90.318815,23.787565],[90.318747,23.787566],[90.318614,23.78755],[90.318483,23.78755],[90.318483,23.787546],[90.318476,23.787528],[90.31854,23.787081],[90.318641,23.786944],[90.318688,23.787003],[90.318726,23.787047],[90.318767,23.787076],[90.318801,23.787096],[90.318886,23.787125],[90.319042,23.787165],[90.319159,23.787207],[90.319268,23.787236],[90.319391,23.78728],[90.319414,23.78729],[90.319383,23.787313],[90.319279,23.787366],[90.319125,23.787433],[90.31909,23.787479],[90.319052,23.787483],[90.319018,23.787496],[90.318965,23.787526],[90.318939,23.787536],[90.318914,23.787546],[90.318866,23.787556],[90.318815,23.787565]]]}},{"type":"Feature","properties":{"survey":"bds","sheet":"091","dag":"46031","label_bn":"46031","area_sqm":931.4},"geometry":{"type":"Polygon","coordinates":[[[90.319938,23.787653],[90.319938,23.787688],[90.319897,23.787682],[90.319897,23.787651],[90.319897,23.787649],[90.319902,23.787577],[90.319919,23.787513],[90.319963,23.787361],[90.319985,23.787241],[90.319992,23.787132],[90.319995,23.787027],[90.319988,23.786933],[90.319973,23.786843],[90.319935,23.786669],[90.319858,23.786382],[90.319856,23.786381],[90.31982,23.786245],[90.31978,23.786107],[90.319758,23.785988],[90.319741,23.7859],[90.319712,23.785817],[90.319668,23.78569],[90.319636,23.785582],[90.319665,23.785543],[90.319679,23.785593],[90.319749,23.785809],[90.319777,23.785903],[90.319814,23.786083],[90.319852,23.786228],[90.319896,23.786373],[90.319962,23.786622],[90.319963,23.786622],[90.319999,23.786775],[90.320024,23.786913],[90.320034,23.787077],[90.320019,23.78726],[90.319998,23.787369],[90.319977,23.787445],[90.319957,23.787512],[90.319943,23.787563],[90.319937,23.787618],[90.319938,23.787653]]]}},{"type":"Feature","properties":{"survey":"bds","sheet":"091","dag":"46032","label_bn":"46032","area_sqm":4507.5},"geometry":{"type":"Polygon","coordinates":[[[90.320166,23.787658],[90.320108,23.787721],[90.31997,23.787692],[90.319938,23.787688],[90.319938,23.787653],[90.319937,23.787618],[90.319943,23.787563],[90.319957,23.787512],[90.319977,23.787445],[90.319998,23.787369],[90.320019,23.78726],[90.320034,23.787077],[90.320024,23.786913],[90.319999,23.786775],[90.319963,23.786622],[90.319962,23.786622],[90.319896,23.786373],[90.319852,23.786228],[90.319814,23.786083],[90.319777,23.785903],[90.319749,23.785809],[90.319679,23.785593],[90.319665,23.785543],[90.319814,23.785339],[90.319816,23.785339],[90.319807,23.785368],[90.31984,23.78543],[90.319923,23.785753],[90.319943,23.78588],[90.31995,23.785982],[90.319943,23.7861],[90.319924,23.786175],[90.319931,23.786265],[90.31996,23.786429],[90.320121,23.786777],[90.320201,23.786952],[90.32025,23.787084],[90.32034,23.787391],[90.320166,23.787658]]]}},{"type":"Feature","properties":{"survey":"bds","sheet":"091","dag":"46030","label_bn":"46030","area_sqm":7684.9},"geometry":{"type":"Polygon","coordinates":[[[90.319902,23.787921],[90.319891,23.787923],[90.31986,23.78792],[90.319742,23.787897],[90.319645,23.787874],[90.319513,23.787831],[90.319424,23.787792],[90.319376,23.787756],[90.319315,23.787693],[90.319233,23.787606],[90.319149,23.78752],[90.319109,23.787487],[90.31909,23.787479],[90.319125,23.787433],[90.319279,23.787366],[90.319383,23.787313],[90.319414,23.78729],[90.31948,23.78732],[90.319515,23.787309],[90.319559,23.787299],[90.319603,23.78728],[90.319675,23.787238],[90.319758,23.787189],[90.319807,23.787148],[90.319789,23.787102],[90.319773,23.787063],[90.319718,23.786888],[90.319659,23.786677],[90.31965,23.786581],[90.319627,23.7864],[90.319597,23.786136],[90.319581,23.78599],[90.319535,23.78578],[90.319521,23.785739],[90.319636,23.785582],[90.319668,23.78569],[90.319712,23.785817],[90.319741,23.7859],[90.319758,23.785988],[90.31978,23.786107],[90.31982,23.786245],[90.319856,23.786381],[90.319858,23.786382],[90.319935,23.786669],[90.319973,23.786843],[90.319988,23.786933],[90.319995,23.787027],[90.319992,23.787132],[90.319985,23.787241],[90.319963,23.787361],[90.319919,23.787513],[90.319902,23.787577],[90.319897,23.787649],[90.319897,23.787651],[90.319897,23.787682],[90.319779,23.787658],[90.3196,23.78763],[90.319498,23.787617],[90.319445,23.787612],[90.319407,23.787613],[90.319388,23.787621],[90.319383,23.787635],[90.319389,23.78765],[90.31948,23.787705],[90.319613,23.787757],[90.319737,23.787797],[90.319832,23.787822],[90.319899,23.787835],[90.3199,23.787856],[90.319902,23.787921]]]}},{"type":"Feature","properties":{"survey":"bds","sheet":"091","dag":"46025","label_bn":"46025","area_sqm":42708.3},"geometry":{"type":"Polygon","coordinates":[[[90.317751,23.788015],[90.317708,23.788064],[90.317234,23.787963],[90.317212,23.788054],[90.316879,23.785701],[90.316879,23.785696],[90.316879,23.785695],[90.316863,23.785577],[90.316958,23.78555],[90.317109,23.785507],[90.317315,23.785449],[90.317522,23.78539],[90.317793,23.785339],[90.317903,23.785304],[90.317999,23.785254],[90.318328,23.785237],[90.318491,23.785229],[90.318656,23.785216],[90.31882,23.785202],[90.319061,23.785194],[90.319214,23.7852],[90.319269,23.785262],[90.319339,23.785335],[90.319394,23.7854],[90.319428,23.785486],[90.319491,23.785649],[90.319499,23.785671],[90.318598,23.786904],[90.318544,23.786855],[90.318481,23.786802],[90.31845,23.786784],[90.318421,23.786769],[90.318297,23.786726],[90.318156,23.786678],[90.318089,23.786652],[90.318076,23.78657],[90.317839,23.786543],[90.317674,23.786522],[90.31757,23.786611],[90.317468,23.786689],[90.31747,23.786745],[90.317468,23.786819],[90.317467,23.786858],[90.317471,23.786918],[90.317488,23.787017],[90.317506,23.787069],[90.317558,23.787228],[90.317608,23.787358],[90.317627,23.787392],[90.31767,23.787494],[90.317708,23.787615],[90.317734,23.787743],[90.317765,23.787842],[90.31778,23.787945],[90.317778,23.787995],[90.317751,23.788015]]]}},{"type":"Feature","properties":{"survey":"bds","sheet":"091","dag":"46024","label_bn":"46024","area_sqm":9837.6},"geometry":{"type":"Polygon","coordinates":[[[90.318051,23.788135],[90.31805,23.788136],[90.317708,23.788064],[90.317751,23.788015],[90.317778,23.787995],[90.31778,23.787945],[90.317765,23.787842],[90.317734,23.787743],[90.317708,23.787615],[90.31767,23.787494],[90.317627,23.787392],[90.317608,23.787358],[90.317558,23.787228],[90.317506,23.787069],[90.317488,23.787017],[90.317471,23.786918],[90.317467,23.786858],[90.317468,23.786819],[90.31747,23.786745],[90.317468,23.786689],[90.31757,23.786611],[90.317674,23.786522],[90.317839,23.786543],[90.318076,23.78657],[90.318089,23.786652],[90.318156,23.786678],[90.318297,23.786726],[90.318421,23.786769],[90.31845,23.786784],[90.318481,23.786802],[90.318544,23.786855],[90.318598,23.786904],[90.318483,23.787061],[90.318427,23.787445],[90.318398,23.78741],[90.318312,23.787279],[90.31828,23.787228],[90.318252,23.787182],[90.318212,23.787125],[90.318184,23.787091],[90.318096,23.787032],[90.318027,23.786994],[90.317979,23.78697],[90.317947,23.786958],[90.317926,23.786955],[90.317911,23.786958],[90.31791,23.786985],[90.317912,23.787059],[90.317924,23.787104],[90.317964,23.787252],[90.317969,23.787271],[90.318018,23.787457],[90.318068,23.787696],[90.318083,23.787789],[90.318085,23.787872],[90.318076,23.78795],[90.318056,23.788049],[90.318051,23.788135]]]}},{"type":"Feature","properties":{"survey":"bds","sheet":"091","dag":"46021","label_bn":"46021","area_sqm":4176.8},"geometry":{"type":"Polygon","coordinates":[[[90.318427,23.787445],[90.318319,23.788194],[90.31805,23.788136],[90.318051,23.788135],[90.318056,23.788049],[90.318076,23.78795],[90.318085,23.787872],[90.318083,23.787789],[90.318068,23.787696],[90.318018,23.787457],[90.317969,23.787271],[90.317964,23.787252],[90.317924,23.787104],[90.317912,23.787059],[90.31791,23.786985],[90.317911,23.786958],[90.317926,23.786955],[90.317947,23.786958],[90.317979,23.78697],[90.318027,23.786994],[90.318096,23.787032],[90.318184,23.787091],[90.318212,23.787125],[90.318252,23.787182],[90.31828,23.787228],[90.318312,23.787279],[90.318398,23.78741],[90.318427,23.787445]]]}},{"type":"Feature","properties":{"survey":"bds","sheet":"091","dag":"46023","label_bn":"46023","area_sqm":690.1},"geometry":{"type":"Polygon","coordinates":[[[90.317313,23.788158],[90.317233,23.788198],[90.317212,23.788054],[90.317234,23.787963],[90.317708,23.788064],[90.317705,23.788068],[90.31765,23.788113],[90.317599,23.788137],[90.317552,23.788139],[90.317505,23.788133],[90.317456,23.788127],[90.317406,23.788129],[90.317374,23.788138],[90.317356,23.788142],[90.317313,23.788158]]]}},{"type":"Feature","properties":{"survey":"bds","sheet":"091","dag":"46027","label_bn":"46027","area_sqm":2018.6},"geometry":{"type":"Polygon","coordinates":[[[90.318476,23.787528],[90.318378,23.788206],[90.318319,23.788194],[90.318427,23.787445],[90.318483,23.787061],[90.318598,23.786904],[90.319499,23.785671],[90.319616,23.78551],[90.319625,23.785543],[90.319636,23.785582],[90.319521,23.785739],[90.318641,23.786944],[90.31854,23.787081],[90.318476,23.787528]]]}},{"type":"Feature","properties":{"survey":"bds","sheet":"091","dag":"46022","label_bn":"46022","area_sqm":2105.8},"geometry":{"type":"Polygon","coordinates":[[[90.317714,23.78839],[90.317706,23.788396],[90.317258,23.788376],[90.317233,23.788198],[90.317313,23.788158],[90.317356,23.788142],[90.317374,23.788138],[90.317406,23.788129],[90.317456,23.788127],[90.317505,23.788133],[90.317552,23.788139],[90.317599,23.788137],[90.31765,23.788113],[90.317705,23.788068],[90.317708,23.788064],[90.31805,23.788136],[90.318033,23.788201],[90.318014,23.788229],[90.317959,23.788267],[90.317929,23.788285],[90.317881,23.788305],[90.317778,23.78836],[90.317714,23.78839]]]}},{"type":"Feature","properties":{"survey":"bds","sheet":"091","dag":"46020","label_bn":"46020","area_sqm":1273.3},"geometry":{"type":"Polygon","coordinates":[[[90.318378,23.788206],[90.318353,23.788424],[90.317706,23.788396],[90.317714,23.78839],[90.317778,23.78836],[90.317881,23.788305],[90.317929,23.788285],[90.317959,23.788267],[90.318014,23.788229],[90.318033,23.788201],[90.31805,23.788136],[90.318319,23.788194],[90.318378,23.788206]]]}},{"type":"Feature","properties":{"survey":"bds","sheet":"091","dag":"46019","label_bn":"46019","area_sqm":1147.9},"geometry":{"type":"Polygon","coordinates":[[[90.318353,23.788424],[90.318342,23.788516],[90.317631,23.788486],[90.317411,23.788477],[90.31727,23.788471],[90.317258,23.788376],[90.317706,23.788396],[90.318353,23.788424]]]}},{"type":"Feature","properties":{"survey":"bds","sheet":"091","dag":"46018","label_bn":"46018","area_sqm":2184.7},"geometry":{"type":"Polygon","coordinates":[[[90.318363,23.788517],[90.318346,23.788721],[90.318319,23.78872],[90.317418,23.788682],[90.317414,23.788551],[90.317411,23.788477],[90.317631,23.788486],[90.318342,23.788516],[90.318363,23.788517]]]}},{"type":"Feature","properties":{"survey":"bds","sheet":"091","dag":"46017","label_bn":"46017","area_sqm":1388.8},"geometry":{"type":"Polygon","coordinates":[[[90.318319,23.78872],[90.318309,23.788809],[90.318137,23.788803],[90.318062,23.7888],[90.317262,23.788769],[90.317262,23.788696],[90.317299,23.788691],[90.317286,23.788592],[90.31727,23.788471],[90.317411,23.788477],[90.317414,23.788551],[90.317418,23.788682],[90.318319,23.78872]]]}},{"type":"Feature","properties":{"survey":"bds","sheet":"091","dag":"46016","label_bn":"46016","area_sqm":511.4},"geometry":{"type":"Polygon","coordinates":[[[90.318479,23.788429],[90.318442,23.788814],[90.318309,23.788809],[90.318319,23.78872],[90.318346,23.788721],[90.318363,23.788517],[90.318342,23.788516],[90.318353,23.788424],[90.318479,23.788429]]]}},{"type":"Feature","properties":{"survey":"bds","sheet":"091","dag":"46002","label_bn":"46002","area_sqm":763.6},"geometry":{"type":"Polygon","coordinates":[[[90.318062,23.7888],[90.318062,23.78896],[90.317261,23.788777],[90.317262,23.788769],[90.318062,23.7888]]]}},{"type":"Feature","properties":{"survey":"bds","sheet":"091","dag":"46001","label_bn":"46001","area_sqm":2478.5},"geometry":{"type":"Polygon","coordinates":[[[90.318062,23.78896],[90.318062,23.789163],[90.317222,23.7891],[90.317222,23.7891],[90.317259,23.788794],[90.317261,23.788777],[90.318062,23.78896]]]}},{"type":"Feature","properties":{"survey":"bds","sheet":"091","dag":"46004","label_bn":"46004","area_sqm":613.9},"geometry":{"type":"Polygon","coordinates":[[[90.318286,23.789011],[90.31827,23.789166],[90.318211,23.789163],[90.318138,23.789159],[90.318137,23.788803],[90.318309,23.788809],[90.318286,23.789011]]]}},{"type":"Feature","properties":{"survey":"bds","sheet":"091","dag":"46015","label_bn":"46015","area_sqm":565.6},"geometry":{"type":"Polygon","coordinates":[[[90.318442,23.788814],[90.318413,23.789174],[90.318348,23.789171],[90.318329,23.78917],[90.31827,23.789166],[90.318286,23.789011],[90.318309,23.788809],[90.318442,23.788814]]]}},{"type":"Feature","properties":{"survey":"bds","sheet":"091","dag":"46014","label_bn":"46014","area_sqm":19288.0},"geometry":{"type":"Polygon","coordinates":[[[90.319303,23.78888],[90.319199,23.789268],[90.318329,23.789193],[90.318329,23.78917],[90.318348,23.789171],[90.318413,23.789174],[90.318442,23.788814],[90.318479,23.788429],[90.318353,23.788424],[90.318378,23.788206],[90.318476,23.787528],[90.318483,23.787546],[90.318483,23.78755],[90.318614,23.78755],[90.318747,23.787566],[90.318815,23.787565],[90.318866,23.787556],[90.318914,23.787546],[90.318939,23.787536],[90.318965,23.787526],[90.319018,23.787496],[90.319052,23.787483],[90.31909,23.787479],[90.319109,23.787487],[90.319149,23.78752],[90.319233,23.787606],[90.319315,23.787693],[90.319376,23.787756],[90.319424,23.787792],[90.319513,23.787831],[90.319645,23.787874],[90.319742,23.787897],[90.31986,23.78792],[90.319891,23.787923],[90.319902,23.787921],[90.319904,23.787958],[90.319881,23.78796],[90.319804,23.788121],[90.319488,23.7882],[90.319396,23.78845],[90.319303,23.78888]]]}},{"type":"Feature","properties":{"survey":"bds","sheet":"091","dag":"46003","label_bn":"46003","area_sqm":651.8},"geometry":{"type":"Polygon","coordinates":[[[90.318116,23.789609],[90.318061,23.789611],[90.318062,23.789163],[90.318062,23.78896],[90.318062,23.7888],[90.318137,23.788803],[90.318138,23.789159],[90.31812,23.789595],[90.31812,23.789609],[90.318116,23.789609]]]}},{"type":"Feature","properties":{"survey":"bds","sheet":"091","dag":"46005","label_bn":"46005","area_sqm":303.9},"geometry":{"type":"Polygon","coordinates":[[[90.318211,23.789163],[90.318166,23.789612],[90.31812,23.789609],[90.31812,23.789595],[90.318138,23.789159],[90.318211,23.789163]]]}},{"type":"Feature","properties":{"survey":"bds","sheet":"091","dag":"46007","label_bn":"46007","area_sqm":79.1},"geometry":{"type":"Polygon","coordinates":[[[90.318166,23.789612],[90.318159,23.789681],[90.318121,23.789679],[90.318061,23.789678],[90.318061,23.789611],[90.318116,23.789609],[90.31812,23.789609],[90.318166,23.789612]]]}},{"type":"Feature","properties":{"survey":"bds","sheet":"091","dag":"46006","label_bn":"46006","area_sqm":352.1},"geometry":{"type":"Polygon","coordinates":[[[90.318226,23.789617],[90.318219,23.789683],[90.318159,23.789681],[90.318166,23.789612],[90.318211,23.789163],[90.31827,23.789166],[90.318226,23.789617]]]}},{"type":"Feature","properties":{"survey":"bds","sheet":"091","dag":"46012","label_bn":"46012","area_sqm":12413.7},"geometry":{"type":"Polygon","coordinates":[[[90.319573,23.789619],[90.319559,23.789696],[90.319476,23.789691],[90.319328,23.78969],[90.319138,23.78968],[90.318859,23.789674],[90.318629,23.789661],[90.318277,23.78962],[90.318226,23.789617],[90.31827,23.789166],[90.318329,23.78917],[90.318329,23.789193],[90.319199,23.789268],[90.319303,23.78888],[90.319396,23.78845],[90.319488,23.7882],[90.319804,23.788121],[90.319881,23.78796],[90.319904,23.787958],[90.319911,23.78812],[90.319908,23.788161],[90.319901,23.788237],[90.31989,23.788305],[90.319872,23.788407],[90.319849,23.788486],[90.319811,23.788586],[90.31978,23.788688],[90.319748,23.788804],[90.319733,23.788855],[90.319733,23.788855],[90.319727,23.788928],[90.319719,23.788984],[90.319678,23.789203],[90.31965,23.789332],[90.319617,23.78948],[90.319573,23.789619]]]}},{"type":"Feature","properties":{"survey":"bds","sheet":"091","dag":"46013","label_bn":"46013","area_sqm":946.3},"geometry":{"type":"Polygon","coordinates":[[[90.319621,23.789672],[90.319626,23.7897],[90.319559,23.789696],[90.319573,23.789619],[90.319617,23.78948],[90.31965,23.789332],[90.319678,23.789203],[90.319719,23.788984],[90.319727,23.788928],[90.319733,23.788855],[90.319733,23.788855],[90.319748,23.788804],[90.31978,23.788688],[90.319811,23.788586],[90.319849,23.788486],[90.319872,23.788407],[90.31989,23.788305],[90.319901,23.788237],[90.319908,23.788161],[90.319911,23.78812],[90.319904,23.787958],[90.319902,23.787921],[90.3199,23.787856],[90.319899,23.787835],[90.319953,23.787846],[90.319959,23.787904],[90.319957,23.787954],[90.319951,23.788114],[90.319949,23.788151],[90.31994,23.788254],[90.319933,23.788309],[90.319925,23.788358],[90.319909,23.788426],[90.319875,23.78854],[90.319853,23.788605],[90.319826,23.788694],[90.319776,23.788854],[90.319758,23.788973],[90.319739,23.789093],[90.319719,23.789183],[90.319641,23.789587],[90.319621,23.789672]]]}},{"type":"Feature","properties":{"survey":"bds","sheet":"091","dag":"46011","label_bn":"46011","area_sqm":732.9},"geometry":{"type":"Polygon","coordinates":[[[90.319539,23.789739],[90.31949,23.789752],[90.319395,23.789747],[90.318812,23.789708],[90.318219,23.789683],[90.318226,23.789617],[90.318277,23.78962],[90.318629,23.789661],[90.318859,23.789674],[90.319138,23.78968],[90.319328,23.78969],[90.319476,23.789691],[90.319559,23.789696],[90.319558,23.789699],[90.319539,23.789739]]]}},{"type":"Feature","properties":{"survey":"bds","sheet":"091","dag":"46008","label_bn":"46008","area_sqm":249.5},"geometry":{"type":"Polygon","coordinates":[[[90.318159,23.789681],[90.318138,23.78989],[90.318026,23.789884],[90.318061,23.789678],[90.318121,23.789679],[90.318159,23.789681]]]}},{"type":"Feature","properties":{"survey":"bds","sheet":"091","dag":"46009","label_bn":"46009","area_sqm":142.6},"geometry":{"type":"Polygon","coordinates":[[[90.318219,23.789683],[90.318198,23.789893],[90.318138,23.78989],[90.318159,23.789681],[90.318219,23.789683]]]}},{"type":"Feature","properties":{"survey":"bds","sheet":"091","dag":"46010","label_bn":"46010","area_sqm":3550.6},"geometry":{"type":"Polygon","coordinates":[[[90.319683,23.789767],[90.319647,23.789988],[90.319323,23.789945],[90.31918,23.789936],[90.318828,23.789917],[90.318754,23.78992],[90.318198,23.789893],[90.318219,23.789683],[90.318812,23.789708],[90.319395,23.789747],[90.31949,23.789752],[90.319539,23.789739],[90.319558,23.789699],[90.319559,23.789696],[90.319626,23.7897],[90.319629,23.789719],[90.319683,23.789767]]]}}]}