{"type":"FeatureCollection","features":[{"type":"Feature","properties":{"survey":"bds","sheet":"093","dag":"47017","label_bn":"47017","area_sqm":396.0},"geometry":{"type":"Polygon","coordinates":[[[90.318198,23.789893],[90.318141,23.790474],[90.318081,23.790471],[90.318138,23.78989],[90.318198,23.789893]]]}},{"type":"Feature","properties":{"survey":"bds","sheet":"093","dag":"47009","label_bn":"47009","area_sqm":13412.8},"geometry":{"type":"Polygon","coordinates":[[[90.315963,23.790478],[90.315925,23.790481],[90.315925,23.790478],[90.315902,23.789928],[90.316055,23.789926],[90.31672,23.789913],[90.316781,23.789915],[90.316964,23.789923],[90.317634,23.789898],[90.318026,23.789884],[90.318138,23.78989],[90.318081,23.790471],[90.318029,23.790469],[90.318007,23.790467],[90.317786,23.790449],[90.317628,23.790438],[90.317598,23.790439],[90.317594,23.790439],[90.317542,23.790441],[90.317465,23.790445],[90.317397,23.790443],[90.317134,23.790439],[90.316951,23.790437],[90.316946,23.790437],[90.316893,23.790436],[90.31679,23.790438],[90.316675,23.790439],[90.31667,23.79044],[90.316291,23.790455],[90.316096,23.790468],[90.316094,23.790468],[90.316022,23.790473],[90.315963,23.790478]]]}},{"type":"Feature","properties":{"survey":"bds","sheet":"093","dag":"47008","label_bn":"47008","area_sqm":438.7},"geometry":{"type":"Polygon","coordinates":[[[90.316669,23.790445],[90.316662,23.790566],[90.316099,23.790474],[90.316094,23.790468],[90.316096,23.790468],[90.316291,23.790455],[90.31667,23.79044],[90.316669,23.790445]]]}},{"type":"Feature","properties":{"survey":"bds","sheet":"093","dag":"47027","label_bn":"47027","area_sqm":14202.7},"geometry":{"type":"Polygon","coordinates":[[[90.320094,23.790692],[90.320093,23.790698],[90.319771,23.790662],[90.319663,23.79065],[90.319648,23.790648],[90.319527,23.790634],[90.319336,23.790611],[90.319256,23.790601],[90.319108,23.790581],[90.318928,23.790558],[90.318767,23.790538],[90.318701,23.790531],[90.318664,23.790527],[90.318647,23.790525],[90.318548,23.790514],[90.318488,23.790508],[90.318242,23.790478],[90.318141,23.790474],[90.318198,23.789893],[90.318754,23.78992],[90.318828,23.789917],[90.31918,23.789936],[90.319323,23.789945],[90.320145,23.790054],[90.320217,23.790057],[90.320169,23.790139],[90.320094,23.790692]]]}},{"type":"Feature","properties":{"survey":"bds","sheet":"093","dag":"47010","label_bn":"47010","area_sqm":3134.1},"geometry":{"type":"Polygon","coordinates":[[[90.317598,23.790439],[90.317507,23.7909],[90.316913,23.790865],[90.316946,23.790437],[90.316951,23.790437],[90.317134,23.790439],[90.317397,23.790443],[90.317465,23.790445],[90.317542,23.790441],[90.317594,23.790439],[90.317598,23.790439]]]}},{"type":"Feature","properties":{"survey":"bds","sheet":"093","dag":"47007","label_bn":"47007","area_sqm":3933.0},"geometry":{"type":"Polygon","coordinates":[[[90.316798,23.790891],[90.316797,23.790909],[90.316778,23.790907],[90.316754,23.790905],[90.31671,23.790896],[90.316235,23.790798],[90.316169,23.79079],[90.315957,23.790763],[90.315902,23.790751],[90.315913,23.790625],[90.315925,23.790499],[90.315925,23.790481],[90.315963,23.790478],[90.316022,23.790473],[90.316094,23.790468],[90.316099,23.790474],[90.316662,23.790566],[90.316669,23.790445],[90.31667,23.79044],[90.316675,23.790439],[90.31679,23.790438],[90.316893,23.790436],[90.316946,23.790437],[90.316913,23.790865],[90.316798,23.790858],[90.316798,23.790891]]]}},{"type":"Feature","properties":{"survey":"bds","sheet":"093","dag":"47005","label_bn":"47005","area_sqm":771.8},"geometry":{"type":"Polygon","coordinates":[[[90.315955,23.79102],[90.315856,23.79109],[90.315898,23.79079],[90.315902,23.790751],[90.315957,23.790763],[90.316169,23.79079],[90.316144,23.790996],[90.316078,23.791],[90.315955,23.79102]]]}},{"type":"Feature","properties":{"survey":"bds","sheet":"093","dag":"47006","label_bn":"47006","area_sqm":1443.1},"geometry":{"type":"Polygon","coordinates":[[[90.316724,23.79109],[90.316668,23.791285],[90.316668,23.791244],[90.316666,23.791216],[90.316666,23.791214],[90.316644,23.791152],[90.316547,23.791082],[90.316459,23.791037],[90.316378,23.791012],[90.316274,23.790987],[90.316197,23.790992],[90.316144,23.790996],[90.316169,23.79079],[90.316235,23.790798],[90.31671,23.790896],[90.316754,23.790905],[90.316778,23.790907],[90.316751,23.790971],[90.316724,23.79109]]]}},{"type":"Feature","properties":{"survey":"bds","sheet":"093","dag":"47026","label_bn":"47026","area_sqm":2140.0},"geometry":{"type":"Polygon","coordinates":[[[90.319958,23.791293],[90.319961,23.791414],[90.319934,23.791398],[90.319913,23.791385],[90.319845,23.791328],[90.319836,23.791288],[90.31979,23.791094],[90.319776,23.791019],[90.31977,23.791004],[90.319742,23.790938],[90.31972,23.790817],[90.319694,23.790712],[90.319736,23.790711],[90.31975,23.790686],[90.319771,23.790662],[90.320093,23.790698],[90.320055,23.790978],[90.320039,23.791087],[90.320029,23.791189],[90.32002,23.791326],[90.319958,23.791293]]]}},{"type":"Feature","properties":{"survey":"bds","sheet":"093","dag":"47021","label_bn":"47021","area_sqm":10128.1},"geometry":{"type":"Polygon","coordinates":[[[90.319484,23.791387],[90.319477,23.791507],[90.319216,23.791489],[90.319196,23.791488],[90.319117,23.791482],[90.318923,23.791469],[90.318869,23.791465],[90.318482,23.791438],[90.318491,23.79131],[90.318537,23.790677],[90.318542,23.790604],[90.318548,23.790514],[90.318647,23.790525],[90.318664,23.790527],[90.318701,23.790531],[90.318767,23.790538],[90.318928,23.790558],[90.319108,23.790581],[90.319256,23.790601],[90.319336,23.790611],[90.319527,23.790634],[90.319505,23.791026],[90.319484,23.791387]]]}},{"type":"Feature","properties":{"survey":"bds","sheet":"093","dag":"47011","label_bn":"47011","area_sqm":7592.4},"geometry":{"type":"Polygon","coordinates":[[[90.317662,23.791676],[90.317688,23.791815],[90.317538,23.791807],[90.316861,23.791774],[90.316862,23.791564],[90.316896,23.791139],[90.316913,23.790865],[90.317507,23.7909],[90.317557,23.791023],[90.317595,23.791143],[90.31761,23.791218],[90.317638,23.791378],[90.317661,23.791631],[90.317662,23.791676]]]}},{"type":"Feature","properties":{"survey":"bds","sheet":"093","dag":"47003","label_bn":"47003","area_sqm":346.7},"geometry":{"type":"Polygon","coordinates":[[[90.315739,23.791554],[90.315569,23.792081],[90.315514,23.792053],[90.315562,23.791907],[90.31566,23.791606],[90.315739,23.791554]]]}},{"type":"Feature","properties":{"survey":"bds","sheet":"093","dag":"47016","label_bn":"47016","area_sqm":7693.7},"geometry":{"type":"Polygon","coordinates":[[[90.317872,23.792563],[90.317872,23.792563],[90.317813,23.79256],[90.317804,23.79251],[90.317788,23.792337],[90.317772,23.792147],[90.317731,23.791998],[90.317703,23.791895],[90.317688,23.791815],[90.317662,23.791676],[90.317661,23.791631],[90.317638,23.791378],[90.31761,23.791218],[90.317595,23.791143],[90.317557,23.791023],[90.317507,23.7909],[90.317598,23.790439],[90.317628,23.790438],[90.317786,23.790449],[90.318007,23.790467],[90.318029,23.790469],[90.318081,23.790471],[90.318076,23.79052],[90.318075,23.79053],[90.318011,23.791179],[90.31793,23.791995],[90.317913,23.792168],[90.317913,23.792168],[90.317913,23.792168],[90.317872,23.792563]]]}},{"type":"Feature","properties":{"survey":"bds","sheet":"093","dag":"47002","label_bn":"47002","area_sqm":13676.0},"geometry":{"type":"Polygon","coordinates":[[[90.316422,23.792434],[90.316449,23.792638],[90.315379,23.792451],[90.315494,23.792127],[90.315514,23.792053],[90.315569,23.792081],[90.315739,23.791554],[90.315779,23.791527],[90.315808,23.791493],[90.315843,23.791442],[90.315887,23.791232],[90.31592,23.791117],[90.315974,23.791081],[90.316048,23.791057],[90.31619,23.791047],[90.316282,23.791047],[90.316361,23.791056],[90.316447,23.791086],[90.316522,23.791125],[90.316586,23.791186],[90.316607,23.79123],[90.316609,23.791274],[90.316596,23.791342],[90.316579,23.791428],[90.316537,23.791567],[90.31649,23.791721],[90.316431,23.791872],[90.316385,23.791962],[90.316347,23.792098],[90.316348,23.792211],[90.316422,23.792434]]]}},{"type":"Feature","properties":{"survey":"bds","sheet":"093","dag":"47001","label_bn":"47001","area_sqm":999.5},"geometry":{"type":"Polygon","coordinates":[[[90.316449,23.792638],[90.316459,23.79271],[90.315959,23.792636],[90.315598,23.792574],[90.315345,23.792529],[90.315379,23.792451],[90.316449,23.792638]]]}},{"type":"Feature","properties":{"survey":"bds","sheet":"093","dag":"47004","label_bn":"47004","area_sqm":1617.1},"geometry":{"type":"Polygon","coordinates":[[[90.31652,23.792683],[90.316517,23.792719],[90.316459,23.79271],[90.316449,23.792638],[90.316422,23.792434],[90.316348,23.792211],[90.316347,23.792098],[90.316385,23.791962],[90.316431,23.791872],[90.31649,23.791721],[90.316537,23.791567],[90.316579,23.791428],[90.316596,23.791342],[90.316609,23.791274],[90.316607,23.79123],[90.316586,23.791186],[90.316522,23.791125],[90.316447,23.791086],[90.316361,23.791056],[90.316282,23.791047],[90.31619,23.791047],[90.316048,23.791057],[90.315974,23.791081],[90.31592,23.791117],[90.315887,23.791232],[90.315843,23.791442],[90.315812,23.791402],[90.315811,23.791402],[90.315856,23.79109],[90.315955,23.79102],[90.316078,23.791],[90.316144,23.790996],[90.316197,23.790992],[90.316274,23.790987],[90.316378,23.791012],[90.316459,23.791037],[90.316547,23.791082],[90.316644,23.791152],[90.316666,23.791214],[90.316666,23.791216],[90.316668,23.791244],[90.316668,23.791285],[90.316616,23.791467],[90.31652,23.79178],[90.316422,23.792008],[90.316404,23.792077],[90.316404,23.7921],[90.316404,23.792179],[90.316405,23.792179],[90.316409,23.792213],[90.316446,23.792355],[90.316465,23.792409],[90.316479,23.792475],[90.316507,23.792614],[90.316519,23.79265],[90.31652,23.792683]]]}},{"type":"Feature","properties":{"survey":"bds","sheet":"093","dag":"47012","label_bn":"47012","area_sqm":15674.9},"geometry":{"type":"Polygon","coordinates":[[[90.317189,23.792685],[90.316822,23.792785],[90.316627,23.792744],[90.316517,23.792719],[90.31652,23.792683],[90.316519,23.79265],[90.316507,23.792614],[90.316479,23.792475],[90.316465,23.792409],[90.316446,23.792355],[90.316409,23.792213],[90.316405,23.792179],[90.316404,23.792179],[90.316404,23.7921],[90.316404,23.792077],[90.316422,23.792008],[90.31652,23.79178],[90.316616,23.791467],[90.316668,23.791285],[90.316724,23.79109],[90.316751,23.790971],[90.316778,23.790907],[90.316797,23.790909],[90.316798,23.790891],[90.316798,23.790858],[90.316913,23.790865],[90.316896,23.791139],[90.316862,23.791564],[90.316861,23.791774],[90.317538,23.791807],[90.317688,23.791815],[90.317703,23.791895],[90.317731,23.791998],[90.317772,23.792147],[90.317788,23.792337],[90.317804,23.79251],[90.317813,23.79256],[90.317189,23.792685]]]}},{"type":"Feature","properties":{"survey":"bds","sheet":"093","dag":"47020","label_bn":"47020","area_sqm":19608.6},"geometry":{"type":"Polygon","coordinates":[[[90.319041,23.792744],[90.319033,23.792871],[90.319,23.79285],[90.318827,23.792755],[90.318741,23.792719],[90.318581,23.792655],[90.31842,23.792604],[90.318333,23.792589],[90.318038,23.792571],[90.317932,23.792566],[90.317932,23.792566],[90.317972,23.792173],[90.317989,23.792001],[90.318069,23.791193],[90.318136,23.790526],[90.318136,23.790522],[90.318141,23.790474],[90.318242,23.790478],[90.318488,23.790508],[90.318548,23.790514],[90.318542,23.790604],[90.318537,23.790677],[90.318491,23.79131],[90.318482,23.791438],[90.318869,23.791465],[90.318923,23.791469],[90.319117,23.791482],[90.319077,23.792135],[90.319041,23.792744]]]}},{"type":"Feature","properties":{"survey":"bds","sheet":"093","dag":"47014","label_bn":"47014","area_sqm":854.5},"geometry":{"type":"Polygon","coordinates":[[[90.317205,23.792918],[90.316812,23.792948],[90.316822,23.792785],[90.317189,23.792685],[90.317205,23.792918]]]}},{"type":"Feature","properties":{"survey":"bds","sheet":"093","dag":"47013","label_bn":"47013","area_sqm":523.9},"geometry":{"type":"Polygon","coordinates":[[[90.316812,23.792948],[90.316537,23.79297],[90.316627,23.792744],[90.316822,23.792785],[90.316812,23.792948]]]}},{"type":"Feature","properties":{"survey":"bds","sheet":"093","dag":"47024","label_bn":"47024","area_sqm":13441.5},"geometry":{"type":"Polygon","coordinates":[[[90.319261,23.792939],[90.319238,23.792999],[90.319129,23.792931],[90.319129,23.792921],[90.31914,23.792749],[90.319176,23.79214],[90.319216,23.791489],[90.319477,23.791507],[90.319484,23.791387],[90.319505,23.791026],[90.319527,23.790634],[90.319648,23.790648],[90.319663,23.79065],[90.319771,23.790662],[90.31975,23.790686],[90.319736,23.790711],[90.319694,23.790712],[90.31972,23.790817],[90.319742,23.790938],[90.31977,23.791004],[90.319776,23.791019],[90.31979,23.791094],[90.319836,23.791288],[90.319845,23.791328],[90.319913,23.791385],[90.319934,23.791398],[90.319935,23.791462],[90.319935,23.791528],[90.319936,23.791695],[90.319931,23.791762],[90.319921,23.791825],[90.320012,23.791833],[90.320008,23.791933],[90.32,23.791995],[90.319987,23.79209],[90.319973,23.792185],[90.319949,23.792312],[90.31992,23.792442],[90.319884,23.792533],[90.319855,23.792608],[90.319661,23.792603],[90.319367,23.792703],[90.319357,23.79275],[90.319344,23.792754],[90.319331,23.792804],[90.319293,23.792887],[90.319277,23.792913],[90.319261,23.792939]]]}},{"type":"Feature","properties":{"survey":"bds","sheet":"093","dag":"47022","label_bn":"47022","area_sqm":1768.5},"geometry":{"type":"Polygon","coordinates":[[[90.319129,23.792931],[90.31912,23.793067],[90.319022,23.793048],[90.319032,23.792883],[90.319033,23.792871],[90.319041,23.792744],[90.319077,23.792135],[90.319117,23.791482],[90.319196,23.791488],[90.319216,23.791489],[90.319176,23.79214],[90.31914,23.792749],[90.319129,23.792921],[90.319129,23.792931]]]}},{"type":"Feature","properties":{"survey":"bds","sheet":"093","dag":"47023","label_bn":"47023","area_sqm":116.4},"geometry":{"type":"Polygon","coordinates":[[[90.319238,23.792999],[90.319176,23.793078],[90.31912,23.793067],[90.319129,23.792931],[90.319238,23.792999]]]}},{"type":"Feature","properties":{"survey":"bds","sheet":"093","dag":"47019","label_bn":"47019","area_sqm":3868.2},"geometry":{"type":"Polygon","coordinates":[[[90.31795,23.793082],[90.317878,23.793088],[90.317928,23.792598],[90.317932,23.792566],[90.318038,23.792571],[90.318333,23.792589],[90.31842,23.792604],[90.318581,23.792655],[90.318741,23.792719],[90.318827,23.792755],[90.319,23.79285],[90.319033,23.792871],[90.319032,23.792883],[90.319022,23.793048],[90.318973,23.793039],[90.318848,23.793006],[90.31866,23.79295],[90.318524,23.792915],[90.318436,23.792898],[90.318168,23.792847],[90.318149,23.792884],[90.318126,23.792924],[90.318092,23.792971],[90.31806,23.793024],[90.318045,23.793056],[90.31803,23.793087],[90.318013,23.793074],[90.31795,23.793082]]]}},{"type":"Feature","properties":{"survey":"bds","sheet":"093","dag":"47018","label_bn":"47018","area_sqm":1784.1},"geometry":{"type":"Polygon","coordinates":[[[90.317841,23.793092],[90.317817,23.793098],[90.317869,23.792591],[90.317872,23.792563],[90.317872,23.792563],[90.317913,23.792168],[90.317913,23.792168],[90.317913,23.792168],[90.31793,23.791995],[90.318011,23.791179],[90.318075,23.79053],[90.318076,23.79052],[90.318081,23.790471],[90.318141,23.790474],[90.318136,23.790522],[90.318136,23.790526],[90.318069,23.791193],[90.317989,23.792001],[90.317972,23.792173],[90.317932,23.792566],[90.317932,23.792566],[90.317928,23.792598],[90.317878,23.793088],[90.317841,23.793092]]]}},{"type":"Feature","properties":{"survey":"bds","sheet":"093","dag":"47025","label_bn":"47025","area_sqm":5773.8},"geometry":{"type":"Polygon","coordinates":[[[90.319989,23.793179],[90.319981,23.793203],[90.319845,23.79315],[90.319731,23.793104],[90.319617,23.793058],[90.319503,23.793013],[90.319389,23.792968],[90.319277,23.792913],[90.319293,23.792887],[90.319331,23.792804],[90.319344,23.792754],[90.319357,23.79275],[90.319367,23.792703],[90.319661,23.792603],[90.319855,23.792608],[90.319884,23.792533],[90.31992,23.792442],[90.319949,23.792312],[90.319973,23.792185],[90.319987,23.79209],[90.32,23.791995],[90.320008,23.791933],[90.320012,23.791833],[90.319921,23.791825],[90.319931,23.791762],[90.319936,23.791695],[90.319935,23.791528],[90.319935,23.791462],[90.319934,23.791398],[90.319961,23.791414],[90.320029,23.791456],[90.320151,23.791555],[90.320264,23.791659],[90.320302,23.791691],[90.320337,23.791715],[90.320207,23.791744],[90.320145,23.791759],[90.320068,23.791768],[90.320078,23.792014],[90.320074,23.792093],[90.320062,23.792209],[90.320071,23.792461],[90.320103,23.792519],[90.320101,23.792532],[90.320076,23.792709],[90.320065,23.792823],[90.32006,23.792887],[90.320051,23.792932],[90.320041,23.792977],[90.320008,23.793107],[90.319989,23.793179]]]}},{"type":"Feature","properties":{"survey":"bds","sheet":"093","dag":"47015","label_bn":"47015","area_sqm":3908.8},"geometry":{"type":"Polygon","coordinates":[[[90.317228,23.793205],[90.317199,23.793207],[90.317205,23.792918],[90.317189,23.792685],[90.317813,23.79256],[90.317872,23.792563],[90.317869,23.792591],[90.317817,23.793098],[90.317795,23.793104],[90.31772,23.793113],[90.317694,23.793118],[90.317536,23.793152],[90.317478,23.793165],[90.317228,23.793205]]]}}]}