{"type":"FeatureCollection","features":[{"type":"Feature","properties":{"survey":"bds","sheet":"094","dag":"47509","label_bn":"47509","area_sqm":204.9},"geometry":{"type":"Polygon","coordinates":[[[90.317488,23.793189],[90.317476,23.79319],[90.317478,23.793165],[90.317487,23.793163],[90.317536,23.793152],[90.317694,23.793118],[90.31772,23.793113],[90.317795,23.793104],[90.317817,23.793098],[90.317809,23.79318],[90.317784,23.79318],[90.317652,23.793183],[90.317488,23.793189]]]}},{"type":"Feature","properties":{"survey":"bds","sheet":"094","dag":"47508","label_bn":"47508","area_sqm":2395.9},"geometry":{"type":"Polygon","coordinates":[[[90.316809,23.793225],[90.316412,23.793303],[90.316446,23.793195],[90.316537,23.79297],[90.317205,23.792918],[90.317199,23.793207],[90.317143,23.793211],[90.316809,23.793225]]]}},{"type":"Feature","properties":{"survey":"bds","sheet":"094","dag":"47515","label_bn":"47515","area_sqm":3282.0},"geometry":{"type":"Polygon","coordinates":[[[90.31873,23.793335],[90.31868,23.793444],[90.318571,23.793391],[90.318494,23.793358],[90.318344,23.793299],[90.318257,23.793267],[90.318188,23.79322],[90.318082,23.793127],[90.318075,23.793122],[90.318074,23.793122],[90.31803,23.793087],[90.318045,23.793056],[90.31806,23.793024],[90.318092,23.792971],[90.318126,23.792924],[90.318149,23.792884],[90.318168,23.792847],[90.318436,23.792898],[90.318524,23.792915],[90.31866,23.79295],[90.318848,23.793006],[90.318751,23.793277],[90.31873,23.793335]]]}},{"type":"Feature","properties":{"survey":"bds","sheet":"094","dag":"47507","label_bn":"47507","area_sqm":5705.3},"geometry":{"type":"Polygon","coordinates":[[[90.316412,23.793303],[90.316336,23.793547],[90.315829,23.793494],[90.315868,23.79321],[90.315883,23.793101],[90.315918,23.792881],[90.315959,23.792636],[90.316517,23.792719],[90.316627,23.792744],[90.316537,23.79297],[90.316446,23.793195],[90.316412,23.793303]]]}},{"type":"Feature","properties":{"survey":"bds","sheet":"094","dag":"47516","label_bn":"47516","area_sqm":1529.8},"geometry":{"type":"Polygon","coordinates":[[[90.319022,23.793048],[90.318986,23.793651],[90.318911,23.793594],[90.318809,23.793528],[90.31868,23.793444],[90.31873,23.793335],[90.318751,23.793277],[90.318848,23.793006],[90.318973,23.793039],[90.319022,23.793048]]]}},{"type":"Feature","properties":{"survey":"bds","sheet":"094","dag":"47510","label_bn":"47510","area_sqm":1434.1},"geometry":{"type":"Polygon","coordinates":[[[90.317809,23.79318],[90.317759,23.793664],[90.31752,23.793606],[90.317528,23.793531],[90.317502,23.793454],[90.317488,23.793189],[90.317652,23.793183],[90.317784,23.79318],[90.317809,23.79318]]]}},{"type":"Feature","properties":{"survey":"bds","sheet":"094","dag":"47512","label_bn":"47512","area_sqm":148.0},"geometry":{"type":"Polygon","coordinates":[[[90.317868,23.793394],[90.317849,23.793686],[90.317817,23.793679],[90.317868,23.793182],[90.317899,23.793182],[90.317882,23.793288],[90.317868,23.793394]]]}},{"type":"Feature","properties":{"survey":"bds","sheet":"094","dag":"47514","label_bn":"47514","area_sqm":1711.1},"geometry":{"type":"Polygon","coordinates":[[[90.318986,23.793651],[90.318972,23.793889],[90.318966,23.793879],[90.318949,23.793816],[90.318945,23.793783],[90.318922,23.793754],[90.318868,23.793705],[90.318766,23.793637],[90.318651,23.793572],[90.318497,23.793502],[90.318426,23.793462],[90.318328,23.793408],[90.318135,23.793309],[90.31797,23.793215],[90.317908,23.793182],[90.317899,23.793182],[90.317868,23.793182],[90.317878,23.793088],[90.31795,23.793082],[90.318013,23.793074],[90.31803,23.793087],[90.318074,23.793122],[90.318075,23.793122],[90.318082,23.793127],[90.318188,23.79322],[90.318257,23.793267],[90.318344,23.793299],[90.318494,23.793358],[90.318571,23.793391],[90.31868,23.793444],[90.318809,23.793528],[90.318911,23.793594],[90.318986,23.793651]]]}},{"type":"Feature","properties":{"survey":"bds","sheet":"094","dag":"47522","label_bn":"47522","area_sqm":1107.7},"geometry":{"type":"Polygon","coordinates":[[[90.319204,23.793866],[90.319179,23.793903],[90.319139,23.793864],[90.31909,23.793789],[90.319078,23.793774],[90.31912,23.793067],[90.319176,23.793078],[90.31918,23.793185],[90.319203,23.793341],[90.31923,23.793484],[90.319246,23.793554],[90.31927,23.793624],[90.319295,23.793669],[90.319234,23.793778],[90.319214,23.793815],[90.319204,23.793866]]]}},{"type":"Feature","properties":{"survey":"bds","sheet":"094","dag":"47523","label_bn":"47523","area_sqm":5776.2},"geometry":{"type":"Polygon","coordinates":[[[90.319382,23.793936],[90.319294,23.793996],[90.319217,23.793937],[90.319179,23.793903],[90.319204,23.793866],[90.319214,23.793815],[90.319234,23.793778],[90.319295,23.793669],[90.31927,23.793624],[90.319246,23.793554],[90.31923,23.793484],[90.319203,23.793341],[90.31918,23.793185],[90.319176,23.793078],[90.319238,23.792999],[90.319261,23.792939],[90.319277,23.792913],[90.319389,23.792968],[90.319503,23.793013],[90.319617,23.793058],[90.319731,23.793104],[90.319845,23.79315],[90.319981,23.793203],[90.319927,23.793364],[90.319889,23.793506],[90.319875,23.793502],[90.319866,23.793503],[90.319838,23.793525],[90.319786,23.79357],[90.31968,23.793664],[90.31959,23.793753],[90.319533,23.793825],[90.319476,23.793877],[90.319434,23.793898],[90.319382,23.793936]]]}},{"type":"Feature","properties":{"survey":"bds","sheet":"094","dag":"47521","label_bn":"47521","area_sqm":1961.7},"geometry":{"type":"Polygon","coordinates":[[[90.319356,23.794084],[90.319291,23.794113],[90.319272,23.794106],[90.319263,23.794102],[90.319223,23.794086],[90.319137,23.794057],[90.319062,23.794032],[90.319078,23.793774],[90.31909,23.793789],[90.319139,23.793864],[90.319179,23.793903],[90.319217,23.793937],[90.319294,23.793996],[90.319382,23.793936],[90.319434,23.793898],[90.319476,23.793877],[90.319533,23.793825],[90.31959,23.793753],[90.31968,23.793664],[90.319786,23.79357],[90.319838,23.793525],[90.319866,23.793503],[90.319875,23.793502],[90.319889,23.793506],[90.319924,23.793511],[90.320053,23.793516],[90.320178,23.79352],[90.320178,23.793672],[90.320011,23.79368],[90.319983,23.793683],[90.31989,23.79369],[90.319755,23.793687],[90.319688,23.793788],[90.319603,23.793907],[90.319551,23.793974],[90.319512,23.794003],[90.319454,23.794041],[90.319414,23.794063],[90.319356,23.794084]]]}},{"type":"Feature","properties":{"survey":"bds","sheet":"094","dag":"47520","label_bn":"47520","area_sqm":8244.9},"geometry":{"type":"Polygon","coordinates":[[[90.32018,23.794586],[90.319214,23.794651],[90.319272,23.794106],[90.319291,23.794113],[90.319356,23.794084],[90.319414,23.794063],[90.319454,23.794041],[90.319512,23.794003],[90.319551,23.793974],[90.319603,23.793907],[90.319688,23.793788],[90.319755,23.793687],[90.31989,23.79369],[90.319983,23.793683],[90.320011,23.79368],[90.320178,23.793672],[90.32018,23.794586]]]}},{"type":"Feature","properties":{"survey":"bds","sheet":"094","dag":"47519","label_bn":"47519","area_sqm":1347.5},"geometry":{"type":"Polygon","coordinates":[[[90.319214,23.794651],[90.319087,23.794659],[90.319025,23.794655],[90.319062,23.794032],[90.319137,23.794057],[90.319223,23.794086],[90.319263,23.794102],[90.319272,23.794106],[90.319214,23.794651]]]}},{"type":"Feature","properties":{"survey":"bds","sheet":"094","dag":"47505","label_bn":"47505","area_sqm":1301.7},"geometry":{"type":"Polygon","coordinates":[[[90.315837,23.794449],[90.31584,23.794827],[90.315552,23.794811],[90.315548,23.794794],[90.315548,23.794794],[90.315519,23.794605],[90.315524,23.794497],[90.315525,23.794489],[90.31553,23.794444],[90.315837,23.794449]]]}},{"type":"Feature","properties":{"survey":"bds","sheet":"094","dag":"47504","label_bn":"47504","area_sqm":2597.1},"geometry":{"type":"Polygon","coordinates":[[[90.316229,23.794925],[90.3161,23.795336],[90.315893,23.795271],[90.315783,23.795236],[90.315728,23.7952],[90.31567,23.795136],[90.315668,23.795128],[90.3156,23.794982],[90.315572,23.794903],[90.315552,23.794811],[90.31584,23.794827],[90.316229,23.794925]]]}},{"type":"Feature","properties":{"survey":"bds","sheet":"094","dag":"47506","label_bn":"47506","area_sqm":37162.8},"geometry":{"type":"Polygon","coordinates":[[[90.317594,23.795324],[90.317591,23.795352],[90.317527,23.795316],[90.317518,23.795295],[90.317075,23.795139],[90.31676,23.795005],[90.316674,23.794972],[90.31662,23.794957],[90.316625,23.794936],[90.316608,23.794909],[90.316584,23.794879],[90.316568,23.79487],[90.316533,23.794858],[90.316481,23.794851],[90.31637,23.794814],[90.316281,23.794792],[90.31628,23.794792],[90.316229,23.794925],[90.31584,23.794827],[90.315837,23.794449],[90.31553,23.794444],[90.315545,23.79431],[90.315576,23.794221],[90.31555,23.794162],[90.315536,23.794136],[90.315829,23.793494],[90.316336,23.793547],[90.316412,23.793303],[90.316809,23.793225],[90.317143,23.793211],[90.317199,23.793207],[90.317228,23.793205],[90.317478,23.793165],[90.317476,23.79319],[90.317488,23.793189],[90.317502,23.793454],[90.317528,23.793531],[90.31752,23.793606],[90.317759,23.793664],[90.317702,23.794213],[90.317594,23.795324],[90.317594,23.795324],[90.317594,23.795324]]]}},{"type":"Feature","properties":{"survey":"bds","sheet":"094","dag":"47518","label_bn":"47518","area_sqm":735.8},"geometry":{"type":"Polygon","coordinates":[[[90.319068,23.795576],[90.319016,23.795755],[90.318979,23.795752],[90.318959,23.795749],[90.319025,23.794655],[90.319087,23.794659],[90.319029,23.795359],[90.319041,23.795573],[90.319068,23.795576]]]}},{"type":"Feature","properties":{"survey":"bds","sheet":"094","dag":"47517","label_bn":"47517","area_sqm":3044.4},"geometry":{"type":"Polygon","coordinates":[[[90.318942,23.795761],[90.318858,23.795773],[90.318972,23.793889],[90.318986,23.793651],[90.319022,23.793048],[90.31912,23.793067],[90.319078,23.793774],[90.319062,23.794032],[90.319025,23.794655],[90.318959,23.795749],[90.318939,23.795747],[90.318942,23.795761]]]}},{"type":"Feature","properties":{"survey":"bds","sheet":"094","dag":"47503","label_bn":"47503","area_sqm":9953.3},"geometry":{"type":"Polygon","coordinates":[[[90.317591,23.795352],[90.317538,23.795862],[90.317501,23.795861],[90.316212,23.795489],[90.316216,23.795403],[90.316173,23.795349],[90.316125,23.795344],[90.3161,23.795336],[90.316229,23.794925],[90.31628,23.794792],[90.316281,23.794792],[90.31637,23.794814],[90.316481,23.794851],[90.316533,23.794858],[90.316568,23.79487],[90.316584,23.794879],[90.316608,23.794909],[90.316625,23.794936],[90.31662,23.794957],[90.316674,23.794972],[90.31676,23.795005],[90.317075,23.795139],[90.317518,23.795295],[90.317527,23.795316],[90.317591,23.795352]]]}},{"type":"Feature","properties":{"survey":"bds","sheet":"094","dag":"47511","label_bn":"47511","area_sqm":1887.9},"geometry":{"type":"Polygon","coordinates":[[[90.317654,23.795329],[90.317598,23.795865],[90.317538,23.795862],[90.317591,23.795352],[90.317594,23.795324],[90.317594,23.795324],[90.317594,23.795324],[90.317702,23.794213],[90.317759,23.793664],[90.317809,23.79318],[90.317817,23.793098],[90.317841,23.793092],[90.317878,23.793088],[90.317868,23.793182],[90.317817,23.793679],[90.317762,23.794218],[90.317654,23.795329]]]}},{"type":"Feature","properties":{"survey":"bds","sheet":"094","dag":"47501","label_bn":"47501","area_sqm":3376.6},"geometry":{"type":"Polygon","coordinates":[[[90.316025,23.79594],[90.316047,23.795994],[90.315906,23.795941],[90.315697,23.795858],[90.315535,23.795782],[90.315509,23.795772],[90.315516,23.795681],[90.315708,23.795279],[90.315771,23.79529],[90.316035,23.795365],[90.316121,23.795406],[90.316137,23.795425],[90.316146,23.795475],[90.316152,23.795494],[90.316139,23.795572],[90.316097,23.795669],[90.31606,23.79578],[90.316025,23.79594]]]}},{"type":"Feature","properties":{"survey":"bds","sheet":"094","dag":"47502","label_bn":"47502","area_sqm":777.2},"geometry":{"type":"Polygon","coordinates":[[[90.316142,23.795982],[90.316072,23.796004],[90.316047,23.795994],[90.316025,23.79594],[90.31606,23.79578],[90.316097,23.795669],[90.316139,23.795572],[90.316152,23.795494],[90.316146,23.795475],[90.316137,23.795425],[90.316121,23.795406],[90.316035,23.795365],[90.315771,23.79529],[90.315708,23.795279],[90.31567,23.795136],[90.315728,23.7952],[90.315783,23.795236],[90.315893,23.795271],[90.3161,23.795336],[90.316125,23.795344],[90.316173,23.795349],[90.316216,23.795403],[90.316212,23.795489],[90.316175,23.79562],[90.316102,23.795861],[90.316094,23.795919],[90.316104,23.795953],[90.316142,23.795982]]]}},{"type":"Feature","properties":{"survey":"bds","sheet":"094","dag":"47513","label_bn":"47513","area_sqm":33492.1},"geometry":{"type":"Polygon","coordinates":[[[90.318698,23.795797],[90.318327,23.796105],[90.318082,23.795986],[90.318073,23.795886],[90.317598,23.795865],[90.317654,23.795329],[90.317762,23.794218],[90.317817,23.793679],[90.317849,23.793686],[90.317868,23.793394],[90.317882,23.793288],[90.317899,23.793182],[90.317908,23.793182],[90.31797,23.793215],[90.318135,23.793309],[90.318328,23.793408],[90.318426,23.793462],[90.318497,23.793502],[90.318651,23.793572],[90.318766,23.793637],[90.318868,23.793705],[90.318922,23.793754],[90.318945,23.793783],[90.318949,23.793816],[90.318966,23.793879],[90.318972,23.793889],[90.318858,23.795773],[90.318698,23.795797]]]}}]}