{"type":"FeatureCollection","features":[{"type":"Feature","properties":{"survey":"bds","sheet":"095","dag":"48047","label_bn":"48047","area_sqm":858.7},"geometry":{"type":"Polygon","coordinates":[[[90.323247,23.790899],[90.323245,23.790917],[90.323064,23.790881],[90.323103,23.790687],[90.323109,23.790656],[90.323132,23.790537],[90.323147,23.790451],[90.323174,23.790446],[90.32329,23.790425],[90.323279,23.790583],[90.323265,23.790744],[90.323247,23.790899]]]}},{"type":"Feature","properties":{"survey":"bds","sheet":"095","dag":"48046","label_bn":"48046","area_sqm":1149.0},"geometry":{"type":"Polygon","coordinates":[[[90.322885,23.790907],[90.322823,23.790956],[90.32284,23.790857],[90.322883,23.790635],[90.322909,23.79049],[90.322986,23.790477],[90.323147,23.790451],[90.323132,23.790537],[90.323109,23.790656],[90.323103,23.790687],[90.323064,23.790881],[90.323063,23.790889],[90.322965,23.790906],[90.322963,23.790919],[90.322885,23.790907]]]}},{"type":"Feature","properties":{"survey":"bds","sheet":"095","dag":"48045","label_bn":"48045","area_sqm":2641.4},"geometry":{"type":"Polygon","coordinates":[[[90.322667,23.790927],[90.322629,23.790992],[90.322493,23.790987],[90.322344,23.790977],[90.322342,23.790906],[90.322338,23.790877],[90.322315,23.790742],[90.32229,23.790591],[90.322909,23.79049],[90.322883,23.790635],[90.32284,23.790857],[90.322823,23.790956],[90.322667,23.790927]]]}},{"type":"Feature","properties":{"survey":"bds","sheet":"095","dag":"48033","label_bn":"48033","area_sqm":3593.8},"geometry":{"type":"Polygon","coordinates":[[[90.321617,23.791021],[90.321234,23.79103],[90.321298,23.790819],[90.321354,23.790758],[90.321803,23.790782],[90.321822,23.790667],[90.32229,23.790591],[90.322315,23.790742],[90.322338,23.790877],[90.322342,23.790906],[90.322344,23.790977],[90.322301,23.790974],[90.322022,23.790994],[90.321762,23.791006],[90.321733,23.79099],[90.321617,23.791021]]]}},{"type":"Feature","properties":{"survey":"bds","sheet":"095","dag":"48043","label_bn":"48043","area_sqm":2514.4},"geometry":{"type":"Polygon","coordinates":[[[90.323386,23.79094],[90.323357,23.791312],[90.323004,23.791299],[90.322922,23.79129],[90.322922,23.791299],[90.322813,23.791286],[90.322785,23.791286],[90.322823,23.790956],[90.322885,23.790907],[90.322963,23.790919],[90.322965,23.790906],[90.323063,23.790889],[90.323064,23.790881],[90.323245,23.790917],[90.323247,23.790899],[90.323386,23.79094]]]}},{"type":"Feature","properties":{"survey":"bds","sheet":"095","dag":"48042","label_bn":"48042","area_sqm":55.1},"geometry":{"type":"Polygon","coordinates":[[[90.323004,23.791299],[90.323002,23.791356],[90.322919,23.791351],[90.322922,23.791299],[90.322922,23.79129],[90.323004,23.791299]]]}},{"type":"Feature","properties":{"survey":"bds","sheet":"095","dag":"48034","label_bn":"48034","area_sqm":1696.0},"geometry":{"type":"Polygon","coordinates":[[[90.321582,23.79138],[90.321512,23.791406],[90.32142,23.791397],[90.321419,23.791398],[90.321292,23.791358],[90.321112,23.791307],[90.321234,23.79103],[90.321617,23.791021],[90.321582,23.79138]]]}},{"type":"Feature","properties":{"survey":"bds","sheet":"095","dag":"48035","label_bn":"48035","area_sqm":3625.5},"geometry":{"type":"Polygon","coordinates":[[[90.322243,23.79146],[90.322233,23.791465],[90.321663,23.791382],[90.321582,23.79138],[90.321617,23.791021],[90.321733,23.79099],[90.321762,23.791006],[90.322022,23.790994],[90.322301,23.790974],[90.322344,23.790977],[90.322345,23.791043],[90.32235,23.791216],[90.322341,23.791344],[90.322337,23.791425],[90.322243,23.79146]]]}},{"type":"Feature","properties":{"survey":"bds","sheet":"095","dag":"48044","label_bn":"48044","area_sqm":2696.7},"geometry":{"type":"Polygon","coordinates":[[[90.322724,23.791487],[90.322677,23.79153],[90.322233,23.791465],[90.322243,23.79146],[90.322337,23.791425],[90.322341,23.791344],[90.32235,23.791216],[90.322345,23.791043],[90.322344,23.790977],[90.322493,23.790987],[90.322629,23.790992],[90.322667,23.790927],[90.322823,23.790956],[90.322785,23.791286],[90.322724,23.791487]]]}},{"type":"Feature","properties":{"survey":"bds","sheet":"095","dag":"48041","label_bn":"48041","area_sqm":343.1},"geometry":{"type":"Polygon","coordinates":[[[90.32285,23.791431],[90.322779,23.791547],[90.322677,23.79153],[90.322724,23.791487],[90.322785,23.791286],[90.322813,23.791286],[90.322922,23.791299],[90.322919,23.791351],[90.322886,23.791386],[90.32285,23.791431]]]}},{"type":"Feature","properties":{"survey":"bds","sheet":"095","dag":"48036","label_bn":"48036","area_sqm":2755.7},"geometry":{"type":"Polygon","coordinates":[[[90.320928,23.791653],[90.320891,23.791656],[90.320893,23.791652],[90.321112,23.791307],[90.321292,23.791358],[90.321419,23.791398],[90.32142,23.791397],[90.321512,23.791406],[90.321582,23.79138],[90.321663,23.791382],[90.322233,23.791465],[90.322116,23.791519],[90.322078,23.791537],[90.322039,23.791555],[90.321994,23.791577],[90.321945,23.791596],[90.321907,23.791616],[90.321868,23.79165],[90.321814,23.791633],[90.321734,23.791594],[90.32169,23.791572],[90.321648,23.791558],[90.321611,23.791548],[90.321563,23.791544],[90.321514,23.791545],[90.321464,23.791554],[90.32141,23.791577],[90.321356,23.791601],[90.32131,23.791619],[90.321257,23.791631],[90.321239,23.791634],[90.32122,23.791637],[90.321086,23.791645],[90.320928,23.791653]]]}},{"type":"Feature","properties":{"survey":"bds","sheet":"095","dag":"48032","label_bn":"48032","area_sqm":11650.3},"geometry":{"type":"Polygon","coordinates":[[[90.32036,23.791709],[90.320337,23.791715],[90.320302,23.791691],[90.320264,23.791659],[90.320151,23.791555],[90.320029,23.791456],[90.319961,23.791414],[90.319958,23.791293],[90.32002,23.791326],[90.320029,23.791189],[90.320039,23.791087],[90.320055,23.790978],[90.320094,23.790692],[90.320749,23.790727],[90.321354,23.790758],[90.321298,23.790819],[90.321234,23.79103],[90.321112,23.791307],[90.320893,23.791652],[90.320891,23.791656],[90.320729,23.791672],[90.320562,23.79168],[90.320551,23.791681],[90.32036,23.791709]]]}},{"type":"Feature","properties":{"survey":"bds","sheet":"095","dag":"48040","label_bn":"48040","area_sqm":303.6},"geometry":{"type":"Polygon","coordinates":[[[90.322773,23.791713],[90.322634,23.791803],[90.322646,23.791669],[90.322677,23.79153],[90.322779,23.791547],[90.322773,23.791713]]]}},{"type":"Feature","properties":{"survey":"bds","sheet":"095","dag":"48039","label_bn":"48039","area_sqm":1299.8},"geometry":{"type":"Polygon","coordinates":[[[90.322739,23.7925],[90.322575,23.792626],[90.322606,23.792405],[90.322609,23.792148],[90.322625,23.791894],[90.322634,23.791803],[90.322773,23.791713],[90.322753,23.792235],[90.322739,23.7925]]]}},{"type":"Feature","properties":{"survey":"bds","sheet":"095","dag":"48037","label_bn":"48037","area_sqm":24473.5},"geometry":{"type":"Polygon","coordinates":[[[90.321671,23.792911],[90.321511,23.792929],[90.321432,23.792862],[90.32111,23.792765],[90.321038,23.79272],[90.320921,23.792664],[90.320869,23.792626],[90.320821,23.792226],[90.32081,23.791924],[90.320828,23.791853],[90.320866,23.791704],[90.320891,23.791656],[90.320928,23.791653],[90.321086,23.791645],[90.32122,23.791637],[90.321239,23.791634],[90.321257,23.791631],[90.32131,23.791619],[90.321356,23.791601],[90.32141,23.791577],[90.321464,23.791554],[90.321514,23.791545],[90.321563,23.791544],[90.321611,23.791548],[90.321648,23.791558],[90.32169,23.791572],[90.321734,23.791594],[90.321814,23.791633],[90.321868,23.79165],[90.321907,23.791616],[90.321945,23.791596],[90.321994,23.791577],[90.322039,23.791555],[90.322078,23.791537],[90.322116,23.791519],[90.322233,23.791465],[90.322677,23.79153],[90.322646,23.791669],[90.322634,23.791803],[90.322625,23.791894],[90.322609,23.792148],[90.322606,23.792405],[90.322575,23.792626],[90.322554,23.792772],[90.322039,23.792754],[90.321715,23.792814],[90.321671,23.792911]]]}},{"type":"Feature","properties":{"survey":"bds","sheet":"095","dag":"48030","label_bn":"48030","area_sqm":3199.4},"geometry":{"type":"Polygon","coordinates":[[[90.322554,23.793055],[90.322551,23.793232],[90.322512,23.793226],[90.32246,23.793225],[90.322418,23.793074],[90.321974,23.793049],[90.321956,23.792999],[90.321617,23.793061],[90.321617,23.793061],[90.321537,23.79309],[90.321511,23.792929],[90.321671,23.792911],[90.321715,23.792814],[90.322039,23.792754],[90.322554,23.792772],[90.32255,23.792922],[90.322554,23.793055]]]}},{"type":"Feature","properties":{"survey":"bds","sheet":"095","dag":"48038","label_bn":"48038","area_sqm":1343.8},"geometry":{"type":"Polygon","coordinates":[[[90.322721,23.792828],[90.322746,23.793252],[90.322584,23.793235],[90.322551,23.793232],[90.322554,23.793055],[90.32255,23.792922],[90.322554,23.792772],[90.322575,23.792626],[90.322739,23.7925],[90.322721,23.792828]]]}},{"type":"Feature","properties":{"survey":"bds","sheet":"095","dag":"48029","label_bn":"48029","area_sqm":4751.4},"geometry":{"type":"Polygon","coordinates":[[[90.322584,23.793235],[90.322598,23.793576],[90.322491,23.79349],[90.322425,23.7934],[90.322381,23.793379],[90.322323,23.793369],[90.322226,23.793368],[90.32216,23.793385],[90.322094,23.793431],[90.322072,23.793463],[90.321983,23.793561],[90.321894,23.79352],[90.321738,23.793494],[90.3217,23.793496],[90.321663,23.793518],[90.321621,23.793553],[90.321537,23.793547],[90.321522,23.793303],[90.321525,23.793238],[90.321547,23.793224],[90.321548,23.793201],[90.321537,23.79309],[90.321617,23.793061],[90.321617,23.793061],[90.321956,23.792999],[90.321974,23.793049],[90.322418,23.793074],[90.32246,23.793225],[90.322512,23.793226],[90.322551,23.793232],[90.322584,23.793235]]]}},{"type":"Feature","properties":{"survey":"bds","sheet":"095","dag":"48028","label_bn":"48028","area_sqm":1189.1},"geometry":{"type":"Polygon","coordinates":[[[90.322491,23.79349],[90.322281,23.793713],[90.321983,23.793561],[90.322072,23.793463],[90.322094,23.793431],[90.32216,23.793385],[90.322226,23.793368],[90.322323,23.793369],[90.322381,23.793379],[90.322425,23.7934],[90.322491,23.79349]]]}},{"type":"Feature","properties":{"survey":"bds","sheet":"095","dag":"48022","label_bn":"48022","area_sqm":830.0},"geometry":{"type":"Polygon","coordinates":[[[90.321983,23.793561],[90.321917,23.793751],[90.321584,23.793692],[90.321621,23.793553],[90.321663,23.793518],[90.3217,23.793496],[90.321738,23.793494],[90.321894,23.79352],[90.321983,23.793561]]]}},{"type":"Feature","properties":{"survey":"bds","sheet":"095","dag":"48027","label_bn":"48027","area_sqm":828.7},"geometry":{"type":"Polygon","coordinates":[[[90.322489,23.793827],[90.322423,23.793868],[90.322402,23.793859],[90.322325,23.793755],[90.322281,23.793713],[90.322491,23.79349],[90.322598,23.793576],[90.322588,23.793809],[90.322489,23.793827]]]}},{"type":"Feature","properties":{"survey":"bds","sheet":"095","dag":"48026","label_bn":"48026","area_sqm":1215.7},"geometry":{"type":"Polygon","coordinates":[[[90.322769,23.79364],[90.322692,23.793939],[90.322666,23.793928],[90.322635,23.79392],[90.322599,23.793919],[90.322572,23.793924],[90.322574,23.793897],[90.322588,23.793809],[90.322598,23.793576],[90.322584,23.793235],[90.322746,23.793252],[90.322769,23.79364]]]}},{"type":"Feature","properties":{"survey":"bds","sheet":"095","dag":"48023","label_bn":"48023","area_sqm":1022.5},"geometry":{"type":"Polygon","coordinates":[[[90.322221,23.793961],[90.322151,23.793983],[90.322112,23.793982],[90.32209,23.793948],[90.322022,23.793926],[90.322041,23.793839],[90.321899,23.793804],[90.321917,23.793751],[90.321983,23.793561],[90.322281,23.793713],[90.322325,23.793755],[90.322194,23.793805],[90.322194,23.793858],[90.322241,23.793979],[90.322221,23.793961]]]}},{"type":"Feature","properties":{"survey":"bds","sheet":"095","dag":"48031","label_bn":"48031","area_sqm":23144.9},"geometry":{"type":"Polygon","coordinates":[[[90.321553,23.793875],[90.32154,23.793987],[90.321502,23.793948],[90.321434,23.793866],[90.321344,23.793768],[90.321271,23.793667],[90.321223,23.793621],[90.321183,23.793594],[90.321164,23.793582],[90.321104,23.793557],[90.321061,23.793544],[90.321033,23.793536],[90.320891,23.793489],[90.320833,23.793477],[90.320744,23.793474],[90.32066,23.793466],[90.320554,23.793448],[90.320487,23.793446],[90.320448,23.793453],[90.320402,23.793464],[90.320362,23.793483],[90.320318,23.793499],[90.320253,23.793515],[90.320212,23.79352],[90.320178,23.79352],[90.320053,23.793516],[90.319924,23.793511],[90.319889,23.793506],[90.319927,23.793364],[90.319981,23.793203],[90.319989,23.793179],[90.320041,23.792977],[90.320051,23.792932],[90.32006,23.792887],[90.320065,23.792823],[90.320076,23.792709],[90.320101,23.792532],[90.320103,23.792519],[90.320071,23.792461],[90.320062,23.792209],[90.320074,23.792093],[90.320078,23.792014],[90.320068,23.791768],[90.320145,23.791759],[90.320207,23.791744],[90.320337,23.791715],[90.32036,23.791709],[90.320551,23.791681],[90.320562,23.79168],[90.320729,23.791672],[90.320891,23.791656],[90.320866,23.791704],[90.320828,23.791853],[90.32081,23.791924],[90.320821,23.792226],[90.320869,23.792626],[90.320921,23.792664],[90.321038,23.79272],[90.32111,23.792765],[90.321432,23.792862],[90.321511,23.792929],[90.321537,23.79309],[90.321548,23.793201],[90.321547,23.793224],[90.321525,23.793238],[90.321522,23.793303],[90.321537,23.793547],[90.321621,23.793553],[90.321584,23.793692],[90.32158,23.793764],[90.321535,23.793845],[90.321553,23.793875]]]}},{"type":"Feature","properties":{"survey":"bds","sheet":"095","dag":"48021","label_bn":"48021","area_sqm":784.3},"geometry":{"type":"Polygon","coordinates":[[[90.321857,23.793904],[90.32178,23.793996],[90.321764,23.793968],[90.321695,23.793937],[90.321612,23.793899],[90.321553,23.793875],[90.321535,23.793845],[90.32158,23.793764],[90.321584,23.793692],[90.321917,23.793751],[90.321899,23.793804],[90.321857,23.793904]]]}},{"type":"Feature","properties":{"survey":"bds","sheet":"095","dag":"48015","label_bn":"48015","area_sqm":105.6},"geometry":{"type":"Polygon","coordinates":[[[90.322692,23.793939],[90.32267,23.794023],[90.32263,23.794007],[90.322583,23.79399],[90.322566,23.794002],[90.322572,23.793924],[90.322599,23.793919],[90.322635,23.79392],[90.322666,23.793928],[90.322692,23.793939]]]}},{"type":"Feature","properties":{"survey":"bds","sheet":"095","dag":"48024","label_bn":"48024","area_sqm":732.4},"geometry":{"type":"Polygon","coordinates":[[[90.322414,23.793991],[90.322281,23.794067],[90.322241,23.793979],[90.322194,23.793858],[90.322194,23.793805],[90.322325,23.793755],[90.322402,23.793859],[90.322423,23.793868],[90.322489,23.793827],[90.322588,23.793809],[90.322574,23.793897],[90.322414,23.793991]]]}},{"type":"Feature","properties":{"survey":"bds","sheet":"095","dag":"48002","label_bn":"48002","area_sqm":2311.4},"geometry":{"type":"Polygon","coordinates":[[[90.321534,23.794049],[90.321514,23.794082],[90.321475,23.794046],[90.321407,23.793972],[90.32134,23.793894],[90.32129,23.793827],[90.321228,23.793743],[90.321169,23.793669],[90.321123,23.793627],[90.321108,23.793621],[90.321064,23.793617],[90.321012,23.793611],[90.320972,23.793617],[90.32095,23.793622],[90.320955,23.793742],[90.320965,23.793879],[90.320966,23.793913],[90.320915,23.793929],[90.320905,23.793839],[90.320869,23.79366],[90.320786,23.793643],[90.32067,23.793604],[90.320619,23.793597],[90.320482,23.793623],[90.320378,23.793647],[90.320258,23.793668],[90.320178,23.793672],[90.320178,23.79352],[90.320212,23.79352],[90.320253,23.793515],[90.320318,23.793499],[90.320362,23.793483],[90.320402,23.793464],[90.320448,23.793453],[90.320487,23.793446],[90.320554,23.793448],[90.32066,23.793466],[90.320744,23.793474],[90.320833,23.793477],[90.320891,23.793489],[90.321033,23.793536],[90.321061,23.793544],[90.321104,23.793557],[90.321164,23.793582],[90.321183,23.793594],[90.321223,23.793621],[90.321271,23.793667],[90.321344,23.793768],[90.321434,23.793866],[90.321502,23.793948],[90.32154,23.793987],[90.321534,23.794049]]]}},{"type":"Feature","properties":{"survey":"bds","sheet":"095","dag":"48019","label_bn":"48019","area_sqm":332.9},"geometry":{"type":"Polygon","coordinates":[[[90.321723,23.794045],[90.321684,23.794092],[90.321654,23.794078],[90.321604,23.794047],[90.321559,23.794006],[90.32154,23.793987],[90.321553,23.793875],[90.321612,23.793899],[90.321695,23.793937],[90.321764,23.793968],[90.32178,23.793996],[90.32177,23.79403],[90.321723,23.794045]]]}},{"type":"Feature","properties":{"survey":"bds","sheet":"095","dag":"48025","label_bn":"48025","area_sqm":86.0},"geometry":{"type":"Polygon","coordinates":[[[90.322374,23.794043],[90.322257,23.79412],[90.322286,23.794092],[90.322281,23.794067],[90.322414,23.793991],[90.322574,23.793897],[90.322572,23.793924],[90.322552,23.793927],[90.322514,23.793945],[90.322506,23.793951],[90.322478,23.793971],[90.322434,23.79401],[90.322374,23.794043]]]}},{"type":"Feature","properties":{"survey":"bds","sheet":"095","dag":"48020","label_bn":"48020","area_sqm":1114.2},"geometry":{"type":"Polygon","coordinates":[[[90.322246,23.794127],[90.322219,23.794137],[90.322041,23.794135],[90.321902,23.794108],[90.32177,23.79403],[90.32178,23.793996],[90.321857,23.793904],[90.321899,23.793804],[90.322041,23.793839],[90.322022,23.793926],[90.32209,23.793948],[90.322112,23.793982],[90.322151,23.793983],[90.322221,23.793961],[90.322241,23.793979],[90.322281,23.794067],[90.322286,23.794092],[90.322257,23.79412],[90.322246,23.794127]]]}},{"type":"Feature","properties":{"survey":"bds","sheet":"095","dag":"48003","label_bn":"48003","area_sqm":90.7},"geometry":{"type":"Polygon","coordinates":[[[90.321684,23.794092],[90.321646,23.794139],[90.321534,23.794049],[90.32154,23.793987],[90.321559,23.794006],[90.321604,23.794047],[90.321654,23.794078],[90.321684,23.794092]]]}},{"type":"Feature","properties":{"survey":"bds","sheet":"095","dag":"48004","label_bn":"48004","area_sqm":53.9},"geometry":{"type":"Polygon","coordinates":[[[90.321646,23.794139],[90.321636,23.794156],[90.321602,23.794144],[90.321572,23.794123],[90.321563,23.794117],[90.321532,23.794098],[90.321514,23.794082],[90.321534,23.794049],[90.321646,23.794139]]]}},{"type":"Feature","properties":{"survey":"bds","sheet":"095","dag":"48014","label_bn":"48014","area_sqm":201.8},"geometry":{"type":"Polygon","coordinates":[[[90.322664,23.794047],[90.322657,23.794176],[90.322531,23.794139],[90.32253,23.794125],[90.322563,23.794035],[90.322566,23.794002],[90.322583,23.79399],[90.32263,23.794007],[90.32267,23.794023],[90.322664,23.794047]]]}},{"type":"Feature","properties":{"survey":"bds","sheet":"095","dag":"48018","label_bn":"48018","area_sqm":373.4},"geometry":{"type":"Polygon","coordinates":[[[90.322148,23.794189],[90.322098,23.7942],[90.322032,23.794198],[90.321991,23.794192],[90.321894,23.794163],[90.321823,23.794143],[90.321733,23.794116],[90.321684,23.794092],[90.321723,23.794045],[90.32177,23.79403],[90.321902,23.794108],[90.322041,23.794135],[90.322219,23.794137],[90.322246,23.794127],[90.322224,23.794142],[90.322148,23.794189]]]}},{"type":"Feature","properties":{"survey":"bds","sheet":"095","dag":"48016","label_bn":"48016","area_sqm":236.7},"geometry":{"type":"Polygon","coordinates":[[[90.322255,23.794257],[90.322233,23.794262],[90.322243,23.794259],[90.322271,23.794251],[90.322283,23.794248],[90.322295,23.794233],[90.322303,23.794204],[90.322317,23.794188],[90.322361,23.794154],[90.322421,23.79411],[90.32248,23.794064],[90.322566,23.794002],[90.322563,23.794035],[90.32253,23.794125],[90.322531,23.794139],[90.322531,23.79414],[90.322491,23.794137],[90.322403,23.794208],[90.322323,23.794247],[90.322255,23.794257]]]}},{"type":"Feature","properties":{"survey":"bds","sheet":"095","dag":"48017","label_bn":"48017","area_sqm":860.0},"geometry":{"type":"Polygon","coordinates":[[[90.322303,23.794204],[90.322295,23.794233],[90.322283,23.794248],[90.322271,23.794251],[90.322243,23.794259],[90.322233,23.794262],[90.322129,23.794288],[90.322113,23.794292],[90.322106,23.79429],[90.32186,23.794213],[90.321646,23.794139],[90.321684,23.794092],[90.321733,23.794116],[90.321823,23.794143],[90.321894,23.794163],[90.321991,23.794192],[90.322032,23.794198],[90.322098,23.7942],[90.322148,23.794189],[90.322224,23.794142],[90.322246,23.794127],[90.322257,23.79412],[90.322374,23.794043],[90.322434,23.79401],[90.322478,23.793971],[90.322506,23.793951],[90.322514,23.793945],[90.322552,23.793927],[90.322572,23.793924],[90.322566,23.794002],[90.32248,23.794064],[90.322421,23.79411],[90.322361,23.794154],[90.322317,23.794188],[90.322303,23.794204]]]}},{"type":"Feature","properties":{"survey":"bds","sheet":"095","dag":"48007","label_bn":"48007","area_sqm":160.4},"geometry":{"type":"Polygon","coordinates":[[[90.322106,23.79429],[90.322054,23.794294],[90.322016,23.79429],[90.321967,23.794291],[90.321928,23.794279],[90.321917,23.794276],[90.321868,23.794258],[90.321788,23.794219],[90.321708,23.794184],[90.321659,23.794164],[90.321636,23.794156],[90.321646,23.794139],[90.32186,23.794213],[90.322106,23.79429]]]}},{"type":"Feature","properties":{"survey":"bds","sheet":"095","dag":"48013","label_bn":"48013","area_sqm":445.1},"geometry":{"type":"Polygon","coordinates":[[[90.322546,23.794446],[90.322497,23.794454],[90.322531,23.79414],[90.322531,23.794139],[90.322657,23.794176],[90.322642,23.79444],[90.322546,23.794446]]]}},{"type":"Feature","properties":{"survey":"bds","sheet":"095","dag":"48012","label_bn":"48012","area_sqm":142.6},"geometry":{"type":"Polygon","coordinates":[[[90.322566,23.794534],[90.322487,23.794552],[90.322497,23.794454],[90.322546,23.794446],[90.322642,23.79444],[90.322639,23.794505],[90.322632,23.794508],[90.322599,23.794521],[90.322566,23.794534]]]}},{"type":"Feature","properties":{"survey":"bds","sheet":"095","dag":"48011","label_bn":"48011","area_sqm":90.1},"geometry":{"type":"Polygon","coordinates":[[[90.322631,23.794568],[90.322482,23.794604],[90.322487,23.794552],[90.322566,23.794534],[90.322599,23.794521],[90.322632,23.794508],[90.322639,23.794505],[90.322637,23.794539],[90.322631,23.794568]]]}},{"type":"Feature","properties":{"survey":"bds","sheet":"095","dag":"48008","label_bn":"48008","area_sqm":1251.1},"geometry":{"type":"Polygon","coordinates":[[[90.322531,23.79414],[90.322497,23.794454],[90.322488,23.794456],[90.322453,23.794466],[90.322414,23.794481],[90.322404,23.794485],[90.32237,23.794503],[90.322339,23.794521],[90.322284,23.79456],[90.322223,23.794607],[90.322155,23.794477],[90.322122,23.794362],[90.322113,23.794292],[90.322129,23.794288],[90.322233,23.794262],[90.322255,23.794257],[90.322323,23.794247],[90.322403,23.794208],[90.322491,23.794137],[90.322531,23.79414]]]}},{"type":"Feature","properties":{"survey":"bds","sheet":"095","dag":"48010","label_bn":"48010","area_sqm":44.0},"geometry":{"type":"Polygon","coordinates":[[[90.322482,23.794604],[90.322349,23.794608],[90.322383,23.794589],[90.322469,23.794556],[90.322487,23.794552],[90.322482,23.794604]]]}},{"type":"Feature","properties":{"survey":"bds","sheet":"095","dag":"48009","label_bn":"48009","area_sqm":225.7},"geometry":{"type":"Polygon","coordinates":[[[90.322349,23.794608],[90.322225,23.794612],[90.322223,23.794607],[90.322284,23.79456],[90.322339,23.794521],[90.32237,23.794503],[90.322404,23.794485],[90.322414,23.794481],[90.322453,23.794466],[90.322488,23.794456],[90.322497,23.794454],[90.322487,23.794552],[90.322469,23.794556],[90.322383,23.794589],[90.322349,23.794608]]]}},{"type":"Feature","properties":{"survey":"bds","sheet":"095","dag":"48001","label_bn":"48001","area_sqm":12642.3},"geometry":{"type":"Polygon","coordinates":[[[90.321263,23.794499],[90.321234,23.794614],[90.32018,23.794586],[90.320178,23.793672],[90.320258,23.793668],[90.320378,23.793647],[90.320482,23.793623],[90.320619,23.793597],[90.32067,23.793604],[90.320786,23.793643],[90.320869,23.79366],[90.320905,23.793839],[90.320915,23.793929],[90.320966,23.793913],[90.320965,23.793879],[90.320955,23.793742],[90.32095,23.793622],[90.320972,23.793617],[90.321012,23.793611],[90.321064,23.793617],[90.321108,23.793621],[90.321123,23.793627],[90.321169,23.793669],[90.321228,23.793743],[90.32129,23.793827],[90.32134,23.793894],[90.321407,23.793972],[90.321475,23.794046],[90.321514,23.794082],[90.321499,23.794108],[90.32148,23.794221],[90.321402,23.794309],[90.321373,23.794331],[90.321372,23.79433],[90.32135,23.7944],[90.321263,23.794499]]]}},{"type":"Feature","properties":{"survey":"bds","sheet":"095","dag":"48005","label_bn":"48005","area_sqm":947.9},"geometry":{"type":"Polygon","coordinates":[[[90.321482,23.794511],[90.321334,23.794643],[90.321234,23.794614],[90.321263,23.794499],[90.32135,23.7944],[90.321372,23.79433],[90.321373,23.794331],[90.321402,23.794309],[90.32148,23.794221],[90.321499,23.794108],[90.321514,23.794082],[90.321532,23.794098],[90.321563,23.794117],[90.321572,23.794123],[90.321602,23.794144],[90.321636,23.794156],[90.321596,23.794229],[90.321532,23.794365],[90.321482,23.794511]]]}},{"type":"Feature","properties":{"survey":"bds","sheet":"095","dag":"48006","label_bn":"48006","area_sqm":3049.9},"geometry":{"type":"Polygon","coordinates":[[[90.322122,23.794362],[90.322155,23.794477],[90.322223,23.794607],[90.322225,23.794612],[90.322216,23.794612],[90.321476,23.794669],[90.321413,23.79469],[90.321334,23.794643],[90.321482,23.794511],[90.321532,23.794365],[90.321596,23.794229],[90.321636,23.794156],[90.321659,23.794164],[90.321708,23.794184],[90.321788,23.794219],[90.321868,23.794258],[90.321917,23.794276],[90.321928,23.794279],[90.321967,23.794291],[90.322016,23.79429],[90.322054,23.794294],[90.322106,23.79429],[90.322113,23.794292],[90.322122,23.794362]]]}}]}