{"type":"FeatureCollection","features":[{"type":"Feature","properties":{"survey":"bds","sheet":"096","dag":"48511","label_bn":"48511","area_sqm":2125.7},"geometry":{"type":"Polygon","coordinates":[[[90.322624,23.795029],[90.322574,23.795042],[90.322608,23.794752],[90.322631,23.794568],[90.322797,23.794529],[90.322939,23.794497],[90.322993,23.794608],[90.323044,23.794633],[90.323063,23.794649],[90.323051,23.794662],[90.323033,23.794695],[90.323018,23.794759],[90.323005,23.794818],[90.322995,23.794858],[90.322981,23.7949],[90.322951,23.794987],[90.322852,23.794995],[90.322778,23.795006],[90.322704,23.795015],[90.322628,23.795028],[90.322624,23.795029]]]}},{"type":"Feature","properties":{"survey":"bds","sheet":"096","dag":"48506","label_bn":"48506","area_sqm":1531.5},"geometry":{"type":"Polygon","coordinates":[[[90.321987,23.795005],[90.321962,23.795123],[90.32188,23.795119],[90.32177,23.795113],[90.321768,23.794647],[90.322216,23.794612],[90.322174,23.794645],[90.322107,23.794697],[90.322063,23.794822],[90.321987,23.795005]]]}},{"type":"Feature","properties":{"survey":"bds","sheet":"096","dag":"48513","label_bn":"48513","area_sqm":5451.9},"geometry":{"type":"Polygon","coordinates":[[[90.323673,23.795179],[90.323494,23.795214],[90.323536,23.79508],[90.323562,23.79506],[90.323621,23.795034],[90.323669,23.795001],[90.323686,23.794989],[90.323728,23.794959],[90.323824,23.794893],[90.323888,23.794848],[90.323934,23.794822],[90.323966,23.794808],[90.323997,23.794794],[90.32405,23.794777],[90.324091,23.794769],[90.324131,23.794761],[90.324201,23.794746],[90.324327,23.794736],[90.324336,23.794735],[90.324424,23.794729],[90.32461,23.794738],[90.324698,23.794756],[90.32481,23.794783],[90.324906,23.794804],[90.324958,23.794812],[90.325068,23.794817],[90.325058,23.794873],[90.325033,23.795033],[90.325027,23.79508],[90.325004,23.795187],[90.324771,23.795154],[90.324684,23.795141],[90.324606,23.795131],[90.324449,23.795099],[90.324363,23.795084],[90.324284,23.795079],[90.32424,23.795076],[90.324173,23.795077],[90.324099,23.795089],[90.323859,23.795137],[90.323744,23.795163],[90.323673,23.795179]]]}},{"type":"Feature","properties":{"survey":"bds","sheet":"096","dag":"48508","label_bn":"48508","area_sqm":2149.6},"geometry":{"type":"Polygon","coordinates":[[[90.322415,23.795175],[90.322382,23.795291],[90.322338,23.795271],[90.322268,23.79524],[90.322179,23.795196],[90.322086,23.795145],[90.322094,23.795087],[90.3221,23.795032],[90.322117,23.794929],[90.322119,23.794914],[90.32213,23.794833],[90.322149,23.794749],[90.322164,23.794711],[90.322195,23.794693],[90.322298,23.794636],[90.322349,23.794608],[90.322481,23.794604],[90.322415,23.795175]]]}},{"type":"Feature","properties":{"survey":"bds","sheet":"096","dag":"48509","label_bn":"48509","area_sqm":1191.4},"geometry":{"type":"Polygon","coordinates":[[[90.322567,23.795104],[90.322513,23.795346],[90.322486,23.795338],[90.322382,23.795291],[90.322415,23.795175],[90.322481,23.794604],[90.322631,23.794568],[90.322608,23.794752],[90.322574,23.795042],[90.322567,23.795104]]]}},{"type":"Feature","properties":{"survey":"bds","sheet":"096","dag":"48510","label_bn":"48510","area_sqm":1354.9},"geometry":{"type":"Polygon","coordinates":[[[90.322759,23.795396],[90.322723,23.795397],[90.322676,23.795392],[90.322594,23.795368],[90.322513,23.795346],[90.322567,23.795104],[90.322574,23.795042],[90.322624,23.795029],[90.322628,23.795028],[90.322704,23.795015],[90.322778,23.795006],[90.322852,23.794995],[90.322951,23.794987],[90.322942,23.795015],[90.322911,23.795094],[90.322871,23.795207],[90.322844,23.795268],[90.322797,23.79535],[90.32276,23.795395],[90.322759,23.795396]]]}},{"type":"Feature","properties":{"survey":"bds","sheet":"096","dag":"48523","label_bn":"48523","area_sqm":4398.4},"geometry":{"type":"Polygon","coordinates":[[[90.325775,23.795206],[90.325606,23.795436],[90.325458,23.795436],[90.325127,23.795402],[90.324962,23.795382],[90.325004,23.795187],[90.325027,23.79508],[90.325033,23.795033],[90.325058,23.794873],[90.325068,23.794817],[90.325094,23.794658],[90.325175,23.794674],[90.325182,23.794716],[90.325347,23.794772],[90.325338,23.794836],[90.325539,23.794856],[90.325522,23.794916],[90.325575,23.795029],[90.325629,23.795125],[90.325775,23.795206]]]}},{"type":"Feature","properties":{"survey":"bds","sheet":"096","dag":"48505","label_bn":"48505","area_sqm":2013.5},"geometry":{"type":"Polygon","coordinates":[[[90.321822,23.795788],[90.321805,23.795814],[90.32188,23.795119],[90.321962,23.795123],[90.321959,23.795136],[90.32204,23.795196],[90.322204,23.795292],[90.322358,23.795379],[90.322363,23.795382],[90.322356,23.795387],[90.32189,23.795734],[90.321822,23.795788]]]}},{"type":"Feature","properties":{"survey":"bds","sheet":"096","dag":"48512","label_bn":"48512","area_sqm":10580.9},"geometry":{"type":"Polygon","coordinates":[[[90.323415,23.795466],[90.323308,23.795819],[90.323065,23.79579],[90.323006,23.795788],[90.323015,23.795753],[90.323003,23.795715],[90.322989,23.795683],[90.322964,23.795647],[90.322872,23.795537],[90.32276,23.795395],[90.322797,23.79535],[90.322844,23.795268],[90.322871,23.795207],[90.322911,23.795094],[90.322942,23.795015],[90.322951,23.794987],[90.322981,23.7949],[90.322995,23.794858],[90.323005,23.794818],[90.323018,23.794759],[90.323033,23.794695],[90.323051,23.794662],[90.323063,23.794649],[90.323138,23.794711],[90.323187,23.7947],[90.32327,23.794655],[90.324415,23.794583],[90.324457,23.794587],[90.324624,23.794595],[90.324834,23.794606],[90.325094,23.794658],[90.325068,23.794817],[90.324958,23.794812],[90.324906,23.794804],[90.32481,23.794783],[90.324698,23.794756],[90.32461,23.794738],[90.324424,23.794729],[90.324336,23.794735],[90.324327,23.794736],[90.324201,23.794746],[90.324131,23.794761],[90.324091,23.794769],[90.32405,23.794777],[90.323997,23.794794],[90.323966,23.794808],[90.323934,23.794822],[90.323888,23.794848],[90.323824,23.794893],[90.323728,23.794959],[90.323686,23.794989],[90.323669,23.795001],[90.323621,23.795034],[90.323562,23.79506],[90.323536,23.79508],[90.323494,23.795214],[90.323415,23.795466]]]}},{"type":"Feature","properties":{"survey":"bds","sheet":"096","dag":"48521","label_bn":"48521","area_sqm":2768.8},"geometry":{"type":"Polygon","coordinates":[[[90.324805,23.795819],[90.324712,23.795821],[90.324506,23.795782],[90.324527,23.79568],[90.324552,23.795569],[90.32455,23.795448],[90.324595,23.795313],[90.324684,23.795141],[90.324771,23.795154],[90.325004,23.795187],[90.324962,23.795382],[90.324946,23.795458],[90.324887,23.795806],[90.324805,23.795819]]]}},{"type":"Feature","properties":{"survey":"bds","sheet":"096","dag":"48522","label_bn":"48522","area_sqm":2714.1},"geometry":{"type":"Polygon","coordinates":[[[90.325375,23.795821],[90.325343,23.795896],[90.324885,23.795819],[90.324887,23.795806],[90.324946,23.795458],[90.324962,23.795382],[90.325127,23.795402],[90.325458,23.795436],[90.325606,23.795436],[90.325464,23.795567],[90.325375,23.795821]]]}},{"type":"Feature","properties":{"survey":"bds","sheet":"096","dag":"48503","label_bn":"48503","area_sqm":500.5},"geometry":{"type":"Polygon","coordinates":[[[90.322916,23.795837],[90.322889,23.795932],[90.322812,23.795877],[90.322723,23.795825],[90.322736,23.795769],[90.322778,23.795589],[90.322802,23.795607],[90.322922,23.795702],[90.322951,23.795733],[90.322933,23.795782],[90.322916,23.795837]]]}},{"type":"Feature","properties":{"survey":"bds","sheet":"096","dag":"48519","label_bn":"48519","area_sqm":2570.8},"geometry":{"type":"Polygon","coordinates":[[[90.325002,23.796229],[90.325031,23.796534],[90.324754,23.796491],[90.324638,23.796488],[90.324252,23.796498],[90.324237,23.796498],[90.324356,23.796146],[90.324649,23.796181],[90.325002,23.796229]]]}},{"type":"Feature","properties":{"survey":"bds","sheet":"096","dag":"48502","label_bn":"48502","area_sqm":9957.5},"geometry":{"type":"Polygon","coordinates":[[[90.322769,23.79634],[90.322701,23.796538],[90.322624,23.796524],[90.321769,23.796396],[90.321832,23.795915],[90.321856,23.795827],[90.321875,23.795801],[90.321935,23.795747],[90.322128,23.7956],[90.322307,23.795515],[90.322494,23.795434],[90.322633,23.795496],[90.322716,23.795542],[90.322778,23.795589],[90.322736,23.795769],[90.322723,23.795825],[90.322812,23.795877],[90.322889,23.795932],[90.322876,23.795978],[90.322847,23.796097],[90.322769,23.79634]]]}},{"type":"Feature","properties":{"survey":"bds","sheet":"096","dag":"48520","label_bn":"48520","area_sqm":7723.1},"geometry":{"type":"Polygon","coordinates":[[[90.325528,23.796568],[90.325514,23.796624],[90.325255,23.796598],[90.325031,23.796534],[90.325002,23.796229],[90.324649,23.796181],[90.324356,23.796146],[90.324506,23.795782],[90.324712,23.795821],[90.324805,23.795819],[90.324887,23.795806],[90.324885,23.795819],[90.325343,23.795896],[90.325375,23.795821],[90.325501,23.795835],[90.32578,23.796014],[90.325751,23.796098],[90.325636,23.796286],[90.325593,23.79632],[90.325578,23.796406],[90.325542,23.796511],[90.325528,23.796568]]]}},{"type":"Feature","properties":{"survey":"bds","sheet":"096","dag":"48518","label_bn":"48518","area_sqm":2038.1},"geometry":{"type":"Polygon","coordinates":[[[90.326022,23.796671],[90.32598,23.7967],[90.32575,23.796672],[90.325514,23.796624],[90.325528,23.796568],[90.325542,23.796511],[90.325578,23.796406],[90.325593,23.79632],[90.325636,23.796286],[90.326137,23.796403],[90.326045,23.796654],[90.326022,23.796671]]]}},{"type":"Feature","properties":{"survey":"bds","sheet":"096","dag":"48517","label_bn":"48517","area_sqm":1078.7},"geometry":{"type":"Polygon","coordinates":[[[90.326471,23.796477],[90.326355,23.796751],[90.326045,23.796654],[90.326137,23.796403],[90.326231,23.796413],[90.326471,23.796477]]]}},{"type":"Feature","properties":{"survey":"bds","sheet":"096","dag":"48507","label_bn":"48507","area_sqm":2720.5},"geometry":{"type":"Polygon","coordinates":[[[90.322781,23.796622],[90.322801,23.796837],[90.322773,23.796827],[90.322731,23.796801],[90.322709,23.796791],[90.322684,23.796587],[90.322701,23.796538],[90.322769,23.79634],[90.322847,23.796097],[90.322876,23.795978],[90.322889,23.795932],[90.322916,23.795837],[90.322933,23.795782],[90.322951,23.795733],[90.322922,23.795702],[90.322802,23.795607],[90.322778,23.795589],[90.322716,23.795542],[90.322633,23.795496],[90.322494,23.795434],[90.32242,23.795407],[90.322367,23.795385],[90.322363,23.795382],[90.322358,23.795379],[90.322204,23.795292],[90.32204,23.795196],[90.321959,23.795136],[90.321962,23.795123],[90.321987,23.795005],[90.322063,23.794822],[90.322107,23.794697],[90.322174,23.794645],[90.322216,23.794612],[90.322225,23.794612],[90.322349,23.794608],[90.322298,23.794636],[90.322195,23.794693],[90.322164,23.794711],[90.322149,23.794749],[90.32213,23.794833],[90.322119,23.794914],[90.322117,23.794929],[90.3221,23.795032],[90.322094,23.795087],[90.322086,23.795145],[90.322179,23.795196],[90.322268,23.79524],[90.322338,23.795271],[90.322382,23.795291],[90.322486,23.795338],[90.322513,23.795346],[90.322594,23.795368],[90.322676,23.795392],[90.322723,23.795397],[90.322759,23.795396],[90.32276,23.795395],[90.322872,23.795537],[90.322964,23.795647],[90.322989,23.795683],[90.323003,23.795715],[90.323015,23.795753],[90.323006,23.795788],[90.323,23.795808],[90.322971,23.795903],[90.322942,23.796003],[90.322909,23.796093],[90.322883,23.796189],[90.322849,23.796324],[90.322801,23.796519],[90.322781,23.796622]]]}},{"type":"Feature","properties":{"survey":"bds","sheet":"096","dag":"48514","label_bn":"48514","area_sqm":21280.8},"geometry":{"type":"Polygon","coordinates":[[[90.322823,23.79682],[90.322801,23.796837],[90.322781,23.796622],[90.322801,23.796519],[90.322849,23.796324],[90.322883,23.796189],[90.322909,23.796093],[90.322942,23.796003],[90.322971,23.795903],[90.323,23.795808],[90.323006,23.795788],[90.323065,23.79579],[90.323308,23.795819],[90.323415,23.795466],[90.323494,23.795214],[90.323673,23.795179],[90.323744,23.795163],[90.323859,23.795137],[90.324099,23.795089],[90.324173,23.795077],[90.32424,23.795076],[90.324284,23.795079],[90.324363,23.795084],[90.324449,23.795099],[90.324606,23.795131],[90.324684,23.795141],[90.324595,23.795313],[90.32455,23.795448],[90.324552,23.795569],[90.324527,23.79568],[90.324506,23.795782],[90.324356,23.796146],[90.324237,23.796498],[90.323987,23.796501],[90.323797,23.796497],[90.323664,23.796489],[90.323657,23.796489],[90.323569,23.796487],[90.323441,23.796492],[90.323355,23.796504],[90.323218,23.796542],[90.323087,23.7966],[90.323029,23.796619],[90.322981,23.796659],[90.322885,23.796795],[90.322823,23.79682]]]}},{"type":"Feature","properties":{"survey":"bds","sheet":"096","dag":"48515","label_bn":"48515","area_sqm":314.4},"geometry":{"type":"Polygon","coordinates":[[[90.322615,23.797144],[90.322576,23.79719],[90.322587,23.797159],[90.322629,23.797071],[90.322659,23.797023],[90.322671,23.796989],[90.322697,23.79687],[90.322706,23.79682],[90.322709,23.796791],[90.322731,23.796801],[90.322773,23.796827],[90.322801,23.796837],[90.322823,23.79682],[90.322885,23.796795],[90.322799,23.796915],[90.322615,23.797144]]]}},{"type":"Feature","properties":{"survey":"bds","sheet":"096","dag":"48504","label_bn":"48504","area_sqm":1496.8},"geometry":{"type":"Polygon","coordinates":[[[90.321769,23.796396],[90.321647,23.797191],[90.321529,23.79715],[90.32157,23.797094],[90.321624,23.796836],[90.321717,23.796388],[90.321736,23.796252],[90.321763,23.795926],[90.321805,23.795814],[90.321822,23.795788],[90.32189,23.795734],[90.322356,23.795387],[90.322363,23.795382],[90.322367,23.795385],[90.32242,23.795407],[90.322494,23.795434],[90.322307,23.795515],[90.322128,23.7956],[90.321935,23.795747],[90.321875,23.795801],[90.321856,23.795827],[90.321832,23.795915],[90.321769,23.796396]]]}},{"type":"Feature","properties":{"survey":"bds","sheet":"096","dag":"48501","label_bn":"48501","area_sqm":10289.4},"geometry":{"type":"Polygon","coordinates":[[[90.32234,23.797439],[90.322274,23.797556],[90.32204,23.797451],[90.321488,23.797207],[90.321529,23.79715],[90.321647,23.797191],[90.321769,23.796396],[90.322624,23.796524],[90.322701,23.796538],[90.322684,23.796587],[90.322709,23.796791],[90.322706,23.79682],[90.322697,23.79687],[90.322671,23.796989],[90.322659,23.797023],[90.322629,23.797071],[90.322587,23.797159],[90.322576,23.79719],[90.322495,23.797284],[90.32234,23.797439]]]}},{"type":"Feature","properties":{"survey":"bds","sheet":"096","dag":"48516","label_bn":"48516","area_sqm":23428.7},"geometry":{"type":"Polygon","coordinates":[[[90.322872,23.797635],[90.322763,23.79779],[90.322274,23.797556],[90.32234,23.797439],[90.322495,23.797284],[90.322576,23.79719],[90.322615,23.797144],[90.322799,23.796915],[90.322885,23.796795],[90.322981,23.796659],[90.323029,23.796619],[90.323087,23.7966],[90.323218,23.796542],[90.323355,23.796504],[90.323441,23.796492],[90.323569,23.796487],[90.323657,23.796489],[90.323664,23.796489],[90.323797,23.796497],[90.323987,23.796501],[90.324237,23.796498],[90.324252,23.796498],[90.324638,23.796488],[90.324754,23.796491],[90.325031,23.796534],[90.325255,23.796598],[90.325514,23.796624],[90.32575,23.796672],[90.32598,23.7967],[90.326022,23.796671],[90.326045,23.796654],[90.326355,23.796751],[90.326362,23.796806],[90.326397,23.796877],[90.326291,23.797272],[90.325955,23.797178],[90.325665,23.797148],[90.324597,23.796939],[90.324079,23.79687],[90.3238,23.796891],[90.323609,23.796981],[90.323332,23.797102],[90.322872,23.797635]]]}}]}