{"type":"FeatureCollection","features":[{"type":"Feature","properties":{"survey":"bds","sheet":"097","dag":"49030","label_bn":"49030","area_sqm":714.7},"geometry":{"type":"Polygon","coordinates":[[[90.323748,23.790343],[90.32329,23.790425],[90.323295,23.790369],[90.323287,23.790249],[90.323378,23.790226],[90.323544,23.790203],[90.323617,23.79026],[90.323748,23.790343]]]}},{"type":"Feature","properties":{"survey":"bds","sheet":"097","dag":"49029","label_bn":"49029","area_sqm":494.8},"geometry":{"type":"Polygon","coordinates":[[[90.323466,23.790481],[90.323284,23.790518],[90.32329,23.790425],[90.323748,23.790343],[90.323837,23.790389],[90.323855,23.790401],[90.323833,23.790405],[90.323653,23.790441],[90.323521,23.79047],[90.323466,23.790481]]]}},{"type":"Feature","properties":{"survey":"bds","sheet":"097","dag":"49031","label_bn":"49031","area_sqm":55.4},"geometry":{"type":"Polygon","coordinates":[[[90.323915,23.790441],[90.324165,23.790577],[90.323991,23.79051],[90.3239,23.79046],[90.323906,23.790435],[90.323915,23.790441]]]}},{"type":"Feature","properties":{"survey":"bds","sheet":"097","dag":"49034","label_bn":"49034","area_sqm":30.9},"geometry":{"type":"Polygon","coordinates":[[[90.323751,23.790611],[90.323745,23.790623],[90.323729,23.790607],[90.323711,23.790593],[90.323809,23.790524],[90.323811,23.790528],[90.32378,23.790569],[90.323751,23.790611]]]}},{"type":"Feature","properties":{"survey":"bds","sheet":"097","dag":"49032","label_bn":"49032","area_sqm":286.6},"geometry":{"type":"Polygon","coordinates":[[[90.323966,23.790621],[90.323943,23.790721],[90.323917,23.790698],[90.323874,23.790632],[90.323811,23.790528],[90.323819,23.790518],[90.3239,23.79046],[90.323991,23.79051],[90.323974,23.790586],[90.323966,23.790621]]]}},{"type":"Feature","properties":{"survey":"bds","sheet":"097","dag":"49039","label_bn":"49039","area_sqm":33.6},"geometry":{"type":"Polygon","coordinates":[[[90.323983,23.790755],[90.324045,23.790802],[90.323932,23.790773],[90.323943,23.790721],[90.323983,23.790755]]]}},{"type":"Feature","properties":{"survey":"bds","sheet":"097","dag":"49033","label_bn":"49033","area_sqm":241.0},"geometry":{"type":"Polygon","coordinates":[[[90.323932,23.790773],[90.323923,23.79081],[90.323904,23.790793],[90.323869,23.790746],[90.323834,23.790715],[90.323745,23.790623],[90.323751,23.790611],[90.32378,23.790569],[90.323811,23.790528],[90.323874,23.790632],[90.323917,23.790698],[90.323943,23.790721],[90.323932,23.790773]]]}},{"type":"Feature","properties":{"survey":"bds","sheet":"097","dag":"49040","label_bn":"49040","area_sqm":1116.0},"geometry":{"type":"Polygon","coordinates":[[[90.324415,23.790707],[90.324325,23.790873],[90.324045,23.790802],[90.323983,23.790755],[90.323943,23.790721],[90.323966,23.790621],[90.323974,23.790586],[90.323991,23.79051],[90.324165,23.790577],[90.324205,23.790599],[90.324415,23.790707]]]}},{"type":"Feature","properties":{"survey":"bds","sheet":"097","dag":"49038","label_bn":"49038","area_sqm":107.6},"geometry":{"type":"Polygon","coordinates":[[[90.324325,23.790873],[90.324295,23.790927],[90.324224,23.790894],[90.324066,23.790818],[90.324045,23.790802],[90.324325,23.790873]]]}},{"type":"Feature","properties":{"survey":"bds","sheet":"097","dag":"49037","label_bn":"49037","area_sqm":371.6},"geometry":{"type":"Polygon","coordinates":[[[90.324295,23.790927],[90.324252,23.791006],[90.324112,23.790948],[90.324044,23.79091],[90.323955,23.790839],[90.323923,23.79081],[90.323932,23.790773],[90.324045,23.790802],[90.324066,23.790818],[90.324224,23.790894],[90.324295,23.790927]]]}},{"type":"Feature","properties":{"survey":"bds","sheet":"097","dag":"49028","label_bn":"49028","area_sqm":2640.9},"geometry":{"type":"Polygon","coordinates":[[[90.323663,23.790902],[90.323657,23.791042],[90.323386,23.79094],[90.323247,23.790899],[90.323265,23.790744],[90.323279,23.790583],[90.323284,23.790518],[90.323466,23.790481],[90.323521,23.79047],[90.323653,23.790441],[90.323833,23.790405],[90.323855,23.790401],[90.323906,23.790435],[90.3239,23.79046],[90.323819,23.790518],[90.323811,23.790528],[90.323809,23.790524],[90.323711,23.790593],[90.323729,23.790607],[90.323745,23.790623],[90.323681,23.790762],[90.323663,23.790902]]]}},{"type":"Feature","properties":{"survey":"bds","sheet":"097","dag":"49036","label_bn":"49036","area_sqm":536.1},"geometry":{"type":"Polygon","coordinates":[[[90.324252,23.791006],[90.324208,23.791087],[90.324087,23.79106],[90.323877,23.791012],[90.323923,23.79081],[90.323955,23.790839],[90.324044,23.79091],[90.324112,23.790948],[90.324252,23.791006]]]}},{"type":"Feature","properties":{"survey":"bds","sheet":"097","dag":"49035","label_bn":"49035","area_sqm":999.0},"geometry":{"type":"Polygon","coordinates":[[[90.323877,23.791012],[90.323868,23.791129],[90.323657,23.791042],[90.323663,23.790902],[90.323681,23.790762],[90.323745,23.790623],[90.323834,23.790715],[90.323869,23.790746],[90.323904,23.790793],[90.323923,23.79081],[90.323877,23.791012]]]}},{"type":"Feature","properties":{"survey":"bds","sheet":"097","dag":"49023","label_bn":"49023","area_sqm":241.4},"geometry":{"type":"Polygon","coordinates":[[[90.324087,23.79106],[90.324028,23.791159],[90.323868,23.791129],[90.323877,23.791012],[90.324087,23.79106]]]}},{"type":"Feature","properties":{"survey":"bds","sheet":"097","dag":"49041","label_bn":"49041","area_sqm":1805.9},"geometry":{"type":"Polygon","coordinates":[[[90.325076,23.791145],[90.324971,23.791259],[90.324845,23.791192],[90.324645,23.791086],[90.324425,23.790986],[90.324358,23.790956],[90.324295,23.790927],[90.324325,23.790873],[90.324415,23.790707],[90.324448,23.790724],[90.32469,23.790866],[90.324836,23.790959],[90.324986,23.791089],[90.325076,23.791145]]]}},{"type":"Feature","properties":{"survey":"bds","sheet":"097","dag":"49024","label_bn":"49024","area_sqm":215.5},"geometry":{"type":"Polygon","coordinates":[[[90.323904,23.791206],[90.323861,23.791267],[90.323759,23.791245],[90.323868,23.791129],[90.324028,23.791159],[90.323984,23.791232],[90.323904,23.791206]]]}},{"type":"Feature","properties":{"survey":"bds","sheet":"097","dag":"49025","label_bn":"49025","area_sqm":73.7},"geometry":{"type":"Polygon","coordinates":[[[90.323984,23.791232],[90.323961,23.791296],[90.323861,23.791267],[90.323904,23.791206],[90.323984,23.791232]]]}},{"type":"Feature","properties":{"survey":"bds","sheet":"097","dag":"49042","label_bn":"49042","area_sqm":730.1},"geometry":{"type":"Polygon","coordinates":[[[90.324971,23.791259],[90.324909,23.791326],[90.324893,23.791318],[90.324778,23.791257],[90.324711,23.791229],[90.324633,23.791182],[90.324504,23.791109],[90.324376,23.791055],[90.324333,23.791038],[90.324257,23.791008],[90.324252,23.791006],[90.324295,23.790927],[90.324358,23.790956],[90.324425,23.790986],[90.324645,23.791086],[90.324845,23.791192],[90.324971,23.791259]]]}},{"type":"Feature","properties":{"survey":"bds","sheet":"097","dag":"49047","label_bn":"49047","area_sqm":224.1},"geometry":{"type":"Polygon","coordinates":[[[90.325138,23.791316],[90.325121,23.791338],[90.324994,23.791272],[90.324977,23.791263],[90.324971,23.791259],[90.325076,23.791145],[90.325151,23.791192],[90.325138,23.791316]]]}},{"type":"Feature","properties":{"survey":"bds","sheet":"097","dag":"49022","label_bn":"49022","area_sqm":575.8},"geometry":{"type":"Polygon","coordinates":[[[90.324208,23.791087],[90.324115,23.7914],[90.323947,23.791343],[90.323961,23.791296],[90.323984,23.791232],[90.324028,23.791159],[90.324087,23.79106],[90.324208,23.791087]]]}},{"type":"Feature","properties":{"survey":"bds","sheet":"097","dag":"49046","label_bn":"49046","area_sqm":173.8},"geometry":{"type":"Polygon","coordinates":[[[90.325121,23.791338],[90.325065,23.791408],[90.325016,23.791383],[90.32493,23.791337],[90.324909,23.791326],[90.324971,23.791259],[90.324977,23.791263],[90.324994,23.791272],[90.325121,23.791338]]]}},{"type":"Feature","properties":{"survey":"bds","sheet":"097","dag":"49027","label_bn":"49027","area_sqm":1682.6},"geometry":{"type":"Polygon","coordinates":[[[90.323759,23.791245],[90.323683,23.791442],[90.323394,23.791317],[90.323357,23.791312],[90.323386,23.79094],[90.323657,23.791042],[90.323868,23.791129],[90.323759,23.791245]]]}},{"type":"Feature","properties":{"survey":"bds","sheet":"097","dag":"49045","label_bn":"49045","area_sqm":248.6},"geometry":{"type":"Polygon","coordinates":[[[90.325065,23.791408],[90.324983,23.791512],[90.324831,23.79141],[90.324909,23.791326],[90.32493,23.791337],[90.325016,23.791383],[90.325065,23.791408]]]}},{"type":"Feature","properties":{"survey":"bds","sheet":"097","dag":"49026","label_bn":"49026","area_sqm":563.4},"geometry":{"type":"Polygon","coordinates":[[[90.323947,23.791343],[90.323884,23.791533],[90.323683,23.791442],[90.323759,23.791245],[90.323861,23.791267],[90.323961,23.791296],[90.323947,23.791343]]]}},{"type":"Feature","properties":{"survey":"bds","sheet":"097","dag":"49021","label_bn":"49021","area_sqm":443.6},"geometry":{"type":"Polygon","coordinates":[[[90.324162,23.791428],[90.324084,23.791566],[90.323884,23.791533],[90.323947,23.791343],[90.324115,23.7914],[90.324162,23.791428]]]}},{"type":"Feature","properties":{"survey":"bds","sheet":"097","dag":"49020","label_bn":"49020","area_sqm":205.3},"geometry":{"type":"Polygon","coordinates":[[[90.32427,23.791471],[90.324233,23.791586],[90.324084,23.791566],[90.324162,23.791428],[90.32427,23.791471]]]}},{"type":"Feature","properties":{"survey":"bds","sheet":"097","dag":"49043","label_bn":"49043","area_sqm":3097.5},"geometry":{"type":"Polygon","coordinates":[[[90.324831,23.79141],[90.324664,23.791634],[90.324538,23.791583],[90.324534,23.791581],[90.32427,23.791471],[90.324162,23.791428],[90.324115,23.7914],[90.324208,23.791087],[90.324252,23.791006],[90.324257,23.791008],[90.324333,23.791038],[90.324376,23.791055],[90.324504,23.791109],[90.324633,23.791182],[90.324711,23.791229],[90.324778,23.791257],[90.324893,23.791318],[90.324909,23.791326],[90.324831,23.79141]]]}},{"type":"Feature","properties":{"survey":"bds","sheet":"097","dag":"49019","label_bn":"49019","area_sqm":1917.7},"geometry":{"type":"Polygon","coordinates":[[[90.324538,23.791583],[90.324456,23.791947],[90.324066,23.791932],[90.324084,23.791566],[90.324233,23.791586],[90.32427,23.791471],[90.324534,23.791581],[90.324538,23.791583]]]}},{"type":"Feature","properties":{"survey":"bds","sheet":"097","dag":"49018","label_bn":"49018","area_sqm":528.5},"geometry":{"type":"Polygon","coordinates":[[[90.324664,23.791634],[90.324591,23.79195],[90.32451,23.791949],[90.324456,23.791947],[90.324538,23.791583],[90.324664,23.791634]]]}},{"type":"Feature","properties":{"survey":"bds","sheet":"097","dag":"49015","label_bn":"49015","area_sqm":76.7},"geometry":{"type":"Polygon","coordinates":[[[90.32394,23.791917],[90.323863,23.791954],[90.323821,23.791887],[90.323899,23.791849],[90.32394,23.791917]]]}},{"type":"Feature","properties":{"survey":"bds","sheet":"097","dag":"49044","label_bn":"49044","area_sqm":1086.5},"geometry":{"type":"Polygon","coordinates":[[[90.32473,23.791893],[90.324649,23.792018],[90.324646,23.792013],[90.324591,23.79195],[90.324664,23.791634],[90.324831,23.79141],[90.324983,23.791512],[90.324939,23.791567],[90.32473,23.791893]]]}},{"type":"Feature","properties":{"survey":"bds","sheet":"097","dag":"49016","label_bn":"49016","area_sqm":1168.3},"geometry":{"type":"Polygon","coordinates":[[[90.32451,23.791949],[90.324507,23.792195],[90.324067,23.792153],[90.324066,23.791932],[90.324456,23.791947],[90.32451,23.791949]]]}},{"type":"Feature","properties":{"survey":"bds","sheet":"097","dag":"49017","label_bn":"49017","area_sqm":256.9},"geometry":{"type":"Polygon","coordinates":[[[90.324649,23.792018],[90.324534,23.792198],[90.324507,23.792195],[90.32451,23.791949],[90.324591,23.79195],[90.324646,23.792013],[90.324649,23.792018]]]}},{"type":"Feature","properties":{"survey":"bds","sheet":"097","dag":"49013","label_bn":"49013","area_sqm":6078.7},"geometry":{"type":"Polygon","coordinates":[[[90.323357,23.791312],[90.323352,23.792284],[90.322753,23.792235],[90.322779,23.791547],[90.32285,23.791431],[90.322886,23.791386],[90.322919,23.791351],[90.323002,23.791356],[90.323004,23.791299],[90.323357,23.791312]]]}},{"type":"Feature","properties":{"survey":"bds","sheet":"097","dag":"49014","label_bn":"49014","area_sqm":6056.7},"geometry":{"type":"Polygon","coordinates":[[[90.323629,23.792214],[90.323673,23.792306],[90.323427,23.792278],[90.323352,23.792284],[90.323357,23.791312],[90.323394,23.791317],[90.323683,23.791442],[90.323884,23.791533],[90.324084,23.791566],[90.324066,23.791932],[90.324067,23.792153],[90.323942,23.792141],[90.323641,23.792112],[90.323629,23.792214]]]}},{"type":"Feature","properties":{"survey":"bds","sheet":"097","dag":"49012","label_bn":"49012","area_sqm":7556.1},"geometry":{"type":"Polygon","coordinates":[[[90.32343,23.792868],[90.323409,23.793008],[90.323277,23.792984],[90.323279,23.792943],[90.323252,23.79282],[90.322721,23.792828],[90.322753,23.792235],[90.323352,23.792284],[90.323427,23.792278],[90.323673,23.792306],[90.323744,23.792451],[90.323839,23.792686],[90.323881,23.792702],[90.323921,23.792717],[90.323976,23.792737],[90.324074,23.792799],[90.324213,23.792926],[90.32427,23.792906],[90.324275,23.792958],[90.324241,23.792953],[90.32415,23.792963],[90.324068,23.792934],[90.323997,23.792893],[90.323899,23.792854],[90.32343,23.792868]]]}},{"type":"Feature","properties":{"survey":"bds","sheet":"097","dag":"49011","label_bn":"49011","area_sqm":3078.2},"geometry":{"type":"Polygon","coordinates":[[[90.323409,23.793008],[90.323361,23.793305],[90.323272,23.793295],[90.323082,23.793273],[90.322746,23.793236],[90.322721,23.792828],[90.323252,23.79282],[90.323279,23.792943],[90.323277,23.792984],[90.323409,23.793008]]]}},{"type":"Feature","properties":{"survey":"bds","sheet":"097","dag":"49009","label_bn":"49009","area_sqm":679.6},"geometry":{"type":"Polygon","coordinates":[[[90.323272,23.793295],[90.323195,23.793635],[90.323046,23.793631],[90.323082,23.793273],[90.323272,23.793295]]]}},{"type":"Feature","properties":{"survey":"bds","sheet":"097","dag":"49010","label_bn":"49010","area_sqm":1324.5},"geometry":{"type":"Polygon","coordinates":[[[90.323046,23.793631],[90.322769,23.79364],[90.322746,23.793236],[90.323082,23.793273],[90.323046,23.793631]]]}},{"type":"Feature","properties":{"survey":"bds","sheet":"097","dag":"49008","label_bn":"49008","area_sqm":9940.6},"geometry":{"type":"Polygon","coordinates":[[[90.32448,23.7937],[90.324439,23.793802],[90.323819,23.793703],[90.323617,23.793695],[90.323195,23.793635],[90.323272,23.793295],[90.323361,23.793305],[90.323409,23.793008],[90.32343,23.792868],[90.323899,23.792854],[90.323997,23.792893],[90.324068,23.792934],[90.32415,23.792963],[90.324241,23.792953],[90.324275,23.792958],[90.32427,23.792906],[90.324379,23.792866],[90.32436,23.793101],[90.324366,23.793594],[90.324384,23.793659],[90.32448,23.7937]]]}},{"type":"Feature","properties":{"survey":"bds","sheet":"097","dag":"49007","label_bn":"49007","area_sqm":15760.9},"geometry":{"type":"Polygon","coordinates":[[[90.325393,23.793931],[90.324931,23.79395],[90.324423,23.793927],[90.324439,23.793802],[90.32448,23.7937],[90.324384,23.793659],[90.324366,23.793594],[90.32436,23.793101],[90.324379,23.792866],[90.324381,23.792865],[90.324528,23.792827],[90.324691,23.792846],[90.324795,23.792664],[90.324891,23.792607],[90.324987,23.792703],[90.325059,23.792705],[90.325205,23.792709],[90.325284,23.792686],[90.325403,23.792622],[90.325457,23.792589],[90.325507,23.792559],[90.325543,23.79273],[90.325547,23.792766],[90.32554,23.79312],[90.325547,23.79327],[90.325542,23.793338],[90.325463,23.793486],[90.32548,23.793616],[90.325479,23.793664],[90.325502,23.793703],[90.325523,23.793801],[90.325558,23.793937],[90.32551,23.793936],[90.325393,23.793931]]]}},{"type":"Feature","properties":{"survey":"bds","sheet":"097","dag":"49006","label_bn":"49006","area_sqm":34.4},"geometry":{"type":"Polygon","coordinates":[[[90.32533,23.794203],[90.325283,23.794231],[90.32525,23.794187],[90.325298,23.794159],[90.32533,23.794203]]]}},{"type":"Feature","properties":{"survey":"bds","sheet":"097","dag":"49005","label_bn":"49005","area_sqm":3838.0},"geometry":{"type":"Polygon","coordinates":[[[90.32533,23.794203],[90.325296,23.794308],[90.324381,23.794291],[90.324395,23.794157],[90.324423,23.793927],[90.324931,23.79395],[90.325393,23.793931],[90.32533,23.794203],[90.325298,23.794159],[90.32525,23.794187],[90.325283,23.794231],[90.32533,23.794203]]]}},{"type":"Feature","properties":{"survey":"bds","sheet":"097","dag":"49001","label_bn":"49001","area_sqm":989.1},"geometry":{"type":"Polygon","coordinates":[[[90.322641,23.794546],[90.322636,23.794546],[90.322637,23.794539],[90.322659,23.794129],[90.322695,23.794143],[90.322761,23.79417],[90.322862,23.794211],[90.322894,23.794228],[90.32292,23.794248],[90.322935,23.794266],[90.322943,23.794293],[90.322944,23.794341],[90.322939,23.794368],[90.322917,23.794411],[90.322886,23.79444],[90.322846,23.794463],[90.322786,23.794497],[90.32271,23.79453],[90.322641,23.794546]]]}},{"type":"Feature","properties":{"survey":"bds","sheet":"097","dag":"49002","label_bn":"49002","area_sqm":443.9},"geometry":{"type":"Polygon","coordinates":[[[90.322797,23.794529],[90.322631,23.794568],[90.322636,23.794546],[90.322641,23.794546],[90.32271,23.79453],[90.322786,23.794497],[90.322846,23.794463],[90.322886,23.79444],[90.322917,23.794411],[90.322939,23.794368],[90.322944,23.794341],[90.322943,23.794293],[90.322935,23.794266],[90.32292,23.794248],[90.322894,23.794228],[90.322862,23.794211],[90.322761,23.79417],[90.322695,23.794143],[90.322659,23.794129],[90.322664,23.794047],[90.322666,23.794039],[90.322685,23.794047],[90.322722,23.794068],[90.322773,23.794108],[90.322872,23.794169],[90.322916,23.794197],[90.322948,23.79421],[90.322951,23.794211],[90.322968,23.794227],[90.322982,23.794253],[90.322988,23.794292],[90.322991,23.79434],[90.322982,23.794369],[90.322952,23.794424],[90.322928,23.794467],[90.322895,23.794507],[90.322797,23.794529]]]}},{"type":"Feature","properties":{"survey":"bds","sheet":"097","dag":"49004","label_bn":"49004","area_sqm":3041.0},"geometry":{"type":"Polygon","coordinates":[[[90.325185,23.794652],[90.325175,23.794674],[90.324834,23.794606],[90.324624,23.794595],[90.324457,23.794587],[90.324415,23.794583],[90.324381,23.794291],[90.325296,23.794308],[90.325185,23.794652]]]}},{"type":"Feature","properties":{"survey":"bds","sheet":"097","dag":"49003","label_bn":"49003","area_sqm":16627.3},"geometry":{"type":"Polygon","coordinates":[[[90.323187,23.7947],[90.323138,23.794711],[90.323044,23.794633],[90.322993,23.794608],[90.322939,23.794497],[90.322895,23.794507],[90.322928,23.794467],[90.322952,23.794424],[90.322982,23.794369],[90.322991,23.79434],[90.322988,23.794292],[90.322982,23.794253],[90.322968,23.794227],[90.322951,23.794211],[90.322948,23.79421],[90.322916,23.794197],[90.322872,23.794169],[90.322773,23.794108],[90.322722,23.794068],[90.322685,23.794047],[90.322666,23.794039],[90.322769,23.79364],[90.323046,23.793631],[90.323195,23.793635],[90.323617,23.793695],[90.323819,23.793703],[90.324439,23.793802],[90.324423,23.793927],[90.324395,23.794157],[90.324381,23.794291],[90.324415,23.794583],[90.32327,23.794655],[90.323187,23.7947]]]}}]}