{"type":"FeatureCollection","features":[{"type":"Feature","properties":{"survey":"bds","sheet":"098","dag":"49540","label_bn":"49540","area_sqm":1422.9},"geometry":{"type":"Polygon","coordinates":[[[90.326655,23.792419],[90.326789,23.792611],[90.325821,23.792334],[90.325958,23.792224],[90.32606,23.792255],[90.326317,23.792324],[90.326602,23.792406],[90.326655,23.792419]]]}},{"type":"Feature","properties":{"survey":"bds","sheet":"098","dag":"49543","label_bn":"49543","area_sqm":3048.3},"geometry":{"type":"Polygon","coordinates":[[[90.327284,23.7927],[90.327195,23.79271],[90.327261,23.792458],[90.327358,23.792084],[90.327372,23.792086],[90.327442,23.792075],[90.327532,23.792037],[90.327588,23.792066],[90.327669,23.792098],[90.327729,23.792118],[90.327738,23.792136],[90.327747,23.792205],[90.327756,23.792383],[90.327749,23.79247],[90.327725,23.792671],[90.327486,23.792666],[90.327447,23.792627],[90.327429,23.792621],[90.327318,23.792621],[90.327284,23.7927]]]}},{"type":"Feature","properties":{"survey":"bds","sheet":"098","dag":"49542","label_bn":"49542","area_sqm":745.6},"geometry":{"type":"Polygon","coordinates":[[[90.327055,23.792727],[90.327011,23.792734],[90.327005,23.792698],[90.326991,23.792594],[90.326977,23.79257],[90.326982,23.792511],[90.327,23.792439],[90.327163,23.792443],[90.327219,23.79245],[90.327261,23.792458],[90.327195,23.79271],[90.327055,23.792727]]]}},{"type":"Feature","properties":{"survey":"bds","sheet":"098","dag":"49541","label_bn":"49541","area_sqm":3639.0},"geometry":{"type":"Polygon","coordinates":[[[90.326879,23.792755],[90.326807,23.792763],[90.326778,23.792691],[90.326805,23.792634],[90.326789,23.792611],[90.326655,23.792419],[90.326664,23.792403],[90.326691,23.792353],[90.326763,23.792217],[90.326808,23.792101],[90.326849,23.791977],[90.326866,23.791908],[90.326945,23.79191],[90.326979,23.791941],[90.327017,23.791971],[90.327114,23.792036],[90.327288,23.792075],[90.327358,23.792084],[90.327261,23.792458],[90.327219,23.79245],[90.327163,23.792443],[90.327,23.792439],[90.326982,23.792511],[90.326977,23.79257],[90.326991,23.792594],[90.327005,23.792698],[90.327011,23.792734],[90.326879,23.792755]]]}},{"type":"Feature","properties":{"survey":"bds","sheet":"098","dag":"49533","label_bn":"49533","area_sqm":1716.6},"geometry":{"type":"Polygon","coordinates":[[[90.327156,23.79306],[90.326973,23.793206],[90.326863,23.793171],[90.326817,23.793151],[90.326823,23.792999],[90.326823,23.792984],[90.326835,23.792947],[90.326852,23.792889],[90.326869,23.792834],[90.326877,23.792798],[90.326879,23.792755],[90.327011,23.792734],[90.327055,23.792727],[90.327195,23.79271],[90.327284,23.7927],[90.327232,23.792825],[90.327192,23.792928],[90.327156,23.793044],[90.327156,23.79306]]]}},{"type":"Feature","properties":{"survey":"bds","sheet":"098","dag":"49539","label_bn":"49539","area_sqm":7079.2},"geometry":{"type":"Polygon","coordinates":[[[90.326199,23.793191],[90.326063,23.793206],[90.326056,23.793156],[90.326107,23.793078],[90.326051,23.793011],[90.325997,23.792946],[90.325889,23.792811],[90.325776,23.792682],[90.325669,23.792558],[90.32562,23.792484],[90.32565,23.792465],[90.325691,23.792438],[90.325789,23.792359],[90.325803,23.792348],[90.325821,23.792334],[90.326789,23.792611],[90.326805,23.792634],[90.326778,23.792691],[90.326807,23.792763],[90.326879,23.792755],[90.326877,23.792798],[90.326869,23.792834],[90.326852,23.792889],[90.326835,23.792947],[90.326823,23.792984],[90.326823,23.792999],[90.326712,23.793038],[90.326572,23.793082],[90.326453,23.793119],[90.326397,23.793133],[90.326315,23.793161],[90.326199,23.793191]]]}},{"type":"Feature","properties":{"survey":"bds","sheet":"098","dag":"49532","label_bn":"49532","area_sqm":475.3},"geometry":{"type":"Polygon","coordinates":[[[90.327294,23.793151],[90.327194,23.793318],[90.327172,23.793307],[90.327154,23.793298],[90.326973,23.793206],[90.327156,23.79306],[90.327156,23.793064],[90.327196,23.793089],[90.32726,23.793136],[90.327294,23.793151]]]}},{"type":"Feature","properties":{"survey":"bds","sheet":"098","dag":"49536","label_bn":"49536","area_sqm":71.5},"geometry":{"type":"Polygon","coordinates":[[[90.326092,23.793368],[90.326044,23.793491],[90.326026,23.793452],[90.326022,23.793348],[90.326062,23.79334],[90.326092,23.793368],[90.326092,23.793368]]]}},{"type":"Feature","properties":{"survey":"bds","sheet":"098","dag":"49538","label_bn":"49538","area_sqm":3613.1},"geometry":{"type":"Polygon","coordinates":[[[90.325483,23.793536],[90.325471,23.793545],[90.325463,23.793486],[90.325542,23.793338],[90.325547,23.79327],[90.32554,23.79312],[90.325547,23.792766],[90.325543,23.79273],[90.325507,23.792559],[90.32562,23.792484],[90.325669,23.792558],[90.325776,23.792682],[90.325889,23.792811],[90.325997,23.792946],[90.326051,23.793011],[90.326045,23.793011],[90.326001,23.793012],[90.325959,23.793105],[90.325904,23.793213],[90.32585,23.793316],[90.325825,23.793374],[90.325791,23.793416],[90.325569,23.793493],[90.325507,23.793516],[90.325483,23.793536]]]}},{"type":"Feature","properties":{"survey":"bds","sheet":"098","dag":"49535","label_bn":"49535","area_sqm":280.0},"geometry":{"type":"Polygon","coordinates":[[[90.326276,23.793438],[90.326211,23.793554],[90.326044,23.793491],[90.326092,23.793368],[90.326092,23.793368],[90.326276,23.793438]]]}},{"type":"Feature","properties":{"survey":"bds","sheet":"098","dag":"49534","label_bn":"49534","area_sqm":2722.7},"geometry":{"type":"Polygon","coordinates":[[[90.326863,23.793171],[90.326526,23.793574],[90.326448,23.79353],[90.326276,23.793438],[90.326092,23.793368],[90.326062,23.79334],[90.326069,23.793245],[90.326063,23.793206],[90.326199,23.793191],[90.326315,23.793161],[90.326397,23.793133],[90.326453,23.793119],[90.326572,23.793082],[90.326712,23.793038],[90.326823,23.792999],[90.326817,23.793151],[90.326863,23.793171]]]}},{"type":"Feature","properties":{"survey":"bds","sheet":"098","dag":"49537","label_bn":"49537","area_sqm":1586.1},"geometry":{"type":"Polygon","coordinates":[[[90.325498,23.79365],[90.325479,23.793653],[90.32548,23.793616],[90.325471,23.793545],[90.325483,23.793536],[90.325507,23.793516],[90.325569,23.793493],[90.325791,23.793416],[90.325825,23.793374],[90.32585,23.793316],[90.325904,23.793213],[90.325959,23.793105],[90.326001,23.793012],[90.326045,23.793011],[90.326051,23.793011],[90.326107,23.793078],[90.326056,23.793156],[90.326063,23.793206],[90.326069,23.793245],[90.326062,23.79334],[90.326022,23.793348],[90.326026,23.793452],[90.325976,23.793479],[90.325941,23.793506],[90.325898,23.793535],[90.325816,23.793576],[90.32576,23.793604],[90.325717,23.793622],[90.325669,23.79363],[90.325498,23.79365]]]}},{"type":"Feature","properties":{"survey":"bds","sheet":"098","dag":"49526","label_bn":"49526","area_sqm":163.8},"geometry":{"type":"Polygon","coordinates":[[[90.326526,23.793574],[90.32643,23.793708],[90.326354,23.793664],[90.326448,23.79353],[90.326526,23.793574]]]}},{"type":"Feature","properties":{"survey":"bds","sheet":"098","dag":"49525","label_bn":"49525","area_sqm":541.1},"geometry":{"type":"Polygon","coordinates":[[[90.326354,23.793664],[90.326295,23.793748],[90.32615,23.793669],[90.326211,23.793554],[90.326276,23.793438],[90.326448,23.79353],[90.326354,23.793664]]]}},{"type":"Feature","properties":{"survey":"bds","sheet":"098","dag":"49523","label_bn":"49523","area_sqm":408.0},"geometry":{"type":"Polygon","coordinates":[[[90.325856,23.793922],[90.325629,23.793933],[90.325622,23.79384],[90.326018,23.793822],[90.326012,23.793914],[90.325856,23.793922]]]}},{"type":"Feature","properties":{"survey":"bds","sheet":"098","dag":"49524","label_bn":"49524","area_sqm":1965.3},"geometry":{"type":"Polygon","coordinates":[[[90.325629,23.793933],[90.325558,23.793937],[90.325523,23.793801],[90.325502,23.793703],[90.325479,23.793664],[90.325479,23.793653],[90.325498,23.79365],[90.325669,23.79363],[90.325717,23.793622],[90.32576,23.793604],[90.325816,23.793576],[90.325898,23.793535],[90.325941,23.793506],[90.325976,23.793479],[90.326026,23.793452],[90.326044,23.793491],[90.326211,23.793554],[90.32615,23.793669],[90.326099,23.793753],[90.326018,23.793822],[90.325622,23.79384],[90.325629,23.793933]]]}},{"type":"Feature","properties":{"survey":"bds","sheet":"098","dag":"49527","label_bn":"49527","area_sqm":808.0},"geometry":{"type":"Polygon","coordinates":[[[90.326282,23.793921],[90.326258,23.793955],[90.326252,23.793954],[90.326012,23.793914],[90.326018,23.793822],[90.326099,23.793753],[90.32615,23.793669],[90.326295,23.793748],[90.326354,23.793664],[90.32643,23.793708],[90.326282,23.793921]]]}},{"type":"Feature","properties":{"survey":"bds","sheet":"098","dag":"49531","label_bn":"49531","area_sqm":2882.8},"geometry":{"type":"Polygon","coordinates":[[[90.32698,23.793812],[90.326946,23.793988],[90.326523,23.793791],[90.326491,23.793776],[90.326637,23.793603],[90.326699,23.793528],[90.326825,23.79339],[90.326894,23.793319],[90.326973,23.793206],[90.327154,23.793298],[90.327172,23.793307],[90.327194,23.793318],[90.327177,23.793345],[90.327127,23.79344],[90.327082,23.793556],[90.327039,23.793693],[90.32702,23.793732],[90.32698,23.793812]]]}},{"type":"Feature","properties":{"survey":"bds","sheet":"098","dag":"49522","label_bn":"49522","area_sqm":122.0},"geometry":{"type":"Polygon","coordinates":[[[90.326007,23.793984],[90.325851,23.793991],[90.325851,23.793991],[90.325856,23.793922],[90.326012,23.793914],[90.326007,23.793983],[90.326007,23.793984]]]}},{"type":"Feature","properties":{"survey":"bds","sheet":"098","dag":"49521","label_bn":"49521","area_sqm":406.4},"geometry":{"type":"Polygon","coordinates":[[[90.32599,23.794215],[90.325835,23.794223],[90.325851,23.793991],[90.326007,23.793984],[90.32599,23.794215]]]}},{"type":"Feature","properties":{"survey":"bds","sheet":"098","dag":"49528","label_bn":"49528","area_sqm":700.4},"geometry":{"type":"Polygon","coordinates":[[[90.326258,23.793955],[90.326056,23.794319],[90.326034,23.794308],[90.326006,23.794288],[90.32599,23.794215],[90.326007,23.793984],[90.326007,23.793983],[90.326012,23.793914],[90.326252,23.793954],[90.326258,23.793955]]]}},{"type":"Feature","properties":{"survey":"bds","sheet":"098","dag":"49529","label_bn":"49529","area_sqm":1446.7},"geometry":{"type":"Polygon","coordinates":[[[90.326075,23.794325],[90.326053,23.794326],[90.326056,23.794319],[90.326258,23.793955],[90.326282,23.793921],[90.32643,23.793708],[90.326526,23.793574],[90.326863,23.793171],[90.326973,23.793206],[90.326894,23.793319],[90.326825,23.79339],[90.326699,23.793528],[90.326637,23.793603],[90.326491,23.793776],[90.326285,23.794043],[90.326234,23.794139],[90.326135,23.794323],[90.326075,23.794325]]]}},{"type":"Feature","properties":{"survey":"bds","sheet":"098","dag":"49530","label_bn":"49530","area_sqm":3708.1},"geometry":{"type":"Polygon","coordinates":[[[90.326786,23.794376],[90.326522,23.79438],[90.326249,23.794379],[90.326217,23.794379],[90.326135,23.794323],[90.326234,23.794139],[90.326285,23.794043],[90.326491,23.793776],[90.326523,23.793791],[90.326946,23.793988],[90.326943,23.794],[90.326926,23.794174],[90.326837,23.794282],[90.326794,23.794333],[90.326786,23.794376]]]}},{"type":"Feature","properties":{"survey":"bds","sheet":"098","dag":"49520","label_bn":"49520","area_sqm":5396.8},"geometry":{"type":"Polygon","coordinates":[[[90.325906,23.794699],[90.325818,23.794705],[90.325449,23.794669],[90.325185,23.794652],[90.32533,23.794203],[90.325393,23.793931],[90.32551,23.793936],[90.325558,23.793937],[90.325629,23.793933],[90.325856,23.793922],[90.325851,23.793991],[90.325851,23.793991],[90.325835,23.794223],[90.32599,23.794215],[90.326006,23.794288],[90.326034,23.794308],[90.326056,23.794319],[90.326053,23.794326],[90.326075,23.794325],[90.326031,23.794395],[90.325988,23.794468],[90.325937,23.794558],[90.325903,23.794628],[90.325905,23.794686],[90.325906,23.794699]]]}},{"type":"Feature","properties":{"survey":"bds","sheet":"098","dag":"49517","label_bn":"49517","area_sqm":1316.1},"geometry":{"type":"Polygon","coordinates":[[[90.327105,23.794638],[90.327062,23.794813],[90.326815,23.794721],[90.326675,23.794672],[90.326717,23.794593],[90.326741,23.79453],[90.326778,23.794422],[90.327035,23.794467],[90.327138,23.794479],[90.327105,23.794638]]]}},{"type":"Feature","properties":{"survey":"bds","sheet":"098","dag":"49519","label_bn":"49519","area_sqm":1319.3},"geometry":{"type":"Polygon","coordinates":[[[90.325933,23.794877],[90.325939,23.794889],[90.325539,23.794856],[90.325338,23.794836],[90.325347,23.794772],[90.325182,23.794716],[90.325175,23.794674],[90.325185,23.794652],[90.325449,23.794669],[90.325818,23.794705],[90.325906,23.794699],[90.325915,23.79479],[90.325925,23.794845],[90.325933,23.794877]]]}},{"type":"Feature","properties":{"survey":"bds","sheet":"098","dag":"49518","label_bn":"49518","area_sqm":4770.5},"geometry":{"type":"Polygon","coordinates":[[[90.326514,23.794918],[90.326457,23.794998],[90.326386,23.794994],[90.326289,23.794976],[90.326242,23.794967],[90.326077,23.79492],[90.325982,23.794899],[90.325952,23.794894],[90.325939,23.794889],[90.325933,23.794877],[90.325925,23.794845],[90.325915,23.79479],[90.325906,23.794699],[90.325905,23.794686],[90.325903,23.794628],[90.325937,23.794558],[90.325988,23.794468],[90.326031,23.794395],[90.326075,23.794325],[90.326135,23.794323],[90.326217,23.794379],[90.326249,23.794379],[90.326522,23.79438],[90.326786,23.794376],[90.326786,23.794381],[90.326778,23.794422],[90.326741,23.79453],[90.326717,23.794593],[90.326675,23.794672],[90.326606,23.794782],[90.326514,23.794918]]]}},{"type":"Feature","properties":{"survey":"bds","sheet":"098","dag":"49516","label_bn":"49516","area_sqm":2232.1},"geometry":{"type":"Polygon","coordinates":[[[90.326441,23.795198],[90.326293,23.795201],[90.326364,23.795112],[90.326457,23.794998],[90.326514,23.794918],[90.326606,23.794782],[90.326675,23.794672],[90.326815,23.794721],[90.327062,23.794813],[90.32706,23.79482],[90.327053,23.794844],[90.326852,23.794985],[90.326785,23.795058],[90.326789,23.795148],[90.326813,23.795167],[90.32684,23.795183],[90.326673,23.795182],[90.326441,23.795198]]]}},{"type":"Feature","properties":{"survey":"bds","sheet":"098","dag":"49515","label_bn":"49515","area_sqm":3156.2},"geometry":{"type":"Polygon","coordinates":[[[90.326199,23.795316],[90.326147,23.795382],[90.325853,23.795271],[90.325775,23.795206],[90.325629,23.795125],[90.325575,23.795029],[90.325522,23.794916],[90.325539,23.794856],[90.325939,23.794889],[90.325952,23.794894],[90.325982,23.794899],[90.326077,23.79492],[90.326242,23.794967],[90.326289,23.794976],[90.326386,23.794994],[90.326457,23.794998],[90.326364,23.795112],[90.326293,23.795201],[90.326199,23.795316]]]}},{"type":"Feature","properties":{"survey":"bds","sheet":"098","dag":"49513","label_bn":"49513","area_sqm":4199.9},"geometry":{"type":"Polygon","coordinates":[[[90.326331,23.795903],[90.326312,23.795945],[90.325949,23.795778],[90.325971,23.795747],[90.325996,23.795696],[90.326026,23.795632],[90.326047,23.795576],[90.326077,23.795496],[90.326108,23.795437],[90.326143,23.795387],[90.326147,23.795382],[90.326199,23.795316],[90.326293,23.795201],[90.326441,23.795198],[90.326673,23.795182],[90.32684,23.795183],[90.326865,23.795197],[90.326937,23.795232],[90.326934,23.795372],[90.326754,23.795374],[90.326711,23.795377],[90.326692,23.795383],[90.326677,23.795396],[90.326638,23.795452],[90.326546,23.795589],[90.326457,23.795711],[90.326451,23.79572],[90.326352,23.795867],[90.326331,23.795903]]]}},{"type":"Feature","properties":{"survey":"bds","sheet":"098","dag":"49514","label_bn":"49514","area_sqm":3699.8},"geometry":{"type":"Polygon","coordinates":[[[90.325949,23.795778],[90.32578,23.796014],[90.325501,23.795835],[90.325375,23.795821],[90.325464,23.795567],[90.325606,23.795436],[90.325775,23.795206],[90.325853,23.795271],[90.326147,23.795382],[90.326143,23.795387],[90.326108,23.795437],[90.326077,23.795496],[90.326047,23.795576],[90.326026,23.795632],[90.325996,23.795696],[90.325971,23.795747],[90.325949,23.795778]]]}},{"type":"Feature","properties":{"survey":"bds","sheet":"098","dag":"49510","label_bn":"49510","area_sqm":585.9},"geometry":{"type":"Polygon","coordinates":[[[90.327851,23.796248],[90.327717,23.796305],[90.3276,23.795856],[90.327662,23.79588],[90.32768,23.795895],[90.327726,23.795997],[90.327751,23.796051],[90.327813,23.796115],[90.327917,23.796203],[90.327851,23.796248]]]}},{"type":"Feature","properties":{"survey":"bds","sheet":"098","dag":"49512","label_bn":"49512","area_sqm":7799.1},"geometry":{"type":"Polygon","coordinates":[[[90.32735,23.796325],[90.327211,23.796356],[90.327179,23.796292],[90.327146,23.796253],[90.327087,23.796212],[90.327039,23.796193],[90.326962,23.796163],[90.326688,23.796057],[90.326684,23.796045],[90.326403,23.796013],[90.326312,23.795945],[90.326331,23.795903],[90.326352,23.795867],[90.326451,23.79572],[90.326457,23.795711],[90.326546,23.795589],[90.326638,23.795452],[90.326677,23.795396],[90.326692,23.795383],[90.326711,23.795377],[90.326754,23.795374],[90.326934,23.795372],[90.326934,23.7955],[90.326949,23.795534],[90.326973,23.795553],[90.327012,23.795559],[90.327063,23.795559],[90.327113,23.795569],[90.327175,23.795574],[90.327206,23.79555],[90.327305,23.795595],[90.327451,23.795655],[90.327593,23.795727],[90.327608,23.795745],[90.327599,23.795764],[90.327555,23.795838],[90.327501,23.795854],[90.327467,23.795974],[90.327467,23.796034],[90.327436,23.796123],[90.327386,23.796186],[90.32738,23.796259],[90.32735,23.796325]]]}},{"type":"Feature","properties":{"survey":"bds","sheet":"098","dag":"49511","label_bn":"49511","area_sqm":1278.7},"geometry":{"type":"Polygon","coordinates":[[[90.327469,23.796356],[90.327402,23.796358],[90.32735,23.796325],[90.32738,23.796259],[90.327386,23.796186],[90.327436,23.796123],[90.327467,23.796034],[90.327467,23.795974],[90.327501,23.795854],[90.327555,23.795838],[90.3276,23.795856],[90.327717,23.796305],[90.327637,23.796326],[90.327469,23.796356]]]}},{"type":"Feature","properties":{"survey":"bds","sheet":"098","dag":"49501","label_bn":"49501","area_sqm":3295.8},"geometry":{"type":"Polygon","coordinates":[[[90.326299,23.796219],[90.326231,23.796413],[90.326137,23.796403],[90.325636,23.796286],[90.325751,23.796098],[90.32578,23.796014],[90.325949,23.795778],[90.326312,23.795945],[90.326403,23.796013],[90.326299,23.796219]]]}},{"type":"Feature","properties":{"survey":"bds","sheet":"098","dag":"49509","label_bn":"49509","area_sqm":218.4},"geometry":{"type":"Polygon","coordinates":[[[90.328044,23.79631],[90.327983,23.796423],[90.327851,23.796248],[90.327917,23.796203],[90.327943,23.796226],[90.328044,23.79631]]]}},{"type":"Feature","properties":{"survey":"bds","sheet":"098","dag":"49508","label_bn":"49508","area_sqm":71.9},"geometry":{"type":"Polygon","coordinates":[[[90.328078,23.796339],[90.328022,23.796462],[90.327983,23.796423],[90.328044,23.79631],[90.328078,23.796339]]]}},{"type":"Feature","properties":{"survey":"bds","sheet":"098","dag":"49503","label_bn":"49503","area_sqm":1415.4},"geometry":{"type":"Polygon","coordinates":[[[90.326962,23.796163],[90.326907,23.796462],[90.326509,23.796424],[90.326571,23.796259],[90.326684,23.796045],[90.326688,23.796057],[90.326962,23.796163]]]}},{"type":"Feature","properties":{"survey":"bds","sheet":"098","dag":"49502","label_bn":"49502","area_sqm":1368.1},"geometry":{"type":"Polygon","coordinates":[[[90.326509,23.796424],[90.326471,23.796477],[90.326231,23.796413],[90.326299,23.796219],[90.326403,23.796013],[90.326684,23.796045],[90.326571,23.796259],[90.326509,23.796424]]]}},{"type":"Feature","properties":{"survey":"bds","sheet":"098","dag":"49507","label_bn":"49507","area_sqm":558.0},"geometry":{"type":"Polygon","coordinates":[[[90.327983,23.796423],[90.327712,23.796498],[90.327637,23.796326],[90.327717,23.796305],[90.327851,23.796248],[90.327983,23.796423]]]}},{"type":"Feature","properties":{"survey":"bds","sheet":"098","dag":"49504","label_bn":"49504","area_sqm":1136.0},"geometry":{"type":"Polygon","coordinates":[[[90.327235,23.796454],[90.327335,23.796557],[90.326905,23.796537],[90.326907,23.796462],[90.326962,23.796163],[90.327039,23.796193],[90.327087,23.796212],[90.327146,23.796253],[90.327179,23.796292],[90.327211,23.796356],[90.327235,23.796454]]]}},{"type":"Feature","properties":{"survey":"bds","sheet":"098","dag":"49506","label_bn":"49506","area_sqm":513.5},"geometry":{"type":"Polygon","coordinates":[[[90.327719,23.796544],[90.327541,23.796609],[90.327469,23.796356],[90.327637,23.796326],[90.327712,23.796498],[90.327719,23.796544]]]}},{"type":"Feature","properties":{"survey":"bds","sheet":"098","dag":"49505","label_bn":"49505","area_sqm":912.2},"geometry":{"type":"Polygon","coordinates":[[[90.327573,23.79668],[90.327428,23.796741],[90.327391,23.796694],[90.327366,23.796629],[90.327335,23.796557],[90.327235,23.796454],[90.327211,23.796356],[90.32735,23.796325],[90.327402,23.796358],[90.327469,23.796356],[90.327541,23.796609],[90.327573,23.79668]]]}}]}